{"type": "FeatureCollection", "features": [{"type": "Feature", "geometry": {"type": "Polygon", "coordinates": [[[120.0, -30.0], [120.0, -27.5], [122.5, -27.5], [122.5, -30.0], [120.0, -30.0]]]}, "properties": {"cell_id": "48_24", "lon": 121.25, "lat": -28.75}}, {"type": "Feature", "geometry": {"type": "Polygon", "coordinates": [[[120.0, -27.5], [120.0, -25.0], [122.5, -25.0], [122.5, -27.5], [120.0, -27.5]]]}, "properties": {"cell_id": "48_25", "lon": 121.25, "lat": -26.25}}, {"type": "Feature", "geometry": {"type": "Polygon", "coordinates": [[[120.0, -25.0], [120.0, -22.5], [122.5, -22.5], [122.5, -25.0], [120.0, -25.0]]]}, "properties": {"cell_id": "48_26", "lon": 121.25, "lat": -23.75}}, {"type": "Feature", "geometry": {"type": "Polygon", "coordinates": [[[120.0, -22.5], [120.0, -20.0], [122.5, -20.0], [122.5, -22.5], [120.0, -22.5]]]}, "properties": {"cell_id": "48_27", "lon": 121.25, "lat": -21.25}}, {"type": "Feature", "geometry": {"type": "Polygon", "coordinates": [[[122.5, -30.0], [122.5, -27.5], [125.0, -27.5], [125.0, -30.0], [122.5, -30.0]]]}, "properties": {"cell_id": "49_24", "lon": 123.75, "lat": -28.75}}, {"type": "Feature", "geometry": {"type": "Polygon", "coordinates": [[[122.5, -27.5], [122.5, -25.0], [125.0, -25.0], [125.0, -27.5], [122.5, -27.5]]]}, "properties": {"cell_id": "49_25", "lon": 123.75, "lat": -26.25}}, {"type": "Feature", "geometry": {"type": "Polygon", "coordinates": [[[122.5, -25.0], [122.5, -22.5], [125.0, -22.5], [125.0, -25.0], [122.5, -25.0]]]}, "properties": {"cell_id": "49_26", "lon": 123.75, "lat": -23.75}}, {"type": "Feature", "geometry": {"type": "Polygon", "coordinates": [[[122.5, -22.5], [122.5, -20.0], [125.0, -20.0], [125.0, -22.5], [122.5, -22.5]]]}, "properties": {"cell_id": "49_27", "lon": 123.75, "lat": -21.25}}, {"type": "Feature", "geometry": {"type": "Polygon", "coordinates": [[[125.0, -30.0], [125.0, -27.5], [127.5, -27.5], [127.5, -30.0], [125.0, -30.0]]]}, "properties": {"cell_id": "50_24", "lon": 126.25, "lat": -28.75}}, {"type": "Feature", "geometry": {"type": "Polygon", "coordinates": [[[125.0, -27.5], [125.0, -25.0], [127.5, -25.0], [127.5, -27.5], [125.0, -27.5]]]}, "properties": {"cell_id": "50_25", "lon": 126.25, "lat": -26.25}}, {"type": "Feature", "geometry": {"type": "Polygon", "coordinates": [[[125.0, -25.0], [125.0, -22.5], [127.5, -22.5], [127.5, -25.0], [125.0, -25.0]]]}, "properties": {"cell_id": "50_26", "lon": 126.25, "lat": -23.75}}, {"type": "Feature", "geometry": {"type": "Polygon", "coordinates": [[[125.0, -22.5], [125.0, -20.0], [127.5, -20.0], [127.5, -22.5], [125.0, -22.5]]]}, "properties": {"cell_id": "50_27", "lon": 126.25, "lat": -21.25}}, {"type": "Feature", "geometry": {"type": "Polygon", "coordinates": [[[127.5, -30.0], [127.5, -27.5], [130.0, -27.5], [130.0, -30.0], [127.5, -30.0]]]}, "properties": {"cell_id": "51_24", "lon": 128.75, "lat": -28.75}}, {"type": "Feature", "geometry": {"type": "Polygon", "coordinates": [[[127.5, -27.5], [127.5, -25.0], [130.0, -25.0], [130.0, -27.5], [127.5, -27.5]]]}, "properties": {"cell_id": "51_25", "lon": 128.75, "lat": -26.25}}, {"type": "Feature", "geometry": {"type": "Polygon", "coordinates": [[[127.5, -25.0], [127.5, -22.5], [130.0, -22.5], [130.0, -25.0], [127.5, -25.0]]]}, "properties": {"cell_id": "51_26", "lon": 128.75, "lat": -23.75}}, {"type": "Feature", "geometry": {"type": "Polygon", "coordinates": [[[127.5, -22.5], [127.5, -20.0], [130.0, -20.0], [130.0, -22.5], [127.5, -22.5]]]}, "properties": {"cell_id": "51_27", "lon": 128.75, "lat": -21.25}}]}