{"type": "FeatureCollection", "features": [{"type": "Feature", "geometry": {"type": "Polygon", "coordinates": [[[-30.0, 70.0], [-30.0, 72.5], [-27.5, 72.5], [-27.5, 70.0], [-30.0, 70.0]]]}, "properties": {"cell_id": "132_64", "lon": -28.75, "lat": 71.25}}, {"type": "Feature", "geometry": {"type": "Polygon", "coordinates": [[[-30.0, 72.5], [-30.0, 75.0], [-27.5, 75.0], [-27.5, 72.5], [-30.0, 72.5]]]}, "properties": {"cell_id": "132_65", "lon": -28.75, "lat": 73.75}}, {"type": "Feature", "geometry": {"type": "Polygon", "coordinates": [[[-30.0, 75.0], [-30.0, 77.5], [-27.5, 77.5], [-27.5, 75.0], [-30.0, 75.0]]]}, "properties": {"cell_id": "132_66", "lon": -28.75, "lat": 76.25}}, {"type": "Feature", "geometry": {"type": "Polygon", "coordinates": [[[-30.0, 77.5], [-30.0, 80.0], [-27.5, 80.0], [-27.5, 77.5], [-30.0, 77.5]]]}, "properties": {"cell_id": "132_67", "lon": -28.75, "lat": 78.75}}, {"type": "Feature", "geometry": {"type": "Polygon", "coordinates": [[[-27.5, 70.0], [-27.5, 72.5], [-25.0, 72.5], [-25.0, 70.0], [-27.5, 70.0]]]}, "properties": {"cell_id": "133_64", "lon": -26.25, "lat": 71.25}}, {"type": "Feature", "geometry": {"type": "Polygon", "coordinates": [[[-27.5, 72.5], [-27.5, 75.0], [-25.0, 75.0], [-25.0, 72.5], [-27.5, 72.5]]]}, "properties": {"cell_id": "133_65", "lon": -26.25, "lat": 73.75}}, {"type": "Feature", "geometry": {"type": "Polygon", "coordinates": [[[-27.5, 75.0], [-27.5, 77.5], [-25.0, 77.5], [-25.0, 75.0], [-27.5, 75.0]]]}, "properties": {"cell_id": "133_66", "lon": -26.25, "lat": 76.25}}, {"type": "Feature", "geometry": {"type": "Polygon", "coordinates": [[[-27.5, 77.5], [-27.5, 80.0], [-25.0, 80.0], [-25.0, 77.5], [-27.5, 77.5]]]}, "properties": {"cell_id": "133_67", "lon": -26.25, "lat": 78.75}}, {"type": "Feature", "geometry": {"type": "Polygon", "coordinates": [[[-25.0, 70.0], [-25.0, 72.5], [-22.5, 72.5], [-22.5, 70.0], [-25.0, 70.0]]]}, "properties": {"cell_id": "134_64", "lon": -23.75, "lat": 71.25}}, {"type": "Feature", "geometry": {"type": "Polygon", "coordinates": [[[-25.0, 72.5], [-25.0, 75.0], [-22.5, 75.0], [-22.5, 72.5], [-25.0, 72.5]]]}, "properties": {"cell_id": "134_65", "lon": -23.75, "lat": 73.75}}, {"type": "Feature", "geometry": {"type": "Polygon", "coordinates": [[[-25.0, 75.0], [-25.0, 77.5], [-22.5, 77.5], [-22.5, 75.0], [-25.0, 75.0]]]}, "properties": {"cell_id": "134_66", "lon": -23.75, "lat": 76.25}}, {"type": "Feature", "geometry": {"type": "Polygon", "coordinates": [[[-25.0, 77.5], [-25.0, 80.0], [-22.5, 80.0], [-22.5, 77.5], [-25.0, 77.5]]]}, "properties": {"cell_id": "134_67", "lon": -23.75, "lat": 78.75}}, {"type": "Feature", "geometry": {"type": "Polygon", "coordinates": [[[-22.5, 72.5], [-22.5, 75.0], [-20.0, 75.0], [-20.0, 72.5], [-22.5, 72.5]]]}, "properties": {"cell_id": "135_65", "lon": -21.25, "lat": 73.75}}, {"type": "Feature", "geometry": {"type": "Polygon", "coordinates": [[[-22.5, 75.0], [-22.5, 77.5], [-20.0, 77.5], [-20.0, 75.0], [-22.5, 75.0]]]}, "properties": {"cell_id": "135_66", "lon": -21.25, "lat": 76.25}}, {"type": "Feature", "geometry": {"type": "Polygon", "coordinates": [[[-22.5, 77.5], [-22.5, 80.0], [-20.0, 80.0], [-20.0, 77.5], [-22.5, 77.5]]]}, "properties": {"cell_id": "135_67", "lon": -21.25, "lat": 78.75}}]}