{"type": "FeatureCollection", "features": [{"type": "Feature", "geometry": {"type": "Polygon", "coordinates": [[[-17.5, 12.5], [-17.5, 15.0], [-15.0, 15.0], [-15.0, 12.5], [-17.5, 12.5]]]}, "properties": {"cell_id": "137_41", "lon": -16.25, "lat": 13.75}}, {"type": "Feature", "geometry": {"type": "Polygon", "coordinates": [[[-17.5, 15.0], [-17.5, 17.5], [-15.0, 17.5], [-15.0, 15.0], [-17.5, 15.0]]]}, "properties": {"cell_id": "137_42", "lon": -16.25, "lat": 16.25}}, {"type": "Feature", "geometry": {"type": "Polygon", "coordinates": [[[-15.0, 10.0], [-15.0, 12.5], [-12.5, 12.5], [-12.5, 10.0], [-15.0, 10.0]]]}, "properties": {"cell_id": "138_40", "lon": -13.75, "lat": 11.25}}, {"type": "Feature", "geometry": {"type": "Polygon", "coordinates": [[[-15.0, 12.5], [-15.0, 15.0], [-12.5, 15.0], [-12.5, 12.5], [-15.0, 12.5]]]}, "properties": {"cell_id": "138_41", "lon": -13.75, "lat": 13.75}}, {"type": "Feature", "geometry": {"type": "Polygon", "coordinates": [[[-15.0, 15.0], [-15.0, 17.5], [-12.5, 17.5], [-12.5, 15.0], [-15.0, 15.0]]]}, "properties": {"cell_id": "138_42", "lon": -13.75, "lat": 16.25}}, {"type": "Feature", "geometry": {"type": "Polygon", "coordinates": [[[-15.0, 17.5], [-15.0, 20.0], [-12.5, 20.0], [-12.5, 17.5], [-15.0, 17.5]]]}, "properties": {"cell_id": "138_43", "lon": -13.75, "lat": 18.75}}, {"type": "Feature", "geometry": {"type": "Polygon", "coordinates": [[[-12.5, 10.0], [-12.5, 12.5], [-10.0, 12.5], [-10.0, 10.0], [-12.5, 10.0]]]}, "properties": {"cell_id": "139_40", "lon": -11.25, "lat": 11.25}}, {"type": "Feature", "geometry": {"type": "Polygon", "coordinates": [[[-12.5, 12.5], [-12.5, 15.0], [-10.0, 15.0], [-10.0, 12.5], [-12.5, 12.5]]]}, "properties": {"cell_id": "139_41", "lon": -11.25, "lat": 13.75}}, {"type": "Feature", "geometry": {"type": "Polygon", "coordinates": [[[-12.5, 15.0], [-12.5, 17.5], [-10.0, 17.5], [-10.0, 15.0], [-12.5, 15.0]]]}, "properties": {"cell_id": "139_42", "lon": -11.25, "lat": 16.25}}, {"type": "Feature", "geometry": {"type": "Polygon", "coordinates": [[[-12.5, 17.5], [-12.5, 20.0], [-10.0, 20.0], [-10.0, 17.5], [-12.5, 17.5]]]}, "properties": {"cell_id": "139_43", "lon": -11.25, "lat": 18.75}}]}