{"type": "FeatureCollection", "features": [{"type": "Feature", "geometry": {"type": "Polygon", "coordinates": [[[-59.25, -39.0], [-59.25, -37.5], [-57.75, -37.5], [-57.75, -39.0], [-59.25, -39.0]]]}, "properties": {"cell_id": "201_34", "lon": -58.5, "lat": -38.25}}, {"type": "Feature", "geometry": {"type": "Polygon", "coordinates": [[[-59.25, -37.5], [-59.25, -36.0], [-57.75, -36.0], [-57.75, -37.5], [-59.25, -37.5]]]}, "properties": {"cell_id": "201_35", "lon": -58.5, "lat": -36.75}}, {"type": "Feature", "geometry": {"type": "Polygon", "coordinates": [[[-59.25, -36.0], [-59.25, -34.5], [-57.75, -34.5], [-57.75, -36.0], [-59.25, -36.0]]]}, "properties": {"cell_id": "201_36", "lon": -58.5, "lat": -35.25}}, {"type": "Feature", "geometry": {"type": "Polygon", "coordinates": [[[-59.25, -34.5], [-59.25, -33.0], [-57.75, -33.0], [-57.75, -34.5], [-59.25, -34.5]]]}, "properties": {"cell_id": "201_37", "lon": -58.5, "lat": -33.75}}, {"type": "Feature", "geometry": {"type": "Polygon", "coordinates": [[[-59.25, -33.0], [-59.25, -31.5], [-57.75, -31.5], [-57.75, -33.0], [-59.25, -33.0]]]}, "properties": {"cell_id": "201_38", "lon": -58.5, "lat": -32.25}}, {"type": "Feature", "geometry": {"type": "Polygon", "coordinates": [[[-59.25, -31.5], [-59.25, -30.0], [-57.75, -30.0], [-57.75, -31.5], [-59.25, -31.5]]]}, "properties": {"cell_id": "201_39", "lon": -58.5, "lat": -30.75}}, {"type": "Feature", "geometry": {"type": "Polygon", "coordinates": [[[-57.75, -39.0], [-57.75, -37.5], [-56.25, -37.5], [-56.25, -39.0], [-57.75, -39.0]]]}, "properties": {"cell_id": "202_34", "lon": -57.0, "lat": -38.25}}, {"type": "Feature", "geometry": {"type": "Polygon", "coordinates": [[[-57.75, -37.5], [-57.75, -36.0], [-56.25, -36.0], [-56.25, -37.5], [-57.75, -37.5]]]}, "properties": {"cell_id": "202_35", "lon": -57.0, "lat": -36.75}}, {"type": "Feature", "geometry": {"type": "Polygon", "coordinates": [[[-57.75, -36.0], [-57.75, -34.5], [-56.25, -34.5], [-56.25, -36.0], [-57.75, -36.0]]]}, "properties": {"cell_id": "202_36", "lon": -57.0, "lat": -35.25}}, {"type": "Feature", "geometry": {"type": "Polygon", "coordinates": [[[-57.75, -34.5], [-57.75, -33.0], [-56.25, -33.0], [-56.25, -34.5], [-57.75, -34.5]]]}, "properties": {"cell_id": "202_37", "lon": -57.0, "lat": -33.75}}, {"type": "Feature", "geometry": {"type": "Polygon", "coordinates": [[[-57.75, -33.0], [-57.75, -31.5], [-56.25, -31.5], [-56.25, -33.0], [-57.75, -33.0]]]}, "properties": {"cell_id": "202_38", "lon": -57.0, "lat": -32.25}}, {"type": "Feature", "geometry": {"type": "Polygon", "coordinates": [[[-57.75, -31.5], [-57.75, -30.0], [-56.25, -30.0], [-56.25, -31.5], [-57.75, -31.5]]]}, "properties": {"cell_id": "202_39", "lon": -57.0, "lat": -30.75}}, {"type": "Feature", "geometry": {"type": "Polygon", "coordinates": [[[-56.25, -36.0], [-56.25, -34.5], [-54.75, -34.5], [-54.75, -36.0], [-56.25, -36.0]]]}, "properties": {"cell_id": "203_36", "lon": -55.5, "lat": -35.25}}, {"type": "Feature", "geometry": {"type": "Polygon", "coordinates": [[[-56.25, -34.5], [-56.25, -33.0], [-54.75, -33.0], [-54.75, -34.5], [-56.25, -34.5]]]}, "properties": {"cell_id": "203_37", "lon": -55.5, "lat": -33.75}}, {"type": "Feature", "geometry": {"type": "Polygon", "coordinates": [[[-56.25, -33.0], [-56.25, -31.5], [-54.75, -31.5], [-54.75, -33.0], [-56.25, -33.0]]]}, "properties": {"cell_id": "203_38", "lon": -55.5, "lat": -32.25}}, {"type": "Feature", "geometry": {"type": "Polygon", "coordinates": [[[-56.25, -31.5], [-56.25, -30.0], [-54.75, -30.0], [-54.75, -31.5], [-56.25, -31.5]]]}, "properties": {"cell_id": "203_39", "lon": -55.5, "lat": -30.75}}, {"type": "Feature", "geometry": {"type": "Polygon", "coordinates": [[[-54.75, -36.0], [-54.75, -34.5], [-53.25, -34.5], [-53.25, -36.0], [-54.75, -36.0]]]}, "properties": {"cell_id": "204_36", "lon": -54.0, "lat": -35.25}}, {"type": "Feature", "geometry": {"type": "Polygon", "coordinates": [[[-54.75, -34.5], [-54.75, -33.0], [-53.25, -33.0], [-53.25, -34.5], [-54.75, -34.5]]]}, "properties": {"cell_id": "204_37", "lon": -54.0, "lat": -33.75}}, {"type": "Feature", "geometry": {"type": "Polygon", "coordinates": [[[-54.75, -33.0], [-54.75, -31.5], [-53.25, -31.5], [-53.25, -33.0], [-54.75, -33.0]]]}, "properties": {"cell_id": "204_38", "lon": -54.0, "lat": -32.25}}, {"type": "Feature", "geometry": {"type": "Polygon", "coordinates": [[[-54.75, -31.5], [-54.75, -30.0], [-53.25, -30.0], [-53.25, -31.5], [-54.75, -31.5]]]}, "properties": {"cell_id": "204_39", "lon": -54.0, "lat": -30.75}}, {"type": "Feature", "geometry": {"type": "Polygon", "coordinates": [[[-53.25, -34.5], [-53.25, -33.0], [-51.75, -33.0], [-51.75, -34.5], [-53.25, -34.5]]]}, "properties": {"cell_id": "205_37", "lon": -52.5, "lat": -33.75}}, {"type": "Feature", "geometry": {"type": "Polygon", "coordinates": [[[-53.25, -33.0], [-53.25, -31.5], [-51.75, -31.5], [-51.75, -33.0], [-53.25, -33.0]]]}, "properties": {"cell_id": "205_38", "lon": -52.5, "lat": -32.25}}, {"type": "Feature", "geometry": {"type": "Polygon", "coordinates": [[[-53.25, -31.5], [-53.25, -30.0], [-51.75, -30.0], [-51.75, -31.5], [-53.25, -31.5]]]}, "properties": {"cell_id": "205_39", "lon": -52.5, "lat": -30.75}}, {"type": "Feature", "geometry": {"type": "Polygon", "coordinates": [[[-51.75, -31.5], [-51.75, -30.0], [-50.25, -30.0], [-50.25, -31.5], [-51.75, -31.5]]]}, "properties": {"cell_id": "206_39", "lon": -51.0, "lat": -30.75}}]}