{"type": "FeatureCollection", "features": [{"type": "Feature", "geometry": {"type": "Polygon", "coordinates": [[[30.0, 50.0], [30.0, 52.5], [32.5, 52.5], [32.5, 50.0], [30.0, 50.0]]]}, "properties": {"cell_id": "12_56", "lon": 31.25, "lat": 51.25}}, {"type": "Feature", "geometry": {"type": "Polygon", "coordinates": [[[30.0, 52.5], [30.0, 55.0], [32.5, 55.0], [32.5, 52.5], [30.0, 52.5]]]}, "properties": {"cell_id": "12_57", "lon": 31.25, "lat": 53.75}}, {"type": "Feature", "geometry": {"type": "Polygon", "coordinates": [[[30.0, 55.0], [30.0, 57.5], [32.5, 57.5], [32.5, 55.0], [30.0, 55.0]]]}, "properties": {"cell_id": "12_58", "lon": 31.25, "lat": 56.25}}, {"type": "Feature", "geometry": {"type": "Polygon", "coordinates": [[[30.0, 57.5], [30.0, 60.0], [32.5, 60.0], [32.5, 57.5], [30.0, 57.5]]]}, "properties": {"cell_id": "12_59", "lon": 31.25, "lat": 58.75}}, {"type": "Feature", "geometry": {"type": "Polygon", "coordinates": [[[32.5, 50.0], [32.5, 52.5], [35.0, 52.5], [35.0, 50.0], [32.5, 50.0]]]}, "properties": {"cell_id": "13_56", "lon": 33.75, "lat": 51.25}}, {"type": "Feature", "geometry": {"type": "Polygon", "coordinates": [[[32.5, 52.5], [32.5, 55.0], [35.0, 55.0], [35.0, 52.5], [32.5, 52.5]]]}, "properties": {"cell_id": "13_57", "lon": 33.75, "lat": 53.75}}, {"type": "Feature", "geometry": {"type": "Polygon", "coordinates": [[[32.5, 55.0], [32.5, 57.5], [35.0, 57.5], [35.0, 55.0], [32.5, 55.0]]]}, "properties": {"cell_id": "13_58", "lon": 33.75, "lat": 56.25}}, {"type": "Feature", "geometry": {"type": "Polygon", "coordinates": [[[32.5, 57.5], [32.5, 60.0], [35.0, 60.0], [35.0, 57.5], [32.5, 57.5]]]}, "properties": {"cell_id": "13_59", "lon": 33.75, "lat": 58.75}}, {"type": "Feature", "geometry": {"type": "Polygon", "coordinates": [[[35.0, 50.0], [35.0, 52.5], [37.5, 52.5], [37.5, 50.0], [35.0, 50.0]]]}, "properties": {"cell_id": "14_56", "lon": 36.25, "lat": 51.25}}, {"type": "Feature", "geometry": {"type": "Polygon", "coordinates": [[[35.0, 52.5], [35.0, 55.0], [37.5, 55.0], [37.5, 52.5], [35.0, 52.5]]]}, "properties": {"cell_id": "14_57", "lon": 36.25, "lat": 53.75}}, {"type": "Feature", "geometry": {"type": "Polygon", "coordinates": [[[35.0, 55.0], [35.0, 57.5], [37.5, 57.5], [37.5, 55.0], [35.0, 55.0]]]}, "properties": {"cell_id": "14_58", "lon": 36.25, "lat": 56.25}}, {"type": "Feature", "geometry": {"type": "Polygon", "coordinates": [[[35.0, 57.5], [35.0, 60.0], [37.5, 60.0], [37.5, 57.5], [35.0, 57.5]]]}, "properties": {"cell_id": "14_59", "lon": 36.25, "lat": 58.75}}, {"type": "Feature", "geometry": {"type": "Polygon", "coordinates": [[[37.5, 50.0], [37.5, 52.5], [40.0, 52.5], [40.0, 50.0], [37.5, 50.0]]]}, "properties": {"cell_id": "15_56", "lon": 38.75, "lat": 51.25}}, {"type": "Feature", "geometry": {"type": "Polygon", "coordinates": [[[37.5, 52.5], [37.5, 55.0], [40.0, 55.0], [40.0, 52.5], [37.5, 52.5]]]}, "properties": {"cell_id": "15_57", "lon": 38.75, "lat": 53.75}}, {"type": "Feature", "geometry": {"type": "Polygon", "coordinates": [[[37.5, 55.0], [37.5, 57.5], [40.0, 57.5], [40.0, 55.0], [37.5, 55.0]]]}, "properties": {"cell_id": "15_58", "lon": 38.75, "lat": 56.25}}, {"type": "Feature", "geometry": {"type": "Polygon", "coordinates": [[[37.5, 57.5], [37.5, 60.0], [40.0, 60.0], [40.0, 57.5], [37.5, 57.5]]]}, "properties": {"cell_id": "15_59", "lon": 38.75, "lat": 58.75}}]}