{"type": "FeatureCollection", "features": [{"type": "Feature", "geometry": {"type": "Polygon", "coordinates": [[[20.0, 30.0], [20.0, 32.5], [22.5, 32.5], [22.5, 30.0], [20.0, 30.0]]]}, "properties": {"cell_id": "8_48", "lon": 21.25, "lat": 31.25}}, {"type": "Feature", "geometry": {"type": "Polygon", "coordinates": [[[20.0, 37.5], [20.0, 40.0], [22.5, 40.0], [22.5, 37.5], [20.0, 37.5]]]}, "properties": {"cell_id": "8_51", "lon": 21.25, "lat": 38.75}}, {"type": "Feature", "geometry": {"type": "Polygon", "coordinates": [[[22.5, 30.0], [22.5, 32.5], [25.0, 32.5], [25.0, 30.0], [22.5, 30.0]]]}, "properties": {"cell_id": "9_48", "lon": 23.75, "lat": 31.25}}, {"type": "Feature", "geometry": {"type": "Polygon", "coordinates": [[[25.0, 30.0], [25.0, 32.5], [27.5, 32.5], [27.5, 30.0], [25.0, 30.0]]]}, "properties": {"cell_id": "10_48", "lon": 26.25, "lat": 31.25}}, {"type": "Feature", "geometry": {"type": "Polygon", "coordinates": [[[27.5, 37.5], [27.5, 40.0], [30.0, 40.0], [30.0, 37.5], [27.5, 37.5]]]}, "properties": {"cell_id": "11_51", "lon": 28.75, "lat": 38.75}}]}