{"type": "FeatureCollection", "features": [{"type": "Feature", "geometry": {"type": "Polygon", "coordinates": [[[-74.25, -39.0], [-74.25, -37.5], [-72.75, -37.5], [-72.75, -39.0], [-74.25, -39.0]]]}, "properties": {"cell_id": "191_34", "lon": -73.5, "lat": -38.25}}, {"type": "Feature", "geometry": {"type": "Polygon", "coordinates": [[[-74.25, -37.5], [-74.25, -36.0], [-72.75, -36.0], [-72.75, -37.5], [-74.25, -37.5]]]}, "properties": {"cell_id": "191_35", "lon": -73.5, "lat": -36.75}}, {"type": "Feature", "geometry": {"type": "Polygon", "coordinates": [[[-72.75, -39.0], [-72.75, -37.5], [-71.25, -37.5], [-71.25, -39.0], [-72.75, -39.0]]]}, "properties": {"cell_id": "192_34", "lon": -72.0, "lat": -38.25}}, {"type": "Feature", "geometry": {"type": "Polygon", "coordinates": [[[-72.75, -37.5], [-72.75, -36.0], [-71.25, -36.0], [-71.25, -37.5], [-72.75, -37.5]]]}, "properties": {"cell_id": "192_35", "lon": -72.0, "lat": -36.75}}, {"type": "Feature", "geometry": {"type": "Polygon", "coordinates": [[[-72.75, -36.0], [-72.75, -34.5], [-71.25, -34.5], [-71.25, -36.0], [-72.75, -36.0]]]}, "properties": {"cell_id": "192_36", "lon": -72.0, "lat": -35.25}}, {"type": "Feature", "geometry": {"type": "Polygon", "coordinates": [[[-72.75, -34.5], [-72.75, -33.0], [-71.25, -33.0], [-71.25, -34.5], [-72.75, -34.5]]]}, "properties": {"cell_id": "192_37", "lon": -72.0, "lat": -33.75}}, {"type": "Feature", "geometry": {"type": "Polygon", "coordinates": [[[-72.75, -33.0], [-72.75, -31.5], [-71.25, -31.5], [-71.25, -33.0], [-72.75, -33.0]]]}, "properties": {"cell_id": "192_38", "lon": -72.0, "lat": -32.25}}, {"type": "Feature", "geometry": {"type": "Polygon", "coordinates": [[[-72.75, -31.5], [-72.75, -30.0], [-71.25, -30.0], [-71.25, -31.5], [-72.75, -31.5]]]}, "properties": {"cell_id": "192_39", "lon": -72.0, "lat": -30.75}}, {"type": "Feature", "geometry": {"type": "Polygon", "coordinates": [[[-71.25, -39.0], [-71.25, -37.5], [-69.75, -37.5], [-69.75, -39.0], [-71.25, -39.0]]]}, "properties": {"cell_id": "193_34", "lon": -70.5, "lat": -38.25}}, {"type": "Feature", "geometry": {"type": "Polygon", "coordinates": [[[-71.25, -37.5], [-71.25, -36.0], [-69.75, -36.0], [-69.75, -37.5], [-71.25, -37.5]]]}, "properties": {"cell_id": "193_35", "lon": -70.5, "lat": -36.75}}, {"type": "Feature", "geometry": {"type": "Polygon", "coordinates": [[[-71.25, -36.0], [-71.25, -34.5], [-69.75, -34.5], [-69.75, -36.0], [-71.25, -36.0]]]}, "properties": {"cell_id": "193_36", "lon": -70.5, "lat": -35.25}}, {"type": "Feature", "geometry": {"type": "Polygon", "coordinates": [[[-71.25, -34.5], [-71.25, -33.0], [-69.75, -33.0], [-69.75, -34.5], [-71.25, -34.5]]]}, "properties": {"cell_id": "193_37", "lon": -70.5, "lat": -33.75}}, {"type": "Feature", "geometry": {"type": "Polygon", "coordinates": [[[-71.25, -33.0], [-71.25, -31.5], [-69.75, -31.5], [-69.75, -33.0], [-71.25, -33.0]]]}, "properties": {"cell_id": "193_38", "lon": -70.5, "lat": -32.25}}, {"type": "Feature", "geometry": {"type": "Polygon", "coordinates": [[[-71.25, -31.5], [-71.25, -30.0], [-69.75, -30.0], [-69.75, -31.5], [-71.25, -31.5]]]}, "properties": {"cell_id": "193_39", "lon": -70.5, "lat": -30.75}}]}