{"type": "FeatureCollection", "features": [{"type": "Feature", "geometry": {"type": "Polygon", "coordinates": [[[100.0, 12.5], [100.0, 15.0], [102.5, 15.0], [102.5, 12.5], [100.0, 12.5]]]}, "properties": {"cell_id": "40_41", "lon": 101.25, "lat": 13.75}}, {"type": "Feature", "geometry": {"type": "Polygon", "coordinates": [[[100.0, 15.0], [100.0, 17.5], [102.5, 17.5], [102.5, 15.0], [100.0, 15.0]]]}, "properties": {"cell_id": "40_42", "lon": 101.25, "lat": 16.25}}, {"type": "Feature", "geometry": {"type": "Polygon", "coordinates": [[[100.0, 17.5], [100.0, 20.0], [102.5, 20.0], [102.5, 17.5], [100.0, 17.5]]]}, "properties": {"cell_id": "40_43", "lon": 101.25, "lat": 18.75}}, {"type": "Feature", "geometry": {"type": "Polygon", "coordinates": [[[102.5, 10.0], [102.5, 12.5], [105.0, 12.5], [105.0, 10.0], [102.5, 10.0]]]}, "properties": {"cell_id": "41_40", "lon": 103.75, "lat": 11.25}}, {"type": "Feature", "geometry": {"type": "Polygon", "coordinates": [[[102.5, 12.5], [102.5, 15.0], [105.0, 15.0], [105.0, 12.5], [102.5, 12.5]]]}, "properties": {"cell_id": "41_41", "lon": 103.75, "lat": 13.75}}, {"type": "Feature", "geometry": {"type": "Polygon", "coordinates": [[[102.5, 15.0], [102.5, 17.5], [105.0, 17.5], [105.0, 15.0], [102.5, 15.0]]]}, "properties": {"cell_id": "41_42", "lon": 103.75, "lat": 16.25}}, {"type": "Feature", "geometry": {"type": "Polygon", "coordinates": [[[102.5, 17.5], [102.5, 20.0], [105.0, 20.0], [105.0, 17.5], [102.5, 17.5]]]}, "properties": {"cell_id": "41_43", "lon": 103.75, "lat": 18.75}}, {"type": "Feature", "geometry": {"type": "Polygon", "coordinates": [[[105.0, 10.0], [105.0, 12.5], [107.5, 12.5], [107.5, 10.0], [105.0, 10.0]]]}, "properties": {"cell_id": "42_40", "lon": 106.25, "lat": 11.25}}, {"type": "Feature", "geometry": {"type": "Polygon", "coordinates": [[[105.0, 12.5], [105.0, 15.0], [107.5, 15.0], [107.5, 12.5], [105.0, 12.5]]]}, "properties": {"cell_id": "42_41", "lon": 106.25, "lat": 13.75}}, {"type": "Feature", "geometry": {"type": "Polygon", "coordinates": [[[105.0, 15.0], [105.0, 17.5], [107.5, 17.5], [107.5, 15.0], [105.0, 15.0]]]}, "properties": {"cell_id": "42_42", "lon": 106.25, "lat": 16.25}}, {"type": "Feature", "geometry": {"type": "Polygon", "coordinates": [[[107.5, 12.5], [107.5, 15.0], [110.0, 15.0], [110.0, 12.5], [107.5, 12.5]]]}, "properties": {"cell_id": "43_41", "lon": 108.75, "lat": 13.75}}, {"type": "Feature", "geometry": {"type": "Polygon", "coordinates": [[[107.5, 17.5], [107.5, 20.0], [110.0, 20.0], [110.0, 17.5], [107.5, 17.5]]]}, "properties": {"cell_id": "43_43", "lon": 108.75, "lat": 18.75}}]}