{"type": "FeatureCollection", "features": [{"type": "Feature", "geometry": {"type": "Polygon", "coordinates": [[[144.75, -43.5], [144.75, -42.0], [146.25, -42.0], [146.25, -43.5], [144.75, -43.5]]]}, "properties": {"cell_id": "97_31", "lon": 145.5, "lat": -42.75}}, {"type": "Feature", "geometry": {"type": "Polygon", "coordinates": [[[144.75, -42.0], [144.75, -40.5], [146.25, -40.5], [146.25, -42.0], [144.75, -42.0]]]}, "properties": {"cell_id": "97_32", "lon": 145.5, "lat": -41.25}}, {"type": "Feature", "geometry": {"type": "Polygon", "coordinates": [[[146.25, -43.5], [146.25, -42.0], [147.75, -42.0], [147.75, -43.5], [146.25, -43.5]]]}, "properties": {"cell_id": "98_31", "lon": 147.0, "lat": -42.75}}, {"type": "Feature", "geometry": {"type": "Polygon", "coordinates": [[[146.25, -42.0], [146.25, -40.5], [147.75, -40.5], [147.75, -42.0], [146.25, -42.0]]]}, "properties": {"cell_id": "98_32", "lon": 147.0, "lat": -41.25}}, {"type": "Feature", "geometry": {"type": "Polygon", "coordinates": [[[147.75, -43.5], [147.75, -42.0], [149.25, -42.0], [149.25, -43.5], [147.75, -43.5]]]}, "properties": {"cell_id": "99_31", "lon": 148.5, "lat": -42.75}}, {"type": "Feature", "geometry": {"type": "Polygon", "coordinates": [[[147.75, -42.0], [147.75, -40.5], [149.25, -40.5], [149.25, -42.0], [147.75, -42.0]]]}, "properties": {"cell_id": "99_32", "lon": 148.5, "lat": -41.25}}]}