{"type": "FeatureCollection", "features": [{"type": "Feature", "geometry": {"type": "Polygon", "coordinates": [[[-40.0, 80.0], [-40.0, 82.5], [-37.5, 82.5], [-37.5, 80.0], [-40.0, 80.0]]]}, "properties": {"cell_id": "128_68", "lon": -38.75, "lat": 81.25}}, {"type": "Feature", "geometry": {"type": "Polygon", "coordinates": [[[-37.5, 80.0], [-37.5, 82.5], [-35.0, 82.5], [-35.0, 80.0], [-37.5, 80.0]]]}, "properties": {"cell_id": "129_68", "lon": -36.25, "lat": 81.25}}, {"type": "Feature", "geometry": {"type": "Polygon", "coordinates": [[[-35.0, 80.0], [-35.0, 82.5], [-32.5, 82.5], [-32.5, 80.0], [-35.0, 80.0]]]}, "properties": {"cell_id": "130_68", "lon": -33.75, "lat": 81.25}}, {"type": "Feature", "geometry": {"type": "Polygon", "coordinates": [[[-32.5, 80.0], [-32.5, 82.5], [-30.0, 82.5], [-30.0, 80.0], [-32.5, 80.0]]]}, "properties": {"cell_id": "131_68", "lon": -31.25, "lat": 81.25}}]}