{"type": "FeatureCollection", "features": [{"type": "Feature", "geometry": {"type": "Polygon", "coordinates": [[[110.0, 60.0], [110.0, 62.5], [112.5, 62.5], [112.5, 60.0], [110.0, 60.0]]]}, "properties": {"cell_id": "44_60", "lon": 111.25, "lat": 61.25}}, {"type": "Feature", "geometry": {"type": "Polygon", "coordinates": [[[110.0, 62.5], [110.0, 65.0], [112.5, 65.0], [112.5, 62.5], [110.0, 62.5]]]}, "properties": {"cell_id": "44_61", "lon": 111.25, "lat": 63.75}}, {"type": "Feature", "geometry": {"type": "Polygon", "coordinates": [[[110.0, 65.0], [110.0, 67.5], [112.5, 67.5], [112.5, 65.0], [110.0, 65.0]]]}, "properties": {"cell_id": "44_62", "lon": 111.25, "lat": 66.25}}, {"type": "Feature", "geometry": {"type": "Polygon", "coordinates": [[[110.0, 67.5], [110.0, 70.0], [112.5, 70.0], [112.5, 67.5], [110.0, 67.5]]]}, "properties": {"cell_id": "44_63", "lon": 111.25, "lat": 68.75}}, {"type": "Feature", "geometry": {"type": "Polygon", "coordinates": [[[112.5, 60.0], [112.5, 62.5], [115.0, 62.5], [115.0, 60.0], [112.5, 60.0]]]}, "properties": {"cell_id": "45_60", "lon": 113.75, "lat": 61.25}}, {"type": "Feature", "geometry": {"type": "Polygon", "coordinates": [[[112.5, 62.5], [112.5, 65.0], [115.0, 65.0], [115.0, 62.5], [112.5, 62.5]]]}, "properties": {"cell_id": "45_61", "lon": 113.75, "lat": 63.75}}, {"type": "Feature", "geometry": {"type": "Polygon", "coordinates": [[[112.5, 65.0], [112.5, 67.5], [115.0, 67.5], [115.0, 65.0], [112.5, 65.0]]]}, "properties": {"cell_id": "45_62", "lon": 113.75, "lat": 66.25}}, {"type": "Feature", "geometry": {"type": "Polygon", "coordinates": [[[112.5, 67.5], [112.5, 70.0], [115.0, 70.0], [115.0, 67.5], [112.5, 67.5]]]}, "properties": {"cell_id": "45_63", "lon": 113.75, "lat": 68.75}}, {"type": "Feature", "geometry": {"type": "Polygon", "coordinates": [[[115.0, 60.0], [115.0, 62.5], [117.5, 62.5], [117.5, 60.0], [115.0, 60.0]]]}, "properties": {"cell_id": "46_60", "lon": 116.25, "lat": 61.25}}, {"type": "Feature", "geometry": {"type": "Polygon", "coordinates": [[[115.0, 62.5], [115.0, 65.0], [117.5, 65.0], [117.5, 62.5], [115.0, 62.5]]]}, "properties": {"cell_id": "46_61", "lon": 116.25, "lat": 63.75}}, {"type": "Feature", "geometry": {"type": "Polygon", "coordinates": [[[115.0, 65.0], [115.0, 67.5], [117.5, 67.5], [117.5, 65.0], [115.0, 65.0]]]}, "properties": {"cell_id": "46_62", "lon": 116.25, "lat": 66.25}}, {"type": "Feature", "geometry": {"type": "Polygon", "coordinates": [[[115.0, 67.5], [115.0, 70.0], [117.5, 70.0], [117.5, 67.5], [115.0, 67.5]]]}, "properties": {"cell_id": "46_63", "lon": 116.25, "lat": 68.75}}, {"type": "Feature", "geometry": {"type": "Polygon", "coordinates": [[[117.5, 60.0], [117.5, 62.5], [120.0, 62.5], [120.0, 60.0], [117.5, 60.0]]]}, "properties": {"cell_id": "47_60", "lon": 118.75, "lat": 61.25}}, {"type": "Feature", "geometry": {"type": "Polygon", "coordinates": [[[117.5, 62.5], [117.5, 65.0], [120.0, 65.0], [120.0, 62.5], [117.5, 62.5]]]}, "properties": {"cell_id": "47_61", "lon": 118.75, "lat": 63.75}}, {"type": "Feature", "geometry": {"type": "Polygon", "coordinates": [[[117.5, 65.0], [117.5, 67.5], [120.0, 67.5], [120.0, 65.0], [117.5, 65.0]]]}, "properties": {"cell_id": "47_62", "lon": 118.75, "lat": 66.25}}, {"type": "Feature", "geometry": {"type": "Polygon", "coordinates": [[[117.5, 67.5], [117.5, 70.0], [120.0, 70.0], [120.0, 67.5], [117.5, 67.5]]]}, "properties": {"cell_id": "47_63", "lon": 118.75, "lat": 68.75}}]}