{"type": "FeatureCollection", "features": [{"type": "Feature", "geometry": {"type": "Polygon", "coordinates": [[[-50.0, -10.0], [-50.0, -7.5], [-47.5, -7.5], [-47.5, -10.0], [-50.0, -10.0]]]}, "properties": {"cell_id": "124_32", "lon": -48.75, "lat": -8.75}}, {"type": "Feature", "geometry": {"type": "Polygon", "coordinates": [[[-50.0, -7.5], [-50.0, -5.0], [-47.5, -5.0], [-47.5, -7.5], [-50.0, -7.5]]]}, "properties": {"cell_id": "124_33", "lon": -48.75, "lat": -6.25}}, {"type": "Feature", "geometry": {"type": "Polygon", "coordinates": [[[-50.0, -5.0], [-50.0, -2.5], [-47.5, -2.5], [-47.5, -5.0], [-50.0, -5.0]]]}, "properties": {"cell_id": "124_34", "lon": -48.75, "lat": -3.75}}, {"type": "Feature", "geometry": {"type": "Polygon", "coordinates": [[[-50.0, -2.5], [-50.0, 0.0], [-47.5, 0.0], [-47.5, -2.5], [-50.0, -2.5]]]}, "properties": {"cell_id": "124_35", "lon": -48.75, "lat": -1.25}}, {"type": "Feature", "geometry": {"type": "Polygon", "coordinates": [[[-47.5, -10.0], [-47.5, -7.5], [-45.0, -7.5], [-45.0, -10.0], [-47.5, -10.0]]]}, "properties": {"cell_id": "125_32", "lon": -46.25, "lat": -8.75}}, {"type": "Feature", "geometry": {"type": "Polygon", "coordinates": [[[-47.5, -7.5], [-47.5, -5.0], [-45.0, -5.0], [-45.0, -7.5], [-47.5, -7.5]]]}, "properties": {"cell_id": "125_33", "lon": -46.25, "lat": -6.25}}, {"type": "Feature", "geometry": {"type": "Polygon", "coordinates": [[[-47.5, -5.0], [-47.5, -2.5], [-45.0, -2.5], [-45.0, -5.0], [-47.5, -5.0]]]}, "properties": {"cell_id": "125_34", "lon": -46.25, "lat": -3.75}}, {"type": "Feature", "geometry": {"type": "Polygon", "coordinates": [[[-47.5, -2.5], [-47.5, 0.0], [-45.0, 0.0], [-45.0, -2.5], [-47.5, -2.5]]]}, "properties": {"cell_id": "125_35", "lon": -46.25, "lat": -1.25}}, {"type": "Feature", "geometry": {"type": "Polygon", "coordinates": [[[-45.0, -10.0], [-45.0, -7.5], [-42.5, -7.5], [-42.5, -10.0], [-45.0, -10.0]]]}, "properties": {"cell_id": "126_32", "lon": -43.75, "lat": -8.75}}, {"type": "Feature", "geometry": {"type": "Polygon", "coordinates": [[[-45.0, -7.5], [-45.0, -5.0], [-42.5, -5.0], [-42.5, -7.5], [-45.0, -7.5]]]}, "properties": {"cell_id": "126_33", "lon": -43.75, "lat": -6.25}}, {"type": "Feature", "geometry": {"type": "Polygon", "coordinates": [[[-45.0, -5.0], [-45.0, -2.5], [-42.5, -2.5], [-42.5, -5.0], [-45.0, -5.0]]]}, "properties": {"cell_id": "126_34", "lon": -43.75, "lat": -3.75}}, {"type": "Feature", "geometry": {"type": "Polygon", "coordinates": [[[-42.5, -10.0], [-42.5, -7.5], [-40.0, -7.5], [-40.0, -10.0], [-42.5, -10.0]]]}, "properties": {"cell_id": "127_32", "lon": -41.25, "lat": -8.75}}, {"type": "Feature", "geometry": {"type": "Polygon", "coordinates": [[[-42.5, -7.5], [-42.5, -5.0], [-40.0, -5.0], [-40.0, -7.5], [-42.5, -7.5]]]}, "properties": {"cell_id": "127_33", "lon": -41.25, "lat": -6.25}}, {"type": "Feature", "geometry": {"type": "Polygon", "coordinates": [[[-42.5, -5.0], [-42.5, -2.5], [-40.0, -2.5], [-40.0, -5.0], [-42.5, -5.0]]]}, "properties": {"cell_id": "127_34", "lon": -41.25, "lat": -3.75}}]}