{"type": "FeatureCollection", "features": [{"type": "Feature", "geometry": {"type": "Polygon", "coordinates": [[[20.25, 78.0], [20.25, 79.5], [21.75, 79.5], [21.75, 78.0], [20.25, 78.0]]]}, "properties": {"cell_id": "14_112", "lon": 21.0, "lat": 78.75}}, {"type": "Feature", "geometry": {"type": "Polygon", "coordinates": [[[20.25, 79.5], [20.25, 81.0], [21.75, 81.0], [21.75, 79.5], [20.25, 79.5]]]}, "properties": {"cell_id": "14_113", "lon": 21.0, "lat": 80.25}}, {"type": "Feature", "geometry": {"type": "Polygon", "coordinates": [[[21.75, 78.0], [21.75, 79.5], [23.25, 79.5], [23.25, 78.0], [21.75, 78.0]]]}, "properties": {"cell_id": "15_112", "lon": 22.5, "lat": 78.75}}, {"type": "Feature", "geometry": {"type": "Polygon", "coordinates": [[[21.75, 79.5], [21.75, 81.0], [23.25, 81.0], [23.25, 79.5], [21.75, 79.5]]]}, "properties": {"cell_id": "15_113", "lon": 22.5, "lat": 80.25}}, {"type": "Feature", "geometry": {"type": "Polygon", "coordinates": [[[23.25, 70.5], [23.25, 72.0], [24.75, 72.0], [24.75, 70.5], [23.25, 70.5]]]}, "properties": {"cell_id": "16_107", "lon": 24.0, "lat": 71.25}}, {"type": "Feature", "geometry": {"type": "Polygon", "coordinates": [[[23.25, 78.0], [23.25, 79.5], [24.75, 79.5], [24.75, 78.0], [23.25, 78.0]]]}, "properties": {"cell_id": "16_112", "lon": 24.0, "lat": 78.75}}, {"type": "Feature", "geometry": {"type": "Polygon", "coordinates": [[[23.25, 79.5], [23.25, 81.0], [24.75, 81.0], [24.75, 79.5], [23.25, 79.5]]]}, "properties": {"cell_id": "16_113", "lon": 24.0, "lat": 80.25}}, {"type": "Feature", "geometry": {"type": "Polygon", "coordinates": [[[24.75, 70.5], [24.75, 72.0], [26.25, 72.0], [26.25, 70.5], [24.75, 70.5]]]}, "properties": {"cell_id": "17_107", "lon": 25.5, "lat": 71.25}}, {"type": "Feature", "geometry": {"type": "Polygon", "coordinates": [[[26.25, 70.5], [26.25, 72.0], [27.75, 72.0], [27.75, 70.5], [26.25, 70.5]]]}, "properties": {"cell_id": "18_107", "lon": 27.0, "lat": 71.25}}, {"type": "Feature", "geometry": {"type": "Polygon", "coordinates": [[[27.75, 70.5], [27.75, 72.0], [29.25, 72.0], [29.25, 70.5], [27.75, 70.5]]]}, "properties": {"cell_id": "19_107", "lon": 28.5, "lat": 71.25}}, {"type": "Feature", "geometry": {"type": "Polygon", "coordinates": [[[29.25, 70.5], [29.25, 72.0], [30.75, 72.0], [30.75, 70.5], [29.25, 70.5]]]}, "properties": {"cell_id": "20_107", "lon": 30.0, "lat": 71.25}}]}