{"type": "FeatureCollection", "features": [{"type": "Feature", "geometry": {"type": "Polygon", "coordinates": [[[50.25, -90.0], [50.25, -88.5], [51.75, -88.5], [51.75, -90.0], [50.25, -90.0]]]}, "properties": {"cell_id": "34_0", "lon": 51.0, "lat": -89.25}}, {"type": "Feature", "geometry": {"type": "Polygon", "coordinates": [[[50.25, -88.5], [50.25, -87.0], [51.75, -87.0], [51.75, -88.5], [50.25, -88.5]]]}, "properties": {"cell_id": "34_1", "lon": 51.0, "lat": -87.75}}, {"type": "Feature", "geometry": {"type": "Polygon", "coordinates": [[[50.25, -87.0], [50.25, -85.5], [51.75, -85.5], [51.75, -87.0], [50.25, -87.0]]]}, "properties": {"cell_id": "34_2", "lon": 51.0, "lat": -86.25}}, {"type": "Feature", "geometry": {"type": "Polygon", "coordinates": [[[50.25, -85.5], [50.25, -84.0], [51.75, -84.0], [51.75, -85.5], [50.25, -85.5]]]}, "properties": {"cell_id": "34_3", "lon": 51.0, "lat": -84.75}}, {"type": "Feature", "geometry": {"type": "Polygon", "coordinates": [[[50.25, -84.0], [50.25, -82.5], [51.75, -82.5], [51.75, -84.0], [50.25, -84.0]]]}, "properties": {"cell_id": "34_4", "lon": 51.0, "lat": -83.25}}, {"type": "Feature", "geometry": {"type": "Polygon", "coordinates": [[[50.25, -82.5], [50.25, -81.0], [51.75, -81.0], [51.75, -82.5], [50.25, -82.5]]]}, "properties": {"cell_id": "34_5", "lon": 51.0, "lat": -81.75}}, {"type": "Feature", "geometry": {"type": "Polygon", "coordinates": [[[50.25, -81.0], [50.25, -79.5], [51.75, -79.5], [51.75, -81.0], [50.25, -81.0]]]}, "properties": {"cell_id": "34_6", "lon": 51.0, "lat": -80.25}}, {"type": "Feature", "geometry": {"type": "Polygon", "coordinates": [[[51.75, -90.0], [51.75, -88.5], [53.25, -88.5], [53.25, -90.0], [51.75, -90.0]]]}, "properties": {"cell_id": "35_0", "lon": 52.5, "lat": -89.25}}, {"type": "Feature", "geometry": {"type": "Polygon", "coordinates": [[[51.75, -88.5], [51.75, -87.0], [53.25, -87.0], [53.25, -88.5], [51.75, -88.5]]]}, "properties": {"cell_id": "35_1", "lon": 52.5, "lat": -87.75}}, {"type": "Feature", "geometry": {"type": "Polygon", "coordinates": [[[51.75, -87.0], [51.75, -85.5], [53.25, -85.5], [53.25, -87.0], [51.75, -87.0]]]}, "properties": {"cell_id": "35_2", "lon": 52.5, "lat": -86.25}}, {"type": "Feature", "geometry": {"type": "Polygon", "coordinates": [[[51.75, -85.5], [51.75, -84.0], [53.25, -84.0], [53.25, -85.5], [51.75, -85.5]]]}, "properties": {"cell_id": "35_3", "lon": 52.5, "lat": -84.75}}, {"type": "Feature", "geometry": {"type": "Polygon", "coordinates": [[[51.75, -84.0], [51.75, -82.5], [53.25, -82.5], [53.25, -84.0], [51.75, -84.0]]]}, "properties": {"cell_id": "35_4", "lon": 52.5, "lat": -83.25}}, {"type": "Feature", "geometry": {"type": "Polygon", "coordinates": [[[51.75, -82.5], [51.75, -81.0], [53.25, -81.0], [53.25, -82.5], [51.75, -82.5]]]}, "properties": {"cell_id": "35_5", "lon": 52.5, "lat": -81.75}}, {"type": "Feature", "geometry": {"type": "Polygon", "coordinates": [[[51.75, -81.0], [51.75, -79.5], [53.25, -79.5], [53.25, -81.0], [51.75, -81.0]]]}, "properties": {"cell_id": "35_6", "lon": 52.5, "lat": -80.25}}, {"type": "Feature", "geometry": {"type": "Polygon", "coordinates": [[[53.25, -90.0], [53.25, -88.5], [54.75, -88.5], [54.75, -90.0], [53.25, -90.0]]]}, "properties": {"cell_id": "36_0", "lon": 54.0, "lat": -89.25}}, {"type": "Feature", "geometry": {"type": "Polygon", "coordinates": [[[53.25, -88.5], [53.25, -87.0], [54.75, -87.0], [54.75, -88.5], [53.25, -88.5]]]}, "properties": {"cell_id": "36_1", "lon": 54.0, "lat": -87.75}}, {"type": "Feature", "geometry": {"type": "Polygon", "coordinates": [[[53.25, -87.0], [53.25, -85.5], [54.75, -85.5], [54.75, -87.0], [53.25, -87.0]]]}, "properties": {"cell_id": "36_2", "lon": 54.0, "lat": -86.25}}, {"type": "Feature", "geometry": {"type": "Polygon", "coordinates": [[[53.25, -85.5], [53.25, -84.0], [54.75, -84.0], [54.75, -85.5], [53.25, -85.5]]]}, "properties": {"cell_id": "36_3", "lon": 54.0, "lat": -84.75}}, {"type": "Feature", "geometry": {"type": "Polygon", "coordinates": [[[53.25, -84.0], [53.25, -82.5], [54.75, -82.5], [54.75, -84.0], [53.25, -84.0]]]}, "properties": {"cell_id": "36_4", "lon": 54.0, "lat": -83.25}}, {"type": "Feature", "geometry": {"type": "Polygon", "coordinates": [[[53.25, -82.5], [53.25, -81.0], [54.75, -81.0], [54.75, -82.5], [53.25, -82.5]]]}, "properties": {"cell_id": "36_5", "lon": 54.0, "lat": -81.75}}, {"type": "Feature", "geometry": {"type": "Polygon", "coordinates": [[[53.25, -81.0], [53.25, -79.5], [54.75, -79.5], [54.75, -81.0], [53.25, -81.0]]]}, "properties": {"cell_id": "36_6", "lon": 54.0, "lat": -80.25}}, {"type": "Feature", "geometry": {"type": "Polygon", "coordinates": [[[54.75, -90.0], [54.75, -88.5], [56.25, -88.5], [56.25, -90.0], [54.75, -90.0]]]}, "properties": {"cell_id": "37_0", "lon": 55.5, "lat": -89.25}}, {"type": "Feature", "geometry": {"type": "Polygon", "coordinates": [[[54.75, -88.5], [54.75, -87.0], [56.25, -87.0], [56.25, -88.5], [54.75, -88.5]]]}, "properties": {"cell_id": "37_1", "lon": 55.5, "lat": -87.75}}, {"type": "Feature", "geometry": {"type": "Polygon", "coordinates": [[[54.75, -87.0], [54.75, -85.5], [56.25, -85.5], [56.25, -87.0], [54.75, -87.0]]]}, "properties": {"cell_id": "37_2", "lon": 55.5, "lat": -86.25}}, {"type": "Feature", "geometry": {"type": "Polygon", "coordinates": [[[54.75, -85.5], [54.75, -84.0], [56.25, -84.0], [56.25, -85.5], [54.75, -85.5]]]}, "properties": {"cell_id": "37_3", "lon": 55.5, "lat": -84.75}}, {"type": "Feature", "geometry": {"type": "Polygon", "coordinates": [[[54.75, -84.0], [54.75, -82.5], [56.25, -82.5], [56.25, -84.0], [54.75, -84.0]]]}, "properties": {"cell_id": "37_4", "lon": 55.5, "lat": -83.25}}, {"type": "Feature", "geometry": {"type": "Polygon", "coordinates": [[[54.75, -82.5], [54.75, -81.0], [56.25, -81.0], [56.25, -82.5], [54.75, -82.5]]]}, "properties": {"cell_id": "37_5", "lon": 55.5, "lat": -81.75}}, {"type": "Feature", "geometry": {"type": "Polygon", "coordinates": [[[54.75, -81.0], [54.75, -79.5], [56.25, -79.5], [56.25, -81.0], [54.75, -81.0]]]}, "properties": {"cell_id": "37_6", "lon": 55.5, "lat": -80.25}}, {"type": "Feature", "geometry": {"type": "Polygon", "coordinates": [[[56.25, -90.0], [56.25, -88.5], [57.75, -88.5], [57.75, -90.0], [56.25, -90.0]]]}, "properties": {"cell_id": "38_0", "lon": 57.0, "lat": -89.25}}, {"type": "Feature", "geometry": {"type": "Polygon", "coordinates": [[[56.25, -88.5], [56.25, -87.0], [57.75, -87.0], [57.75, -88.5], [56.25, -88.5]]]}, "properties": {"cell_id": "38_1", "lon": 57.0, "lat": -87.75}}, {"type": "Feature", "geometry": {"type": "Polygon", "coordinates": [[[56.25, -87.0], [56.25, -85.5], [57.75, -85.5], [57.75, -87.0], [56.25, -87.0]]]}, "properties": {"cell_id": "38_2", "lon": 57.0, "lat": -86.25}}, {"type": "Feature", "geometry": {"type": "Polygon", "coordinates": [[[56.25, -85.5], [56.25, -84.0], [57.75, -84.0], [57.75, -85.5], [56.25, -85.5]]]}, "properties": {"cell_id": "38_3", "lon": 57.0, "lat": -84.75}}, {"type": "Feature", "geometry": {"type": "Polygon", "coordinates": [[[56.25, -84.0], [56.25, -82.5], [57.75, -82.5], [57.75, -84.0], [56.25, -84.0]]]}, "properties": {"cell_id": "38_4", "lon": 57.0, "lat": -83.25}}, {"type": "Feature", "geometry": {"type": "Polygon", "coordinates": [[[56.25, -82.5], [56.25, -81.0], [57.75, -81.0], [57.75, -82.5], [56.25, -82.5]]]}, "properties": {"cell_id": "38_5", "lon": 57.0, "lat": -81.75}}, {"type": "Feature", "geometry": {"type": "Polygon", "coordinates": [[[56.25, -81.0], [56.25, -79.5], [57.75, -79.5], [57.75, -81.0], [56.25, -81.0]]]}, "properties": {"cell_id": "38_6", "lon": 57.0, "lat": -80.25}}, {"type": "Feature", "geometry": {"type": "Polygon", "coordinates": [[[57.75, -90.0], [57.75, -88.5], [59.25, -88.5], [59.25, -90.0], [57.75, -90.0]]]}, "properties": {"cell_id": "39_0", "lon": 58.5, "lat": -89.25}}, {"type": "Feature", "geometry": {"type": "Polygon", "coordinates": [[[57.75, -88.5], [57.75, -87.0], [59.25, -87.0], [59.25, -88.5], [57.75, -88.5]]]}, "properties": {"cell_id": "39_1", "lon": 58.5, "lat": -87.75}}, {"type": "Feature", "geometry": {"type": "Polygon", "coordinates": [[[57.75, -87.0], [57.75, -85.5], [59.25, -85.5], [59.25, -87.0], [57.75, -87.0]]]}, "properties": {"cell_id": "39_2", "lon": 58.5, "lat": -86.25}}, {"type": "Feature", "geometry": {"type": "Polygon", "coordinates": [[[57.75, -85.5], [57.75, -84.0], [59.25, -84.0], [59.25, -85.5], [57.75, -85.5]]]}, "properties": {"cell_id": "39_3", "lon": 58.5, "lat": -84.75}}, {"type": "Feature", "geometry": {"type": "Polygon", "coordinates": [[[57.75, -84.0], [57.75, -82.5], [59.25, -82.5], [59.25, -84.0], [57.75, -84.0]]]}, "properties": {"cell_id": "39_4", "lon": 58.5, "lat": -83.25}}, {"type": "Feature", "geometry": {"type": "Polygon", "coordinates": [[[57.75, -82.5], [57.75, -81.0], [59.25, -81.0], [59.25, -82.5], [57.75, -82.5]]]}, "properties": {"cell_id": "39_5", "lon": 58.5, "lat": -81.75}}, {"type": "Feature", "geometry": {"type": "Polygon", "coordinates": [[[57.75, -81.0], [57.75, -79.5], [59.25, -79.5], [59.25, -81.0], [57.75, -81.0]]]}, "properties": {"cell_id": "39_6", "lon": 58.5, "lat": -80.25}}, {"type": "Feature", "geometry": {"type": "Polygon", "coordinates": [[[59.25, -90.0], [59.25, -88.5], [60.75, -88.5], [60.75, -90.0], [59.25, -90.0]]]}, "properties": {"cell_id": "40_0", "lon": 60.0, "lat": -89.25}}, {"type": "Feature", "geometry": {"type": "Polygon", "coordinates": [[[59.25, -88.5], [59.25, -87.0], [60.75, -87.0], [60.75, -88.5], [59.25, -88.5]]]}, "properties": {"cell_id": "40_1", "lon": 60.0, "lat": -87.75}}, {"type": "Feature", "geometry": {"type": "Polygon", "coordinates": [[[59.25, -87.0], [59.25, -85.5], [60.75, -85.5], [60.75, -87.0], [59.25, -87.0]]]}, "properties": {"cell_id": "40_2", "lon": 60.0, "lat": -86.25}}, {"type": "Feature", "geometry": {"type": "Polygon", "coordinates": [[[59.25, -85.5], [59.25, -84.0], [60.75, -84.0], [60.75, -85.5], [59.25, -85.5]]]}, "properties": {"cell_id": "40_3", "lon": 60.0, "lat": -84.75}}, {"type": "Feature", "geometry": {"type": "Polygon", "coordinates": [[[59.25, -84.0], [59.25, -82.5], [60.75, -82.5], [60.75, -84.0], [59.25, -84.0]]]}, "properties": {"cell_id": "40_4", "lon": 60.0, "lat": -83.25}}, {"type": "Feature", "geometry": {"type": "Polygon", "coordinates": [[[59.25, -82.5], [59.25, -81.0], [60.75, -81.0], [60.75, -82.5], [59.25, -82.5]]]}, "properties": {"cell_id": "40_5", "lon": 60.0, "lat": -81.75}}, {"type": "Feature", "geometry": {"type": "Polygon", "coordinates": [[[59.25, -81.0], [59.25, -79.5], [60.75, -79.5], [60.75, -81.0], [59.25, -81.0]]]}, "properties": {"cell_id": "40_6", "lon": 60.0, "lat": -80.25}}]}