{"type": "FeatureCollection", "features": [{"type": "Feature", "geometry": {"type": "Polygon", "coordinates": [[[70.0, 60.0], [70.0, 62.5], [72.5, 62.5], [72.5, 60.0], [70.0, 60.0]]]}, "properties": {"cell_id": "28_60", "lon": 71.25, "lat": 61.25}}, {"type": "Feature", "geometry": {"type": "Polygon", "coordinates": [[[70.0, 62.5], [70.0, 65.0], [72.5, 65.0], [72.5, 62.5], [70.0, 62.5]]]}, "properties": {"cell_id": "28_61", "lon": 71.25, "lat": 63.75}}, {"type": "Feature", "geometry": {"type": "Polygon", "coordinates": [[[70.0, 65.0], [70.0, 67.5], [72.5, 67.5], [72.5, 65.0], [70.0, 65.0]]]}, "properties": {"cell_id": "28_62", "lon": 71.25, "lat": 66.25}}, {"type": "Feature", "geometry": {"type": "Polygon", "coordinates": [[[70.0, 67.5], [70.0, 70.0], [72.5, 70.0], [72.5, 67.5], [70.0, 67.5]]]}, "properties": {"cell_id": "28_63", "lon": 71.25, "lat": 68.75}}, {"type": "Feature", "geometry": {"type": "Polygon", "coordinates": [[[72.5, 60.0], [72.5, 62.5], [75.0, 62.5], [75.0, 60.0], [72.5, 60.0]]]}, "properties": {"cell_id": "29_60", "lon": 73.75, "lat": 61.25}}, {"type": "Feature", "geometry": {"type": "Polygon", "coordinates": [[[72.5, 62.5], [72.5, 65.0], [75.0, 65.0], [75.0, 62.5], [72.5, 62.5]]]}, "properties": {"cell_id": "29_61", "lon": 73.75, "lat": 63.75}}, {"type": "Feature", "geometry": {"type": "Polygon", "coordinates": [[[72.5, 65.0], [72.5, 67.5], [75.0, 67.5], [75.0, 65.0], [72.5, 65.0]]]}, "properties": {"cell_id": "29_62", "lon": 73.75, "lat": 66.25}}, {"type": "Feature", "geometry": {"type": "Polygon", "coordinates": [[[75.0, 60.0], [75.0, 62.5], [77.5, 62.5], [77.5, 60.0], [75.0, 60.0]]]}, "properties": {"cell_id": "30_60", "lon": 76.25, "lat": 61.25}}, {"type": "Feature", "geometry": {"type": "Polygon", "coordinates": [[[75.0, 62.5], [75.0, 65.0], [77.5, 65.0], [77.5, 62.5], [75.0, 62.5]]]}, "properties": {"cell_id": "30_61", "lon": 76.25, "lat": 63.75}}, {"type": "Feature", "geometry": {"type": "Polygon", "coordinates": [[[75.0, 65.0], [75.0, 67.5], [77.5, 67.5], [77.5, 65.0], [75.0, 65.0]]]}, "properties": {"cell_id": "30_62", "lon": 76.25, "lat": 66.25}}, {"type": "Feature", "geometry": {"type": "Polygon", "coordinates": [[[75.0, 67.5], [75.0, 70.0], [77.5, 70.0], [77.5, 67.5], [75.0, 67.5]]]}, "properties": {"cell_id": "30_63", "lon": 76.25, "lat": 68.75}}, {"type": "Feature", "geometry": {"type": "Polygon", "coordinates": [[[77.5, 60.0], [77.5, 62.5], [80.0, 62.5], [80.0, 60.0], [77.5, 60.0]]]}, "properties": {"cell_id": "31_60", "lon": 78.75, "lat": 61.25}}, {"type": "Feature", "geometry": {"type": "Polygon", "coordinates": [[[77.5, 62.5], [77.5, 65.0], [80.0, 65.0], [80.0, 62.5], [77.5, 62.5]]]}, "properties": {"cell_id": "31_61", "lon": 78.75, "lat": 63.75}}, {"type": "Feature", "geometry": {"type": "Polygon", "coordinates": [[[77.5, 65.0], [77.5, 67.5], [80.0, 67.5], [80.0, 65.0], [77.5, 65.0]]]}, "properties": {"cell_id": "31_62", "lon": 78.75, "lat": 66.25}}, {"type": "Feature", "geometry": {"type": "Polygon", "coordinates": [[[77.5, 67.5], [77.5, 70.0], [80.0, 70.0], [80.0, 67.5], [77.5, 67.5]]]}, "properties": {"cell_id": "31_63", "lon": 78.75, "lat": 68.75}}]}