{"type": "FeatureCollection", "features": [{"type": "Feature", "geometry": {"type": "Polygon", "coordinates": [[[140.25, 36.0], [140.25, 37.5], [141.75, 37.5], [141.75, 36.0], [140.25, 36.0]]]}, "properties": {"cell_id": "94_84", "lon": 141.0, "lat": 36.75}}, {"type": "Feature", "geometry": {"type": "Polygon", "coordinates": [[[140.25, 37.5], [140.25, 39.0], [141.75, 39.0], [141.75, 37.5], [140.25, 37.5]]]}, "properties": {"cell_id": "94_85", "lon": 141.0, "lat": 38.25}}, {"type": "Feature", "geometry": {"type": "Polygon", "coordinates": [[[140.25, 39.0], [140.25, 40.5], [141.75, 40.5], [141.75, 39.0], [140.25, 39.0]]]}, "properties": {"cell_id": "94_86", "lon": 141.0, "lat": 39.75}}, {"type": "Feature", "geometry": {"type": "Polygon", "coordinates": [[[141.75, 36.0], [141.75, 37.5], [143.25, 37.5], [143.25, 36.0], [141.75, 36.0]]]}, "properties": {"cell_id": "95_84", "lon": 142.5, "lat": 36.75}}, {"type": "Feature", "geometry": {"type": "Polygon", "coordinates": [[[141.75, 37.5], [141.75, 39.0], [143.25, 39.0], [143.25, 37.5], [141.75, 37.5]]]}, "properties": {"cell_id": "95_85", "lon": 142.5, "lat": 38.25}}, {"type": "Feature", "geometry": {"type": "Polygon", "coordinates": [[[141.75, 39.0], [141.75, 40.5], [143.25, 40.5], [143.25, 39.0], [141.75, 39.0]]]}, "properties": {"cell_id": "95_86", "lon": 142.5, "lat": 39.75}}]}