{"type": "FeatureCollection", "features": [{"type": "Feature", "geometry": {"type": "Polygon", "coordinates": [[[101.25, -90.0], [101.25, -88.5], [102.75, -88.5], [102.75, -90.0], [101.25, -90.0]]]}, "properties": {"cell_id": "68_0", "lon": 102.0, "lat": -89.25}}, {"type": "Feature", "geometry": {"type": "Polygon", "coordinates": [[[101.25, -88.5], [101.25, -87.0], [102.75, -87.0], [102.75, -88.5], [101.25, -88.5]]]}, "properties": {"cell_id": "68_1", "lon": 102.0, "lat": -87.75}}, {"type": "Feature", "geometry": {"type": "Polygon", "coordinates": [[[101.25, -87.0], [101.25, -85.5], [102.75, -85.5], [102.75, -87.0], [101.25, -87.0]]]}, "properties": {"cell_id": "68_2", "lon": 102.0, "lat": -86.25}}, {"type": "Feature", "geometry": {"type": "Polygon", "coordinates": [[[101.25, -85.5], [101.25, -84.0], [102.75, -84.0], [102.75, -85.5], [101.25, -85.5]]]}, "properties": {"cell_id": "68_3", "lon": 102.0, "lat": -84.75}}, {"type": "Feature", "geometry": {"type": "Polygon", "coordinates": [[[101.25, -84.0], [101.25, -82.5], [102.75, -82.5], [102.75, -84.0], [101.25, -84.0]]]}, "properties": {"cell_id": "68_4", "lon": 102.0, "lat": -83.25}}, {"type": "Feature", "geometry": {"type": "Polygon", "coordinates": [[[101.25, -82.5], [101.25, -81.0], [102.75, -81.0], [102.75, -82.5], [101.25, -82.5]]]}, "properties": {"cell_id": "68_5", "lon": 102.0, "lat": -81.75}}, {"type": "Feature", "geometry": {"type": "Polygon", "coordinates": [[[101.25, -81.0], [101.25, -79.5], [102.75, -79.5], [102.75, -81.0], [101.25, -81.0]]]}, "properties": {"cell_id": "68_6", "lon": 102.0, "lat": -80.25}}, {"type": "Feature", "geometry": {"type": "Polygon", "coordinates": [[[102.75, -90.0], [102.75, -88.5], [104.25, -88.5], [104.25, -90.0], [102.75, -90.0]]]}, "properties": {"cell_id": "69_0", "lon": 103.5, "lat": -89.25}}, {"type": "Feature", "geometry": {"type": "Polygon", "coordinates": [[[102.75, -88.5], [102.75, -87.0], [104.25, -87.0], [104.25, -88.5], [102.75, -88.5]]]}, "properties": {"cell_id": "69_1", "lon": 103.5, "lat": -87.75}}, {"type": "Feature", "geometry": {"type": "Polygon", "coordinates": [[[102.75, -87.0], [102.75, -85.5], [104.25, -85.5], [104.25, -87.0], [102.75, -87.0]]]}, "properties": {"cell_id": "69_2", "lon": 103.5, "lat": -86.25}}, {"type": "Feature", "geometry": {"type": "Polygon", "coordinates": [[[102.75, -85.5], [102.75, -84.0], [104.25, -84.0], [104.25, -85.5], [102.75, -85.5]]]}, "properties": {"cell_id": "69_3", "lon": 103.5, "lat": -84.75}}, {"type": "Feature", "geometry": {"type": "Polygon", "coordinates": [[[102.75, -84.0], [102.75, -82.5], [104.25, -82.5], [104.25, -84.0], [102.75, -84.0]]]}, "properties": {"cell_id": "69_4", "lon": 103.5, "lat": -83.25}}, {"type": "Feature", "geometry": {"type": "Polygon", "coordinates": [[[102.75, -82.5], [102.75, -81.0], [104.25, -81.0], [104.25, -82.5], [102.75, -82.5]]]}, "properties": {"cell_id": "69_5", "lon": 103.5, "lat": -81.75}}, {"type": "Feature", "geometry": {"type": "Polygon", "coordinates": [[[102.75, -81.0], [102.75, -79.5], [104.25, -79.5], [104.25, -81.0], [102.75, -81.0]]]}, "properties": {"cell_id": "69_6", "lon": 103.5, "lat": -80.25}}, {"type": "Feature", "geometry": {"type": "Polygon", "coordinates": [[[104.25, -90.0], [104.25, -88.5], [105.75, -88.5], [105.75, -90.0], [104.25, -90.0]]]}, "properties": {"cell_id": "70_0", "lon": 105.0, "lat": -89.25}}, {"type": "Feature", "geometry": {"type": "Polygon", "coordinates": [[[104.25, -88.5], [104.25, -87.0], [105.75, -87.0], [105.75, -88.5], [104.25, -88.5]]]}, "properties": {"cell_id": "70_1", "lon": 105.0, "lat": -87.75}}, {"type": "Feature", "geometry": {"type": "Polygon", "coordinates": [[[104.25, -87.0], [104.25, -85.5], [105.75, -85.5], [105.75, -87.0], [104.25, -87.0]]]}, "properties": {"cell_id": "70_2", "lon": 105.0, "lat": -86.25}}, {"type": "Feature", "geometry": {"type": "Polygon", "coordinates": [[[104.25, -85.5], [104.25, -84.0], [105.75, -84.0], [105.75, -85.5], [104.25, -85.5]]]}, "properties": {"cell_id": "70_3", "lon": 105.0, "lat": -84.75}}, {"type": "Feature", "geometry": {"type": "Polygon", "coordinates": [[[104.25, -84.0], [104.25, -82.5], [105.75, -82.5], [105.75, -84.0], [104.25, -84.0]]]}, "properties": {"cell_id": "70_4", "lon": 105.0, "lat": -83.25}}, {"type": "Feature", "geometry": {"type": "Polygon", "coordinates": [[[104.25, -82.5], [104.25, -81.0], [105.75, -81.0], [105.75, -82.5], [104.25, -82.5]]]}, "properties": {"cell_id": "70_5", "lon": 105.0, "lat": -81.75}}, {"type": "Feature", "geometry": {"type": "Polygon", "coordinates": [[[104.25, -81.0], [104.25, -79.5], [105.75, -79.5], [105.75, -81.0], [104.25, -81.0]]]}, "properties": {"cell_id": "70_6", "lon": 105.0, "lat": -80.25}}, {"type": "Feature", "geometry": {"type": "Polygon", "coordinates": [[[105.75, -90.0], [105.75, -88.5], [107.25, -88.5], [107.25, -90.0], [105.75, -90.0]]]}, "properties": {"cell_id": "71_0", "lon": 106.5, "lat": -89.25}}, {"type": "Feature", "geometry": {"type": "Polygon", "coordinates": [[[105.75, -88.5], [105.75, -87.0], [107.25, -87.0], [107.25, -88.5], [105.75, -88.5]]]}, "properties": {"cell_id": "71_1", "lon": 106.5, "lat": -87.75}}, {"type": "Feature", "geometry": {"type": "Polygon", "coordinates": [[[105.75, -87.0], [105.75, -85.5], [107.25, -85.5], [107.25, -87.0], [105.75, -87.0]]]}, "properties": {"cell_id": "71_2", "lon": 106.5, "lat": -86.25}}, {"type": "Feature", "geometry": {"type": "Polygon", "coordinates": [[[105.75, -85.5], [105.75, -84.0], [107.25, -84.0], [107.25, -85.5], [105.75, -85.5]]]}, "properties": {"cell_id": "71_3", "lon": 106.5, "lat": -84.75}}, {"type": "Feature", "geometry": {"type": "Polygon", "coordinates": [[[105.75, -84.0], [105.75, -82.5], [107.25, -82.5], [107.25, -84.0], [105.75, -84.0]]]}, "properties": {"cell_id": "71_4", "lon": 106.5, "lat": -83.25}}, {"type": "Feature", "geometry": {"type": "Polygon", "coordinates": [[[105.75, -82.5], [105.75, -81.0], [107.25, -81.0], [107.25, -82.5], [105.75, -82.5]]]}, "properties": {"cell_id": "71_5", "lon": 106.5, "lat": -81.75}}, {"type": "Feature", "geometry": {"type": "Polygon", "coordinates": [[[105.75, -81.0], [105.75, -79.5], [107.25, -79.5], [107.25, -81.0], [105.75, -81.0]]]}, "properties": {"cell_id": "71_6", "lon": 106.5, "lat": -80.25}}, {"type": "Feature", "geometry": {"type": "Polygon", "coordinates": [[[107.25, -90.0], [107.25, -88.5], [108.75, -88.5], [108.75, -90.0], [107.25, -90.0]]]}, "properties": {"cell_id": "72_0", "lon": 108.0, "lat": -89.25}}, {"type": "Feature", "geometry": {"type": "Polygon", "coordinates": [[[107.25, -88.5], [107.25, -87.0], [108.75, -87.0], [108.75, -88.5], [107.25, -88.5]]]}, "properties": {"cell_id": "72_1", "lon": 108.0, "lat": -87.75}}, {"type": "Feature", "geometry": {"type": "Polygon", "coordinates": [[[107.25, -87.0], [107.25, -85.5], [108.75, -85.5], [108.75, -87.0], [107.25, -87.0]]]}, "properties": {"cell_id": "72_2", "lon": 108.0, "lat": -86.25}}, {"type": "Feature", "geometry": {"type": "Polygon", "coordinates": [[[107.25, -85.5], [107.25, -84.0], [108.75, -84.0], [108.75, -85.5], [107.25, -85.5]]]}, "properties": {"cell_id": "72_3", "lon": 108.0, "lat": -84.75}}, {"type": "Feature", "geometry": {"type": "Polygon", "coordinates": [[[107.25, -84.0], [107.25, -82.5], [108.75, -82.5], [108.75, -84.0], [107.25, -84.0]]]}, "properties": {"cell_id": "72_4", "lon": 108.0, "lat": -83.25}}, {"type": "Feature", "geometry": {"type": "Polygon", "coordinates": [[[107.25, -82.5], [107.25, -81.0], [108.75, -81.0], [108.75, -82.5], [107.25, -82.5]]]}, "properties": {"cell_id": "72_5", "lon": 108.0, "lat": -81.75}}, {"type": "Feature", "geometry": {"type": "Polygon", "coordinates": [[[107.25, -81.0], [107.25, -79.5], [108.75, -79.5], [108.75, -81.0], [107.25, -81.0]]]}, "properties": {"cell_id": "72_6", "lon": 108.0, "lat": -80.25}}, {"type": "Feature", "geometry": {"type": "Polygon", "coordinates": [[[108.75, -90.0], [108.75, -88.5], [110.25, -88.5], [110.25, -90.0], [108.75, -90.0]]]}, "properties": {"cell_id": "73_0", "lon": 109.5, "lat": -89.25}}, {"type": "Feature", "geometry": {"type": "Polygon", "coordinates": [[[108.75, -88.5], [108.75, -87.0], [110.25, -87.0], [110.25, -88.5], [108.75, -88.5]]]}, "properties": {"cell_id": "73_1", "lon": 109.5, "lat": -87.75}}, {"type": "Feature", "geometry": {"type": "Polygon", "coordinates": [[[108.75, -87.0], [108.75, -85.5], [110.25, -85.5], [110.25, -87.0], [108.75, -87.0]]]}, "properties": {"cell_id": "73_2", "lon": 109.5, "lat": -86.25}}, {"type": "Feature", "geometry": {"type": "Polygon", "coordinates": [[[108.75, -85.5], [108.75, -84.0], [110.25, -84.0], [110.25, -85.5], [108.75, -85.5]]]}, "properties": {"cell_id": "73_3", "lon": 109.5, "lat": -84.75}}, {"type": "Feature", "geometry": {"type": "Polygon", "coordinates": [[[108.75, -84.0], [108.75, -82.5], [110.25, -82.5], [110.25, -84.0], [108.75, -84.0]]]}, "properties": {"cell_id": "73_4", "lon": 109.5, "lat": -83.25}}, {"type": "Feature", "geometry": {"type": "Polygon", "coordinates": [[[108.75, -82.5], [108.75, -81.0], [110.25, -81.0], [110.25, -82.5], [108.75, -82.5]]]}, "properties": {"cell_id": "73_5", "lon": 109.5, "lat": -81.75}}, {"type": "Feature", "geometry": {"type": "Polygon", "coordinates": [[[108.75, -81.0], [108.75, -79.5], [110.25, -79.5], [110.25, -81.0], [108.75, -81.0]]]}, "properties": {"cell_id": "73_6", "lon": 109.5, "lat": -80.25}}]}