{"type": "FeatureCollection", "features": [{"type": "Feature", "geometry": {"type": "Polygon", "coordinates": [[[-159.75, 70.5], [-159.75, 72.0], [-158.25, 72.0], [-158.25, 70.5], [-159.75, 70.5]]]}, "properties": {"cell_id": "134_107", "lon": -159.0, "lat": 71.25}}, {"type": "Feature", "geometry": {"type": "Polygon", "coordinates": [[[-158.25, 70.5], [-158.25, 72.0], [-156.75, 72.0], [-156.75, 70.5], [-158.25, 70.5]]]}, "properties": {"cell_id": "135_107", "lon": -157.5, "lat": 71.25}}, {"type": "Feature", "geometry": {"type": "Polygon", "coordinates": [[[-156.75, 70.5], [-156.75, 72.0], [-155.25, 72.0], [-155.25, 70.5], [-156.75, 70.5]]]}, "properties": {"cell_id": "136_107", "lon": -156.0, "lat": 71.25}}, {"type": "Feature", "geometry": {"type": "Polygon", "coordinates": [[[-155.25, 70.5], [-155.25, 72.0], [-153.75, 72.0], [-153.75, 70.5], [-155.25, 70.5]]]}, "properties": {"cell_id": "137_107", "lon": -154.5, "lat": 71.25}}, {"type": "Feature", "geometry": {"type": "Polygon", "coordinates": [[[-153.75, 70.5], [-153.75, 72.0], [-152.25, 72.0], [-152.25, 70.5], [-153.75, 70.5]]]}, "properties": {"cell_id": "138_107", "lon": -153.0, "lat": 71.25}}]}