{"type": "FeatureCollection", "features": [{"type": "Feature", "geometry": {"type": "Polygon", "coordinates": [[[90.0, 22.5], [90.0, 25.0], [92.5, 25.0], [92.5, 22.5], [90.0, 22.5]]]}, "properties": {"cell_id": "36_45", "lon": 91.25, "lat": 23.75}}, {"type": "Feature", "geometry": {"type": "Polygon", "coordinates": [[[90.0, 25.0], [90.0, 27.5], [92.5, 27.5], [92.5, 25.0], [90.0, 25.0]]]}, "properties": {"cell_id": "36_46", "lon": 91.25, "lat": 26.25}}, {"type": "Feature", "geometry": {"type": "Polygon", "coordinates": [[[90.0, 27.5], [90.0, 30.0], [92.5, 30.0], [92.5, 27.5], [90.0, 27.5]]]}, "properties": {"cell_id": "36_47", "lon": 91.25, "lat": 28.75}}, {"type": "Feature", "geometry": {"type": "Polygon", "coordinates": [[[92.5, 20.0], [92.5, 22.5], [95.0, 22.5], [95.0, 20.0], [92.5, 20.0]]]}, "properties": {"cell_id": "37_44", "lon": 93.75, "lat": 21.25}}, {"type": "Feature", "geometry": {"type": "Polygon", "coordinates": [[[92.5, 22.5], [92.5, 25.0], [95.0, 25.0], [95.0, 22.5], [92.5, 22.5]]]}, "properties": {"cell_id": "37_45", "lon": 93.75, "lat": 23.75}}, {"type": "Feature", "geometry": {"type": "Polygon", "coordinates": [[[92.5, 25.0], [92.5, 27.5], [95.0, 27.5], [95.0, 25.0], [92.5, 25.0]]]}, "properties": {"cell_id": "37_46", "lon": 93.75, "lat": 26.25}}, {"type": "Feature", "geometry": {"type": "Polygon", "coordinates": [[[92.5, 27.5], [92.5, 30.0], [95.0, 30.0], [95.0, 27.5], [92.5, 27.5]]]}, "properties": {"cell_id": "37_47", "lon": 93.75, "lat": 28.75}}, {"type": "Feature", "geometry": {"type": "Polygon", "coordinates": [[[95.0, 20.0], [95.0, 22.5], [97.5, 22.5], [97.5, 20.0], [95.0, 20.0]]]}, "properties": {"cell_id": "38_44", "lon": 96.25, "lat": 21.25}}, {"type": "Feature", "geometry": {"type": "Polygon", "coordinates": [[[95.0, 22.5], [95.0, 25.0], [97.5, 25.0], [97.5, 22.5], [95.0, 22.5]]]}, "properties": {"cell_id": "38_45", "lon": 96.25, "lat": 23.75}}, {"type": "Feature", "geometry": {"type": "Polygon", "coordinates": [[[95.0, 25.0], [95.0, 27.5], [97.5, 27.5], [97.5, 25.0], [95.0, 25.0]]]}, "properties": {"cell_id": "38_46", "lon": 96.25, "lat": 26.25}}, {"type": "Feature", "geometry": {"type": "Polygon", "coordinates": [[[95.0, 27.5], [95.0, 30.0], [97.5, 30.0], [97.5, 27.5], [95.0, 27.5]]]}, "properties": {"cell_id": "38_47", "lon": 96.25, "lat": 28.75}}, {"type": "Feature", "geometry": {"type": "Polygon", "coordinates": [[[97.5, 20.0], [97.5, 22.5], [100.0, 22.5], [100.0, 20.0], [97.5, 20.0]]]}, "properties": {"cell_id": "39_44", "lon": 98.75, "lat": 21.25}}, {"type": "Feature", "geometry": {"type": "Polygon", "coordinates": [[[97.5, 22.5], [97.5, 25.0], [100.0, 25.0], [100.0, 22.5], [97.5, 22.5]]]}, "properties": {"cell_id": "39_45", "lon": 98.75, "lat": 23.75}}, {"type": "Feature", "geometry": {"type": "Polygon", "coordinates": [[[97.5, 25.0], [97.5, 27.5], [100.0, 27.5], [100.0, 25.0], [97.5, 25.0]]]}, "properties": {"cell_id": "39_46", "lon": 98.75, "lat": 26.25}}, {"type": "Feature", "geometry": {"type": "Polygon", "coordinates": [[[97.5, 27.5], [97.5, 30.0], [100.0, 30.0], [100.0, 27.5], [97.5, 27.5]]]}, "properties": {"cell_id": "39_47", "lon": 98.75, "lat": 28.75}}]}