{"type": "FeatureCollection", "features": [{"type": "Feature", "geometry": {"type": "Polygon", "coordinates": [[[-77.25, 19.5], [-77.25, 21.0], [-75.75, 21.0], [-75.75, 19.5], [-77.25, 19.5]]]}, "properties": {"cell_id": "189_73", "lon": -76.5, "lat": 20.25}}, {"type": "Feature", "geometry": {"type": "Polygon", "coordinates": [[[-75.75, 10.5], [-75.75, 12.0], [-74.25, 12.0], [-74.25, 10.5], [-75.75, 10.5]]]}, "properties": {"cell_id": "190_67", "lon": -75.0, "lat": 11.25}}, {"type": "Feature", "geometry": {"type": "Polygon", "coordinates": [[[-74.25, 10.5], [-74.25, 12.0], [-72.75, 12.0], [-72.75, 10.5], [-74.25, 10.5]]]}, "properties": {"cell_id": "191_67", "lon": -73.5, "lat": 11.25}}, {"type": "Feature", "geometry": {"type": "Polygon", "coordinates": [[[-72.75, 10.5], [-72.75, 12.0], [-71.25, 12.0], [-71.25, 10.5], [-72.75, 10.5]]]}, "properties": {"cell_id": "192_67", "lon": -72.0, "lat": 11.25}}, {"type": "Feature", "geometry": {"type": "Polygon", "coordinates": [[[-72.75, 18.0], [-72.75, 19.5], [-71.25, 19.5], [-71.25, 18.0], [-72.75, 18.0]]]}, "properties": {"cell_id": "192_72", "lon": -72.0, "lat": 18.75}}, {"type": "Feature", "geometry": {"type": "Polygon", "coordinates": [[[-72.75, 19.5], [-72.75, 21.0], [-71.25, 21.0], [-71.25, 19.5], [-72.75, 19.5]]]}, "properties": {"cell_id": "192_73", "lon": -72.0, "lat": 20.25}}, {"type": "Feature", "geometry": {"type": "Polygon", "coordinates": [[[-71.25, 10.5], [-71.25, 12.0], [-69.75, 12.0], [-69.75, 10.5], [-71.25, 10.5]]]}, "properties": {"cell_id": "193_67", "lon": -70.5, "lat": 11.25}}, {"type": "Feature", "geometry": {"type": "Polygon", "coordinates": [[[-71.25, 18.0], [-71.25, 19.5], [-69.75, 19.5], [-69.75, 18.0], [-71.25, 18.0]]]}, "properties": {"cell_id": "193_72", "lon": -70.5, "lat": 18.75}}, {"type": "Feature", "geometry": {"type": "Polygon", "coordinates": [[[-71.25, 19.5], [-71.25, 21.0], [-69.75, 21.0], [-69.75, 19.5], [-71.25, 19.5]]]}, "properties": {"cell_id": "193_73", "lon": -70.5, "lat": 20.25}}]}