{"type": "FeatureCollection", "features": [{"type": "Feature", "geometry": {"type": "Polygon", "coordinates": [[[-160.0, 55.0], [-160.0, 57.5], [-157.5, 57.5], [-157.5, 55.0], [-160.0, 55.0]]]}, "properties": {"cell_id": "80_58", "lon": -158.75, "lat": 56.25}}, {"type": "Feature", "geometry": {"type": "Polygon", "coordinates": [[[-160.0, 57.5], [-160.0, 60.0], [-157.5, 60.0], [-157.5, 57.5], [-160.0, 57.5]]]}, "properties": {"cell_id": "80_59", "lon": -158.75, "lat": 58.75}}, {"type": "Feature", "geometry": {"type": "Polygon", "coordinates": [[[-157.5, 57.5], [-157.5, 60.0], [-155.0, 60.0], [-155.0, 57.5], [-157.5, 57.5]]]}, "properties": {"cell_id": "81_59", "lon": -156.25, "lat": 58.75}}, {"type": "Feature", "geometry": {"type": "Polygon", "coordinates": [[[-155.0, 57.5], [-155.0, 60.0], [-152.5, 60.0], [-152.5, 57.5], [-155.0, 57.5]]]}, "properties": {"cell_id": "82_59", "lon": -153.75, "lat": 58.75}}]}