{"type": "FeatureCollection", "features": [{"type": "Feature", "geometry": {"type": "Polygon", "coordinates": [[[-78.75, -79.5], [-78.75, -78.0], [-77.25, -78.0], [-77.25, -79.5], [-78.75, -79.5]]]}, "properties": {"cell_id": "188_7", "lon": -78.0, "lat": -78.75}}, {"type": "Feature", "geometry": {"type": "Polygon", "coordinates": [[[-78.75, -78.0], [-78.75, -76.5], [-77.25, -76.5], [-77.25, -78.0], [-78.75, -78.0]]]}, "properties": {"cell_id": "188_8", "lon": -78.0, "lat": -77.25}}, {"type": "Feature", "geometry": {"type": "Polygon", "coordinates": [[[-78.75, -76.5], [-78.75, -75.0], [-77.25, -75.0], [-77.25, -76.5], [-78.75, -76.5]]]}, "properties": {"cell_id": "188_9", "lon": -78.0, "lat": -75.75}}, {"type": "Feature", "geometry": {"type": "Polygon", "coordinates": [[[-78.75, -75.0], [-78.75, -73.5], [-77.25, -73.5], [-77.25, -75.0], [-78.75, -75.0]]]}, "properties": {"cell_id": "188_10", "lon": -78.0, "lat": -74.25}}, {"type": "Feature", "geometry": {"type": "Polygon", "coordinates": [[[-78.75, -73.5], [-78.75, -72.0], [-77.25, -72.0], [-77.25, -73.5], [-78.75, -73.5]]]}, "properties": {"cell_id": "188_11", "lon": -78.0, "lat": -72.75}}, {"type": "Feature", "geometry": {"type": "Polygon", "coordinates": [[[-77.25, -79.5], [-77.25, -78.0], [-75.75, -78.0], [-75.75, -79.5], [-77.25, -79.5]]]}, "properties": {"cell_id": "189_7", "lon": -76.5, "lat": -78.75}}, {"type": "Feature", "geometry": {"type": "Polygon", "coordinates": [[[-77.25, -78.0], [-77.25, -76.5], [-75.75, -76.5], [-75.75, -78.0], [-77.25, -78.0]]]}, "properties": {"cell_id": "189_8", "lon": -76.5, "lat": -77.25}}, {"type": "Feature", "geometry": {"type": "Polygon", "coordinates": [[[-77.25, -76.5], [-77.25, -75.0], [-75.75, -75.0], [-75.75, -76.5], [-77.25, -76.5]]]}, "properties": {"cell_id": "189_9", "lon": -76.5, "lat": -75.75}}, {"type": "Feature", "geometry": {"type": "Polygon", "coordinates": [[[-77.25, -75.0], [-77.25, -73.5], [-75.75, -73.5], [-75.75, -75.0], [-77.25, -75.0]]]}, "properties": {"cell_id": "189_10", "lon": -76.5, "lat": -74.25}}, {"type": "Feature", "geometry": {"type": "Polygon", "coordinates": [[[-77.25, -73.5], [-77.25, -72.0], [-75.75, -72.0], [-75.75, -73.5], [-77.25, -73.5]]]}, "properties": {"cell_id": "189_11", "lon": -76.5, "lat": -72.75}}, {"type": "Feature", "geometry": {"type": "Polygon", "coordinates": [[[-75.75, -79.5], [-75.75, -78.0], [-74.25, -78.0], [-74.25, -79.5], [-75.75, -79.5]]]}, "properties": {"cell_id": "190_7", "lon": -75.0, "lat": -78.75}}, {"type": "Feature", "geometry": {"type": "Polygon", "coordinates": [[[-75.75, -78.0], [-75.75, -76.5], [-74.25, -76.5], [-74.25, -78.0], [-75.75, -78.0]]]}, "properties": {"cell_id": "190_8", "lon": -75.0, "lat": -77.25}}, {"type": "Feature", "geometry": {"type": "Polygon", "coordinates": [[[-75.75, -76.5], [-75.75, -75.0], [-74.25, -75.0], [-74.25, -76.5], [-75.75, -76.5]]]}, "properties": {"cell_id": "190_9", "lon": -75.0, "lat": -75.75}}, {"type": "Feature", "geometry": {"type": "Polygon", "coordinates": [[[-75.75, -75.0], [-75.75, -73.5], [-74.25, -73.5], [-74.25, -75.0], [-75.75, -75.0]]]}, "properties": {"cell_id": "190_10", "lon": -75.0, "lat": -74.25}}, {"type": "Feature", "geometry": {"type": "Polygon", "coordinates": [[[-75.75, -73.5], [-75.75, -72.0], [-74.25, -72.0], [-74.25, -73.5], [-75.75, -73.5]]]}, "properties": {"cell_id": "190_11", "lon": -75.0, "lat": -72.75}}, {"type": "Feature", "geometry": {"type": "Polygon", "coordinates": [[[-75.75, -72.0], [-75.75, -70.5], [-74.25, -70.5], [-74.25, -72.0], [-75.75, -72.0]]]}, "properties": {"cell_id": "190_12", "lon": -75.0, "lat": -71.25}}, {"type": "Feature", "geometry": {"type": "Polygon", "coordinates": [[[-74.25, -79.5], [-74.25, -78.0], [-72.75, -78.0], [-72.75, -79.5], [-74.25, -79.5]]]}, "properties": {"cell_id": "191_7", "lon": -73.5, "lat": -78.75}}, {"type": "Feature", "geometry": {"type": "Polygon", "coordinates": [[[-74.25, -78.0], [-74.25, -76.5], [-72.75, -76.5], [-72.75, -78.0], [-74.25, -78.0]]]}, "properties": {"cell_id": "191_8", "lon": -73.5, "lat": -77.25}}, {"type": "Feature", "geometry": {"type": "Polygon", "coordinates": [[[-74.25, -76.5], [-74.25, -75.0], [-72.75, -75.0], [-72.75, -76.5], [-74.25, -76.5]]]}, "properties": {"cell_id": "191_9", "lon": -73.5, "lat": -75.75}}, {"type": "Feature", "geometry": {"type": "Polygon", "coordinates": [[[-74.25, -75.0], [-74.25, -73.5], [-72.75, -73.5], [-72.75, -75.0], [-74.25, -75.0]]]}, "properties": {"cell_id": "191_10", "lon": -73.5, "lat": -74.25}}, {"type": "Feature", "geometry": {"type": "Polygon", "coordinates": [[[-74.25, -73.5], [-74.25, -72.0], [-72.75, -72.0], [-72.75, -73.5], [-74.25, -73.5]]]}, "properties": {"cell_id": "191_11", "lon": -73.5, "lat": -72.75}}, {"type": "Feature", "geometry": {"type": "Polygon", "coordinates": [[[-74.25, -72.0], [-74.25, -70.5], [-72.75, -70.5], [-72.75, -72.0], [-74.25, -72.0]]]}, "properties": {"cell_id": "191_12", "lon": -73.5, "lat": -71.25}}, {"type": "Feature", "geometry": {"type": "Polygon", "coordinates": [[[-74.25, -70.5], [-74.25, -69.0], [-72.75, -69.0], [-72.75, -70.5], [-74.25, -70.5]]]}, "properties": {"cell_id": "191_13", "lon": -73.5, "lat": -69.75}}, {"type": "Feature", "geometry": {"type": "Polygon", "coordinates": [[[-72.75, -79.5], [-72.75, -78.0], [-71.25, -78.0], [-71.25, -79.5], [-72.75, -79.5]]]}, "properties": {"cell_id": "192_7", "lon": -72.0, "lat": -78.75}}, {"type": "Feature", "geometry": {"type": "Polygon", "coordinates": [[[-72.75, -78.0], [-72.75, -76.5], [-71.25, -76.5], [-71.25, -78.0], [-72.75, -78.0]]]}, "properties": {"cell_id": "192_8", "lon": -72.0, "lat": -77.25}}, {"type": "Feature", "geometry": {"type": "Polygon", "coordinates": [[[-72.75, -76.5], [-72.75, -75.0], [-71.25, -75.0], [-71.25, -76.5], [-72.75, -76.5]]]}, "properties": {"cell_id": "192_9", "lon": -72.0, "lat": -75.75}}, {"type": "Feature", "geometry": {"type": "Polygon", "coordinates": [[[-72.75, -75.0], [-72.75, -73.5], [-71.25, -73.5], [-71.25, -75.0], [-72.75, -75.0]]]}, "properties": {"cell_id": "192_10", "lon": -72.0, "lat": -74.25}}, {"type": "Feature", "geometry": {"type": "Polygon", "coordinates": [[[-72.75, -73.5], [-72.75, -72.0], [-71.25, -72.0], [-71.25, -73.5], [-72.75, -73.5]]]}, "properties": {"cell_id": "192_11", "lon": -72.0, "lat": -72.75}}, {"type": "Feature", "geometry": {"type": "Polygon", "coordinates": [[[-72.75, -72.0], [-72.75, -70.5], [-71.25, -70.5], [-71.25, -72.0], [-72.75, -72.0]]]}, "properties": {"cell_id": "192_12", "lon": -72.0, "lat": -71.25}}, {"type": "Feature", "geometry": {"type": "Polygon", "coordinates": [[[-72.75, -70.5], [-72.75, -69.0], [-71.25, -69.0], [-71.25, -70.5], [-72.75, -70.5]]]}, "properties": {"cell_id": "192_13", "lon": -72.0, "lat": -69.75}}, {"type": "Feature", "geometry": {"type": "Polygon", "coordinates": [[[-71.25, -79.5], [-71.25, -78.0], [-69.75, -78.0], [-69.75, -79.5], [-71.25, -79.5]]]}, "properties": {"cell_id": "193_7", "lon": -70.5, "lat": -78.75}}, {"type": "Feature", "geometry": {"type": "Polygon", "coordinates": [[[-71.25, -78.0], [-71.25, -76.5], [-69.75, -76.5], [-69.75, -78.0], [-71.25, -78.0]]]}, "properties": {"cell_id": "193_8", "lon": -70.5, "lat": -77.25}}, {"type": "Feature", "geometry": {"type": "Polygon", "coordinates": [[[-71.25, -76.5], [-71.25, -75.0], [-69.75, -75.0], [-69.75, -76.5], [-71.25, -76.5]]]}, "properties": {"cell_id": "193_9", "lon": -70.5, "lat": -75.75}}, {"type": "Feature", "geometry": {"type": "Polygon", "coordinates": [[[-71.25, -75.0], [-71.25, -73.5], [-69.75, -73.5], [-69.75, -75.0], [-71.25, -75.0]]]}, "properties": {"cell_id": "193_10", "lon": -70.5, "lat": -74.25}}, {"type": "Feature", "geometry": {"type": "Polygon", "coordinates": [[[-71.25, -73.5], [-71.25, -72.0], [-69.75, -72.0], [-69.75, -73.5], [-71.25, -73.5]]]}, "properties": {"cell_id": "193_11", "lon": -70.5, "lat": -72.75}}, {"type": "Feature", "geometry": {"type": "Polygon", "coordinates": [[[-71.25, -72.0], [-71.25, -70.5], [-69.75, -70.5], [-69.75, -72.0], [-71.25, -72.0]]]}, "properties": {"cell_id": "193_12", "lon": -70.5, "lat": -71.25}}, {"type": "Feature", "geometry": {"type": "Polygon", "coordinates": [[[-71.25, -70.5], [-71.25, -69.0], [-69.75, -69.0], [-69.75, -70.5], [-71.25, -70.5]]]}, "properties": {"cell_id": "193_13", "lon": -70.5, "lat": -69.75}}]}