{"type": "FeatureCollection", "features": [{"type": "Feature", "geometry": {"type": "Polygon", "coordinates": [[[71.25, 30.0], [71.25, 31.5], [72.75, 31.5], [72.75, 30.0], [71.25, 30.0]]]}, "properties": {"cell_id": "48_80", "lon": 72.0, "lat": 30.75}}, {"type": "Feature", "geometry": {"type": "Polygon", "coordinates": [[[71.25, 31.5], [71.25, 33.0], [72.75, 33.0], [72.75, 31.5], [71.25, 31.5]]]}, "properties": {"cell_id": "48_81", "lon": 72.0, "lat": 32.25}}, {"type": "Feature", "geometry": {"type": "Polygon", "coordinates": [[[71.25, 33.0], [71.25, 34.5], [72.75, 34.5], [72.75, 33.0], [71.25, 33.0]]]}, "properties": {"cell_id": "48_82", "lon": 72.0, "lat": 33.75}}, {"type": "Feature", "geometry": {"type": "Polygon", "coordinates": [[[71.25, 34.5], [71.25, 36.0], [72.75, 36.0], [72.75, 34.5], [71.25, 34.5]]]}, "properties": {"cell_id": "48_83", "lon": 72.0, "lat": 35.25}}, {"type": "Feature", "geometry": {"type": "Polygon", "coordinates": [[[71.25, 36.0], [71.25, 37.5], [72.75, 37.5], [72.75, 36.0], [71.25, 36.0]]]}, "properties": {"cell_id": "48_84", "lon": 72.0, "lat": 36.75}}, {"type": "Feature", "geometry": {"type": "Polygon", "coordinates": [[[71.25, 37.5], [71.25, 39.0], [72.75, 39.0], [72.75, 37.5], [71.25, 37.5]]]}, "properties": {"cell_id": "48_85", "lon": 72.0, "lat": 38.25}}, {"type": "Feature", "geometry": {"type": "Polygon", "coordinates": [[[71.25, 39.0], [71.25, 40.5], [72.75, 40.5], [72.75, 39.0], [71.25, 39.0]]]}, "properties": {"cell_id": "48_86", "lon": 72.0, "lat": 39.75}}, {"type": "Feature", "geometry": {"type": "Polygon", "coordinates": [[[72.75, 30.0], [72.75, 31.5], [74.25, 31.5], [74.25, 30.0], [72.75, 30.0]]]}, "properties": {"cell_id": "49_80", "lon": 73.5, "lat": 30.75}}, {"type": "Feature", "geometry": {"type": "Polygon", "coordinates": [[[72.75, 31.5], [72.75, 33.0], [74.25, 33.0], [74.25, 31.5], [72.75, 31.5]]]}, "properties": {"cell_id": "49_81", "lon": 73.5, "lat": 32.25}}, {"type": "Feature", "geometry": {"type": "Polygon", "coordinates": [[[72.75, 33.0], [72.75, 34.5], [74.25, 34.5], [74.25, 33.0], [72.75, 33.0]]]}, "properties": {"cell_id": "49_82", "lon": 73.5, "lat": 33.75}}, {"type": "Feature", "geometry": {"type": "Polygon", "coordinates": [[[72.75, 34.5], [72.75, 36.0], [74.25, 36.0], [74.25, 34.5], [72.75, 34.5]]]}, "properties": {"cell_id": "49_83", "lon": 73.5, "lat": 35.25}}, {"type": "Feature", "geometry": {"type": "Polygon", "coordinates": [[[72.75, 36.0], [72.75, 37.5], [74.25, 37.5], [74.25, 36.0], [72.75, 36.0]]]}, "properties": {"cell_id": "49_84", "lon": 73.5, "lat": 36.75}}, {"type": "Feature", "geometry": {"type": "Polygon", "coordinates": [[[72.75, 37.5], [72.75, 39.0], [74.25, 39.0], [74.25, 37.5], [72.75, 37.5]]]}, "properties": {"cell_id": "49_85", "lon": 73.5, "lat": 38.25}}, {"type": "Feature", "geometry": {"type": "Polygon", "coordinates": [[[72.75, 39.0], [72.75, 40.5], [74.25, 40.5], [74.25, 39.0], [72.75, 39.0]]]}, "properties": {"cell_id": "49_86", "lon": 73.5, "lat": 39.75}}, {"type": "Feature", "geometry": {"type": "Polygon", "coordinates": [[[74.25, 30.0], [74.25, 31.5], [75.75, 31.5], [75.75, 30.0], [74.25, 30.0]]]}, "properties": {"cell_id": "50_80", "lon": 75.0, "lat": 30.75}}, {"type": "Feature", "geometry": {"type": "Polygon", "coordinates": [[[74.25, 31.5], [74.25, 33.0], [75.75, 33.0], [75.75, 31.5], [74.25, 31.5]]]}, "properties": {"cell_id": "50_81", "lon": 75.0, "lat": 32.25}}, {"type": "Feature", "geometry": {"type": "Polygon", "coordinates": [[[74.25, 33.0], [74.25, 34.5], [75.75, 34.5], [75.75, 33.0], [74.25, 33.0]]]}, "properties": {"cell_id": "50_82", "lon": 75.0, "lat": 33.75}}, {"type": "Feature", "geometry": {"type": "Polygon", "coordinates": [[[74.25, 34.5], [74.25, 36.0], [75.75, 36.0], [75.75, 34.5], [74.25, 34.5]]]}, "properties": {"cell_id": "50_83", "lon": 75.0, "lat": 35.25}}, {"type": "Feature", "geometry": {"type": "Polygon", "coordinates": [[[74.25, 36.0], [74.25, 37.5], [75.75, 37.5], [75.75, 36.0], [74.25, 36.0]]]}, "properties": {"cell_id": "50_84", "lon": 75.0, "lat": 36.75}}, {"type": "Feature", "geometry": {"type": "Polygon", "coordinates": [[[74.25, 37.5], [74.25, 39.0], [75.75, 39.0], [75.75, 37.5], [74.25, 37.5]]]}, "properties": {"cell_id": "50_85", "lon": 75.0, "lat": 38.25}}, {"type": "Feature", "geometry": {"type": "Polygon", "coordinates": [[[74.25, 39.0], [74.25, 40.5], [75.75, 40.5], [75.75, 39.0], [74.25, 39.0]]]}, "properties": {"cell_id": "50_86", "lon": 75.0, "lat": 39.75}}, {"type": "Feature", "geometry": {"type": "Polygon", "coordinates": [[[75.75, 30.0], [75.75, 31.5], [77.25, 31.5], [77.25, 30.0], [75.75, 30.0]]]}, "properties": {"cell_id": "51_80", "lon": 76.5, "lat": 30.75}}, {"type": "Feature", "geometry": {"type": "Polygon", "coordinates": [[[75.75, 31.5], [75.75, 33.0], [77.25, 33.0], [77.25, 31.5], [75.75, 31.5]]]}, "properties": {"cell_id": "51_81", "lon": 76.5, "lat": 32.25}}, {"type": "Feature", "geometry": {"type": "Polygon", "coordinates": [[[75.75, 33.0], [75.75, 34.5], [77.25, 34.5], [77.25, 33.0], [75.75, 33.0]]]}, "properties": {"cell_id": "51_82", "lon": 76.5, "lat": 33.75}}, {"type": "Feature", "geometry": {"type": "Polygon", "coordinates": [[[75.75, 34.5], [75.75, 36.0], [77.25, 36.0], [77.25, 34.5], [75.75, 34.5]]]}, "properties": {"cell_id": "51_83", "lon": 76.5, "lat": 35.25}}, {"type": "Feature", "geometry": {"type": "Polygon", "coordinates": [[[75.75, 36.0], [75.75, 37.5], [77.25, 37.5], [77.25, 36.0], [75.75, 36.0]]]}, "properties": {"cell_id": "51_84", "lon": 76.5, "lat": 36.75}}, {"type": "Feature", "geometry": {"type": "Polygon", "coordinates": [[[75.75, 37.5], [75.75, 39.0], [77.25, 39.0], [77.25, 37.5], [75.75, 37.5]]]}, "properties": {"cell_id": "51_85", "lon": 76.5, "lat": 38.25}}, {"type": "Feature", "geometry": {"type": "Polygon", "coordinates": [[[75.75, 39.0], [75.75, 40.5], [77.25, 40.5], [77.25, 39.0], [75.75, 39.0]]]}, "properties": {"cell_id": "51_86", "lon": 76.5, "lat": 39.75}}, {"type": "Feature", "geometry": {"type": "Polygon", "coordinates": [[[77.25, 30.0], [77.25, 31.5], [78.75, 31.5], [78.75, 30.0], [77.25, 30.0]]]}, "properties": {"cell_id": "52_80", "lon": 78.0, "lat": 30.75}}, {"type": "Feature", "geometry": {"type": "Polygon", "coordinates": [[[77.25, 31.5], [77.25, 33.0], [78.75, 33.0], [78.75, 31.5], [77.25, 31.5]]]}, "properties": {"cell_id": "52_81", "lon": 78.0, "lat": 32.25}}, {"type": "Feature", "geometry": {"type": "Polygon", "coordinates": [[[77.25, 33.0], [77.25, 34.5], [78.75, 34.5], [78.75, 33.0], [77.25, 33.0]]]}, "properties": {"cell_id": "52_82", "lon": 78.0, "lat": 33.75}}, {"type": "Feature", "geometry": {"type": "Polygon", "coordinates": [[[77.25, 34.5], [77.25, 36.0], [78.75, 36.0], [78.75, 34.5], [77.25, 34.5]]]}, "properties": {"cell_id": "52_83", "lon": 78.0, "lat": 35.25}}, {"type": "Feature", "geometry": {"type": "Polygon", "coordinates": [[[77.25, 36.0], [77.25, 37.5], [78.75, 37.5], [78.75, 36.0], [77.25, 36.0]]]}, "properties": {"cell_id": "52_84", "lon": 78.0, "lat": 36.75}}, {"type": "Feature", "geometry": {"type": "Polygon", "coordinates": [[[77.25, 37.5], [77.25, 39.0], [78.75, 39.0], [78.75, 37.5], [77.25, 37.5]]]}, "properties": {"cell_id": "52_85", "lon": 78.0, "lat": 38.25}}, {"type": "Feature", "geometry": {"type": "Polygon", "coordinates": [[[77.25, 39.0], [77.25, 40.5], [78.75, 40.5], [78.75, 39.0], [77.25, 39.0]]]}, "properties": {"cell_id": "52_86", "lon": 78.0, "lat": 39.75}}, {"type": "Feature", "geometry": {"type": "Polygon", "coordinates": [[[78.75, 30.0], [78.75, 31.5], [80.25, 31.5], [80.25, 30.0], [78.75, 30.0]]]}, "properties": {"cell_id": "53_80", "lon": 79.5, "lat": 30.75}}, {"type": "Feature", "geometry": {"type": "Polygon", "coordinates": [[[78.75, 31.5], [78.75, 33.0], [80.25, 33.0], [80.25, 31.5], [78.75, 31.5]]]}, "properties": {"cell_id": "53_81", "lon": 79.5, "lat": 32.25}}, {"type": "Feature", "geometry": {"type": "Polygon", "coordinates": [[[78.75, 33.0], [78.75, 34.5], [80.25, 34.5], [80.25, 33.0], [78.75, 33.0]]]}, "properties": {"cell_id": "53_82", "lon": 79.5, "lat": 33.75}}, {"type": "Feature", "geometry": {"type": "Polygon", "coordinates": [[[78.75, 34.5], [78.75, 36.0], [80.25, 36.0], [80.25, 34.5], [78.75, 34.5]]]}, "properties": {"cell_id": "53_83", "lon": 79.5, "lat": 35.25}}, {"type": "Feature", "geometry": {"type": "Polygon", "coordinates": [[[78.75, 36.0], [78.75, 37.5], [80.25, 37.5], [80.25, 36.0], [78.75, 36.0]]]}, "properties": {"cell_id": "53_84", "lon": 79.5, "lat": 36.75}}, {"type": "Feature", "geometry": {"type": "Polygon", "coordinates": [[[78.75, 37.5], [78.75, 39.0], [80.25, 39.0], [80.25, 37.5], [78.75, 37.5]]]}, "properties": {"cell_id": "53_85", "lon": 79.5, "lat": 38.25}}, {"type": "Feature", "geometry": {"type": "Polygon", "coordinates": [[[78.75, 39.0], [78.75, 40.5], [80.25, 40.5], [80.25, 39.0], [78.75, 39.0]]]}, "properties": {"cell_id": "53_86", "lon": 79.5, "lat": 39.75}}]}