{"type": "FeatureCollection", "features": [{"type": "Feature", "geometry": {"type": "Polygon", "coordinates": [[[-90.0, 65.0], [-90.0, 67.5], [-87.5, 67.5], [-87.5, 65.0], [-90.0, 65.0]]]}, "properties": {"cell_id": "108_62", "lon": -88.75, "lat": 66.25}}, {"type": "Feature", "geometry": {"type": "Polygon", "coordinates": [[[-90.0, 67.5], [-90.0, 70.0], [-87.5, 70.0], [-87.5, 67.5], [-90.0, 67.5]]]}, "properties": {"cell_id": "108_63", "lon": -88.75, "lat": 68.75}}, {"type": "Feature", "geometry": {"type": "Polygon", "coordinates": [[[-87.5, 62.5], [-87.5, 65.0], [-85.0, 65.0], [-85.0, 62.5], [-87.5, 62.5]]]}, "properties": {"cell_id": "109_61", "lon": -86.25, "lat": 63.75}}, {"type": "Feature", "geometry": {"type": "Polygon", "coordinates": [[[-87.5, 65.0], [-87.5, 67.5], [-85.0, 67.5], [-85.0, 65.0], [-87.5, 65.0]]]}, "properties": {"cell_id": "109_62", "lon": -86.25, "lat": 66.25}}, {"type": "Feature", "geometry": {"type": "Polygon", "coordinates": [[[-85.0, 67.5], [-85.0, 70.0], [-82.5, 70.0], [-82.5, 67.5], [-85.0, 67.5]]]}, "properties": {"cell_id": "110_63", "lon": -83.75, "lat": 68.75}}, {"type": "Feature", "geometry": {"type": "Polygon", "coordinates": [[[-82.5, 62.5], [-82.5, 65.0], [-80.0, 65.0], [-80.0, 62.5], [-82.5, 62.5]]]}, "properties": {"cell_id": "111_61", "lon": -81.25, "lat": 63.75}}, {"type": "Feature", "geometry": {"type": "Polygon", "coordinates": [[[-82.5, 67.5], [-82.5, 70.0], [-80.0, 70.0], [-80.0, 67.5], [-82.5, 67.5]]]}, "properties": {"cell_id": "111_63", "lon": -81.25, "lat": 68.75}}]}