{"type": "FeatureCollection", "features": [{"type": "Feature", "geometry": {"type": "Polygon", "coordinates": [[[80.0, 50.0], [80.0, 52.5], [82.5, 52.5], [82.5, 50.0], [80.0, 50.0]]]}, "properties": {"cell_id": "32_56", "lon": 81.25, "lat": 51.25}}, {"type": "Feature", "geometry": {"type": "Polygon", "coordinates": [[[80.0, 52.5], [80.0, 55.0], [82.5, 55.0], [82.5, 52.5], [80.0, 52.5]]]}, "properties": {"cell_id": "32_57", "lon": 81.25, "lat": 53.75}}, {"type": "Feature", "geometry": {"type": "Polygon", "coordinates": [[[80.0, 55.0], [80.0, 57.5], [82.5, 57.5], [82.5, 55.0], [80.0, 55.0]]]}, "properties": {"cell_id": "32_58", "lon": 81.25, "lat": 56.25}}, {"type": "Feature", "geometry": {"type": "Polygon", "coordinates": [[[80.0, 57.5], [80.0, 60.0], [82.5, 60.0], [82.5, 57.5], [80.0, 57.5]]]}, "properties": {"cell_id": "32_59", "lon": 81.25, "lat": 58.75}}, {"type": "Feature", "geometry": {"type": "Polygon", "coordinates": [[[82.5, 50.0], [82.5, 52.5], [85.0, 52.5], [85.0, 50.0], [82.5, 50.0]]]}, "properties": {"cell_id": "33_56", "lon": 83.75, "lat": 51.25}}, {"type": "Feature", "geometry": {"type": "Polygon", "coordinates": [[[82.5, 52.5], [82.5, 55.0], [85.0, 55.0], [85.0, 52.5], [82.5, 52.5]]]}, "properties": {"cell_id": "33_57", "lon": 83.75, "lat": 53.75}}, {"type": "Feature", "geometry": {"type": "Polygon", "coordinates": [[[82.5, 55.0], [82.5, 57.5], [85.0, 57.5], [85.0, 55.0], [82.5, 55.0]]]}, "properties": {"cell_id": "33_58", "lon": 83.75, "lat": 56.25}}, {"type": "Feature", "geometry": {"type": "Polygon", "coordinates": [[[82.5, 57.5], [82.5, 60.0], [85.0, 60.0], [85.0, 57.5], [82.5, 57.5]]]}, "properties": {"cell_id": "33_59", "lon": 83.75, "lat": 58.75}}, {"type": "Feature", "geometry": {"type": "Polygon", "coordinates": [[[85.0, 50.0], [85.0, 52.5], [87.5, 52.5], [87.5, 50.0], [85.0, 50.0]]]}, "properties": {"cell_id": "34_56", "lon": 86.25, "lat": 51.25}}, {"type": "Feature", "geometry": {"type": "Polygon", "coordinates": [[[85.0, 52.5], [85.0, 55.0], [87.5, 55.0], [87.5, 52.5], [85.0, 52.5]]]}, "properties": {"cell_id": "34_57", "lon": 86.25, "lat": 53.75}}, {"type": "Feature", "geometry": {"type": "Polygon", "coordinates": [[[85.0, 55.0], [85.0, 57.5], [87.5, 57.5], [87.5, 55.0], [85.0, 55.0]]]}, "properties": {"cell_id": "34_58", "lon": 86.25, "lat": 56.25}}, {"type": "Feature", "geometry": {"type": "Polygon", "coordinates": [[[85.0, 57.5], [85.0, 60.0], [87.5, 60.0], [87.5, 57.5], [85.0, 57.5]]]}, "properties": {"cell_id": "34_59", "lon": 86.25, "lat": 58.75}}, {"type": "Feature", "geometry": {"type": "Polygon", "coordinates": [[[87.5, 50.0], [87.5, 52.5], [90.0, 52.5], [90.0, 50.0], [87.5, 50.0]]]}, "properties": {"cell_id": "35_56", "lon": 88.75, "lat": 51.25}}, {"type": "Feature", "geometry": {"type": "Polygon", "coordinates": [[[87.5, 52.5], [87.5, 55.0], [90.0, 55.0], [90.0, 52.5], [87.5, 52.5]]]}, "properties": {"cell_id": "35_57", "lon": 88.75, "lat": 53.75}}, {"type": "Feature", "geometry": {"type": "Polygon", "coordinates": [[[87.5, 55.0], [87.5, 57.5], [90.0, 57.5], [90.0, 55.0], [87.5, 55.0]]]}, "properties": {"cell_id": "35_58", "lon": 88.75, "lat": 56.25}}, {"type": "Feature", "geometry": {"type": "Polygon", "coordinates": [[[87.5, 57.5], [87.5, 60.0], [90.0, 60.0], [90.0, 57.5], [87.5, 57.5]]]}, "properties": {"cell_id": "35_59", "lon": 88.75, "lat": 58.75}}]}