{"type": "FeatureCollection", "features": [{"type": "Feature", "geometry": {"type": "Polygon", "coordinates": [[[140.0, -10.0], [140.0, -7.5], [142.5, -7.5], [142.5, -10.0], [140.0, -10.0]]]}, "properties": {"cell_id": "56_32", "lon": 141.25, "lat": -8.75}}, {"type": "Feature", "geometry": {"type": "Polygon", "coordinates": [[[140.0, -7.5], [140.0, -5.0], [142.5, -5.0], [142.5, -7.5], [140.0, -7.5]]]}, "properties": {"cell_id": "56_33", "lon": 141.25, "lat": -6.25}}, {"type": "Feature", "geometry": {"type": "Polygon", "coordinates": [[[140.0, -5.0], [140.0, -2.5], [142.5, -2.5], [142.5, -5.0], [140.0, -5.0]]]}, "properties": {"cell_id": "56_34", "lon": 141.25, "lat": -3.75}}, {"type": "Feature", "geometry": {"type": "Polygon", "coordinates": [[[142.5, -7.5], [142.5, -5.0], [145.0, -5.0], [145.0, -7.5], [142.5, -7.5]]]}, "properties": {"cell_id": "57_33", "lon": 143.75, "lat": -6.25}}, {"type": "Feature", "geometry": {"type": "Polygon", "coordinates": [[[142.5, -5.0], [142.5, -2.5], [145.0, -2.5], [145.0, -5.0], [142.5, -5.0]]]}, "properties": {"cell_id": "57_34", "lon": 143.75, "lat": -3.75}}, {"type": "Feature", "geometry": {"type": "Polygon", "coordinates": [[[145.0, -7.5], [145.0, -5.0], [147.5, -5.0], [147.5, -7.5], [145.0, -7.5]]]}, "properties": {"cell_id": "58_33", "lon": 146.25, "lat": -6.25}}]}