{"type": "FeatureCollection", "features": [{"type": "Feature", "geometry": {"type": "Polygon", "coordinates": [[[90.75, 40.5], [90.75, 42.0], [92.25, 42.0], [92.25, 40.5], [90.75, 40.5]]]}, "properties": {"cell_id": "61_87", "lon": 91.5, "lat": 41.25}}, {"type": "Feature", "geometry": {"type": "Polygon", "coordinates": [[[90.75, 42.0], [90.75, 43.5], [92.25, 43.5], [92.25, 42.0], [90.75, 42.0]]]}, "properties": {"cell_id": "61_88", "lon": 91.5, "lat": 42.75}}, {"type": "Feature", "geometry": {"type": "Polygon", "coordinates": [[[90.75, 43.5], [90.75, 45.0], [92.25, 45.0], [92.25, 43.5], [90.75, 43.5]]]}, "properties": {"cell_id": "61_89", "lon": 91.5, "lat": 44.25}}, {"type": "Feature", "geometry": {"type": "Polygon", "coordinates": [[[90.75, 45.0], [90.75, 46.5], [92.25, 46.5], [92.25, 45.0], [90.75, 45.0]]]}, "properties": {"cell_id": "61_90", "lon": 91.5, "lat": 45.75}}, {"type": "Feature", "geometry": {"type": "Polygon", "coordinates": [[[90.75, 46.5], [90.75, 48.0], [92.25, 48.0], [92.25, 46.5], [90.75, 46.5]]]}, "properties": {"cell_id": "61_91", "lon": 91.5, "lat": 47.25}}, {"type": "Feature", "geometry": {"type": "Polygon", "coordinates": [[[90.75, 48.0], [90.75, 49.5], [92.25, 49.5], [92.25, 48.0], [90.75, 48.0]]]}, "properties": {"cell_id": "61_92", "lon": 91.5, "lat": 48.75}}, {"type": "Feature", "geometry": {"type": "Polygon", "coordinates": [[[90.75, 49.5], [90.75, 51.0], [92.25, 51.0], [92.25, 49.5], [90.75, 49.5]]]}, "properties": {"cell_id": "61_93", "lon": 91.5, "lat": 50.25}}, {"type": "Feature", "geometry": {"type": "Polygon", "coordinates": [[[92.25, 40.5], [92.25, 42.0], [93.75, 42.0], [93.75, 40.5], [92.25, 40.5]]]}, "properties": {"cell_id": "62_87", "lon": 93.0, "lat": 41.25}}, {"type": "Feature", "geometry": {"type": "Polygon", "coordinates": [[[92.25, 42.0], [92.25, 43.5], [93.75, 43.5], [93.75, 42.0], [92.25, 42.0]]]}, "properties": {"cell_id": "62_88", "lon": 93.0, "lat": 42.75}}, {"type": "Feature", "geometry": {"type": "Polygon", "coordinates": [[[92.25, 43.5], [92.25, 45.0], [93.75, 45.0], [93.75, 43.5], [92.25, 43.5]]]}, "properties": {"cell_id": "62_89", "lon": 93.0, "lat": 44.25}}, {"type": "Feature", "geometry": {"type": "Polygon", "coordinates": [[[92.25, 45.0], [92.25, 46.5], [93.75, 46.5], [93.75, 45.0], [92.25, 45.0]]]}, "properties": {"cell_id": "62_90", "lon": 93.0, "lat": 45.75}}, {"type": "Feature", "geometry": {"type": "Polygon", "coordinates": [[[92.25, 46.5], [92.25, 48.0], [93.75, 48.0], [93.75, 46.5], [92.25, 46.5]]]}, "properties": {"cell_id": "62_91", "lon": 93.0, "lat": 47.25}}, {"type": "Feature", "geometry": {"type": "Polygon", "coordinates": [[[92.25, 48.0], [92.25, 49.5], [93.75, 49.5], [93.75, 48.0], [92.25, 48.0]]]}, "properties": {"cell_id": "62_92", "lon": 93.0, "lat": 48.75}}, {"type": "Feature", "geometry": {"type": "Polygon", "coordinates": [[[92.25, 49.5], [92.25, 51.0], [93.75, 51.0], [93.75, 49.5], [92.25, 49.5]]]}, "properties": {"cell_id": "62_93", "lon": 93.0, "lat": 50.25}}, {"type": "Feature", "geometry": {"type": "Polygon", "coordinates": [[[93.75, 40.5], [93.75, 42.0], [95.25, 42.0], [95.25, 40.5], [93.75, 40.5]]]}, "properties": {"cell_id": "63_87", "lon": 94.5, "lat": 41.25}}, {"type": "Feature", "geometry": {"type": "Polygon", "coordinates": [[[93.75, 42.0], [93.75, 43.5], [95.25, 43.5], [95.25, 42.0], [93.75, 42.0]]]}, "properties": {"cell_id": "63_88", "lon": 94.5, "lat": 42.75}}, {"type": "Feature", "geometry": {"type": "Polygon", "coordinates": [[[93.75, 43.5], [93.75, 45.0], [95.25, 45.0], [95.25, 43.5], [93.75, 43.5]]]}, "properties": {"cell_id": "63_89", "lon": 94.5, "lat": 44.25}}, {"type": "Feature", "geometry": {"type": "Polygon", "coordinates": [[[93.75, 45.0], [93.75, 46.5], [95.25, 46.5], [95.25, 45.0], [93.75, 45.0]]]}, "properties": {"cell_id": "63_90", "lon": 94.5, "lat": 45.75}}, {"type": "Feature", "geometry": {"type": "Polygon", "coordinates": [[[93.75, 46.5], [93.75, 48.0], [95.25, 48.0], [95.25, 46.5], [93.75, 46.5]]]}, "properties": {"cell_id": "63_91", "lon": 94.5, "lat": 47.25}}, {"type": "Feature", "geometry": {"type": "Polygon", "coordinates": [[[93.75, 48.0], [93.75, 49.5], [95.25, 49.5], [95.25, 48.0], [93.75, 48.0]]]}, "properties": {"cell_id": "63_92", "lon": 94.5, "lat": 48.75}}, {"type": "Feature", "geometry": {"type": "Polygon", "coordinates": [[[93.75, 49.5], [93.75, 51.0], [95.25, 51.0], [95.25, 49.5], [93.75, 49.5]]]}, "properties": {"cell_id": "63_93", "lon": 94.5, "lat": 50.25}}, {"type": "Feature", "geometry": {"type": "Polygon", "coordinates": [[[95.25, 40.5], [95.25, 42.0], [96.75, 42.0], [96.75, 40.5], [95.25, 40.5]]]}, "properties": {"cell_id": "64_87", "lon": 96.0, "lat": 41.25}}, {"type": "Feature", "geometry": {"type": "Polygon", "coordinates": [[[95.25, 42.0], [95.25, 43.5], [96.75, 43.5], [96.75, 42.0], [95.25, 42.0]]]}, "properties": {"cell_id": "64_88", "lon": 96.0, "lat": 42.75}}, {"type": "Feature", "geometry": {"type": "Polygon", "coordinates": [[[95.25, 43.5], [95.25, 45.0], [96.75, 45.0], [96.75, 43.5], [95.25, 43.5]]]}, "properties": {"cell_id": "64_89", "lon": 96.0, "lat": 44.25}}, {"type": "Feature", "geometry": {"type": "Polygon", "coordinates": [[[95.25, 45.0], [95.25, 46.5], [96.75, 46.5], [96.75, 45.0], [95.25, 45.0]]]}, "properties": {"cell_id": "64_90", "lon": 96.0, "lat": 45.75}}, {"type": "Feature", "geometry": {"type": "Polygon", "coordinates": [[[95.25, 46.5], [95.25, 48.0], [96.75, 48.0], [96.75, 46.5], [95.25, 46.5]]]}, "properties": {"cell_id": "64_91", "lon": 96.0, "lat": 47.25}}, {"type": "Feature", "geometry": {"type": "Polygon", "coordinates": [[[95.25, 48.0], [95.25, 49.5], [96.75, 49.5], [96.75, 48.0], [95.25, 48.0]]]}, "properties": {"cell_id": "64_92", "lon": 96.0, "lat": 48.75}}, {"type": "Feature", "geometry": {"type": "Polygon", "coordinates": [[[95.25, 49.5], [95.25, 51.0], [96.75, 51.0], [96.75, 49.5], [95.25, 49.5]]]}, "properties": {"cell_id": "64_93", "lon": 96.0, "lat": 50.25}}, {"type": "Feature", "geometry": {"type": "Polygon", "coordinates": [[[96.75, 40.5], [96.75, 42.0], [98.25, 42.0], [98.25, 40.5], [96.75, 40.5]]]}, "properties": {"cell_id": "65_87", "lon": 97.5, "lat": 41.25}}, {"type": "Feature", "geometry": {"type": "Polygon", "coordinates": [[[96.75, 42.0], [96.75, 43.5], [98.25, 43.5], [98.25, 42.0], [96.75, 42.0]]]}, "properties": {"cell_id": "65_88", "lon": 97.5, "lat": 42.75}}, {"type": "Feature", "geometry": {"type": "Polygon", "coordinates": [[[96.75, 43.5], [96.75, 45.0], [98.25, 45.0], [98.25, 43.5], [96.75, 43.5]]]}, "properties": {"cell_id": "65_89", "lon": 97.5, "lat": 44.25}}, {"type": "Feature", "geometry": {"type": "Polygon", "coordinates": [[[96.75, 45.0], [96.75, 46.5], [98.25, 46.5], [98.25, 45.0], [96.75, 45.0]]]}, "properties": {"cell_id": "65_90", "lon": 97.5, "lat": 45.75}}, {"type": "Feature", "geometry": {"type": "Polygon", "coordinates": [[[96.75, 46.5], [96.75, 48.0], [98.25, 48.0], [98.25, 46.5], [96.75, 46.5]]]}, "properties": {"cell_id": "65_91", "lon": 97.5, "lat": 47.25}}, {"type": "Feature", "geometry": {"type": "Polygon", "coordinates": [[[96.75, 48.0], [96.75, 49.5], [98.25, 49.5], [98.25, 48.0], [96.75, 48.0]]]}, "properties": {"cell_id": "65_92", "lon": 97.5, "lat": 48.75}}, {"type": "Feature", "geometry": {"type": "Polygon", "coordinates": [[[96.75, 49.5], [96.75, 51.0], [98.25, 51.0], [98.25, 49.5], [96.75, 49.5]]]}, "properties": {"cell_id": "65_93", "lon": 97.5, "lat": 50.25}}, {"type": "Feature", "geometry": {"type": "Polygon", "coordinates": [[[98.25, 40.5], [98.25, 42.0], [99.75, 42.0], [99.75, 40.5], [98.25, 40.5]]]}, "properties": {"cell_id": "66_87", "lon": 99.0, "lat": 41.25}}, {"type": "Feature", "geometry": {"type": "Polygon", "coordinates": [[[98.25, 42.0], [98.25, 43.5], [99.75, 43.5], [99.75, 42.0], [98.25, 42.0]]]}, "properties": {"cell_id": "66_88", "lon": 99.0, "lat": 42.75}}, {"type": "Feature", "geometry": {"type": "Polygon", "coordinates": [[[98.25, 43.5], [98.25, 45.0], [99.75, 45.0], [99.75, 43.5], [98.25, 43.5]]]}, "properties": {"cell_id": "66_89", "lon": 99.0, "lat": 44.25}}, {"type": "Feature", "geometry": {"type": "Polygon", "coordinates": [[[98.25, 45.0], [98.25, 46.5], [99.75, 46.5], [99.75, 45.0], [98.25, 45.0]]]}, "properties": {"cell_id": "66_90", "lon": 99.0, "lat": 45.75}}, {"type": "Feature", "geometry": {"type": "Polygon", "coordinates": [[[98.25, 46.5], [98.25, 48.0], [99.75, 48.0], [99.75, 46.5], [98.25, 46.5]]]}, "properties": {"cell_id": "66_91", "lon": 99.0, "lat": 47.25}}, {"type": "Feature", "geometry": {"type": "Polygon", "coordinates": [[[98.25, 48.0], [98.25, 49.5], [99.75, 49.5], [99.75, 48.0], [98.25, 48.0]]]}, "properties": {"cell_id": "66_92", "lon": 99.0, "lat": 48.75}}, {"type": "Feature", "geometry": {"type": "Polygon", "coordinates": [[[98.25, 49.5], [98.25, 51.0], [99.75, 51.0], [99.75, 49.5], [98.25, 49.5]]]}, "properties": {"cell_id": "66_93", "lon": 99.0, "lat": 50.25}}, {"type": "Feature", "geometry": {"type": "Polygon", "coordinates": [[[99.75, 40.5], [99.75, 42.0], [101.25, 42.0], [101.25, 40.5], [99.75, 40.5]]]}, "properties": {"cell_id": "67_87", "lon": 100.5, "lat": 41.25}}, {"type": "Feature", "geometry": {"type": "Polygon", "coordinates": [[[99.75, 42.0], [99.75, 43.5], [101.25, 43.5], [101.25, 42.0], [99.75, 42.0]]]}, "properties": {"cell_id": "67_88", "lon": 100.5, "lat": 42.75}}, {"type": "Feature", "geometry": {"type": "Polygon", "coordinates": [[[99.75, 43.5], [99.75, 45.0], [101.25, 45.0], [101.25, 43.5], [99.75, 43.5]]]}, "properties": {"cell_id": "67_89", "lon": 100.5, "lat": 44.25}}, {"type": "Feature", "geometry": {"type": "Polygon", "coordinates": [[[99.75, 45.0], [99.75, 46.5], [101.25, 46.5], [101.25, 45.0], [99.75, 45.0]]]}, "properties": {"cell_id": "67_90", "lon": 100.5, "lat": 45.75}}, {"type": "Feature", "geometry": {"type": "Polygon", "coordinates": [[[99.75, 46.5], [99.75, 48.0], [101.25, 48.0], [101.25, 46.5], [99.75, 46.5]]]}, "properties": {"cell_id": "67_91", "lon": 100.5, "lat": 47.25}}, {"type": "Feature", "geometry": {"type": "Polygon", "coordinates": [[[99.75, 48.0], [99.75, 49.5], [101.25, 49.5], [101.25, 48.0], [99.75, 48.0]]]}, "properties": {"cell_id": "67_92", "lon": 100.5, "lat": 48.75}}, {"type": "Feature", "geometry": {"type": "Polygon", "coordinates": [[[99.75, 49.5], [99.75, 51.0], [101.25, 51.0], [101.25, 49.5], [99.75, 49.5]]]}, "properties": {"cell_id": "67_93", "lon": 100.5, "lat": 50.25}}]}