{"type": "FeatureCollection", "features": [{"type": "Feature", "geometry": {"type": "Polygon", "coordinates": [[[-10.0, 5.0], [-10.0, 7.5], [-7.5, 7.5], [-7.5, 5.0], [-10.0, 5.0]]]}, "properties": {"cell_id": "140_38", "lon": -8.75, "lat": 6.25}}, {"type": "Feature", "geometry": {"type": "Polygon", "coordinates": [[[-10.0, 7.5], [-10.0, 10.0], [-7.5, 10.0], [-7.5, 7.5], [-10.0, 7.5]]]}, "properties": {"cell_id": "140_39", "lon": -8.75, "lat": 8.75}}, {"type": "Feature", "geometry": {"type": "Polygon", "coordinates": [[[-7.5, 5.0], [-7.5, 7.5], [-5.0, 7.5], [-5.0, 5.0], [-7.5, 5.0]]]}, "properties": {"cell_id": "141_38", "lon": -6.25, "lat": 6.25}}, {"type": "Feature", "geometry": {"type": "Polygon", "coordinates": [[[-7.5, 7.5], [-7.5, 10.0], [-5.0, 10.0], [-5.0, 7.5], [-7.5, 7.5]]]}, "properties": {"cell_id": "141_39", "lon": -6.25, "lat": 8.75}}, {"type": "Feature", "geometry": {"type": "Polygon", "coordinates": [[[-5.0, 5.0], [-5.0, 7.5], [-2.5, 7.5], [-2.5, 5.0], [-5.0, 5.0]]]}, "properties": {"cell_id": "142_38", "lon": -3.75, "lat": 6.25}}, {"type": "Feature", "geometry": {"type": "Polygon", "coordinates": [[[-5.0, 7.5], [-5.0, 10.0], [-2.5, 10.0], [-2.5, 7.5], [-5.0, 7.5]]]}, "properties": {"cell_id": "142_39", "lon": -3.75, "lat": 8.75}}, {"type": "Feature", "geometry": {"type": "Polygon", "coordinates": [[[-2.5, 5.0], [-2.5, 7.5], [0.0, 7.5], [0.0, 5.0], [-2.5, 5.0]]]}, "properties": {"cell_id": "143_38", "lon": -1.25, "lat": 6.25}}, {"type": "Feature", "geometry": {"type": "Polygon", "coordinates": [[[-2.5, 7.5], [-2.5, 10.0], [0.0, 10.0], [0.0, 7.5], [-2.5, 7.5]]]}, "properties": {"cell_id": "143_39", "lon": -1.25, "lat": 8.75}}]}