{"type": "FeatureCollection", "features": [{"type": "Feature", "geometry": {"type": "Polygon", "coordinates": [[[30.0, -20.0], [30.0, -17.5], [32.5, -17.5], [32.5, -20.0], [30.0, -20.0]]]}, "properties": {"cell_id": "12_28", "lon": 31.25, "lat": -18.75}}, {"type": "Feature", "geometry": {"type": "Polygon", "coordinates": [[[30.0, -17.5], [30.0, -15.0], [32.5, -15.0], [32.5, -17.5], [30.0, -17.5]]]}, "properties": {"cell_id": "12_29", "lon": 31.25, "lat": -16.25}}, {"type": "Feature", "geometry": {"type": "Polygon", "coordinates": [[[30.0, -15.0], [30.0, -12.5], [32.5, -12.5], [32.5, -15.0], [30.0, -15.0]]]}, "properties": {"cell_id": "12_30", "lon": 31.25, "lat": -13.75}}, {"type": "Feature", "geometry": {"type": "Polygon", "coordinates": [[[30.0, -12.5], [30.0, -10.0], [32.5, -10.0], [32.5, -12.5], [30.0, -12.5]]]}, "properties": {"cell_id": "12_31", "lon": 31.25, "lat": -11.25}}, {"type": "Feature", "geometry": {"type": "Polygon", "coordinates": [[[32.5, -20.0], [32.5, -17.5], [35.0, -17.5], [35.0, -20.0], [32.5, -20.0]]]}, "properties": {"cell_id": "13_28", "lon": 33.75, "lat": -18.75}}, {"type": "Feature", "geometry": {"type": "Polygon", "coordinates": [[[32.5, -17.5], [32.5, -15.0], [35.0, -15.0], [35.0, -17.5], [32.5, -17.5]]]}, "properties": {"cell_id": "13_29", "lon": 33.75, "lat": -16.25}}, {"type": "Feature", "geometry": {"type": "Polygon", "coordinates": [[[32.5, -15.0], [32.5, -12.5], [35.0, -12.5], [35.0, -15.0], [32.5, -15.0]]]}, "properties": {"cell_id": "13_30", "lon": 33.75, "lat": -13.75}}, {"type": "Feature", "geometry": {"type": "Polygon", "coordinates": [[[32.5, -12.5], [32.5, -10.0], [35.0, -10.0], [35.0, -12.5], [32.5, -12.5]]]}, "properties": {"cell_id": "13_31", "lon": 33.75, "lat": -11.25}}, {"type": "Feature", "geometry": {"type": "Polygon", "coordinates": [[[35.0, -17.5], [35.0, -15.0], [37.5, -15.0], [37.5, -17.5], [35.0, -17.5]]]}, "properties": {"cell_id": "14_29", "lon": 36.25, "lat": -16.25}}, {"type": "Feature", "geometry": {"type": "Polygon", "coordinates": [[[35.0, -15.0], [35.0, -12.5], [37.5, -12.5], [37.5, -15.0], [35.0, -15.0]]]}, "properties": {"cell_id": "14_30", "lon": 36.25, "lat": -13.75}}, {"type": "Feature", "geometry": {"type": "Polygon", "coordinates": [[[35.0, -12.5], [35.0, -10.0], [37.5, -10.0], [37.5, -12.5], [35.0, -12.5]]]}, "properties": {"cell_id": "14_31", "lon": 36.25, "lat": -11.25}}, {"type": "Feature", "geometry": {"type": "Polygon", "coordinates": [[[37.5, -17.5], [37.5, -15.0], [40.0, -15.0], [40.0, -17.5], [37.5, -17.5]]]}, "properties": {"cell_id": "15_29", "lon": 38.75, "lat": -16.25}}, {"type": "Feature", "geometry": {"type": "Polygon", "coordinates": [[[37.5, -15.0], [37.5, -12.5], [40.0, -12.5], [40.0, -15.0], [37.5, -15.0]]]}, "properties": {"cell_id": "15_30", "lon": 38.75, "lat": -13.75}}, {"type": "Feature", "geometry": {"type": "Polygon", "coordinates": [[[37.5, -12.5], [37.5, -10.0], [40.0, -10.0], [40.0, -12.5], [37.5, -12.5]]]}, "properties": {"cell_id": "15_31", "lon": 38.75, "lat": -11.25}}]}