{"type": "FeatureCollection", "features": [{"type": "Feature", "geometry": {"type": "Polygon", "coordinates": [[[20.25, -90.0], [20.25, -88.5], [21.75, -88.5], [21.75, -90.0], [20.25, -90.0]]]}, "properties": {"cell_id": "14_0", "lon": 21.0, "lat": -89.25}}, {"type": "Feature", "geometry": {"type": "Polygon", "coordinates": [[[20.25, -88.5], [20.25, -87.0], [21.75, -87.0], [21.75, -88.5], [20.25, -88.5]]]}, "properties": {"cell_id": "14_1", "lon": 21.0, "lat": -87.75}}, {"type": "Feature", "geometry": {"type": "Polygon", "coordinates": [[[20.25, -87.0], [20.25, -85.5], [21.75, -85.5], [21.75, -87.0], [20.25, -87.0]]]}, "properties": {"cell_id": "14_2", "lon": 21.0, "lat": -86.25}}, {"type": "Feature", "geometry": {"type": "Polygon", "coordinates": [[[20.25, -85.5], [20.25, -84.0], [21.75, -84.0], [21.75, -85.5], [20.25, -85.5]]]}, "properties": {"cell_id": "14_3", "lon": 21.0, "lat": -84.75}}, {"type": "Feature", "geometry": {"type": "Polygon", "coordinates": [[[20.25, -84.0], [20.25, -82.5], [21.75, -82.5], [21.75, -84.0], [20.25, -84.0]]]}, "properties": {"cell_id": "14_4", "lon": 21.0, "lat": -83.25}}, {"type": "Feature", "geometry": {"type": "Polygon", "coordinates": [[[20.25, -82.5], [20.25, -81.0], [21.75, -81.0], [21.75, -82.5], [20.25, -82.5]]]}, "properties": {"cell_id": "14_5", "lon": 21.0, "lat": -81.75}}, {"type": "Feature", "geometry": {"type": "Polygon", "coordinates": [[[20.25, -81.0], [20.25, -79.5], [21.75, -79.5], [21.75, -81.0], [20.25, -81.0]]]}, "properties": {"cell_id": "14_6", "lon": 21.0, "lat": -80.25}}, {"type": "Feature", "geometry": {"type": "Polygon", "coordinates": [[[21.75, -90.0], [21.75, -88.5], [23.25, -88.5], [23.25, -90.0], [21.75, -90.0]]]}, "properties": {"cell_id": "15_0", "lon": 22.5, "lat": -89.25}}, {"type": "Feature", "geometry": {"type": "Polygon", "coordinates": [[[21.75, -88.5], [21.75, -87.0], [23.25, -87.0], [23.25, -88.5], [21.75, -88.5]]]}, "properties": {"cell_id": "15_1", "lon": 22.5, "lat": -87.75}}, {"type": "Feature", "geometry": {"type": "Polygon", "coordinates": [[[21.75, -87.0], [21.75, -85.5], [23.25, -85.5], [23.25, -87.0], [21.75, -87.0]]]}, "properties": {"cell_id": "15_2", "lon": 22.5, "lat": -86.25}}, {"type": "Feature", "geometry": {"type": "Polygon", "coordinates": [[[21.75, -85.5], [21.75, -84.0], [23.25, -84.0], [23.25, -85.5], [21.75, -85.5]]]}, "properties": {"cell_id": "15_3", "lon": 22.5, "lat": -84.75}}, {"type": "Feature", "geometry": {"type": "Polygon", "coordinates": [[[21.75, -84.0], [21.75, -82.5], [23.25, -82.5], [23.25, -84.0], [21.75, -84.0]]]}, "properties": {"cell_id": "15_4", "lon": 22.5, "lat": -83.25}}, {"type": "Feature", "geometry": {"type": "Polygon", "coordinates": [[[21.75, -82.5], [21.75, -81.0], [23.25, -81.0], [23.25, -82.5], [21.75, -82.5]]]}, "properties": {"cell_id": "15_5", "lon": 22.5, "lat": -81.75}}, {"type": "Feature", "geometry": {"type": "Polygon", "coordinates": [[[21.75, -81.0], [21.75, -79.5], [23.25, -79.5], [23.25, -81.0], [21.75, -81.0]]]}, "properties": {"cell_id": "15_6", "lon": 22.5, "lat": -80.25}}, {"type": "Feature", "geometry": {"type": "Polygon", "coordinates": [[[23.25, -90.0], [23.25, -88.5], [24.75, -88.5], [24.75, -90.0], [23.25, -90.0]]]}, "properties": {"cell_id": "16_0", "lon": 24.0, "lat": -89.25}}, {"type": "Feature", "geometry": {"type": "Polygon", "coordinates": [[[23.25, -88.5], [23.25, -87.0], [24.75, -87.0], [24.75, -88.5], [23.25, -88.5]]]}, "properties": {"cell_id": "16_1", "lon": 24.0, "lat": -87.75}}, {"type": "Feature", "geometry": {"type": "Polygon", "coordinates": [[[23.25, -87.0], [23.25, -85.5], [24.75, -85.5], [24.75, -87.0], [23.25, -87.0]]]}, "properties": {"cell_id": "16_2", "lon": 24.0, "lat": -86.25}}, {"type": "Feature", "geometry": {"type": "Polygon", "coordinates": [[[23.25, -85.5], [23.25, -84.0], [24.75, -84.0], [24.75, -85.5], [23.25, -85.5]]]}, "properties": {"cell_id": "16_3", "lon": 24.0, "lat": -84.75}}, {"type": "Feature", "geometry": {"type": "Polygon", "coordinates": [[[23.25, -84.0], [23.25, -82.5], [24.75, -82.5], [24.75, -84.0], [23.25, -84.0]]]}, "properties": {"cell_id": "16_4", "lon": 24.0, "lat": -83.25}}, {"type": "Feature", "geometry": {"type": "Polygon", "coordinates": [[[23.25, -82.5], [23.25, -81.0], [24.75, -81.0], [24.75, -82.5], [23.25, -82.5]]]}, "properties": {"cell_id": "16_5", "lon": 24.0, "lat": -81.75}}, {"type": "Feature", "geometry": {"type": "Polygon", "coordinates": [[[23.25, -81.0], [23.25, -79.5], [24.75, -79.5], [24.75, -81.0], [23.25, -81.0]]]}, "properties": {"cell_id": "16_6", "lon": 24.0, "lat": -80.25}}, {"type": "Feature", "geometry": {"type": "Polygon", "coordinates": [[[24.75, -90.0], [24.75, -88.5], [26.25, -88.5], [26.25, -90.0], [24.75, -90.0]]]}, "properties": {"cell_id": "17_0", "lon": 25.5, "lat": -89.25}}, {"type": "Feature", "geometry": {"type": "Polygon", "coordinates": [[[24.75, -88.5], [24.75, -87.0], [26.25, -87.0], [26.25, -88.5], [24.75, -88.5]]]}, "properties": {"cell_id": "17_1", "lon": 25.5, "lat": -87.75}}, {"type": "Feature", "geometry": {"type": "Polygon", "coordinates": [[[24.75, -87.0], [24.75, -85.5], [26.25, -85.5], [26.25, -87.0], [24.75, -87.0]]]}, "properties": {"cell_id": "17_2", "lon": 25.5, "lat": -86.25}}, {"type": "Feature", "geometry": {"type": "Polygon", "coordinates": [[[24.75, -85.5], [24.75, -84.0], [26.25, -84.0], [26.25, -85.5], [24.75, -85.5]]]}, "properties": {"cell_id": "17_3", "lon": 25.5, "lat": -84.75}}, {"type": "Feature", "geometry": {"type": "Polygon", "coordinates": [[[24.75, -84.0], [24.75, -82.5], [26.25, -82.5], [26.25, -84.0], [24.75, -84.0]]]}, "properties": {"cell_id": "17_4", "lon": 25.5, "lat": -83.25}}, {"type": "Feature", "geometry": {"type": "Polygon", "coordinates": [[[24.75, -82.5], [24.75, -81.0], [26.25, -81.0], [26.25, -82.5], [24.75, -82.5]]]}, "properties": {"cell_id": "17_5", "lon": 25.5, "lat": -81.75}}, {"type": "Feature", "geometry": {"type": "Polygon", "coordinates": [[[24.75, -81.0], [24.75, -79.5], [26.25, -79.5], [26.25, -81.0], [24.75, -81.0]]]}, "properties": {"cell_id": "17_6", "lon": 25.5, "lat": -80.25}}, {"type": "Feature", "geometry": {"type": "Polygon", "coordinates": [[[26.25, -90.0], [26.25, -88.5], [27.75, -88.5], [27.75, -90.0], [26.25, -90.0]]]}, "properties": {"cell_id": "18_0", "lon": 27.0, "lat": -89.25}}, {"type": "Feature", "geometry": {"type": "Polygon", "coordinates": [[[26.25, -88.5], [26.25, -87.0], [27.75, -87.0], [27.75, -88.5], [26.25, -88.5]]]}, "properties": {"cell_id": "18_1", "lon": 27.0, "lat": -87.75}}, {"type": "Feature", "geometry": {"type": "Polygon", "coordinates": [[[26.25, -87.0], [26.25, -85.5], [27.75, -85.5], [27.75, -87.0], [26.25, -87.0]]]}, "properties": {"cell_id": "18_2", "lon": 27.0, "lat": -86.25}}, {"type": "Feature", "geometry": {"type": "Polygon", "coordinates": [[[26.25, -85.5], [26.25, -84.0], [27.75, -84.0], [27.75, -85.5], [26.25, -85.5]]]}, "properties": {"cell_id": "18_3", "lon": 27.0, "lat": -84.75}}, {"type": "Feature", "geometry": {"type": "Polygon", "coordinates": [[[26.25, -84.0], [26.25, -82.5], [27.75, -82.5], [27.75, -84.0], [26.25, -84.0]]]}, "properties": {"cell_id": "18_4", "lon": 27.0, "lat": -83.25}}, {"type": "Feature", "geometry": {"type": "Polygon", "coordinates": [[[26.25, -82.5], [26.25, -81.0], [27.75, -81.0], [27.75, -82.5], [26.25, -82.5]]]}, "properties": {"cell_id": "18_5", "lon": 27.0, "lat": -81.75}}, {"type": "Feature", "geometry": {"type": "Polygon", "coordinates": [[[26.25, -81.0], [26.25, -79.5], [27.75, -79.5], [27.75, -81.0], [26.25, -81.0]]]}, "properties": {"cell_id": "18_6", "lon": 27.0, "lat": -80.25}}, {"type": "Feature", "geometry": {"type": "Polygon", "coordinates": [[[27.75, -90.0], [27.75, -88.5], [29.25, -88.5], [29.25, -90.0], [27.75, -90.0]]]}, "properties": {"cell_id": "19_0", "lon": 28.5, "lat": -89.25}}, {"type": "Feature", "geometry": {"type": "Polygon", "coordinates": [[[27.75, -88.5], [27.75, -87.0], [29.25, -87.0], [29.25, -88.5], [27.75, -88.5]]]}, "properties": {"cell_id": "19_1", "lon": 28.5, "lat": -87.75}}, {"type": "Feature", "geometry": {"type": "Polygon", "coordinates": [[[27.75, -87.0], [27.75, -85.5], [29.25, -85.5], [29.25, -87.0], [27.75, -87.0]]]}, "properties": {"cell_id": "19_2", "lon": 28.5, "lat": -86.25}}, {"type": "Feature", "geometry": {"type": "Polygon", "coordinates": [[[27.75, -85.5], [27.75, -84.0], [29.25, -84.0], [29.25, -85.5], [27.75, -85.5]]]}, "properties": {"cell_id": "19_3", "lon": 28.5, "lat": -84.75}}, {"type": "Feature", "geometry": {"type": "Polygon", "coordinates": [[[27.75, -84.0], [27.75, -82.5], [29.25, -82.5], [29.25, -84.0], [27.75, -84.0]]]}, "properties": {"cell_id": "19_4", "lon": 28.5, "lat": -83.25}}, {"type": "Feature", "geometry": {"type": "Polygon", "coordinates": [[[27.75, -82.5], [27.75, -81.0], [29.25, -81.0], [29.25, -82.5], [27.75, -82.5]]]}, "properties": {"cell_id": "19_5", "lon": 28.5, "lat": -81.75}}, {"type": "Feature", "geometry": {"type": "Polygon", "coordinates": [[[27.75, -81.0], [27.75, -79.5], [29.25, -79.5], [29.25, -81.0], [27.75, -81.0]]]}, "properties": {"cell_id": "19_6", "lon": 28.5, "lat": -80.25}}, {"type": "Feature", "geometry": {"type": "Polygon", "coordinates": [[[29.25, -90.0], [29.25, -88.5], [30.75, -88.5], [30.75, -90.0], [29.25, -90.0]]]}, "properties": {"cell_id": "20_0", "lon": 30.0, "lat": -89.25}}, {"type": "Feature", "geometry": {"type": "Polygon", "coordinates": [[[29.25, -88.5], [29.25, -87.0], [30.75, -87.0], [30.75, -88.5], [29.25, -88.5]]]}, "properties": {"cell_id": "20_1", "lon": 30.0, "lat": -87.75}}, {"type": "Feature", "geometry": {"type": "Polygon", "coordinates": [[[29.25, -87.0], [29.25, -85.5], [30.75, -85.5], [30.75, -87.0], [29.25, -87.0]]]}, "properties": {"cell_id": "20_2", "lon": 30.0, "lat": -86.25}}, {"type": "Feature", "geometry": {"type": "Polygon", "coordinates": [[[29.25, -85.5], [29.25, -84.0], [30.75, -84.0], [30.75, -85.5], [29.25, -85.5]]]}, "properties": {"cell_id": "20_3", "lon": 30.0, "lat": -84.75}}, {"type": "Feature", "geometry": {"type": "Polygon", "coordinates": [[[29.25, -84.0], [29.25, -82.5], [30.75, -82.5], [30.75, -84.0], [29.25, -84.0]]]}, "properties": {"cell_id": "20_4", "lon": 30.0, "lat": -83.25}}, {"type": "Feature", "geometry": {"type": "Polygon", "coordinates": [[[29.25, -82.5], [29.25, -81.0], [30.75, -81.0], [30.75, -82.5], [29.25, -82.5]]]}, "properties": {"cell_id": "20_5", "lon": 30.0, "lat": -81.75}}, {"type": "Feature", "geometry": {"type": "Polygon", "coordinates": [[[29.25, -81.0], [29.25, -79.5], [30.75, -79.5], [30.75, -81.0], [29.25, -81.0]]]}, "properties": {"cell_id": "20_6", "lon": 30.0, "lat": -80.25}}]}