{"type": "FeatureCollection", "features": [{"type": "Feature", "geometry": {"type": "Polygon", "coordinates": [[[-80.0, 0.0], [-80.0, 2.5], [-77.5, 2.5], [-77.5, 0.0], [-80.0, 0.0]]]}, "properties": {"cell_id": "112_36", "lon": -78.75, "lat": 1.25}}, {"type": "Feature", "geometry": {"type": "Polygon", "coordinates": [[[-77.5, 0.0], [-77.5, 2.5], [-75.0, 2.5], [-75.0, 0.0], [-77.5, 0.0]]]}, "properties": {"cell_id": "113_36", "lon": -76.25, "lat": 1.25}}, {"type": "Feature", "geometry": {"type": "Polygon", "coordinates": [[[-77.5, 2.5], [-77.5, 5.0], [-75.0, 5.0], [-75.0, 2.5], [-77.5, 2.5]]]}, "properties": {"cell_id": "113_37", "lon": -76.25, "lat": 3.75}}, {"type": "Feature", "geometry": {"type": "Polygon", "coordinates": [[[-77.5, 5.0], [-77.5, 7.5], [-75.0, 7.5], [-75.0, 5.0], [-77.5, 5.0]]]}, "properties": {"cell_id": "113_38", "lon": -76.25, "lat": 6.25}}, {"type": "Feature", "geometry": {"type": "Polygon", "coordinates": [[[-77.5, 7.5], [-77.5, 10.0], [-75.0, 10.0], [-75.0, 7.5], [-77.5, 7.5]]]}, "properties": {"cell_id": "113_39", "lon": -76.25, "lat": 8.75}}, {"type": "Feature", "geometry": {"type": "Polygon", "coordinates": [[[-75.0, 0.0], [-75.0, 2.5], [-72.5, 2.5], [-72.5, 0.0], [-75.0, 0.0]]]}, "properties": {"cell_id": "114_36", "lon": -73.75, "lat": 1.25}}, {"type": "Feature", "geometry": {"type": "Polygon", "coordinates": [[[-75.0, 2.5], [-75.0, 5.0], [-72.5, 5.0], [-72.5, 2.5], [-75.0, 2.5]]]}, "properties": {"cell_id": "114_37", "lon": -73.75, "lat": 3.75}}, {"type": "Feature", "geometry": {"type": "Polygon", "coordinates": [[[-75.0, 5.0], [-75.0, 7.5], [-72.5, 7.5], [-72.5, 5.0], [-75.0, 5.0]]]}, "properties": {"cell_id": "114_38", "lon": -73.75, "lat": 6.25}}, {"type": "Feature", "geometry": {"type": "Polygon", "coordinates": [[[-75.0, 7.5], [-75.0, 10.0], [-72.5, 10.0], [-72.5, 7.5], [-75.0, 7.5]]]}, "properties": {"cell_id": "114_39", "lon": -73.75, "lat": 8.75}}, {"type": "Feature", "geometry": {"type": "Polygon", "coordinates": [[[-72.5, 0.0], [-72.5, 2.5], [-70.0, 2.5], [-70.0, 0.0], [-72.5, 0.0]]]}, "properties": {"cell_id": "115_36", "lon": -71.25, "lat": 1.25}}, {"type": "Feature", "geometry": {"type": "Polygon", "coordinates": [[[-72.5, 2.5], [-72.5, 5.0], [-70.0, 5.0], [-70.0, 2.5], [-72.5, 2.5]]]}, "properties": {"cell_id": "115_37", "lon": -71.25, "lat": 3.75}}, {"type": "Feature", "geometry": {"type": "Polygon", "coordinates": [[[-72.5, 5.0], [-72.5, 7.5], [-70.0, 7.5], [-70.0, 5.0], [-72.5, 5.0]]]}, "properties": {"cell_id": "115_38", "lon": -71.25, "lat": 6.25}}, {"type": "Feature", "geometry": {"type": "Polygon", "coordinates": [[[-72.5, 7.5], [-72.5, 10.0], [-70.0, 10.0], [-70.0, 7.5], [-72.5, 7.5]]]}, "properties": {"cell_id": "115_39", "lon": -71.25, "lat": 8.75}}]}