{"type": "FeatureCollection", "features": [{"type": "Feature", "geometry": {"type": "Polygon", "coordinates": [[[120.75, 70.5], [120.75, 72.0], [122.25, 72.0], [122.25, 70.5], [120.75, 70.5]]]}, "properties": {"cell_id": "81_107", "lon": 121.5, "lat": 71.25}}, {"type": "Feature", "geometry": {"type": "Polygon", "coordinates": [[[120.75, 72.0], [120.75, 73.5], [122.25, 73.5], [122.25, 72.0], [120.75, 72.0]]]}, "properties": {"cell_id": "81_108", "lon": 121.5, "lat": 72.75}}, {"type": "Feature", "geometry": {"type": "Polygon", "coordinates": [[[122.25, 70.5], [122.25, 72.0], [123.75, 72.0], [123.75, 70.5], [122.25, 70.5]]]}, "properties": {"cell_id": "82_107", "lon": 123.0, "lat": 71.25}}, {"type": "Feature", "geometry": {"type": "Polygon", "coordinates": [[[122.25, 72.0], [122.25, 73.5], [123.75, 73.5], [123.75, 72.0], [122.25, 72.0]]]}, "properties": {"cell_id": "82_108", "lon": 123.0, "lat": 72.75}}, {"type": "Feature", "geometry": {"type": "Polygon", "coordinates": [[[123.75, 70.5], [123.75, 72.0], [125.25, 72.0], [125.25, 70.5], [123.75, 70.5]]]}, "properties": {"cell_id": "83_107", "lon": 124.5, "lat": 71.25}}, {"type": "Feature", "geometry": {"type": "Polygon", "coordinates": [[[123.75, 72.0], [123.75, 73.5], [125.25, 73.5], [125.25, 72.0], [123.75, 72.0]]]}, "properties": {"cell_id": "83_108", "lon": 124.5, "lat": 72.75}}, {"type": "Feature", "geometry": {"type": "Polygon", "coordinates": [[[125.25, 70.5], [125.25, 72.0], [126.75, 72.0], [126.75, 70.5], [125.25, 70.5]]]}, "properties": {"cell_id": "84_107", "lon": 126.0, "lat": 71.25}}, {"type": "Feature", "geometry": {"type": "Polygon", "coordinates": [[[125.25, 72.0], [125.25, 73.5], [126.75, 73.5], [126.75, 72.0], [125.25, 72.0]]]}, "properties": {"cell_id": "84_108", "lon": 126.0, "lat": 72.75}}, {"type": "Feature", "geometry": {"type": "Polygon", "coordinates": [[[126.75, 70.5], [126.75, 72.0], [128.25, 72.0], [128.25, 70.5], [126.75, 70.5]]]}, "properties": {"cell_id": "85_107", "lon": 127.5, "lat": 71.25}}, {"type": "Feature", "geometry": {"type": "Polygon", "coordinates": [[[126.75, 72.0], [126.75, 73.5], [128.25, 73.5], [128.25, 72.0], [126.75, 72.0]]]}, "properties": {"cell_id": "85_108", "lon": 127.5, "lat": 72.75}}, {"type": "Feature", "geometry": {"type": "Polygon", "coordinates": [[[128.25, 70.5], [128.25, 72.0], [129.75, 72.0], [129.75, 70.5], [128.25, 70.5]]]}, "properties": {"cell_id": "86_107", "lon": 129.0, "lat": 71.25}}, {"type": "Feature", "geometry": {"type": "Polygon", "coordinates": [[[128.25, 72.0], [128.25, 73.5], [129.75, 73.5], [129.75, 72.0], [128.25, 72.0]]]}, "properties": {"cell_id": "86_108", "lon": 129.0, "lat": 72.75}}, {"type": "Feature", "geometry": {"type": "Polygon", "coordinates": [[[129.75, 70.5], [129.75, 72.0], [131.25, 72.0], [131.25, 70.5], [129.75, 70.5]]]}, "properties": {"cell_id": "87_107", "lon": 130.5, "lat": 71.25}}, {"type": "Feature", "geometry": {"type": "Polygon", "coordinates": [[[129.75, 72.0], [129.75, 73.5], [131.25, 73.5], [131.25, 72.0], [129.75, 72.0]]]}, "properties": {"cell_id": "87_108", "lon": 130.5, "lat": 72.75}}]}