{"type": "FeatureCollection", "features": [{"type": "Feature", "geometry": {"type": "Polygon", "coordinates": [[[-60.0, 80.0], [-60.0, 82.5], [-57.5, 82.5], [-57.5, 80.0], [-60.0, 80.0]]]}, "properties": {"cell_id": "120_68", "lon": -58.75, "lat": 81.25}}, {"type": "Feature", "geometry": {"type": "Polygon", "coordinates": [[[-57.5, 80.0], [-57.5, 82.5], [-55.0, 82.5], [-55.0, 80.0], [-57.5, 80.0]]]}, "properties": {"cell_id": "121_68", "lon": -56.25, "lat": 81.25}}, {"type": "Feature", "geometry": {"type": "Polygon", "coordinates": [[[-55.0, 80.0], [-55.0, 82.5], [-52.5, 82.5], [-52.5, 80.0], [-55.0, 80.0]]]}, "properties": {"cell_id": "122_68", "lon": -53.75, "lat": 81.25}}, {"type": "Feature", "geometry": {"type": "Polygon", "coordinates": [[[-52.5, 80.0], [-52.5, 82.5], [-50.0, 82.5], [-50.0, 80.0], [-52.5, 80.0]]]}, "properties": {"cell_id": "123_68", "lon": -51.25, "lat": 81.25}}]}