{"type": "FeatureCollection", "features": [{"type": "Feature", "geometry": {"type": "Polygon", "coordinates": [[[-69.75, -79.5], [-69.75, -78.0], [-68.25, -78.0], [-68.25, -79.5], [-69.75, -79.5]]]}, "properties": {"cell_id": "194_7", "lon": -69.0, "lat": -78.75}}, {"type": "Feature", "geometry": {"type": "Polygon", "coordinates": [[[-69.75, -78.0], [-69.75, -76.5], [-68.25, -76.5], [-68.25, -78.0], [-69.75, -78.0]]]}, "properties": {"cell_id": "194_8", "lon": -69.0, "lat": -77.25}}, {"type": "Feature", "geometry": {"type": "Polygon", "coordinates": [[[-69.75, -76.5], [-69.75, -75.0], [-68.25, -75.0], [-68.25, -76.5], [-69.75, -76.5]]]}, "properties": {"cell_id": "194_9", "lon": -69.0, "lat": -75.75}}, {"type": "Feature", "geometry": {"type": "Polygon", "coordinates": [[[-69.75, -75.0], [-69.75, -73.5], [-68.25, -73.5], [-68.25, -75.0], [-69.75, -75.0]]]}, "properties": {"cell_id": "194_10", "lon": -69.0, "lat": -74.25}}, {"type": "Feature", "geometry": {"type": "Polygon", "coordinates": [[[-69.75, -73.5], [-69.75, -72.0], [-68.25, -72.0], [-68.25, -73.5], [-69.75, -73.5]]]}, "properties": {"cell_id": "194_11", "lon": -69.0, "lat": -72.75}}, {"type": "Feature", "geometry": {"type": "Polygon", "coordinates": [[[-69.75, -72.0], [-69.75, -70.5], [-68.25, -70.5], [-68.25, -72.0], [-69.75, -72.0]]]}, "properties": {"cell_id": "194_12", "lon": -69.0, "lat": -71.25}}, {"type": "Feature", "geometry": {"type": "Polygon", "coordinates": [[[-69.75, -70.5], [-69.75, -69.0], [-68.25, -69.0], [-68.25, -70.5], [-69.75, -70.5]]]}, "properties": {"cell_id": "194_13", "lon": -69.0, "lat": -69.75}}, {"type": "Feature", "geometry": {"type": "Polygon", "coordinates": [[[-68.25, -79.5], [-68.25, -78.0], [-66.75, -78.0], [-66.75, -79.5], [-68.25, -79.5]]]}, "properties": {"cell_id": "195_7", "lon": -67.5, "lat": -78.75}}, {"type": "Feature", "geometry": {"type": "Polygon", "coordinates": [[[-68.25, -78.0], [-68.25, -76.5], [-66.75, -76.5], [-66.75, -78.0], [-68.25, -78.0]]]}, "properties": {"cell_id": "195_8", "lon": -67.5, "lat": -77.25}}, {"type": "Feature", "geometry": {"type": "Polygon", "coordinates": [[[-68.25, -76.5], [-68.25, -75.0], [-66.75, -75.0], [-66.75, -76.5], [-68.25, -76.5]]]}, "properties": {"cell_id": "195_9", "lon": -67.5, "lat": -75.75}}, {"type": "Feature", "geometry": {"type": "Polygon", "coordinates": [[[-68.25, -75.0], [-68.25, -73.5], [-66.75, -73.5], [-66.75, -75.0], [-68.25, -75.0]]]}, "properties": {"cell_id": "195_10", "lon": -67.5, "lat": -74.25}}, {"type": "Feature", "geometry": {"type": "Polygon", "coordinates": [[[-68.25, -73.5], [-68.25, -72.0], [-66.75, -72.0], [-66.75, -73.5], [-68.25, -73.5]]]}, "properties": {"cell_id": "195_11", "lon": -67.5, "lat": -72.75}}, {"type": "Feature", "geometry": {"type": "Polygon", "coordinates": [[[-68.25, -72.0], [-68.25, -70.5], [-66.75, -70.5], [-66.75, -72.0], [-68.25, -72.0]]]}, "properties": {"cell_id": "195_12", "lon": -67.5, "lat": -71.25}}, {"type": "Feature", "geometry": {"type": "Polygon", "coordinates": [[[-68.25, -70.5], [-68.25, -69.0], [-66.75, -69.0], [-66.75, -70.5], [-68.25, -70.5]]]}, "properties": {"cell_id": "195_13", "lon": -67.5, "lat": -69.75}}, {"type": "Feature", "geometry": {"type": "Polygon", "coordinates": [[[-66.75, -79.5], [-66.75, -78.0], [-65.25, -78.0], [-65.25, -79.5], [-66.75, -79.5]]]}, "properties": {"cell_id": "196_7", "lon": -66.0, "lat": -78.75}}, {"type": "Feature", "geometry": {"type": "Polygon", "coordinates": [[[-66.75, -78.0], [-66.75, -76.5], [-65.25, -76.5], [-65.25, -78.0], [-66.75, -78.0]]]}, "properties": {"cell_id": "196_8", "lon": -66.0, "lat": -77.25}}, {"type": "Feature", "geometry": {"type": "Polygon", "coordinates": [[[-66.75, -76.5], [-66.75, -75.0], [-65.25, -75.0], [-65.25, -76.5], [-66.75, -76.5]]]}, "properties": {"cell_id": "196_9", "lon": -66.0, "lat": -75.75}}, {"type": "Feature", "geometry": {"type": "Polygon", "coordinates": [[[-66.75, -75.0], [-66.75, -73.5], [-65.25, -73.5], [-65.25, -75.0], [-66.75, -75.0]]]}, "properties": {"cell_id": "196_10", "lon": -66.0, "lat": -74.25}}, {"type": "Feature", "geometry": {"type": "Polygon", "coordinates": [[[-66.75, -73.5], [-66.75, -72.0], [-65.25, -72.0], [-65.25, -73.5], [-66.75, -73.5]]]}, "properties": {"cell_id": "196_11", "lon": -66.0, "lat": -72.75}}, {"type": "Feature", "geometry": {"type": "Polygon", "coordinates": [[[-66.75, -72.0], [-66.75, -70.5], [-65.25, -70.5], [-65.25, -72.0], [-66.75, -72.0]]]}, "properties": {"cell_id": "196_12", "lon": -66.0, "lat": -71.25}}, {"type": "Feature", "geometry": {"type": "Polygon", "coordinates": [[[-66.75, -70.5], [-66.75, -69.0], [-65.25, -69.0], [-65.25, -70.5], [-66.75, -70.5]]]}, "properties": {"cell_id": "196_13", "lon": -66.0, "lat": -69.75}}, {"type": "Feature", "geometry": {"type": "Polygon", "coordinates": [[[-65.25, -79.5], [-65.25, -78.0], [-63.75, -78.0], [-63.75, -79.5], [-65.25, -79.5]]]}, "properties": {"cell_id": "197_7", "lon": -64.5, "lat": -78.75}}, {"type": "Feature", "geometry": {"type": "Polygon", "coordinates": [[[-65.25, -78.0], [-65.25, -76.5], [-63.75, -76.5], [-63.75, -78.0], [-65.25, -78.0]]]}, "properties": {"cell_id": "197_8", "lon": -64.5, "lat": -77.25}}, {"type": "Feature", "geometry": {"type": "Polygon", "coordinates": [[[-65.25, -76.5], [-65.25, -75.0], [-63.75, -75.0], [-63.75, -76.5], [-65.25, -76.5]]]}, "properties": {"cell_id": "197_9", "lon": -64.5, "lat": -75.75}}, {"type": "Feature", "geometry": {"type": "Polygon", "coordinates": [[[-65.25, -75.0], [-65.25, -73.5], [-63.75, -73.5], [-63.75, -75.0], [-65.25, -75.0]]]}, "properties": {"cell_id": "197_10", "lon": -64.5, "lat": -74.25}}, {"type": "Feature", "geometry": {"type": "Polygon", "coordinates": [[[-65.25, -73.5], [-65.25, -72.0], [-63.75, -72.0], [-63.75, -73.5], [-65.25, -73.5]]]}, "properties": {"cell_id": "197_11", "lon": -64.5, "lat": -72.75}}, {"type": "Feature", "geometry": {"type": "Polygon", "coordinates": [[[-65.25, -72.0], [-65.25, -70.5], [-63.75, -70.5], [-63.75, -72.0], [-65.25, -72.0]]]}, "properties": {"cell_id": "197_12", "lon": -64.5, "lat": -71.25}}, {"type": "Feature", "geometry": {"type": "Polygon", "coordinates": [[[-65.25, -70.5], [-65.25, -69.0], [-63.75, -69.0], [-63.75, -70.5], [-65.25, -70.5]]]}, "properties": {"cell_id": "197_13", "lon": -64.5, "lat": -69.75}}, {"type": "Feature", "geometry": {"type": "Polygon", "coordinates": [[[-63.75, -79.5], [-63.75, -78.0], [-62.25, -78.0], [-62.25, -79.5], [-63.75, -79.5]]]}, "properties": {"cell_id": "198_7", "lon": -63.0, "lat": -78.75}}, {"type": "Feature", "geometry": {"type": "Polygon", "coordinates": [[[-63.75, -78.0], [-63.75, -76.5], [-62.25, -76.5], [-62.25, -78.0], [-63.75, -78.0]]]}, "properties": {"cell_id": "198_8", "lon": -63.0, "lat": -77.25}}, {"type": "Feature", "geometry": {"type": "Polygon", "coordinates": [[[-63.75, -76.5], [-63.75, -75.0], [-62.25, -75.0], [-62.25, -76.5], [-63.75, -76.5]]]}, "properties": {"cell_id": "198_9", "lon": -63.0, "lat": -75.75}}, {"type": "Feature", "geometry": {"type": "Polygon", "coordinates": [[[-63.75, -75.0], [-63.75, -73.5], [-62.25, -73.5], [-62.25, -75.0], [-63.75, -75.0]]]}, "properties": {"cell_id": "198_10", "lon": -63.0, "lat": -74.25}}, {"type": "Feature", "geometry": {"type": "Polygon", "coordinates": [[[-63.75, -73.5], [-63.75, -72.0], [-62.25, -72.0], [-62.25, -73.5], [-63.75, -73.5]]]}, "properties": {"cell_id": "198_11", "lon": -63.0, "lat": -72.75}}, {"type": "Feature", "geometry": {"type": "Polygon", "coordinates": [[[-63.75, -72.0], [-63.75, -70.5], [-62.25, -70.5], [-62.25, -72.0], [-63.75, -72.0]]]}, "properties": {"cell_id": "198_12", "lon": -63.0, "lat": -71.25}}, {"type": "Feature", "geometry": {"type": "Polygon", "coordinates": [[[-63.75, -70.5], [-63.75, -69.0], [-62.25, -69.0], [-62.25, -70.5], [-63.75, -70.5]]]}, "properties": {"cell_id": "198_13", "lon": -63.0, "lat": -69.75}}, {"type": "Feature", "geometry": {"type": "Polygon", "coordinates": [[[-62.25, -79.5], [-62.25, -78.0], [-60.75, -78.0], [-60.75, -79.5], [-62.25, -79.5]]]}, "properties": {"cell_id": "199_7", "lon": -61.5, "lat": -78.75}}, {"type": "Feature", "geometry": {"type": "Polygon", "coordinates": [[[-62.25, -78.0], [-62.25, -76.5], [-60.75, -76.5], [-60.75, -78.0], [-62.25, -78.0]]]}, "properties": {"cell_id": "199_8", "lon": -61.5, "lat": -77.25}}, {"type": "Feature", "geometry": {"type": "Polygon", "coordinates": [[[-62.25, -76.5], [-62.25, -75.0], [-60.75, -75.0], [-60.75, -76.5], [-62.25, -76.5]]]}, "properties": {"cell_id": "199_9", "lon": -61.5, "lat": -75.75}}, {"type": "Feature", "geometry": {"type": "Polygon", "coordinates": [[[-62.25, -75.0], [-62.25, -73.5], [-60.75, -73.5], [-60.75, -75.0], [-62.25, -75.0]]]}, "properties": {"cell_id": "199_10", "lon": -61.5, "lat": -74.25}}, {"type": "Feature", "geometry": {"type": "Polygon", "coordinates": [[[-62.25, -73.5], [-62.25, -72.0], [-60.75, -72.0], [-60.75, -73.5], [-62.25, -73.5]]]}, "properties": {"cell_id": "199_11", "lon": -61.5, "lat": -72.75}}, {"type": "Feature", "geometry": {"type": "Polygon", "coordinates": [[[-62.25, -72.0], [-62.25, -70.5], [-60.75, -70.5], [-60.75, -72.0], [-62.25, -72.0]]]}, "properties": {"cell_id": "199_12", "lon": -61.5, "lat": -71.25}}, {"type": "Feature", "geometry": {"type": "Polygon", "coordinates": [[[-62.25, -70.5], [-62.25, -69.0], [-60.75, -69.0], [-60.75, -70.5], [-62.25, -70.5]]]}, "properties": {"cell_id": "199_13", "lon": -61.5, "lat": -69.75}}, {"type": "Feature", "geometry": {"type": "Polygon", "coordinates": [[[-60.75, -79.5], [-60.75, -78.0], [-59.25, -78.0], [-59.25, -79.5], [-60.75, -79.5]]]}, "properties": {"cell_id": "200_7", "lon": -60.0, "lat": -78.75}}, {"type": "Feature", "geometry": {"type": "Polygon", "coordinates": [[[-60.75, -78.0], [-60.75, -76.5], [-59.25, -76.5], [-59.25, -78.0], [-60.75, -78.0]]]}, "properties": {"cell_id": "200_8", "lon": -60.0, "lat": -77.25}}, {"type": "Feature", "geometry": {"type": "Polygon", "coordinates": [[[-60.75, -76.5], [-60.75, -75.0], [-59.25, -75.0], [-59.25, -76.5], [-60.75, -76.5]]]}, "properties": {"cell_id": "200_9", "lon": -60.0, "lat": -75.75}}, {"type": "Feature", "geometry": {"type": "Polygon", "coordinates": [[[-60.75, -73.5], [-60.75, -72.0], [-59.25, -72.0], [-59.25, -73.5], [-60.75, -73.5]]]}, "properties": {"cell_id": "200_11", "lon": -60.0, "lat": -72.75}}, {"type": "Feature", "geometry": {"type": "Polygon", "coordinates": [[[-60.75, -72.0], [-60.75, -70.5], [-59.25, -70.5], [-59.25, -72.0], [-60.75, -72.0]]]}, "properties": {"cell_id": "200_12", "lon": -60.0, "lat": -71.25}}]}