{"type": "FeatureCollection", "features": [{"type": "Feature", "geometry": {"type": "Polygon", "coordinates": [[[40.0, 10.0], [40.0, 12.5], [42.5, 12.5], [42.5, 10.0], [40.0, 10.0]]]}, "properties": {"cell_id": "16_40", "lon": 41.25, "lat": 11.25}}, {"type": "Feature", "geometry": {"type": "Polygon", "coordinates": [[[40.0, 12.5], [40.0, 15.0], [42.5, 15.0], [42.5, 12.5], [40.0, 12.5]]]}, "properties": {"cell_id": "16_41", "lon": 41.25, "lat": 13.75}}, {"type": "Feature", "geometry": {"type": "Polygon", "coordinates": [[[40.0, 17.5], [40.0, 20.0], [42.5, 20.0], [42.5, 17.5], [40.0, 17.5]]]}, "properties": {"cell_id": "16_43", "lon": 41.25, "lat": 18.75}}, {"type": "Feature", "geometry": {"type": "Polygon", "coordinates": [[[42.5, 12.5], [42.5, 15.0], [45.0, 15.0], [45.0, 12.5], [42.5, 12.5]]]}, "properties": {"cell_id": "17_41", "lon": 43.75, "lat": 13.75}}, {"type": "Feature", "geometry": {"type": "Polygon", "coordinates": [[[42.5, 15.0], [42.5, 17.5], [45.0, 17.5], [45.0, 15.0], [42.5, 15.0]]]}, "properties": {"cell_id": "17_42", "lon": 43.75, "lat": 16.25}}, {"type": "Feature", "geometry": {"type": "Polygon", "coordinates": [[[42.5, 17.5], [42.5, 20.0], [45.0, 20.0], [45.0, 17.5], [42.5, 17.5]]]}, "properties": {"cell_id": "17_43", "lon": 43.75, "lat": 18.75}}, {"type": "Feature", "geometry": {"type": "Polygon", "coordinates": [[[45.0, 12.5], [45.0, 15.0], [47.5, 15.0], [47.5, 12.5], [45.0, 12.5]]]}, "properties": {"cell_id": "18_41", "lon": 46.25, "lat": 13.75}}, {"type": "Feature", "geometry": {"type": "Polygon", "coordinates": [[[45.0, 15.0], [45.0, 17.5], [47.5, 17.5], [47.5, 15.0], [45.0, 15.0]]]}, "properties": {"cell_id": "18_42", "lon": 46.25, "lat": 16.25}}, {"type": "Feature", "geometry": {"type": "Polygon", "coordinates": [[[45.0, 17.5], [45.0, 20.0], [47.5, 20.0], [47.5, 17.5], [45.0, 17.5]]]}, "properties": {"cell_id": "18_43", "lon": 46.25, "lat": 18.75}}, {"type": "Feature", "geometry": {"type": "Polygon", "coordinates": [[[47.5, 10.0], [47.5, 12.5], [50.0, 12.5], [50.0, 10.0], [47.5, 10.0]]]}, "properties": {"cell_id": "19_40", "lon": 48.75, "lat": 11.25}}, {"type": "Feature", "geometry": {"type": "Polygon", "coordinates": [[[47.5, 15.0], [47.5, 17.5], [50.0, 17.5], [50.0, 15.0], [47.5, 15.0]]]}, "properties": {"cell_id": "19_42", "lon": 48.75, "lat": 16.25}}, {"type": "Feature", "geometry": {"type": "Polygon", "coordinates": [[[47.5, 17.5], [47.5, 20.0], [50.0, 20.0], [50.0, 17.5], [47.5, 17.5]]]}, "properties": {"cell_id": "19_43", "lon": 48.75, "lat": 18.75}}]}