{"type": "FeatureCollection", "features": [{"type": "Feature", "geometry": {"type": "Polygon", "coordinates": [[[-80.0, 50.0], [-80.0, 52.5], [-77.5, 52.5], [-77.5, 50.0], [-80.0, 50.0]]]}, "properties": {"cell_id": "112_56", "lon": -78.75, "lat": 51.25}}, {"type": "Feature", "geometry": {"type": "Polygon", "coordinates": [[[-80.0, 52.5], [-80.0, 55.0], [-77.5, 55.0], [-77.5, 52.5], [-80.0, 52.5]]]}, "properties": {"cell_id": "112_57", "lon": -78.75, "lat": 53.75}}, {"type": "Feature", "geometry": {"type": "Polygon", "coordinates": [[[-77.5, 50.0], [-77.5, 52.5], [-75.0, 52.5], [-75.0, 50.0], [-77.5, 50.0]]]}, "properties": {"cell_id": "113_56", "lon": -76.25, "lat": 51.25}}, {"type": "Feature", "geometry": {"type": "Polygon", "coordinates": [[[-77.5, 52.5], [-77.5, 55.0], [-75.0, 55.0], [-75.0, 52.5], [-77.5, 52.5]]]}, "properties": {"cell_id": "113_57", "lon": -76.25, "lat": 53.75}}, {"type": "Feature", "geometry": {"type": "Polygon", "coordinates": [[[-77.5, 55.0], [-77.5, 57.5], [-75.0, 57.5], [-75.0, 55.0], [-77.5, 55.0]]]}, "properties": {"cell_id": "113_58", "lon": -76.25, "lat": 56.25}}, {"type": "Feature", "geometry": {"type": "Polygon", "coordinates": [[[-77.5, 57.5], [-77.5, 60.0], [-75.0, 60.0], [-75.0, 57.5], [-77.5, 57.5]]]}, "properties": {"cell_id": "113_59", "lon": -76.25, "lat": 58.75}}, {"type": "Feature", "geometry": {"type": "Polygon", "coordinates": [[[-75.0, 50.0], [-75.0, 52.5], [-72.5, 52.5], [-72.5, 50.0], [-75.0, 50.0]]]}, "properties": {"cell_id": "114_56", "lon": -73.75, "lat": 51.25}}, {"type": "Feature", "geometry": {"type": "Polygon", "coordinates": [[[-75.0, 52.5], [-75.0, 55.0], [-72.5, 55.0], [-72.5, 52.5], [-75.0, 52.5]]]}, "properties": {"cell_id": "114_57", "lon": -73.75, "lat": 53.75}}, {"type": "Feature", "geometry": {"type": "Polygon", "coordinates": [[[-75.0, 55.0], [-75.0, 57.5], [-72.5, 57.5], [-72.5, 55.0], [-75.0, 55.0]]]}, "properties": {"cell_id": "114_58", "lon": -73.75, "lat": 56.25}}, {"type": "Feature", "geometry": {"type": "Polygon", "coordinates": [[[-75.0, 57.5], [-75.0, 60.0], [-72.5, 60.0], [-72.5, 57.5], [-75.0, 57.5]]]}, "properties": {"cell_id": "114_59", "lon": -73.75, "lat": 58.75}}, {"type": "Feature", "geometry": {"type": "Polygon", "coordinates": [[[-72.5, 50.0], [-72.5, 52.5], [-70.0, 52.5], [-70.0, 50.0], [-72.5, 50.0]]]}, "properties": {"cell_id": "115_56", "lon": -71.25, "lat": 51.25}}, {"type": "Feature", "geometry": {"type": "Polygon", "coordinates": [[[-72.5, 52.5], [-72.5, 55.0], [-70.0, 55.0], [-70.0, 52.5], [-72.5, 52.5]]]}, "properties": {"cell_id": "115_57", "lon": -71.25, "lat": 53.75}}, {"type": "Feature", "geometry": {"type": "Polygon", "coordinates": [[[-72.5, 55.0], [-72.5, 57.5], [-70.0, 57.5], [-70.0, 55.0], [-72.5, 55.0]]]}, "properties": {"cell_id": "115_58", "lon": -71.25, "lat": 56.25}}, {"type": "Feature", "geometry": {"type": "Polygon", "coordinates": [[[-72.5, 57.5], [-72.5, 60.0], [-70.0, 60.0], [-70.0, 57.5], [-72.5, 57.5]]]}, "properties": {"cell_id": "115_59", "lon": -71.25, "lat": 58.75}}]}