{"type": "FeatureCollection", "features": [{"type": "Feature", "geometry": {"type": "Polygon", "coordinates": [[[140.0, -30.0], [140.0, -27.5], [142.5, -27.5], [142.5, -30.0], [140.0, -30.0]]]}, "properties": {"cell_id": "56_24", "lon": 141.25, "lat": -28.75}}, {"type": "Feature", "geometry": {"type": "Polygon", "coordinates": [[[140.0, -27.5], [140.0, -25.0], [142.5, -25.0], [142.5, -27.5], [140.0, -27.5]]]}, "properties": {"cell_id": "56_25", "lon": 141.25, "lat": -26.25}}, {"type": "Feature", "geometry": {"type": "Polygon", "coordinates": [[[140.0, -25.0], [140.0, -22.5], [142.5, -22.5], [142.5, -25.0], [140.0, -25.0]]]}, "properties": {"cell_id": "56_26", "lon": 141.25, "lat": -23.75}}, {"type": "Feature", "geometry": {"type": "Polygon", "coordinates": [[[140.0, -22.5], [140.0, -20.0], [142.5, -20.0], [142.5, -22.5], [140.0, -22.5]]]}, "properties": {"cell_id": "56_27", "lon": 141.25, "lat": -21.25}}, {"type": "Feature", "geometry": {"type": "Polygon", "coordinates": [[[142.5, -30.0], [142.5, -27.5], [145.0, -27.5], [145.0, -30.0], [142.5, -30.0]]]}, "properties": {"cell_id": "57_24", "lon": 143.75, "lat": -28.75}}, {"type": "Feature", "geometry": {"type": "Polygon", "coordinates": [[[142.5, -27.5], [142.5, -25.0], [145.0, -25.0], [145.0, -27.5], [142.5, -27.5]]]}, "properties": {"cell_id": "57_25", "lon": 143.75, "lat": -26.25}}, {"type": "Feature", "geometry": {"type": "Polygon", "coordinates": [[[142.5, -25.0], [142.5, -22.5], [145.0, -22.5], [145.0, -25.0], [142.5, -25.0]]]}, "properties": {"cell_id": "57_26", "lon": 143.75, "lat": -23.75}}, {"type": "Feature", "geometry": {"type": "Polygon", "coordinates": [[[142.5, -22.5], [142.5, -20.0], [145.0, -20.0], [145.0, -22.5], [142.5, -22.5]]]}, "properties": {"cell_id": "57_27", "lon": 143.75, "lat": -21.25}}, {"type": "Feature", "geometry": {"type": "Polygon", "coordinates": [[[145.0, -30.0], [145.0, -27.5], [147.5, -27.5], [147.5, -30.0], [145.0, -30.0]]]}, "properties": {"cell_id": "58_24", "lon": 146.25, "lat": -28.75}}, {"type": "Feature", "geometry": {"type": "Polygon", "coordinates": [[[145.0, -27.5], [145.0, -25.0], [147.5, -25.0], [147.5, -27.5], [145.0, -27.5]]]}, "properties": {"cell_id": "58_25", "lon": 146.25, "lat": -26.25}}, {"type": "Feature", "geometry": {"type": "Polygon", "coordinates": [[[145.0, -25.0], [145.0, -22.5], [147.5, -22.5], [147.5, -25.0], [145.0, -25.0]]]}, "properties": {"cell_id": "58_26", "lon": 146.25, "lat": -23.75}}, {"type": "Feature", "geometry": {"type": "Polygon", "coordinates": [[[145.0, -22.5], [145.0, -20.0], [147.5, -20.0], [147.5, -22.5], [145.0, -22.5]]]}, "properties": {"cell_id": "58_27", "lon": 146.25, "lat": -21.25}}, {"type": "Feature", "geometry": {"type": "Polygon", "coordinates": [[[147.5, -30.0], [147.5, -27.5], [150.0, -27.5], [150.0, -30.0], [147.5, -30.0]]]}, "properties": {"cell_id": "59_24", "lon": 148.75, "lat": -28.75}}, {"type": "Feature", "geometry": {"type": "Polygon", "coordinates": [[[147.5, -27.5], [147.5, -25.0], [150.0, -25.0], [150.0, -27.5], [147.5, -27.5]]]}, "properties": {"cell_id": "59_25", "lon": 148.75, "lat": -26.25}}, {"type": "Feature", "geometry": {"type": "Polygon", "coordinates": [[[147.5, -25.0], [147.5, -22.5], [150.0, -22.5], [150.0, -25.0], [147.5, -25.0]]]}, "properties": {"cell_id": "59_26", "lon": 148.75, "lat": -23.75}}, {"type": "Feature", "geometry": {"type": "Polygon", "coordinates": [[[147.5, -22.5], [147.5, -20.0], [150.0, -20.0], [150.0, -22.5], [147.5, -22.5]]]}, "properties": {"cell_id": "59_27", "lon": 148.75, "lat": -21.25}}]}