{"type": "FeatureCollection", "features": [{"type": "Feature", "geometry": {"type": "Polygon", "coordinates": [[[20.0, 40.0], [20.0, 42.5], [22.5, 42.5], [22.5, 40.0], [20.0, 40.0]]]}, "properties": {"cell_id": "8_52", "lon": 21.25, "lat": 41.25}}, {"type": "Feature", "geometry": {"type": "Polygon", "coordinates": [[[20.0, 42.5], [20.0, 45.0], [22.5, 45.0], [22.5, 42.5], [20.0, 42.5]]]}, "properties": {"cell_id": "8_53", "lon": 21.25, "lat": 43.75}}, {"type": "Feature", "geometry": {"type": "Polygon", "coordinates": [[[20.0, 45.0], [20.0, 47.5], [22.5, 47.5], [22.5, 45.0], [20.0, 45.0]]]}, "properties": {"cell_id": "8_54", "lon": 21.25, "lat": 46.25}}, {"type": "Feature", "geometry": {"type": "Polygon", "coordinates": [[[20.0, 47.5], [20.0, 50.0], [22.5, 50.0], [22.5, 47.5], [20.0, 47.5]]]}, "properties": {"cell_id": "8_55", "lon": 21.25, "lat": 48.75}}, {"type": "Feature", "geometry": {"type": "Polygon", "coordinates": [[[22.5, 40.0], [22.5, 42.5], [25.0, 42.5], [25.0, 40.0], [22.5, 40.0]]]}, "properties": {"cell_id": "9_52", "lon": 23.75, "lat": 41.25}}, {"type": "Feature", "geometry": {"type": "Polygon", "coordinates": [[[22.5, 42.5], [22.5, 45.0], [25.0, 45.0], [25.0, 42.5], [22.5, 42.5]]]}, "properties": {"cell_id": "9_53", "lon": 23.75, "lat": 43.75}}, {"type": "Feature", "geometry": {"type": "Polygon", "coordinates": [[[22.5, 45.0], [22.5, 47.5], [25.0, 47.5], [25.0, 45.0], [22.5, 45.0]]]}, "properties": {"cell_id": "9_54", "lon": 23.75, "lat": 46.25}}, {"type": "Feature", "geometry": {"type": "Polygon", "coordinates": [[[22.5, 47.5], [22.5, 50.0], [25.0, 50.0], [25.0, 47.5], [22.5, 47.5]]]}, "properties": {"cell_id": "9_55", "lon": 23.75, "lat": 48.75}}, {"type": "Feature", "geometry": {"type": "Polygon", "coordinates": [[[25.0, 40.0], [25.0, 42.5], [27.5, 42.5], [27.5, 40.0], [25.0, 40.0]]]}, "properties": {"cell_id": "10_52", "lon": 26.25, "lat": 41.25}}, {"type": "Feature", "geometry": {"type": "Polygon", "coordinates": [[[25.0, 42.5], [25.0, 45.0], [27.5, 45.0], [27.5, 42.5], [25.0, 42.5]]]}, "properties": {"cell_id": "10_53", "lon": 26.25, "lat": 43.75}}, {"type": "Feature", "geometry": {"type": "Polygon", "coordinates": [[[25.0, 45.0], [25.0, 47.5], [27.5, 47.5], [27.5, 45.0], [25.0, 45.0]]]}, "properties": {"cell_id": "10_54", "lon": 26.25, "lat": 46.25}}, {"type": "Feature", "geometry": {"type": "Polygon", "coordinates": [[[25.0, 47.5], [25.0, 50.0], [27.5, 50.0], [27.5, 47.5], [25.0, 47.5]]]}, "properties": {"cell_id": "10_55", "lon": 26.25, "lat": 48.75}}, {"type": "Feature", "geometry": {"type": "Polygon", "coordinates": [[[27.5, 40.0], [27.5, 42.5], [30.0, 42.5], [30.0, 40.0], [27.5, 40.0]]]}, "properties": {"cell_id": "11_52", "lon": 28.75, "lat": 41.25}}, {"type": "Feature", "geometry": {"type": "Polygon", "coordinates": [[[27.5, 45.0], [27.5, 47.5], [30.0, 47.5], [30.0, 45.0], [27.5, 45.0]]]}, "properties": {"cell_id": "11_54", "lon": 28.75, "lat": 46.25}}, {"type": "Feature", "geometry": {"type": "Polygon", "coordinates": [[[27.5, 47.5], [27.5, 50.0], [30.0, 50.0], [30.0, 47.5], [27.5, 47.5]]]}, "properties": {"cell_id": "11_55", "lon": 28.75, "lat": 48.75}}]}