{"type": "FeatureCollection", "features": [{"type": "Feature", "geometry": {"type": "Polygon", "coordinates": [[[101.25, 70.5], [101.25, 72.0], [102.75, 72.0], [102.75, 70.5], [101.25, 70.5]]]}, "properties": {"cell_id": "68_107", "lon": 102.0, "lat": 71.25}}, {"type": "Feature", "geometry": {"type": "Polygon", "coordinates": [[[101.25, 72.0], [101.25, 73.5], [102.75, 73.5], [102.75, 72.0], [101.25, 72.0]]]}, "properties": {"cell_id": "68_108", "lon": 102.0, "lat": 72.75}}, {"type": "Feature", "geometry": {"type": "Polygon", "coordinates": [[[101.25, 73.5], [101.25, 75.0], [102.75, 75.0], [102.75, 73.5], [101.25, 73.5]]]}, "properties": {"cell_id": "68_109", "lon": 102.0, "lat": 74.25}}, {"type": "Feature", "geometry": {"type": "Polygon", "coordinates": [[[101.25, 75.0], [101.25, 76.5], [102.75, 76.5], [102.75, 75.0], [101.25, 75.0]]]}, "properties": {"cell_id": "68_110", "lon": 102.0, "lat": 75.75}}, {"type": "Feature", "geometry": {"type": "Polygon", "coordinates": [[[101.25, 76.5], [101.25, 78.0], [102.75, 78.0], [102.75, 76.5], [101.25, 76.5]]]}, "properties": {"cell_id": "68_111", "lon": 102.0, "lat": 77.25}}, {"type": "Feature", "geometry": {"type": "Polygon", "coordinates": [[[101.25, 78.0], [101.25, 79.5], [102.75, 79.5], [102.75, 78.0], [101.25, 78.0]]]}, "properties": {"cell_id": "68_112", "lon": 102.0, "lat": 78.75}}, {"type": "Feature", "geometry": {"type": "Polygon", "coordinates": [[[102.75, 70.5], [102.75, 72.0], [104.25, 72.0], [104.25, 70.5], [102.75, 70.5]]]}, "properties": {"cell_id": "69_107", "lon": 103.5, "lat": 71.25}}, {"type": "Feature", "geometry": {"type": "Polygon", "coordinates": [[[102.75, 72.0], [102.75, 73.5], [104.25, 73.5], [104.25, 72.0], [102.75, 72.0]]]}, "properties": {"cell_id": "69_108", "lon": 103.5, "lat": 72.75}}, {"type": "Feature", "geometry": {"type": "Polygon", "coordinates": [[[102.75, 73.5], [102.75, 75.0], [104.25, 75.0], [104.25, 73.5], [102.75, 73.5]]]}, "properties": {"cell_id": "69_109", "lon": 103.5, "lat": 74.25}}, {"type": "Feature", "geometry": {"type": "Polygon", "coordinates": [[[102.75, 75.0], [102.75, 76.5], [104.25, 76.5], [104.25, 75.0], [102.75, 75.0]]]}, "properties": {"cell_id": "69_110", "lon": 103.5, "lat": 75.75}}, {"type": "Feature", "geometry": {"type": "Polygon", "coordinates": [[[102.75, 76.5], [102.75, 78.0], [104.25, 78.0], [104.25, 76.5], [102.75, 76.5]]]}, "properties": {"cell_id": "69_111", "lon": 103.5, "lat": 77.25}}, {"type": "Feature", "geometry": {"type": "Polygon", "coordinates": [[[102.75, 78.0], [102.75, 79.5], [104.25, 79.5], [104.25, 78.0], [102.75, 78.0]]]}, "properties": {"cell_id": "69_112", "lon": 103.5, "lat": 78.75}}, {"type": "Feature", "geometry": {"type": "Polygon", "coordinates": [[[104.25, 70.5], [104.25, 72.0], [105.75, 72.0], [105.75, 70.5], [104.25, 70.5]]]}, "properties": {"cell_id": "70_107", "lon": 105.0, "lat": 71.25}}, {"type": "Feature", "geometry": {"type": "Polygon", "coordinates": [[[104.25, 72.0], [104.25, 73.5], [105.75, 73.5], [105.75, 72.0], [104.25, 72.0]]]}, "properties": {"cell_id": "70_108", "lon": 105.0, "lat": 72.75}}, {"type": "Feature", "geometry": {"type": "Polygon", "coordinates": [[[104.25, 73.5], [104.25, 75.0], [105.75, 75.0], [105.75, 73.5], [104.25, 73.5]]]}, "properties": {"cell_id": "70_109", "lon": 105.0, "lat": 74.25}}, {"type": "Feature", "geometry": {"type": "Polygon", "coordinates": [[[104.25, 75.0], [104.25, 76.5], [105.75, 76.5], [105.75, 75.0], [104.25, 75.0]]]}, "properties": {"cell_id": "70_110", "lon": 105.0, "lat": 75.75}}, {"type": "Feature", "geometry": {"type": "Polygon", "coordinates": [[[104.25, 76.5], [104.25, 78.0], [105.75, 78.0], [105.75, 76.5], [104.25, 76.5]]]}, "properties": {"cell_id": "70_111", "lon": 105.0, "lat": 77.25}}, {"type": "Feature", "geometry": {"type": "Polygon", "coordinates": [[[105.75, 70.5], [105.75, 72.0], [107.25, 72.0], [107.25, 70.5], [105.75, 70.5]]]}, "properties": {"cell_id": "71_107", "lon": 106.5, "lat": 71.25}}, {"type": "Feature", "geometry": {"type": "Polygon", "coordinates": [[[105.75, 72.0], [105.75, 73.5], [107.25, 73.5], [107.25, 72.0], [105.75, 72.0]]]}, "properties": {"cell_id": "71_108", "lon": 106.5, "lat": 72.75}}, {"type": "Feature", "geometry": {"type": "Polygon", "coordinates": [[[105.75, 73.5], [105.75, 75.0], [107.25, 75.0], [107.25, 73.5], [105.75, 73.5]]]}, "properties": {"cell_id": "71_109", "lon": 106.5, "lat": 74.25}}, {"type": "Feature", "geometry": {"type": "Polygon", "coordinates": [[[105.75, 75.0], [105.75, 76.5], [107.25, 76.5], [107.25, 75.0], [105.75, 75.0]]]}, "properties": {"cell_id": "71_110", "lon": 106.5, "lat": 75.75}}, {"type": "Feature", "geometry": {"type": "Polygon", "coordinates": [[[105.75, 76.5], [105.75, 78.0], [107.25, 78.0], [107.25, 76.5], [105.75, 76.5]]]}, "properties": {"cell_id": "71_111", "lon": 106.5, "lat": 77.25}}, {"type": "Feature", "geometry": {"type": "Polygon", "coordinates": [[[107.25, 70.5], [107.25, 72.0], [108.75, 72.0], [108.75, 70.5], [107.25, 70.5]]]}, "properties": {"cell_id": "72_107", "lon": 108.0, "lat": 71.25}}, {"type": "Feature", "geometry": {"type": "Polygon", "coordinates": [[[107.25, 72.0], [107.25, 73.5], [108.75, 73.5], [108.75, 72.0], [107.25, 72.0]]]}, "properties": {"cell_id": "72_108", "lon": 108.0, "lat": 72.75}}, {"type": "Feature", "geometry": {"type": "Polygon", "coordinates": [[[107.25, 73.5], [107.25, 75.0], [108.75, 75.0], [108.75, 73.5], [107.25, 73.5]]]}, "properties": {"cell_id": "72_109", "lon": 108.0, "lat": 74.25}}, {"type": "Feature", "geometry": {"type": "Polygon", "coordinates": [[[107.25, 75.0], [107.25, 76.5], [108.75, 76.5], [108.75, 75.0], [107.25, 75.0]]]}, "properties": {"cell_id": "72_110", "lon": 108.0, "lat": 75.75}}, {"type": "Feature", "geometry": {"type": "Polygon", "coordinates": [[[107.25, 76.5], [107.25, 78.0], [108.75, 78.0], [108.75, 76.5], [107.25, 76.5]]]}, "properties": {"cell_id": "72_111", "lon": 108.0, "lat": 77.25}}, {"type": "Feature", "geometry": {"type": "Polygon", "coordinates": [[[108.75, 70.5], [108.75, 72.0], [110.25, 72.0], [110.25, 70.5], [108.75, 70.5]]]}, "properties": {"cell_id": "73_107", "lon": 109.5, "lat": 71.25}}, {"type": "Feature", "geometry": {"type": "Polygon", "coordinates": [[[108.75, 72.0], [108.75, 73.5], [110.25, 73.5], [110.25, 72.0], [108.75, 72.0]]]}, "properties": {"cell_id": "73_108", "lon": 109.5, "lat": 72.75}}, {"type": "Feature", "geometry": {"type": "Polygon", "coordinates": [[[108.75, 73.5], [108.75, 75.0], [110.25, 75.0], [110.25, 73.5], [108.75, 73.5]]]}, "properties": {"cell_id": "73_109", "lon": 109.5, "lat": 74.25}}, {"type": "Feature", "geometry": {"type": "Polygon", "coordinates": [[[108.75, 75.0], [108.75, 76.5], [110.25, 76.5], [110.25, 75.0], [108.75, 75.0]]]}, "properties": {"cell_id": "73_110", "lon": 109.5, "lat": 75.75}}]}