{"type": "FeatureCollection", "features": [{"type": "Feature", "geometry": {"type": "Polygon", "coordinates": [[[-125.25, 39.0], [-125.25, 40.5], [-123.75, 40.5], [-123.75, 39.0], [-125.25, 39.0]]]}, "properties": {"cell_id": "157_86", "lon": -124.5, "lat": 39.75}}, {"type": "Feature", "geometry": {"type": "Polygon", "coordinates": [[[-123.75, 36.0], [-123.75, 37.5], [-122.25, 37.5], [-122.25, 36.0], [-123.75, 36.0]]]}, "properties": {"cell_id": "158_84", "lon": -123.0, "lat": 36.75}}, {"type": "Feature", "geometry": {"type": "Polygon", "coordinates": [[[-123.75, 37.5], [-123.75, 39.0], [-122.25, 39.0], [-122.25, 37.5], [-123.75, 37.5]]]}, "properties": {"cell_id": "158_85", "lon": -123.0, "lat": 38.25}}, {"type": "Feature", "geometry": {"type": "Polygon", "coordinates": [[[-123.75, 39.0], [-123.75, 40.5], [-122.25, 40.5], [-122.25, 39.0], [-123.75, 39.0]]]}, "properties": {"cell_id": "158_86", "lon": -123.0, "lat": 39.75}}, {"type": "Feature", "geometry": {"type": "Polygon", "coordinates": [[[-122.25, 36.0], [-122.25, 37.5], [-120.75, 37.5], [-120.75, 36.0], [-122.25, 36.0]]]}, "properties": {"cell_id": "159_84", "lon": -121.5, "lat": 36.75}}, {"type": "Feature", "geometry": {"type": "Polygon", "coordinates": [[[-122.25, 37.5], [-122.25, 39.0], [-120.75, 39.0], [-120.75, 37.5], [-122.25, 37.5]]]}, "properties": {"cell_id": "159_85", "lon": -121.5, "lat": 38.25}}, {"type": "Feature", "geometry": {"type": "Polygon", "coordinates": [[[-122.25, 39.0], [-122.25, 40.5], [-120.75, 40.5], [-120.75, 39.0], [-122.25, 39.0]]]}, "properties": {"cell_id": "159_86", "lon": -121.5, "lat": 39.75}}, {"type": "Feature", "geometry": {"type": "Polygon", "coordinates": [[[-120.75, 33.0], [-120.75, 34.5], [-119.25, 34.5], [-119.25, 33.0], [-120.75, 33.0]]]}, "properties": {"cell_id": "160_82", "lon": -120.0, "lat": 33.75}}, {"type": "Feature", "geometry": {"type": "Polygon", "coordinates": [[[-120.75, 34.5], [-120.75, 36.0], [-119.25, 36.0], [-119.25, 34.5], [-120.75, 34.5]]]}, "properties": {"cell_id": "160_83", "lon": -120.0, "lat": 35.25}}, {"type": "Feature", "geometry": {"type": "Polygon", "coordinates": [[[-120.75, 36.0], [-120.75, 37.5], [-119.25, 37.5], [-119.25, 36.0], [-120.75, 36.0]]]}, "properties": {"cell_id": "160_84", "lon": -120.0, "lat": 36.75}}, {"type": "Feature", "geometry": {"type": "Polygon", "coordinates": [[[-120.75, 37.5], [-120.75, 39.0], [-119.25, 39.0], [-119.25, 37.5], [-120.75, 37.5]]]}, "properties": {"cell_id": "160_85", "lon": -120.0, "lat": 38.25}}, {"type": "Feature", "geometry": {"type": "Polygon", "coordinates": [[[-120.75, 39.0], [-120.75, 40.5], [-119.25, 40.5], [-119.25, 39.0], [-120.75, 39.0]]]}, "properties": {"cell_id": "160_86", "lon": -120.0, "lat": 39.75}}]}