{"type": "FeatureCollection", "features": [{"type": "Feature", "geometry": {"type": "Polygon", "coordinates": [[[71.25, 21.0], [71.25, 22.5], [72.75, 22.5], [72.75, 21.0], [71.25, 21.0]]]}, "properties": {"cell_id": "48_74", "lon": 72.0, "lat": 21.75}}, {"type": "Feature", "geometry": {"type": "Polygon", "coordinates": [[[71.25, 22.5], [71.25, 24.0], [72.75, 24.0], [72.75, 22.5], [71.25, 22.5]]]}, "properties": {"cell_id": "48_75", "lon": 72.0, "lat": 23.25}}, {"type": "Feature", "geometry": {"type": "Polygon", "coordinates": [[[71.25, 24.0], [71.25, 25.5], [72.75, 25.5], [72.75, 24.0], [71.25, 24.0]]]}, "properties": {"cell_id": "48_76", "lon": 72.0, "lat": 24.75}}, {"type": "Feature", "geometry": {"type": "Polygon", "coordinates": [[[71.25, 25.5], [71.25, 27.0], [72.75, 27.0], [72.75, 25.5], [71.25, 25.5]]]}, "properties": {"cell_id": "48_77", "lon": 72.0, "lat": 26.25}}, {"type": "Feature", "geometry": {"type": "Polygon", "coordinates": [[[71.25, 27.0], [71.25, 28.5], [72.75, 28.5], [72.75, 27.0], [71.25, 27.0]]]}, "properties": {"cell_id": "48_78", "lon": 72.0, "lat": 27.75}}, {"type": "Feature", "geometry": {"type": "Polygon", "coordinates": [[[71.25, 28.5], [71.25, 30.0], [72.75, 30.0], [72.75, 28.5], [71.25, 28.5]]]}, "properties": {"cell_id": "48_79", "lon": 72.0, "lat": 29.25}}, {"type": "Feature", "geometry": {"type": "Polygon", "coordinates": [[[72.75, 21.0], [72.75, 22.5], [74.25, 22.5], [74.25, 21.0], [72.75, 21.0]]]}, "properties": {"cell_id": "49_74", "lon": 73.5, "lat": 21.75}}, {"type": "Feature", "geometry": {"type": "Polygon", "coordinates": [[[72.75, 22.5], [72.75, 24.0], [74.25, 24.0], [74.25, 22.5], [72.75, 22.5]]]}, "properties": {"cell_id": "49_75", "lon": 73.5, "lat": 23.25}}, {"type": "Feature", "geometry": {"type": "Polygon", "coordinates": [[[72.75, 24.0], [72.75, 25.5], [74.25, 25.5], [74.25, 24.0], [72.75, 24.0]]]}, "properties": {"cell_id": "49_76", "lon": 73.5, "lat": 24.75}}, {"type": "Feature", "geometry": {"type": "Polygon", "coordinates": [[[72.75, 25.5], [72.75, 27.0], [74.25, 27.0], [74.25, 25.5], [72.75, 25.5]]]}, "properties": {"cell_id": "49_77", "lon": 73.5, "lat": 26.25}}, {"type": "Feature", "geometry": {"type": "Polygon", "coordinates": [[[72.75, 27.0], [72.75, 28.5], [74.25, 28.5], [74.25, 27.0], [72.75, 27.0]]]}, "properties": {"cell_id": "49_78", "lon": 73.5, "lat": 27.75}}, {"type": "Feature", "geometry": {"type": "Polygon", "coordinates": [[[72.75, 28.5], [72.75, 30.0], [74.25, 30.0], [74.25, 28.5], [72.75, 28.5]]]}, "properties": {"cell_id": "49_79", "lon": 73.5, "lat": 29.25}}, {"type": "Feature", "geometry": {"type": "Polygon", "coordinates": [[[74.25, 21.0], [74.25, 22.5], [75.75, 22.5], [75.75, 21.0], [74.25, 21.0]]]}, "properties": {"cell_id": "50_74", "lon": 75.0, "lat": 21.75}}, {"type": "Feature", "geometry": {"type": "Polygon", "coordinates": [[[74.25, 22.5], [74.25, 24.0], [75.75, 24.0], [75.75, 22.5], [74.25, 22.5]]]}, "properties": {"cell_id": "50_75", "lon": 75.0, "lat": 23.25}}, {"type": "Feature", "geometry": {"type": "Polygon", "coordinates": [[[74.25, 24.0], [74.25, 25.5], [75.75, 25.5], [75.75, 24.0], [74.25, 24.0]]]}, "properties": {"cell_id": "50_76", "lon": 75.0, "lat": 24.75}}, {"type": "Feature", "geometry": {"type": "Polygon", "coordinates": [[[74.25, 25.5], [74.25, 27.0], [75.75, 27.0], [75.75, 25.5], [74.25, 25.5]]]}, "properties": {"cell_id": "50_77", "lon": 75.0, "lat": 26.25}}, {"type": "Feature", "geometry": {"type": "Polygon", "coordinates": [[[74.25, 27.0], [74.25, 28.5], [75.75, 28.5], [75.75, 27.0], [74.25, 27.0]]]}, "properties": {"cell_id": "50_78", "lon": 75.0, "lat": 27.75}}, {"type": "Feature", "geometry": {"type": "Polygon", "coordinates": [[[74.25, 28.5], [74.25, 30.0], [75.75, 30.0], [75.75, 28.5], [74.25, 28.5]]]}, "properties": {"cell_id": "50_79", "lon": 75.0, "lat": 29.25}}, {"type": "Feature", "geometry": {"type": "Polygon", "coordinates": [[[75.75, 21.0], [75.75, 22.5], [77.25, 22.5], [77.25, 21.0], [75.75, 21.0]]]}, "properties": {"cell_id": "51_74", "lon": 76.5, "lat": 21.75}}, {"type": "Feature", "geometry": {"type": "Polygon", "coordinates": [[[75.75, 22.5], [75.75, 24.0], [77.25, 24.0], [77.25, 22.5], [75.75, 22.5]]]}, "properties": {"cell_id": "51_75", "lon": 76.5, "lat": 23.25}}, {"type": "Feature", "geometry": {"type": "Polygon", "coordinates": [[[75.75, 24.0], [75.75, 25.5], [77.25, 25.5], [77.25, 24.0], [75.75, 24.0]]]}, "properties": {"cell_id": "51_76", "lon": 76.5, "lat": 24.75}}, {"type": "Feature", "geometry": {"type": "Polygon", "coordinates": [[[75.75, 25.5], [75.75, 27.0], [77.25, 27.0], [77.25, 25.5], [75.75, 25.5]]]}, "properties": {"cell_id": "51_77", "lon": 76.5, "lat": 26.25}}, {"type": "Feature", "geometry": {"type": "Polygon", "coordinates": [[[75.75, 27.0], [75.75, 28.5], [77.25, 28.5], [77.25, 27.0], [75.75, 27.0]]]}, "properties": {"cell_id": "51_78", "lon": 76.5, "lat": 27.75}}, {"type": "Feature", "geometry": {"type": "Polygon", "coordinates": [[[75.75, 28.5], [75.75, 30.0], [77.25, 30.0], [77.25, 28.5], [75.75, 28.5]]]}, "properties": {"cell_id": "51_79", "lon": 76.5, "lat": 29.25}}, {"type": "Feature", "geometry": {"type": "Polygon", "coordinates": [[[77.25, 21.0], [77.25, 22.5], [78.75, 22.5], [78.75, 21.0], [77.25, 21.0]]]}, "properties": {"cell_id": "52_74", "lon": 78.0, "lat": 21.75}}, {"type": "Feature", "geometry": {"type": "Polygon", "coordinates": [[[77.25, 22.5], [77.25, 24.0], [78.75, 24.0], [78.75, 22.5], [77.25, 22.5]]]}, "properties": {"cell_id": "52_75", "lon": 78.0, "lat": 23.25}}, {"type": "Feature", "geometry": {"type": "Polygon", "coordinates": [[[77.25, 24.0], [77.25, 25.5], [78.75, 25.5], [78.75, 24.0], [77.25, 24.0]]]}, "properties": {"cell_id": "52_76", "lon": 78.0, "lat": 24.75}}, {"type": "Feature", "geometry": {"type": "Polygon", "coordinates": [[[77.25, 25.5], [77.25, 27.0], [78.75, 27.0], [78.75, 25.5], [77.25, 25.5]]]}, "properties": {"cell_id": "52_77", "lon": 78.0, "lat": 26.25}}, {"type": "Feature", "geometry": {"type": "Polygon", "coordinates": [[[77.25, 27.0], [77.25, 28.5], [78.75, 28.5], [78.75, 27.0], [77.25, 27.0]]]}, "properties": {"cell_id": "52_78", "lon": 78.0, "lat": 27.75}}, {"type": "Feature", "geometry": {"type": "Polygon", "coordinates": [[[77.25, 28.5], [77.25, 30.0], [78.75, 30.0], [78.75, 28.5], [77.25, 28.5]]]}, "properties": {"cell_id": "52_79", "lon": 78.0, "lat": 29.25}}, {"type": "Feature", "geometry": {"type": "Polygon", "coordinates": [[[78.75, 21.0], [78.75, 22.5], [80.25, 22.5], [80.25, 21.0], [78.75, 21.0]]]}, "properties": {"cell_id": "53_74", "lon": 79.5, "lat": 21.75}}, {"type": "Feature", "geometry": {"type": "Polygon", "coordinates": [[[78.75, 22.5], [78.75, 24.0], [80.25, 24.0], [80.25, 22.5], [78.75, 22.5]]]}, "properties": {"cell_id": "53_75", "lon": 79.5, "lat": 23.25}}, {"type": "Feature", "geometry": {"type": "Polygon", "coordinates": [[[78.75, 24.0], [78.75, 25.5], [80.25, 25.5], [80.25, 24.0], [78.75, 24.0]]]}, "properties": {"cell_id": "53_76", "lon": 79.5, "lat": 24.75}}, {"type": "Feature", "geometry": {"type": "Polygon", "coordinates": [[[78.75, 25.5], [78.75, 27.0], [80.25, 27.0], [80.25, 25.5], [78.75, 25.5]]]}, "properties": {"cell_id": "53_77", "lon": 79.5, "lat": 26.25}}, {"type": "Feature", "geometry": {"type": "Polygon", "coordinates": [[[78.75, 27.0], [78.75, 28.5], [80.25, 28.5], [80.25, 27.0], [78.75, 27.0]]]}, "properties": {"cell_id": "53_78", "lon": 79.5, "lat": 27.75}}, {"type": "Feature", "geometry": {"type": "Polygon", "coordinates": [[[78.75, 28.5], [78.75, 30.0], [80.25, 30.0], [80.25, 28.5], [78.75, 28.5]]]}, "properties": {"cell_id": "53_79", "lon": 79.5, "lat": 29.25}}]}