{"type": "FeatureCollection", "features": [{"type": "Feature", "geometry": {"type": "Polygon", "coordinates": [[[161.25, 60.0], [161.25, 61.5], [162.75, 61.5], [162.75, 60.0], [161.25, 60.0]]]}, "properties": {"cell_id": "108_100", "lon": 162.0, "lat": 60.75}}, {"type": "Feature", "geometry": {"type": "Polygon", "coordinates": [[[161.25, 61.5], [161.25, 63.0], [162.75, 63.0], [162.75, 61.5], [161.25, 61.5]]]}, "properties": {"cell_id": "108_101", "lon": 162.0, "lat": 62.25}}, {"type": "Feature", "geometry": {"type": "Polygon", "coordinates": [[[161.25, 63.0], [161.25, 64.5], [162.75, 64.5], [162.75, 63.0], [161.25, 63.0]]]}, "properties": {"cell_id": "108_102", "lon": 162.0, "lat": 63.75}}, {"type": "Feature", "geometry": {"type": "Polygon", "coordinates": [[[161.25, 64.5], [161.25, 66.0], [162.75, 66.0], [162.75, 64.5], [161.25, 64.5]]]}, "properties": {"cell_id": "108_103", "lon": 162.0, "lat": 65.25}}, {"type": "Feature", "geometry": {"type": "Polygon", "coordinates": [[[161.25, 66.0], [161.25, 67.5], [162.75, 67.5], [162.75, 66.0], [161.25, 66.0]]]}, "properties": {"cell_id": "108_104", "lon": 162.0, "lat": 66.75}}, {"type": "Feature", "geometry": {"type": "Polygon", "coordinates": [[[161.25, 67.5], [161.25, 69.0], [162.75, 69.0], [162.75, 67.5], [161.25, 67.5]]]}, "properties": {"cell_id": "108_105", "lon": 162.0, "lat": 68.25}}, {"type": "Feature", "geometry": {"type": "Polygon", "coordinates": [[[161.25, 69.0], [161.25, 70.5], [162.75, 70.5], [162.75, 69.0], [161.25, 69.0]]]}, "properties": {"cell_id": "108_106", "lon": 162.0, "lat": 69.75}}, {"type": "Feature", "geometry": {"type": "Polygon", "coordinates": [[[162.75, 60.0], [162.75, 61.5], [164.25, 61.5], [164.25, 60.0], [162.75, 60.0]]]}, "properties": {"cell_id": "109_100", "lon": 163.5, "lat": 60.75}}, {"type": "Feature", "geometry": {"type": "Polygon", "coordinates": [[[162.75, 61.5], [162.75, 63.0], [164.25, 63.0], [164.25, 61.5], [162.75, 61.5]]]}, "properties": {"cell_id": "109_101", "lon": 163.5, "lat": 62.25}}, {"type": "Feature", "geometry": {"type": "Polygon", "coordinates": [[[162.75, 63.0], [162.75, 64.5], [164.25, 64.5], [164.25, 63.0], [162.75, 63.0]]]}, "properties": {"cell_id": "109_102", "lon": 163.5, "lat": 63.75}}, {"type": "Feature", "geometry": {"type": "Polygon", "coordinates": [[[162.75, 64.5], [162.75, 66.0], [164.25, 66.0], [164.25, 64.5], [162.75, 64.5]]]}, "properties": {"cell_id": "109_103", "lon": 163.5, "lat": 65.25}}, {"type": "Feature", "geometry": {"type": "Polygon", "coordinates": [[[162.75, 66.0], [162.75, 67.5], [164.25, 67.5], [164.25, 66.0], [162.75, 66.0]]]}, "properties": {"cell_id": "109_104", "lon": 163.5, "lat": 66.75}}, {"type": "Feature", "geometry": {"type": "Polygon", "coordinates": [[[162.75, 67.5], [162.75, 69.0], [164.25, 69.0], [164.25, 67.5], [162.75, 67.5]]]}, "properties": {"cell_id": "109_105", "lon": 163.5, "lat": 68.25}}, {"type": "Feature", "geometry": {"type": "Polygon", "coordinates": [[[162.75, 69.0], [162.75, 70.5], [164.25, 70.5], [164.25, 69.0], [162.75, 69.0]]]}, "properties": {"cell_id": "109_106", "lon": 163.5, "lat": 69.75}}, {"type": "Feature", "geometry": {"type": "Polygon", "coordinates": [[[164.25, 60.0], [164.25, 61.5], [165.75, 61.5], [165.75, 60.0], [164.25, 60.0]]]}, "properties": {"cell_id": "110_100", "lon": 165.0, "lat": 60.75}}, {"type": "Feature", "geometry": {"type": "Polygon", "coordinates": [[[164.25, 61.5], [164.25, 63.0], [165.75, 63.0], [165.75, 61.5], [164.25, 61.5]]]}, "properties": {"cell_id": "110_101", "lon": 165.0, "lat": 62.25}}, {"type": "Feature", "geometry": {"type": "Polygon", "coordinates": [[[164.25, 63.0], [164.25, 64.5], [165.75, 64.5], [165.75, 63.0], [164.25, 63.0]]]}, "properties": {"cell_id": "110_102", "lon": 165.0, "lat": 63.75}}, {"type": "Feature", "geometry": {"type": "Polygon", "coordinates": [[[164.25, 64.5], [164.25, 66.0], [165.75, 66.0], [165.75, 64.5], [164.25, 64.5]]]}, "properties": {"cell_id": "110_103", "lon": 165.0, "lat": 65.25}}, {"type": "Feature", "geometry": {"type": "Polygon", "coordinates": [[[164.25, 66.0], [164.25, 67.5], [165.75, 67.5], [165.75, 66.0], [164.25, 66.0]]]}, "properties": {"cell_id": "110_104", "lon": 165.0, "lat": 66.75}}, {"type": "Feature", "geometry": {"type": "Polygon", "coordinates": [[[164.25, 67.5], [164.25, 69.0], [165.75, 69.0], [165.75, 67.5], [164.25, 67.5]]]}, "properties": {"cell_id": "110_105", "lon": 165.0, "lat": 68.25}}, {"type": "Feature", "geometry": {"type": "Polygon", "coordinates": [[[164.25, 69.0], [164.25, 70.5], [165.75, 70.5], [165.75, 69.0], [164.25, 69.0]]]}, "properties": {"cell_id": "110_106", "lon": 165.0, "lat": 69.75}}, {"type": "Feature", "geometry": {"type": "Polygon", "coordinates": [[[165.75, 60.0], [165.75, 61.5], [167.25, 61.5], [167.25, 60.0], [165.75, 60.0]]]}, "properties": {"cell_id": "111_100", "lon": 166.5, "lat": 60.75}}, {"type": "Feature", "geometry": {"type": "Polygon", "coordinates": [[[165.75, 61.5], [165.75, 63.0], [167.25, 63.0], [167.25, 61.5], [165.75, 61.5]]]}, "properties": {"cell_id": "111_101", "lon": 166.5, "lat": 62.25}}, {"type": "Feature", "geometry": {"type": "Polygon", "coordinates": [[[165.75, 63.0], [165.75, 64.5], [167.25, 64.5], [167.25, 63.0], [165.75, 63.0]]]}, "properties": {"cell_id": "111_102", "lon": 166.5, "lat": 63.75}}, {"type": "Feature", "geometry": {"type": "Polygon", "coordinates": [[[165.75, 64.5], [165.75, 66.0], [167.25, 66.0], [167.25, 64.5], [165.75, 64.5]]]}, "properties": {"cell_id": "111_103", "lon": 166.5, "lat": 65.25}}, {"type": "Feature", "geometry": {"type": "Polygon", "coordinates": [[[165.75, 66.0], [165.75, 67.5], [167.25, 67.5], [167.25, 66.0], [165.75, 66.0]]]}, "properties": {"cell_id": "111_104", "lon": 166.5, "lat": 66.75}}, {"type": "Feature", "geometry": {"type": "Polygon", "coordinates": [[[165.75, 67.5], [165.75, 69.0], [167.25, 69.0], [167.25, 67.5], [165.75, 67.5]]]}, "properties": {"cell_id": "111_105", "lon": 166.5, "lat": 68.25}}, {"type": "Feature", "geometry": {"type": "Polygon", "coordinates": [[[165.75, 69.0], [165.75, 70.5], [167.25, 70.5], [167.25, 69.0], [165.75, 69.0]]]}, "properties": {"cell_id": "111_106", "lon": 166.5, "lat": 69.75}}, {"type": "Feature", "geometry": {"type": "Polygon", "coordinates": [[[167.25, 60.0], [167.25, 61.5], [168.75, 61.5], [168.75, 60.0], [167.25, 60.0]]]}, "properties": {"cell_id": "112_100", "lon": 168.0, "lat": 60.75}}, {"type": "Feature", "geometry": {"type": "Polygon", "coordinates": [[[167.25, 61.5], [167.25, 63.0], [168.75, 63.0], [168.75, 61.5], [167.25, 61.5]]]}, "properties": {"cell_id": "112_101", "lon": 168.0, "lat": 62.25}}, {"type": "Feature", "geometry": {"type": "Polygon", "coordinates": [[[167.25, 63.0], [167.25, 64.5], [168.75, 64.5], [168.75, 63.0], [167.25, 63.0]]]}, "properties": {"cell_id": "112_102", "lon": 168.0, "lat": 63.75}}, {"type": "Feature", "geometry": {"type": "Polygon", "coordinates": [[[167.25, 64.5], [167.25, 66.0], [168.75, 66.0], [168.75, 64.5], [167.25, 64.5]]]}, "properties": {"cell_id": "112_103", "lon": 168.0, "lat": 65.25}}, {"type": "Feature", "geometry": {"type": "Polygon", "coordinates": [[[167.25, 66.0], [167.25, 67.5], [168.75, 67.5], [168.75, 66.0], [167.25, 66.0]]]}, "properties": {"cell_id": "112_104", "lon": 168.0, "lat": 66.75}}, {"type": "Feature", "geometry": {"type": "Polygon", "coordinates": [[[167.25, 67.5], [167.25, 69.0], [168.75, 69.0], [168.75, 67.5], [167.25, 67.5]]]}, "properties": {"cell_id": "112_105", "lon": 168.0, "lat": 68.25}}, {"type": "Feature", "geometry": {"type": "Polygon", "coordinates": [[[167.25, 69.0], [167.25, 70.5], [168.75, 70.5], [168.75, 69.0], [167.25, 69.0]]]}, "properties": {"cell_id": "112_106", "lon": 168.0, "lat": 69.75}}, {"type": "Feature", "geometry": {"type": "Polygon", "coordinates": [[[168.75, 60.0], [168.75, 61.5], [170.25, 61.5], [170.25, 60.0], [168.75, 60.0]]]}, "properties": {"cell_id": "113_100", "lon": 169.5, "lat": 60.75}}, {"type": "Feature", "geometry": {"type": "Polygon", "coordinates": [[[168.75, 61.5], [168.75, 63.0], [170.25, 63.0], [170.25, 61.5], [168.75, 61.5]]]}, "properties": {"cell_id": "113_101", "lon": 169.5, "lat": 62.25}}, {"type": "Feature", "geometry": {"type": "Polygon", "coordinates": [[[168.75, 63.0], [168.75, 64.5], [170.25, 64.5], [170.25, 63.0], [168.75, 63.0]]]}, "properties": {"cell_id": "113_102", "lon": 169.5, "lat": 63.75}}, {"type": "Feature", "geometry": {"type": "Polygon", "coordinates": [[[168.75, 64.5], [168.75, 66.0], [170.25, 66.0], [170.25, 64.5], [168.75, 64.5]]]}, "properties": {"cell_id": "113_103", "lon": 169.5, "lat": 65.25}}, {"type": "Feature", "geometry": {"type": "Polygon", "coordinates": [[[168.75, 66.0], [168.75, 67.5], [170.25, 67.5], [170.25, 66.0], [168.75, 66.0]]]}, "properties": {"cell_id": "113_104", "lon": 169.5, "lat": 66.75}}, {"type": "Feature", "geometry": {"type": "Polygon", "coordinates": [[[168.75, 67.5], [168.75, 69.0], [170.25, 69.0], [170.25, 67.5], [168.75, 67.5]]]}, "properties": {"cell_id": "113_105", "lon": 169.5, "lat": 68.25}}, {"type": "Feature", "geometry": {"type": "Polygon", "coordinates": [[[168.75, 69.0], [168.75, 70.5], [170.25, 70.5], [170.25, 69.0], [168.75, 69.0]]]}, "properties": {"cell_id": "113_106", "lon": 169.5, "lat": 69.75}}]}