{"type": "FeatureCollection", "features": [{"type": "Feature", "geometry": {"type": "Polygon", "coordinates": [[[140.25, 40.5], [140.25, 42.0], [141.75, 42.0], [141.75, 40.5], [140.25, 40.5]]]}, "properties": {"cell_id": "94_87", "lon": 141.0, "lat": 41.25}}, {"type": "Feature", "geometry": {"type": "Polygon", "coordinates": [[[140.25, 49.5], [140.25, 51.0], [141.75, 51.0], [141.75, 49.5], [140.25, 49.5]]]}, "properties": {"cell_id": "94_93", "lon": 141.0, "lat": 50.25}}, {"type": "Feature", "geometry": {"type": "Polygon", "coordinates": [[[141.75, 40.5], [141.75, 42.0], [143.25, 42.0], [143.25, 40.5], [141.75, 40.5]]]}, "properties": {"cell_id": "95_87", "lon": 142.5, "lat": 41.25}}, {"type": "Feature", "geometry": {"type": "Polygon", "coordinates": [[[141.75, 42.0], [141.75, 43.5], [143.25, 43.5], [143.25, 42.0], [141.75, 42.0]]]}, "properties": {"cell_id": "95_88", "lon": 142.5, "lat": 42.75}}, {"type": "Feature", "geometry": {"type": "Polygon", "coordinates": [[[141.75, 43.5], [141.75, 45.0], [143.25, 45.0], [143.25, 43.5], [141.75, 43.5]]]}, "properties": {"cell_id": "95_89", "lon": 142.5, "lat": 44.25}}, {"type": "Feature", "geometry": {"type": "Polygon", "coordinates": [[[141.75, 49.5], [141.75, 51.0], [143.25, 51.0], [143.25, 49.5], [141.75, 49.5]]]}, "properties": {"cell_id": "95_93", "lon": 142.5, "lat": 50.25}}, {"type": "Feature", "geometry": {"type": "Polygon", "coordinates": [[[143.25, 40.5], [143.25, 42.0], [144.75, 42.0], [144.75, 40.5], [143.25, 40.5]]]}, "properties": {"cell_id": "96_87", "lon": 144.0, "lat": 41.25}}, {"type": "Feature", "geometry": {"type": "Polygon", "coordinates": [[[143.25, 42.0], [143.25, 43.5], [144.75, 43.5], [144.75, 42.0], [143.25, 42.0]]]}, "properties": {"cell_id": "96_88", "lon": 144.0, "lat": 42.75}}, {"type": "Feature", "geometry": {"type": "Polygon", "coordinates": [[[143.25, 43.5], [143.25, 45.0], [144.75, 45.0], [144.75, 43.5], [143.25, 43.5]]]}, "properties": {"cell_id": "96_89", "lon": 144.0, "lat": 44.25}}, {"type": "Feature", "geometry": {"type": "Polygon", "coordinates": [[[144.75, 40.5], [144.75, 42.0], [146.25, 42.0], [146.25, 40.5], [144.75, 40.5]]]}, "properties": {"cell_id": "97_87", "lon": 145.5, "lat": 41.25}}, {"type": "Feature", "geometry": {"type": "Polygon", "coordinates": [[[144.75, 42.0], [144.75, 43.5], [146.25, 43.5], [146.25, 42.0], [144.75, 42.0]]]}, "properties": {"cell_id": "97_88", "lon": 145.5, "lat": 42.75}}, {"type": "Feature", "geometry": {"type": "Polygon", "coordinates": [[[144.75, 43.5], [144.75, 45.0], [146.25, 45.0], [146.25, 43.5], [144.75, 43.5]]]}, "properties": {"cell_id": "97_89", "lon": 145.5, "lat": 44.25}}]}