{"type": "FeatureCollection", "features": [{"type": "Feature", "geometry": {"type": "Polygon", "coordinates": [[[130.0, 60.0], [130.0, 62.5], [132.5, 62.5], [132.5, 60.0], [130.0, 60.0]]]}, "properties": {"cell_id": "52_60", "lon": 131.25, "lat": 61.25}}, {"type": "Feature", "geometry": {"type": "Polygon", "coordinates": [[[130.0, 62.5], [130.0, 65.0], [132.5, 65.0], [132.5, 62.5], [130.0, 62.5]]]}, "properties": {"cell_id": "52_61", "lon": 131.25, "lat": 63.75}}, {"type": "Feature", "geometry": {"type": "Polygon", "coordinates": [[[130.0, 65.0], [130.0, 67.5], [132.5, 67.5], [132.5, 65.0], [130.0, 65.0]]]}, "properties": {"cell_id": "52_62", "lon": 131.25, "lat": 66.25}}, {"type": "Feature", "geometry": {"type": "Polygon", "coordinates": [[[130.0, 67.5], [130.0, 70.0], [132.5, 70.0], [132.5, 67.5], [130.0, 67.5]]]}, "properties": {"cell_id": "52_63", "lon": 131.25, "lat": 68.75}}, {"type": "Feature", "geometry": {"type": "Polygon", "coordinates": [[[132.5, 60.0], [132.5, 62.5], [135.0, 62.5], [135.0, 60.0], [132.5, 60.0]]]}, "properties": {"cell_id": "53_60", "lon": 133.75, "lat": 61.25}}, {"type": "Feature", "geometry": {"type": "Polygon", "coordinates": [[[132.5, 62.5], [132.5, 65.0], [135.0, 65.0], [135.0, 62.5], [132.5, 62.5]]]}, "properties": {"cell_id": "53_61", "lon": 133.75, "lat": 63.75}}, {"type": "Feature", "geometry": {"type": "Polygon", "coordinates": [[[132.5, 65.0], [132.5, 67.5], [135.0, 67.5], [135.0, 65.0], [132.5, 65.0]]]}, "properties": {"cell_id": "53_62", "lon": 133.75, "lat": 66.25}}, {"type": "Feature", "geometry": {"type": "Polygon", "coordinates": [[[132.5, 67.5], [132.5, 70.0], [135.0, 70.0], [135.0, 67.5], [132.5, 67.5]]]}, "properties": {"cell_id": "53_63", "lon": 133.75, "lat": 68.75}}, {"type": "Feature", "geometry": {"type": "Polygon", "coordinates": [[[135.0, 60.0], [135.0, 62.5], [137.5, 62.5], [137.5, 60.0], [135.0, 60.0]]]}, "properties": {"cell_id": "54_60", "lon": 136.25, "lat": 61.25}}, {"type": "Feature", "geometry": {"type": "Polygon", "coordinates": [[[135.0, 62.5], [135.0, 65.0], [137.5, 65.0], [137.5, 62.5], [135.0, 62.5]]]}, "properties": {"cell_id": "54_61", "lon": 136.25, "lat": 63.75}}, {"type": "Feature", "geometry": {"type": "Polygon", "coordinates": [[[135.0, 65.0], [135.0, 67.5], [137.5, 67.5], [137.5, 65.0], [135.0, 65.0]]]}, "properties": {"cell_id": "54_62", "lon": 136.25, "lat": 66.25}}, {"type": "Feature", "geometry": {"type": "Polygon", "coordinates": [[[135.0, 67.5], [135.0, 70.0], [137.5, 70.0], [137.5, 67.5], [135.0, 67.5]]]}, "properties": {"cell_id": "54_63", "lon": 136.25, "lat": 68.75}}, {"type": "Feature", "geometry": {"type": "Polygon", "coordinates": [[[137.5, 60.0], [137.5, 62.5], [140.0, 62.5], [140.0, 60.0], [137.5, 60.0]]]}, "properties": {"cell_id": "55_60", "lon": 138.75, "lat": 61.25}}, {"type": "Feature", "geometry": {"type": "Polygon", "coordinates": [[[137.5, 62.5], [137.5, 65.0], [140.0, 65.0], [140.0, 62.5], [137.5, 62.5]]]}, "properties": {"cell_id": "55_61", "lon": 138.75, "lat": 63.75}}, {"type": "Feature", "geometry": {"type": "Polygon", "coordinates": [[[137.5, 65.0], [137.5, 67.5], [140.0, 67.5], [140.0, 65.0], [137.5, 65.0]]]}, "properties": {"cell_id": "55_62", "lon": 138.75, "lat": 66.25}}, {"type": "Feature", "geometry": {"type": "Polygon", "coordinates": [[[137.5, 67.5], [137.5, 70.0], [140.0, 70.0], [140.0, 67.5], [137.5, 67.5]]]}, "properties": {"cell_id": "55_63", "lon": 138.75, "lat": 68.75}}]}