{"type": "FeatureCollection", "features": [{"type": "Feature", "geometry": {"type": "Polygon", "coordinates": [[[-110.0, 70.0], [-110.0, 72.5], [-107.5, 72.5], [-107.5, 70.0], [-110.0, 70.0]]]}, "properties": {"cell_id": "100_64", "lon": -108.75, "lat": 71.25}}, {"type": "Feature", "geometry": {"type": "Polygon", "coordinates": [[[-110.0, 75.0], [-110.0, 77.5], [-107.5, 77.5], [-107.5, 75.0], [-110.0, 75.0]]]}, "properties": {"cell_id": "100_66", "lon": -108.75, "lat": 76.25}}, {"type": "Feature", "geometry": {"type": "Polygon", "coordinates": [[[-107.5, 70.0], [-107.5, 72.5], [-105.0, 72.5], [-105.0, 70.0], [-107.5, 70.0]]]}, "properties": {"cell_id": "101_64", "lon": -106.25, "lat": 71.25}}, {"type": "Feature", "geometry": {"type": "Polygon", "coordinates": [[[-105.0, 77.5], [-105.0, 80.0], [-102.5, 80.0], [-102.5, 77.5], [-105.0, 77.5]]]}, "properties": {"cell_id": "102_67", "lon": -103.75, "lat": 78.75}}, {"type": "Feature", "geometry": {"type": "Polygon", "coordinates": [[[-102.5, 75.0], [-102.5, 77.5], [-100.0, 77.5], [-100.0, 75.0], [-102.5, 75.0]]]}, "properties": {"cell_id": "103_66", "lon": -101.25, "lat": 76.25}}, {"type": "Feature", "geometry": {"type": "Polygon", "coordinates": [[[-102.5, 77.5], [-102.5, 80.0], [-100.0, 80.0], [-100.0, 77.5], [-102.5, 77.5]]]}, "properties": {"cell_id": "103_67", "lon": -101.25, "lat": 78.75}}]}