{"type": "FeatureCollection", "features": [{"type": "Feature", "geometry": {"type": "Polygon", "coordinates": [[[101.25, -4.5], [101.25, -3.0], [102.75, -3.0], [102.75, -4.5], [101.25, -4.5]]]}, "properties": {"cell_id": "68_57", "lon": 102.0, "lat": -3.75}}, {"type": "Feature", "geometry": {"type": "Polygon", "coordinates": [[[101.25, -3.0], [101.25, -1.5], [102.75, -1.5], [102.75, -3.0], [101.25, -3.0]]]}, "properties": {"cell_id": "68_58", "lon": 102.0, "lat": -2.25}}, {"type": "Feature", "geometry": {"type": "Polygon", "coordinates": [[[101.25, -1.5], [101.25, 0.0], [102.75, 0.0], [102.75, -1.5], [101.25, -1.5]]]}, "properties": {"cell_id": "68_59", "lon": 102.0, "lat": -0.75}}, {"type": "Feature", "geometry": {"type": "Polygon", "coordinates": [[[102.75, -6.0], [102.75, -4.5], [104.25, -4.5], [104.25, -6.0], [102.75, -6.0]]]}, "properties": {"cell_id": "69_56", "lon": 103.5, "lat": -5.25}}, {"type": "Feature", "geometry": {"type": "Polygon", "coordinates": [[[102.75, -4.5], [102.75, -3.0], [104.25, -3.0], [104.25, -4.5], [102.75, -4.5]]]}, "properties": {"cell_id": "69_57", "lon": 103.5, "lat": -3.75}}, {"type": "Feature", "geometry": {"type": "Polygon", "coordinates": [[[102.75, -3.0], [102.75, -1.5], [104.25, -1.5], [104.25, -3.0], [102.75, -3.0]]]}, "properties": {"cell_id": "69_58", "lon": 103.5, "lat": -2.25}}, {"type": "Feature", "geometry": {"type": "Polygon", "coordinates": [[[102.75, -1.5], [102.75, 0.0], [104.25, 0.0], [104.25, -1.5], [102.75, -1.5]]]}, "properties": {"cell_id": "69_59", "lon": 103.5, "lat": -0.75}}, {"type": "Feature", "geometry": {"type": "Polygon", "coordinates": [[[104.25, -6.0], [104.25, -4.5], [105.75, -4.5], [105.75, -6.0], [104.25, -6.0]]]}, "properties": {"cell_id": "70_56", "lon": 105.0, "lat": -5.25}}, {"type": "Feature", "geometry": {"type": "Polygon", "coordinates": [[[104.25, -4.5], [104.25, -3.0], [105.75, -3.0], [105.75, -4.5], [104.25, -4.5]]]}, "properties": {"cell_id": "70_57", "lon": 105.0, "lat": -3.75}}, {"type": "Feature", "geometry": {"type": "Polygon", "coordinates": [[[104.25, -3.0], [104.25, -1.5], [105.75, -1.5], [105.75, -3.0], [104.25, -3.0]]]}, "properties": {"cell_id": "70_58", "lon": 105.0, "lat": -2.25}}, {"type": "Feature", "geometry": {"type": "Polygon", "coordinates": [[[105.75, -7.5], [105.75, -6.0], [107.25, -6.0], [107.25, -7.5], [105.75, -7.5]]]}, "properties": {"cell_id": "71_55", "lon": 106.5, "lat": -6.75}}, {"type": "Feature", "geometry": {"type": "Polygon", "coordinates": [[[105.75, -4.5], [105.75, -3.0], [107.25, -3.0], [107.25, -4.5], [105.75, -4.5]]]}, "properties": {"cell_id": "71_57", "lon": 106.5, "lat": -3.75}}, {"type": "Feature", "geometry": {"type": "Polygon", "coordinates": [[[105.75, -3.0], [105.75, -1.5], [107.25, -1.5], [107.25, -3.0], [105.75, -3.0]]]}, "properties": {"cell_id": "71_58", "lon": 106.5, "lat": -2.25}}, {"type": "Feature", "geometry": {"type": "Polygon", "coordinates": [[[107.25, -9.0], [107.25, -7.5], [108.75, -7.5], [108.75, -9.0], [107.25, -9.0]]]}, "properties": {"cell_id": "72_54", "lon": 108.0, "lat": -8.25}}, {"type": "Feature", "geometry": {"type": "Polygon", "coordinates": [[[107.25, -7.5], [107.25, -6.0], [108.75, -6.0], [108.75, -7.5], [107.25, -7.5]]]}, "properties": {"cell_id": "72_55", "lon": 108.0, "lat": -6.75}}, {"type": "Feature", "geometry": {"type": "Polygon", "coordinates": [[[108.75, -9.0], [108.75, -7.5], [110.25, -7.5], [110.25, -9.0], [108.75, -9.0]]]}, "properties": {"cell_id": "73_54", "lon": 109.5, "lat": -8.25}}, {"type": "Feature", "geometry": {"type": "Polygon", "coordinates": [[[108.75, -7.5], [108.75, -6.0], [110.25, -6.0], [110.25, -7.5], [108.75, -7.5]]]}, "properties": {"cell_id": "73_55", "lon": 109.5, "lat": -6.75}}, {"type": "Feature", "geometry": {"type": "Polygon", "coordinates": [[[108.75, -1.5], [108.75, 0.0], [110.25, 0.0], [110.25, -1.5], [108.75, -1.5]]]}, "properties": {"cell_id": "73_59", "lon": 109.5, "lat": -0.75}}]}