{"type": "FeatureCollection", "features": [{"type": "Feature", "geometry": {"type": "Polygon", "coordinates": [[[95.0, 17.5], [95.0, 20.0], [97.5, 20.0], [97.5, 17.5], [95.0, 17.5]]]}, "properties": {"cell_id": "38_43", "lon": 96.25, "lat": 18.75}}, {"type": "Feature", "geometry": {"type": "Polygon", "coordinates": [[[97.5, 10.0], [97.5, 12.5], [100.0, 12.5], [100.0, 10.0], [97.5, 10.0]]]}, "properties": {"cell_id": "39_40", "lon": 98.75, "lat": 11.25}}, {"type": "Feature", "geometry": {"type": "Polygon", "coordinates": [[[97.5, 12.5], [97.5, 15.0], [100.0, 15.0], [100.0, 12.5], [97.5, 12.5]]]}, "properties": {"cell_id": "39_41", "lon": 98.75, "lat": 13.75}}, {"type": "Feature", "geometry": {"type": "Polygon", "coordinates": [[[97.5, 15.0], [97.5, 17.5], [100.0, 17.5], [100.0, 15.0], [97.5, 15.0]]]}, "properties": {"cell_id": "39_42", "lon": 98.75, "lat": 16.25}}, {"type": "Feature", "geometry": {"type": "Polygon", "coordinates": [[[97.5, 17.5], [97.5, 20.0], [100.0, 20.0], [100.0, 17.5], [97.5, 17.5]]]}, "properties": {"cell_id": "39_43", "lon": 98.75, "lat": 18.75}}]}