{"type": "FeatureCollection", "features": [{"type": "Feature", "geometry": {"type": "Polygon", "coordinates": [[[-80.0, 80.0], [-80.0, 82.5], [-77.5, 82.5], [-77.5, 80.0], [-80.0, 80.0]]]}, "properties": {"cell_id": "112_68", "lon": -78.75, "lat": 81.25}}, {"type": "Feature", "geometry": {"type": "Polygon", "coordinates": [[[-77.5, 80.0], [-77.5, 82.5], [-75.0, 82.5], [-75.0, 80.0], [-77.5, 80.0]]]}, "properties": {"cell_id": "113_68", "lon": -76.25, "lat": 81.25}}, {"type": "Feature", "geometry": {"type": "Polygon", "coordinates": [[[-75.0, 80.0], [-75.0, 82.5], [-72.5, 82.5], [-72.5, 80.0], [-75.0, 80.0]]]}, "properties": {"cell_id": "114_68", "lon": -73.75, "lat": 81.25}}, {"type": "Feature", "geometry": {"type": "Polygon", "coordinates": [[[-72.5, 80.0], [-72.5, 82.5], [-70.0, 82.5], [-70.0, 80.0], [-72.5, 80.0]]]}, "properties": {"cell_id": "115_68", "lon": -71.25, "lat": 81.25}}]}