{"type": "FeatureCollection", "features": [{"type": "Feature", "geometry": {"type": "Polygon", "coordinates": [[[150.75, -34.5], [150.75, -33.0], [152.25, -33.0], [152.25, -34.5], [150.75, -34.5]]]}, "properties": {"cell_id": "101_37", "lon": 151.5, "lat": -33.75}}, {"type": "Feature", "geometry": {"type": "Polygon", "coordinates": [[[150.75, -33.0], [150.75, -31.5], [152.25, -31.5], [152.25, -33.0], [150.75, -33.0]]]}, "properties": {"cell_id": "101_38", "lon": 151.5, "lat": -32.25}}, {"type": "Feature", "geometry": {"type": "Polygon", "coordinates": [[[150.75, -31.5], [150.75, -30.0], [152.25, -30.0], [152.25, -31.5], [150.75, -31.5]]]}, "properties": {"cell_id": "101_39", "lon": 151.5, "lat": -30.75}}, {"type": "Feature", "geometry": {"type": "Polygon", "coordinates": [[[152.25, -34.5], [152.25, -33.0], [153.75, -33.0], [153.75, -34.5], [152.25, -34.5]]]}, "properties": {"cell_id": "102_37", "lon": 153.0, "lat": -33.75}}, {"type": "Feature", "geometry": {"type": "Polygon", "coordinates": [[[152.25, -33.0], [152.25, -31.5], [153.75, -31.5], [153.75, -33.0], [152.25, -33.0]]]}, "properties": {"cell_id": "102_38", "lon": 153.0, "lat": -32.25}}, {"type": "Feature", "geometry": {"type": "Polygon", "coordinates": [[[152.25, -31.5], [152.25, -30.0], [153.75, -30.0], [153.75, -31.5], [152.25, -31.5]]]}, "properties": {"cell_id": "102_39", "lon": 153.0, "lat": -30.75}}]}