{"type": "FeatureCollection", "features": [{"type": "Feature", "geometry": {"type": "Polygon", "coordinates": [[[30.75, 40.5], [30.75, 42.0], [32.25, 42.0], [32.25, 40.5], [30.75, 40.5]]]}, "properties": {"cell_id": "21_87", "lon": 31.5, "lat": 41.25}}, {"type": "Feature", "geometry": {"type": "Polygon", "coordinates": [[[30.75, 45.0], [30.75, 46.5], [32.25, 46.5], [32.25, 45.0], [30.75, 45.0]]]}, "properties": {"cell_id": "21_90", "lon": 31.5, "lat": 45.75}}, {"type": "Feature", "geometry": {"type": "Polygon", "coordinates": [[[30.75, 46.5], [30.75, 48.0], [32.25, 48.0], [32.25, 46.5], [30.75, 46.5]]]}, "properties": {"cell_id": "21_91", "lon": 31.5, "lat": 47.25}}, {"type": "Feature", "geometry": {"type": "Polygon", "coordinates": [[[30.75, 48.0], [30.75, 49.5], [32.25, 49.5], [32.25, 48.0], [30.75, 48.0]]]}, "properties": {"cell_id": "21_92", "lon": 31.5, "lat": 48.75}}, {"type": "Feature", "geometry": {"type": "Polygon", "coordinates": [[[30.75, 49.5], [30.75, 51.0], [32.25, 51.0], [32.25, 49.5], [30.75, 49.5]]]}, "properties": {"cell_id": "21_93", "lon": 31.5, "lat": 50.25}}, {"type": "Feature", "geometry": {"type": "Polygon", "coordinates": [[[32.25, 40.5], [32.25, 42.0], [33.75, 42.0], [33.75, 40.5], [32.25, 40.5]]]}, "properties": {"cell_id": "22_87", "lon": 33.0, "lat": 41.25}}, {"type": "Feature", "geometry": {"type": "Polygon", "coordinates": [[[32.25, 45.0], [32.25, 46.5], [33.75, 46.5], [33.75, 45.0], [32.25, 45.0]]]}, "properties": {"cell_id": "22_90", "lon": 33.0, "lat": 45.75}}, {"type": "Feature", "geometry": {"type": "Polygon", "coordinates": [[[32.25, 46.5], [32.25, 48.0], [33.75, 48.0], [33.75, 46.5], [32.25, 46.5]]]}, "properties": {"cell_id": "22_91", "lon": 33.0, "lat": 47.25}}, {"type": "Feature", "geometry": {"type": "Polygon", "coordinates": [[[32.25, 48.0], [32.25, 49.5], [33.75, 49.5], [33.75, 48.0], [32.25, 48.0]]]}, "properties": {"cell_id": "22_92", "lon": 33.0, "lat": 48.75}}, {"type": "Feature", "geometry": {"type": "Polygon", "coordinates": [[[32.25, 49.5], [32.25, 51.0], [33.75, 51.0], [33.75, 49.5], [32.25, 49.5]]]}, "properties": {"cell_id": "22_93", "lon": 33.0, "lat": 50.25}}, {"type": "Feature", "geometry": {"type": "Polygon", "coordinates": [[[33.75, 40.5], [33.75, 42.0], [35.25, 42.0], [35.25, 40.5], [33.75, 40.5]]]}, "properties": {"cell_id": "23_87", "lon": 34.5, "lat": 41.25}}, {"type": "Feature", "geometry": {"type": "Polygon", "coordinates": [[[33.75, 45.0], [33.75, 46.5], [35.25, 46.5], [35.25, 45.0], [33.75, 45.0]]]}, "properties": {"cell_id": "23_90", "lon": 34.5, "lat": 45.75}}, {"type": "Feature", "geometry": {"type": "Polygon", "coordinates": [[[33.75, 46.5], [33.75, 48.0], [35.25, 48.0], [35.25, 46.5], [33.75, 46.5]]]}, "properties": {"cell_id": "23_91", "lon": 34.5, "lat": 47.25}}, {"type": "Feature", "geometry": {"type": "Polygon", "coordinates": [[[33.75, 48.0], [33.75, 49.5], [35.25, 49.5], [35.25, 48.0], [33.75, 48.0]]]}, "properties": {"cell_id": "23_92", "lon": 34.5, "lat": 48.75}}, {"type": "Feature", "geometry": {"type": "Polygon", "coordinates": [[[33.75, 49.5], [33.75, 51.0], [35.25, 51.0], [35.25, 49.5], [33.75, 49.5]]]}, "properties": {"cell_id": "23_93", "lon": 34.5, "lat": 50.25}}, {"type": "Feature", "geometry": {"type": "Polygon", "coordinates": [[[35.25, 40.5], [35.25, 42.0], [36.75, 42.0], [36.75, 40.5], [35.25, 40.5]]]}, "properties": {"cell_id": "24_87", "lon": 36.0, "lat": 41.25}}, {"type": "Feature", "geometry": {"type": "Polygon", "coordinates": [[[35.25, 46.5], [35.25, 48.0], [36.75, 48.0], [36.75, 46.5], [35.25, 46.5]]]}, "properties": {"cell_id": "24_91", "lon": 36.0, "lat": 47.25}}, {"type": "Feature", "geometry": {"type": "Polygon", "coordinates": [[[35.25, 48.0], [35.25, 49.5], [36.75, 49.5], [36.75, 48.0], [35.25, 48.0]]]}, "properties": {"cell_id": "24_92", "lon": 36.0, "lat": 48.75}}, {"type": "Feature", "geometry": {"type": "Polygon", "coordinates": [[[35.25, 49.5], [35.25, 51.0], [36.75, 51.0], [36.75, 49.5], [35.25, 49.5]]]}, "properties": {"cell_id": "24_93", "lon": 36.0, "lat": 50.25}}, {"type": "Feature", "geometry": {"type": "Polygon", "coordinates": [[[36.75, 40.5], [36.75, 42.0], [38.25, 42.0], [38.25, 40.5], [36.75, 40.5]]]}, "properties": {"cell_id": "25_87", "lon": 37.5, "lat": 41.25}}, {"type": "Feature", "geometry": {"type": "Polygon", "coordinates": [[[36.75, 43.5], [36.75, 45.0], [38.25, 45.0], [38.25, 43.5], [36.75, 43.5]]]}, "properties": {"cell_id": "25_89", "lon": 37.5, "lat": 44.25}}, {"type": "Feature", "geometry": {"type": "Polygon", "coordinates": [[[36.75, 45.0], [36.75, 46.5], [38.25, 46.5], [38.25, 45.0], [36.75, 45.0]]]}, "properties": {"cell_id": "25_90", "lon": 37.5, "lat": 45.75}}, {"type": "Feature", "geometry": {"type": "Polygon", "coordinates": [[[36.75, 46.5], [36.75, 48.0], [38.25, 48.0], [38.25, 46.5], [36.75, 46.5]]]}, "properties": {"cell_id": "25_91", "lon": 37.5, "lat": 47.25}}, {"type": "Feature", "geometry": {"type": "Polygon", "coordinates": [[[36.75, 48.0], [36.75, 49.5], [38.25, 49.5], [38.25, 48.0], [36.75, 48.0]]]}, "properties": {"cell_id": "25_92", "lon": 37.5, "lat": 48.75}}, {"type": "Feature", "geometry": {"type": "Polygon", "coordinates": [[[36.75, 49.5], [36.75, 51.0], [38.25, 51.0], [38.25, 49.5], [36.75, 49.5]]]}, "properties": {"cell_id": "25_93", "lon": 37.5, "lat": 50.25}}, {"type": "Feature", "geometry": {"type": "Polygon", "coordinates": [[[38.25, 40.5], [38.25, 42.0], [39.75, 42.0], [39.75, 40.5], [38.25, 40.5]]]}, "properties": {"cell_id": "26_87", "lon": 39.0, "lat": 41.25}}, {"type": "Feature", "geometry": {"type": "Polygon", "coordinates": [[[38.25, 43.5], [38.25, 45.0], [39.75, 45.0], [39.75, 43.5], [38.25, 43.5]]]}, "properties": {"cell_id": "26_89", "lon": 39.0, "lat": 44.25}}, {"type": "Feature", "geometry": {"type": "Polygon", "coordinates": [[[38.25, 45.0], [38.25, 46.5], [39.75, 46.5], [39.75, 45.0], [38.25, 45.0]]]}, "properties": {"cell_id": "26_90", "lon": 39.0, "lat": 45.75}}, {"type": "Feature", "geometry": {"type": "Polygon", "coordinates": [[[38.25, 46.5], [38.25, 48.0], [39.75, 48.0], [39.75, 46.5], [38.25, 46.5]]]}, "properties": {"cell_id": "26_91", "lon": 39.0, "lat": 47.25}}, {"type": "Feature", "geometry": {"type": "Polygon", "coordinates": [[[38.25, 48.0], [38.25, 49.5], [39.75, 49.5], [39.75, 48.0], [38.25, 48.0]]]}, "properties": {"cell_id": "26_92", "lon": 39.0, "lat": 48.75}}, {"type": "Feature", "geometry": {"type": "Polygon", "coordinates": [[[38.25, 49.5], [38.25, 51.0], [39.75, 51.0], [39.75, 49.5], [38.25, 49.5]]]}, "properties": {"cell_id": "26_93", "lon": 39.0, "lat": 50.25}}, {"type": "Feature", "geometry": {"type": "Polygon", "coordinates": [[[39.75, 40.5], [39.75, 42.0], [41.25, 42.0], [41.25, 40.5], [39.75, 40.5]]]}, "properties": {"cell_id": "27_87", "lon": 40.5, "lat": 41.25}}, {"type": "Feature", "geometry": {"type": "Polygon", "coordinates": [[[39.75, 42.0], [39.75, 43.5], [41.25, 43.5], [41.25, 42.0], [39.75, 42.0]]]}, "properties": {"cell_id": "27_88", "lon": 40.5, "lat": 42.75}}, {"type": "Feature", "geometry": {"type": "Polygon", "coordinates": [[[39.75, 43.5], [39.75, 45.0], [41.25, 45.0], [41.25, 43.5], [39.75, 43.5]]]}, "properties": {"cell_id": "27_89", "lon": 40.5, "lat": 44.25}}, {"type": "Feature", "geometry": {"type": "Polygon", "coordinates": [[[39.75, 45.0], [39.75, 46.5], [41.25, 46.5], [41.25, 45.0], [39.75, 45.0]]]}, "properties": {"cell_id": "27_90", "lon": 40.5, "lat": 45.75}}, {"type": "Feature", "geometry": {"type": "Polygon", "coordinates": [[[39.75, 46.5], [39.75, 48.0], [41.25, 48.0], [41.25, 46.5], [39.75, 46.5]]]}, "properties": {"cell_id": "27_91", "lon": 40.5, "lat": 47.25}}, {"type": "Feature", "geometry": {"type": "Polygon", "coordinates": [[[39.75, 48.0], [39.75, 49.5], [41.25, 49.5], [41.25, 48.0], [39.75, 48.0]]]}, "properties": {"cell_id": "27_92", "lon": 40.5, "lat": 48.75}}, {"type": "Feature", "geometry": {"type": "Polygon", "coordinates": [[[39.75, 49.5], [39.75, 51.0], [41.25, 51.0], [41.25, 49.5], [39.75, 49.5]]]}, "properties": {"cell_id": "27_93", "lon": 40.5, "lat": 50.25}}]}