{"type": "FeatureCollection", "features": [{"type": "Feature", "geometry": {"type": "Polygon", "coordinates": [[[10.0, -5.0], [10.0, -2.5], [12.5, -2.5], [12.5, -5.0], [10.0, -5.0]]]}, "properties": {"cell_id": "4_34", "lon": 11.25, "lat": -3.75}}, {"type": "Feature", "geometry": {"type": "Polygon", "coordinates": [[[10.0, -2.5], [10.0, 0.0], [12.5, 0.0], [12.5, -2.5], [10.0, -2.5]]]}, "properties": {"cell_id": "4_35", "lon": 11.25, "lat": -1.25}}, {"type": "Feature", "geometry": {"type": "Polygon", "coordinates": [[[12.5, -10.0], [12.5, -7.5], [15.0, -7.5], [15.0, -10.0], [12.5, -10.0]]]}, "properties": {"cell_id": "5_32", "lon": 13.75, "lat": -8.75}}, {"type": "Feature", "geometry": {"type": "Polygon", "coordinates": [[[12.5, -7.5], [12.5, -5.0], [15.0, -5.0], [15.0, -7.5], [12.5, -7.5]]]}, "properties": {"cell_id": "5_33", "lon": 13.75, "lat": -6.25}}, {"type": "Feature", "geometry": {"type": "Polygon", "coordinates": [[[12.5, -5.0], [12.5, -2.5], [15.0, -2.5], [15.0, -5.0], [12.5, -5.0]]]}, "properties": {"cell_id": "5_34", "lon": 13.75, "lat": -3.75}}, {"type": "Feature", "geometry": {"type": "Polygon", "coordinates": [[[12.5, -2.5], [12.5, 0.0], [15.0, 0.0], [15.0, -2.5], [12.5, -2.5]]]}, "properties": {"cell_id": "5_35", "lon": 13.75, "lat": -1.25}}, {"type": "Feature", "geometry": {"type": "Polygon", "coordinates": [[[15.0, -10.0], [15.0, -7.5], [17.5, -7.5], [17.5, -10.0], [15.0, -10.0]]]}, "properties": {"cell_id": "6_32", "lon": 16.25, "lat": -8.75}}, {"type": "Feature", "geometry": {"type": "Polygon", "coordinates": [[[15.0, -7.5], [15.0, -5.0], [17.5, -5.0], [17.5, -7.5], [15.0, -7.5]]]}, "properties": {"cell_id": "6_33", "lon": 16.25, "lat": -6.25}}, {"type": "Feature", "geometry": {"type": "Polygon", "coordinates": [[[15.0, -5.0], [15.0, -2.5], [17.5, -2.5], [17.5, -5.0], [15.0, -5.0]]]}, "properties": {"cell_id": "6_34", "lon": 16.25, "lat": -3.75}}, {"type": "Feature", "geometry": {"type": "Polygon", "coordinates": [[[15.0, -2.5], [15.0, 0.0], [17.5, 0.0], [17.5, -2.5], [15.0, -2.5]]]}, "properties": {"cell_id": "6_35", "lon": 16.25, "lat": -1.25}}, {"type": "Feature", "geometry": {"type": "Polygon", "coordinates": [[[17.5, -10.0], [17.5, -7.5], [20.0, -7.5], [20.0, -10.0], [17.5, -10.0]]]}, "properties": {"cell_id": "7_32", "lon": 18.75, "lat": -8.75}}, {"type": "Feature", "geometry": {"type": "Polygon", "coordinates": [[[17.5, -7.5], [17.5, -5.0], [20.0, -5.0], [20.0, -7.5], [17.5, -7.5]]]}, "properties": {"cell_id": "7_33", "lon": 18.75, "lat": -6.25}}, {"type": "Feature", "geometry": {"type": "Polygon", "coordinates": [[[17.5, -5.0], [17.5, -2.5], [20.0, -2.5], [20.0, -5.0], [17.5, -5.0]]]}, "properties": {"cell_id": "7_34", "lon": 18.75, "lat": -3.75}}, {"type": "Feature", "geometry": {"type": "Polygon", "coordinates": [[[17.5, -2.5], [17.5, 0.0], [20.0, 0.0], [20.0, -2.5], [17.5, -2.5]]]}, "properties": {"cell_id": "7_35", "lon": 18.75, "lat": -1.25}}]}