{"type": "FeatureCollection", "features": [{"type": "Feature", "geometry": {"type": "Polygon", "coordinates": [[[50.0, 15.0], [50.0, 17.5], [52.5, 17.5], [52.5, 15.0], [50.0, 15.0]]]}, "properties": {"cell_id": "20_42", "lon": 51.25, "lat": 16.25}}, {"type": "Feature", "geometry": {"type": "Polygon", "coordinates": [[[50.0, 17.5], [50.0, 20.0], [52.5, 20.0], [52.5, 17.5], [50.0, 17.5]]]}, "properties": {"cell_id": "20_43", "lon": 51.25, "lat": 18.75}}, {"type": "Feature", "geometry": {"type": "Polygon", "coordinates": [[[52.5, 17.5], [52.5, 20.0], [55.0, 20.0], [55.0, 17.5], [52.5, 17.5]]]}, "properties": {"cell_id": "21_43", "lon": 53.75, "lat": 18.75}}, {"type": "Feature", "geometry": {"type": "Polygon", "coordinates": [[[55.0, 17.5], [55.0, 20.0], [57.5, 20.0], [57.5, 17.5], [55.0, 17.5]]]}, "properties": {"cell_id": "22_43", "lon": 56.25, "lat": 18.75}}]}