{"type": "FeatureCollection", "features": [{"type": "Feature", "geometry": {"type": "Polygon", "coordinates": [[[11.25, 60.0], [11.25, 61.5], [12.75, 61.5], [12.75, 60.0], [11.25, 60.0]]]}, "properties": {"cell_id": "8_100", "lon": 12.0, "lat": 60.75}}, {"type": "Feature", "geometry": {"type": "Polygon", "coordinates": [[[11.25, 61.5], [11.25, 63.0], [12.75, 63.0], [12.75, 61.5], [11.25, 61.5]]]}, "properties": {"cell_id": "8_101", "lon": 12.0, "lat": 62.25}}, {"type": "Feature", "geometry": {"type": "Polygon", "coordinates": [[[11.25, 63.0], [11.25, 64.5], [12.75, 64.5], [12.75, 63.0], [11.25, 63.0]]]}, "properties": {"cell_id": "8_102", "lon": 12.0, "lat": 63.75}}, {"type": "Feature", "geometry": {"type": "Polygon", "coordinates": [[[11.25, 64.5], [11.25, 66.0], [12.75, 66.0], [12.75, 64.5], [11.25, 64.5]]]}, "properties": {"cell_id": "8_103", "lon": 12.0, "lat": 65.25}}, {"type": "Feature", "geometry": {"type": "Polygon", "coordinates": [[[12.75, 60.0], [12.75, 61.5], [14.25, 61.5], [14.25, 60.0], [12.75, 60.0]]]}, "properties": {"cell_id": "9_100", "lon": 13.5, "lat": 60.75}}, {"type": "Feature", "geometry": {"type": "Polygon", "coordinates": [[[12.75, 61.5], [12.75, 63.0], [14.25, 63.0], [14.25, 61.5], [12.75, 61.5]]]}, "properties": {"cell_id": "9_101", "lon": 13.5, "lat": 62.25}}, {"type": "Feature", "geometry": {"type": "Polygon", "coordinates": [[[12.75, 63.0], [12.75, 64.5], [14.25, 64.5], [14.25, 63.0], [12.75, 63.0]]]}, "properties": {"cell_id": "9_102", "lon": 13.5, "lat": 63.75}}, {"type": "Feature", "geometry": {"type": "Polygon", "coordinates": [[[12.75, 64.5], [12.75, 66.0], [14.25, 66.0], [14.25, 64.5], [12.75, 64.5]]]}, "properties": {"cell_id": "9_103", "lon": 13.5, "lat": 65.25}}, {"type": "Feature", "geometry": {"type": "Polygon", "coordinates": [[[12.75, 66.0], [12.75, 67.5], [14.25, 67.5], [14.25, 66.0], [12.75, 66.0]]]}, "properties": {"cell_id": "9_104", "lon": 13.5, "lat": 66.75}}, {"type": "Feature", "geometry": {"type": "Polygon", "coordinates": [[[14.25, 60.0], [14.25, 61.5], [15.75, 61.5], [15.75, 60.0], [14.25, 60.0]]]}, "properties": {"cell_id": "10_100", "lon": 15.0, "lat": 60.75}}, {"type": "Feature", "geometry": {"type": "Polygon", "coordinates": [[[14.25, 61.5], [14.25, 63.0], [15.75, 63.0], [15.75, 61.5], [14.25, 61.5]]]}, "properties": {"cell_id": "10_101", "lon": 15.0, "lat": 62.25}}, {"type": "Feature", "geometry": {"type": "Polygon", "coordinates": [[[14.25, 63.0], [14.25, 64.5], [15.75, 64.5], [15.75, 63.0], [14.25, 63.0]]]}, "properties": {"cell_id": "10_102", "lon": 15.0, "lat": 63.75}}, {"type": "Feature", "geometry": {"type": "Polygon", "coordinates": [[[14.25, 64.5], [14.25, 66.0], [15.75, 66.0], [15.75, 64.5], [14.25, 64.5]]]}, "properties": {"cell_id": "10_103", "lon": 15.0, "lat": 65.25}}, {"type": "Feature", "geometry": {"type": "Polygon", "coordinates": [[[14.25, 66.0], [14.25, 67.5], [15.75, 67.5], [15.75, 66.0], [14.25, 66.0]]]}, "properties": {"cell_id": "10_104", "lon": 15.0, "lat": 66.75}}, {"type": "Feature", "geometry": {"type": "Polygon", "coordinates": [[[14.25, 67.5], [14.25, 69.0], [15.75, 69.0], [15.75, 67.5], [14.25, 67.5]]]}, "properties": {"cell_id": "10_105", "lon": 15.0, "lat": 68.25}}, {"type": "Feature", "geometry": {"type": "Polygon", "coordinates": [[[15.75, 60.0], [15.75, 61.5], [17.25, 61.5], [17.25, 60.0], [15.75, 60.0]]]}, "properties": {"cell_id": "11_100", "lon": 16.5, "lat": 60.75}}, {"type": "Feature", "geometry": {"type": "Polygon", "coordinates": [[[15.75, 61.5], [15.75, 63.0], [17.25, 63.0], [17.25, 61.5], [15.75, 61.5]]]}, "properties": {"cell_id": "11_101", "lon": 16.5, "lat": 62.25}}, {"type": "Feature", "geometry": {"type": "Polygon", "coordinates": [[[15.75, 63.0], [15.75, 64.5], [17.25, 64.5], [17.25, 63.0], [15.75, 63.0]]]}, "properties": {"cell_id": "11_102", "lon": 16.5, "lat": 63.75}}, {"type": "Feature", "geometry": {"type": "Polygon", "coordinates": [[[15.75, 64.5], [15.75, 66.0], [17.25, 66.0], [17.25, 64.5], [15.75, 64.5]]]}, "properties": {"cell_id": "11_103", "lon": 16.5, "lat": 65.25}}, {"type": "Feature", "geometry": {"type": "Polygon", "coordinates": [[[15.75, 66.0], [15.75, 67.5], [17.25, 67.5], [17.25, 66.0], [15.75, 66.0]]]}, "properties": {"cell_id": "11_104", "lon": 16.5, "lat": 66.75}}, {"type": "Feature", "geometry": {"type": "Polygon", "coordinates": [[[15.75, 67.5], [15.75, 69.0], [17.25, 69.0], [17.25, 67.5], [15.75, 67.5]]]}, "properties": {"cell_id": "11_105", "lon": 16.5, "lat": 68.25}}, {"type": "Feature", "geometry": {"type": "Polygon", "coordinates": [[[17.25, 60.0], [17.25, 61.5], [18.75, 61.5], [18.75, 60.0], [17.25, 60.0]]]}, "properties": {"cell_id": "12_100", "lon": 18.0, "lat": 60.75}}, {"type": "Feature", "geometry": {"type": "Polygon", "coordinates": [[[17.25, 61.5], [17.25, 63.0], [18.75, 63.0], [18.75, 61.5], [17.25, 61.5]]]}, "properties": {"cell_id": "12_101", "lon": 18.0, "lat": 62.25}}, {"type": "Feature", "geometry": {"type": "Polygon", "coordinates": [[[17.25, 63.0], [17.25, 64.5], [18.75, 64.5], [18.75, 63.0], [17.25, 63.0]]]}, "properties": {"cell_id": "12_102", "lon": 18.0, "lat": 63.75}}, {"type": "Feature", "geometry": {"type": "Polygon", "coordinates": [[[17.25, 64.5], [17.25, 66.0], [18.75, 66.0], [18.75, 64.5], [17.25, 64.5]]]}, "properties": {"cell_id": "12_103", "lon": 18.0, "lat": 65.25}}, {"type": "Feature", "geometry": {"type": "Polygon", "coordinates": [[[17.25, 66.0], [17.25, 67.5], [18.75, 67.5], [18.75, 66.0], [17.25, 66.0]]]}, "properties": {"cell_id": "12_104", "lon": 18.0, "lat": 66.75}}, {"type": "Feature", "geometry": {"type": "Polygon", "coordinates": [[[17.25, 67.5], [17.25, 69.0], [18.75, 69.0], [18.75, 67.5], [17.25, 67.5]]]}, "properties": {"cell_id": "12_105", "lon": 18.0, "lat": 68.25}}, {"type": "Feature", "geometry": {"type": "Polygon", "coordinates": [[[17.25, 69.0], [17.25, 70.5], [18.75, 70.5], [18.75, 69.0], [17.25, 69.0]]]}, "properties": {"cell_id": "12_106", "lon": 18.0, "lat": 69.75}}, {"type": "Feature", "geometry": {"type": "Polygon", "coordinates": [[[18.75, 63.0], [18.75, 64.5], [20.25, 64.5], [20.25, 63.0], [18.75, 63.0]]]}, "properties": {"cell_id": "13_102", "lon": 19.5, "lat": 63.75}}, {"type": "Feature", "geometry": {"type": "Polygon", "coordinates": [[[18.75, 64.5], [18.75, 66.0], [20.25, 66.0], [20.25, 64.5], [18.75, 64.5]]]}, "properties": {"cell_id": "13_103", "lon": 19.5, "lat": 65.25}}, {"type": "Feature", "geometry": {"type": "Polygon", "coordinates": [[[18.75, 66.0], [18.75, 67.5], [20.25, 67.5], [20.25, 66.0], [18.75, 66.0]]]}, "properties": {"cell_id": "13_104", "lon": 19.5, "lat": 66.75}}, {"type": "Feature", "geometry": {"type": "Polygon", "coordinates": [[[18.75, 67.5], [18.75, 69.0], [20.25, 69.0], [20.25, 67.5], [18.75, 67.5]]]}, "properties": {"cell_id": "13_105", "lon": 19.5, "lat": 68.25}}, {"type": "Feature", "geometry": {"type": "Polygon", "coordinates": [[[18.75, 69.0], [18.75, 70.5], [20.25, 70.5], [20.25, 69.0], [18.75, 69.0]]]}, "properties": {"cell_id": "13_106", "lon": 19.5, "lat": 69.75}}]}