{"type": "FeatureCollection", "features": [{"type": "Feature", "geometry": {"type": "Polygon", "coordinates": [[[-59.25, -90.0], [-59.25, -88.5], [-57.75, -88.5], [-57.75, -90.0], [-59.25, -90.0]]]}, "properties": {"cell_id": "201_0", "lon": -58.5, "lat": -89.25}}, {"type": "Feature", "geometry": {"type": "Polygon", "coordinates": [[[-59.25, -88.5], [-59.25, -87.0], [-57.75, -87.0], [-57.75, -88.5], [-59.25, -88.5]]]}, "properties": {"cell_id": "201_1", "lon": -58.5, "lat": -87.75}}, {"type": "Feature", "geometry": {"type": "Polygon", "coordinates": [[[-59.25, -87.0], [-59.25, -85.5], [-57.75, -85.5], [-57.75, -87.0], [-59.25, -87.0]]]}, "properties": {"cell_id": "201_2", "lon": -58.5, "lat": -86.25}}, {"type": "Feature", "geometry": {"type": "Polygon", "coordinates": [[[-59.25, -85.5], [-59.25, -84.0], [-57.75, -84.0], [-57.75, -85.5], [-59.25, -85.5]]]}, "properties": {"cell_id": "201_3", "lon": -58.5, "lat": -84.75}}, {"type": "Feature", "geometry": {"type": "Polygon", "coordinates": [[[-59.25, -84.0], [-59.25, -82.5], [-57.75, -82.5], [-57.75, -84.0], [-59.25, -84.0]]]}, "properties": {"cell_id": "201_4", "lon": -58.5, "lat": -83.25}}, {"type": "Feature", "geometry": {"type": "Polygon", "coordinates": [[[-59.25, -82.5], [-59.25, -81.0], [-57.75, -81.0], [-57.75, -82.5], [-59.25, -82.5]]]}, "properties": {"cell_id": "201_5", "lon": -58.5, "lat": -81.75}}, {"type": "Feature", "geometry": {"type": "Polygon", "coordinates": [[[-59.25, -81.0], [-59.25, -79.5], [-57.75, -79.5], [-57.75, -81.0], [-59.25, -81.0]]]}, "properties": {"cell_id": "201_6", "lon": -58.5, "lat": -80.25}}, {"type": "Feature", "geometry": {"type": "Polygon", "coordinates": [[[-57.75, -90.0], [-57.75, -88.5], [-56.25, -88.5], [-56.25, -90.0], [-57.75, -90.0]]]}, "properties": {"cell_id": "202_0", "lon": -57.0, "lat": -89.25}}, {"type": "Feature", "geometry": {"type": "Polygon", "coordinates": [[[-57.75, -88.5], [-57.75, -87.0], [-56.25, -87.0], [-56.25, -88.5], [-57.75, -88.5]]]}, "properties": {"cell_id": "202_1", "lon": -57.0, "lat": -87.75}}, {"type": "Feature", "geometry": {"type": "Polygon", "coordinates": [[[-57.75, -87.0], [-57.75, -85.5], [-56.25, -85.5], [-56.25, -87.0], [-57.75, -87.0]]]}, "properties": {"cell_id": "202_2", "lon": -57.0, "lat": -86.25}}, {"type": "Feature", "geometry": {"type": "Polygon", "coordinates": [[[-57.75, -85.5], [-57.75, -84.0], [-56.25, -84.0], [-56.25, -85.5], [-57.75, -85.5]]]}, "properties": {"cell_id": "202_3", "lon": -57.0, "lat": -84.75}}, {"type": "Feature", "geometry": {"type": "Polygon", "coordinates": [[[-57.75, -84.0], [-57.75, -82.5], [-56.25, -82.5], [-56.25, -84.0], [-57.75, -84.0]]]}, "properties": {"cell_id": "202_4", "lon": -57.0, "lat": -83.25}}, {"type": "Feature", "geometry": {"type": "Polygon", "coordinates": [[[-57.75, -82.5], [-57.75, -81.0], [-56.25, -81.0], [-56.25, -82.5], [-57.75, -82.5]]]}, "properties": {"cell_id": "202_5", "lon": -57.0, "lat": -81.75}}, {"type": "Feature", "geometry": {"type": "Polygon", "coordinates": [[[-57.75, -81.0], [-57.75, -79.5], [-56.25, -79.5], [-56.25, -81.0], [-57.75, -81.0]]]}, "properties": {"cell_id": "202_6", "lon": -57.0, "lat": -80.25}}, {"type": "Feature", "geometry": {"type": "Polygon", "coordinates": [[[-56.25, -90.0], [-56.25, -88.5], [-54.75, -88.5], [-54.75, -90.0], [-56.25, -90.0]]]}, "properties": {"cell_id": "203_0", "lon": -55.5, "lat": -89.25}}, {"type": "Feature", "geometry": {"type": "Polygon", "coordinates": [[[-56.25, -88.5], [-56.25, -87.0], [-54.75, -87.0], [-54.75, -88.5], [-56.25, -88.5]]]}, "properties": {"cell_id": "203_1", "lon": -55.5, "lat": -87.75}}, {"type": "Feature", "geometry": {"type": "Polygon", "coordinates": [[[-56.25, -87.0], [-56.25, -85.5], [-54.75, -85.5], [-54.75, -87.0], [-56.25, -87.0]]]}, "properties": {"cell_id": "203_2", "lon": -55.5, "lat": -86.25}}, {"type": "Feature", "geometry": {"type": "Polygon", "coordinates": [[[-56.25, -85.5], [-56.25, -84.0], [-54.75, -84.0], [-54.75, -85.5], [-56.25, -85.5]]]}, "properties": {"cell_id": "203_3", "lon": -55.5, "lat": -84.75}}, {"type": "Feature", "geometry": {"type": "Polygon", "coordinates": [[[-56.25, -84.0], [-56.25, -82.5], [-54.75, -82.5], [-54.75, -84.0], [-56.25, -84.0]]]}, "properties": {"cell_id": "203_4", "lon": -55.5, "lat": -83.25}}, {"type": "Feature", "geometry": {"type": "Polygon", "coordinates": [[[-56.25, -82.5], [-56.25, -81.0], [-54.75, -81.0], [-54.75, -82.5], [-56.25, -82.5]]]}, "properties": {"cell_id": "203_5", "lon": -55.5, "lat": -81.75}}, {"type": "Feature", "geometry": {"type": "Polygon", "coordinates": [[[-56.25, -81.0], [-56.25, -79.5], [-54.75, -79.5], [-54.75, -81.0], [-56.25, -81.0]]]}, "properties": {"cell_id": "203_6", "lon": -55.5, "lat": -80.25}}, {"type": "Feature", "geometry": {"type": "Polygon", "coordinates": [[[-54.75, -90.0], [-54.75, -88.5], [-53.25, -88.5], [-53.25, -90.0], [-54.75, -90.0]]]}, "properties": {"cell_id": "204_0", "lon": -54.0, "lat": -89.25}}, {"type": "Feature", "geometry": {"type": "Polygon", "coordinates": [[[-54.75, -88.5], [-54.75, -87.0], [-53.25, -87.0], [-53.25, -88.5], [-54.75, -88.5]]]}, "properties": {"cell_id": "204_1", "lon": -54.0, "lat": -87.75}}, {"type": "Feature", "geometry": {"type": "Polygon", "coordinates": [[[-54.75, -87.0], [-54.75, -85.5], [-53.25, -85.5], [-53.25, -87.0], [-54.75, -87.0]]]}, "properties": {"cell_id": "204_2", "lon": -54.0, "lat": -86.25}}, {"type": "Feature", "geometry": {"type": "Polygon", "coordinates": [[[-54.75, -85.5], [-54.75, -84.0], [-53.25, -84.0], [-53.25, -85.5], [-54.75, -85.5]]]}, "properties": {"cell_id": "204_3", "lon": -54.0, "lat": -84.75}}, {"type": "Feature", "geometry": {"type": "Polygon", "coordinates": [[[-54.75, -84.0], [-54.75, -82.5], [-53.25, -82.5], [-53.25, -84.0], [-54.75, -84.0]]]}, "properties": {"cell_id": "204_4", "lon": -54.0, "lat": -83.25}}, {"type": "Feature", "geometry": {"type": "Polygon", "coordinates": [[[-54.75, -82.5], [-54.75, -81.0], [-53.25, -81.0], [-53.25, -82.5], [-54.75, -82.5]]]}, "properties": {"cell_id": "204_5", "lon": -54.0, "lat": -81.75}}, {"type": "Feature", "geometry": {"type": "Polygon", "coordinates": [[[-54.75, -81.0], [-54.75, -79.5], [-53.25, -79.5], [-53.25, -81.0], [-54.75, -81.0]]]}, "properties": {"cell_id": "204_6", "lon": -54.0, "lat": -80.25}}, {"type": "Feature", "geometry": {"type": "Polygon", "coordinates": [[[-53.25, -90.0], [-53.25, -88.5], [-51.75, -88.5], [-51.75, -90.0], [-53.25, -90.0]]]}, "properties": {"cell_id": "205_0", "lon": -52.5, "lat": -89.25}}, {"type": "Feature", "geometry": {"type": "Polygon", "coordinates": [[[-53.25, -88.5], [-53.25, -87.0], [-51.75, -87.0], [-51.75, -88.5], [-53.25, -88.5]]]}, "properties": {"cell_id": "205_1", "lon": -52.5, "lat": -87.75}}, {"type": "Feature", "geometry": {"type": "Polygon", "coordinates": [[[-53.25, -87.0], [-53.25, -85.5], [-51.75, -85.5], [-51.75, -87.0], [-53.25, -87.0]]]}, "properties": {"cell_id": "205_2", "lon": -52.5, "lat": -86.25}}, {"type": "Feature", "geometry": {"type": "Polygon", "coordinates": [[[-53.25, -85.5], [-53.25, -84.0], [-51.75, -84.0], [-51.75, -85.5], [-53.25, -85.5]]]}, "properties": {"cell_id": "205_3", "lon": -52.5, "lat": -84.75}}, {"type": "Feature", "geometry": {"type": "Polygon", "coordinates": [[[-53.25, -84.0], [-53.25, -82.5], [-51.75, -82.5], [-51.75, -84.0], [-53.25, -84.0]]]}, "properties": {"cell_id": "205_4", "lon": -52.5, "lat": -83.25}}, {"type": "Feature", "geometry": {"type": "Polygon", "coordinates": [[[-53.25, -82.5], [-53.25, -81.0], [-51.75, -81.0], [-51.75, -82.5], [-53.25, -82.5]]]}, "properties": {"cell_id": "205_5", "lon": -52.5, "lat": -81.75}}, {"type": "Feature", "geometry": {"type": "Polygon", "coordinates": [[[-53.25, -81.0], [-53.25, -79.5], [-51.75, -79.5], [-51.75, -81.0], [-53.25, -81.0]]]}, "properties": {"cell_id": "205_6", "lon": -52.5, "lat": -80.25}}, {"type": "Feature", "geometry": {"type": "Polygon", "coordinates": [[[-51.75, -90.0], [-51.75, -88.5], [-50.25, -88.5], [-50.25, -90.0], [-51.75, -90.0]]]}, "properties": {"cell_id": "206_0", "lon": -51.0, "lat": -89.25}}, {"type": "Feature", "geometry": {"type": "Polygon", "coordinates": [[[-51.75, -88.5], [-51.75, -87.0], [-50.25, -87.0], [-50.25, -88.5], [-51.75, -88.5]]]}, "properties": {"cell_id": "206_1", "lon": -51.0, "lat": -87.75}}, {"type": "Feature", "geometry": {"type": "Polygon", "coordinates": [[[-51.75, -87.0], [-51.75, -85.5], [-50.25, -85.5], [-50.25, -87.0], [-51.75, -87.0]]]}, "properties": {"cell_id": "206_2", "lon": -51.0, "lat": -86.25}}, {"type": "Feature", "geometry": {"type": "Polygon", "coordinates": [[[-51.75, -85.5], [-51.75, -84.0], [-50.25, -84.0], [-50.25, -85.5], [-51.75, -85.5]]]}, "properties": {"cell_id": "206_3", "lon": -51.0, "lat": -84.75}}, {"type": "Feature", "geometry": {"type": "Polygon", "coordinates": [[[-51.75, -84.0], [-51.75, -82.5], [-50.25, -82.5], [-50.25, -84.0], [-51.75, -84.0]]]}, "properties": {"cell_id": "206_4", "lon": -51.0, "lat": -83.25}}, {"type": "Feature", "geometry": {"type": "Polygon", "coordinates": [[[-51.75, -82.5], [-51.75, -81.0], [-50.25, -81.0], [-50.25, -82.5], [-51.75, -82.5]]]}, "properties": {"cell_id": "206_5", "lon": -51.0, "lat": -81.75}}, {"type": "Feature", "geometry": {"type": "Polygon", "coordinates": [[[-51.75, -81.0], [-51.75, -79.5], [-50.25, -79.5], [-50.25, -81.0], [-51.75, -81.0]]]}, "properties": {"cell_id": "206_6", "lon": -51.0, "lat": -80.25}}, {"type": "Feature", "geometry": {"type": "Polygon", "coordinates": [[[-50.25, -90.0], [-50.25, -88.5], [-48.75, -88.5], [-48.75, -90.0], [-50.25, -90.0]]]}, "properties": {"cell_id": "207_0", "lon": -49.5, "lat": -89.25}}, {"type": "Feature", "geometry": {"type": "Polygon", "coordinates": [[[-50.25, -88.5], [-50.25, -87.0], [-48.75, -87.0], [-48.75, -88.5], [-50.25, -88.5]]]}, "properties": {"cell_id": "207_1", "lon": -49.5, "lat": -87.75}}, {"type": "Feature", "geometry": {"type": "Polygon", "coordinates": [[[-50.25, -87.0], [-50.25, -85.5], [-48.75, -85.5], [-48.75, -87.0], [-50.25, -87.0]]]}, "properties": {"cell_id": "207_2", "lon": -49.5, "lat": -86.25}}, {"type": "Feature", "geometry": {"type": "Polygon", "coordinates": [[[-50.25, -85.5], [-50.25, -84.0], [-48.75, -84.0], [-48.75, -85.5], [-50.25, -85.5]]]}, "properties": {"cell_id": "207_3", "lon": -49.5, "lat": -84.75}}, {"type": "Feature", "geometry": {"type": "Polygon", "coordinates": [[[-50.25, -84.0], [-50.25, -82.5], [-48.75, -82.5], [-48.75, -84.0], [-50.25, -84.0]]]}, "properties": {"cell_id": "207_4", "lon": -49.5, "lat": -83.25}}, {"type": "Feature", "geometry": {"type": "Polygon", "coordinates": [[[-50.25, -82.5], [-50.25, -81.0], [-48.75, -81.0], [-48.75, -82.5], [-50.25, -82.5]]]}, "properties": {"cell_id": "207_5", "lon": -49.5, "lat": -81.75}}, {"type": "Feature", "geometry": {"type": "Polygon", "coordinates": [[[-50.25, -81.0], [-50.25, -79.5], [-48.75, -79.5], [-48.75, -81.0], [-50.25, -81.0]]]}, "properties": {"cell_id": "207_6", "lon": -49.5, "lat": -80.25}}]}