{"type": "FeatureCollection", "features": [{"type": "Feature", "geometry": {"type": "Polygon", "coordinates": [[[40.0, 50.0], [40.0, 52.5], [42.5, 52.5], [42.5, 50.0], [40.0, 50.0]]]}, "properties": {"cell_id": "16_56", "lon": 41.25, "lat": 51.25}}, {"type": "Feature", "geometry": {"type": "Polygon", "coordinates": [[[40.0, 52.5], [40.0, 55.0], [42.5, 55.0], [42.5, 52.5], [40.0, 52.5]]]}, "properties": {"cell_id": "16_57", "lon": 41.25, "lat": 53.75}}, {"type": "Feature", "geometry": {"type": "Polygon", "coordinates": [[[40.0, 55.0], [40.0, 57.5], [42.5, 57.5], [42.5, 55.0], [40.0, 55.0]]]}, "properties": {"cell_id": "16_58", "lon": 41.25, "lat": 56.25}}, {"type": "Feature", "geometry": {"type": "Polygon", "coordinates": [[[40.0, 57.5], [40.0, 60.0], [42.5, 60.0], [42.5, 57.5], [40.0, 57.5]]]}, "properties": {"cell_id": "16_59", "lon": 41.25, "lat": 58.75}}, {"type": "Feature", "geometry": {"type": "Polygon", "coordinates": [[[42.5, 50.0], [42.5, 52.5], [45.0, 52.5], [45.0, 50.0], [42.5, 50.0]]]}, "properties": {"cell_id": "17_56", "lon": 43.75, "lat": 51.25}}, {"type": "Feature", "geometry": {"type": "Polygon", "coordinates": [[[42.5, 52.5], [42.5, 55.0], [45.0, 55.0], [45.0, 52.5], [42.5, 52.5]]]}, "properties": {"cell_id": "17_57", "lon": 43.75, "lat": 53.75}}, {"type": "Feature", "geometry": {"type": "Polygon", "coordinates": [[[42.5, 55.0], [42.5, 57.5], [45.0, 57.5], [45.0, 55.0], [42.5, 55.0]]]}, "properties": {"cell_id": "17_58", "lon": 43.75, "lat": 56.25}}, {"type": "Feature", "geometry": {"type": "Polygon", "coordinates": [[[42.5, 57.5], [42.5, 60.0], [45.0, 60.0], [45.0, 57.5], [42.5, 57.5]]]}, "properties": {"cell_id": "17_59", "lon": 43.75, "lat": 58.75}}, {"type": "Feature", "geometry": {"type": "Polygon", "coordinates": [[[45.0, 50.0], [45.0, 52.5], [47.5, 52.5], [47.5, 50.0], [45.0, 50.0]]]}, "properties": {"cell_id": "18_56", "lon": 46.25, "lat": 51.25}}, {"type": "Feature", "geometry": {"type": "Polygon", "coordinates": [[[45.0, 52.5], [45.0, 55.0], [47.5, 55.0], [47.5, 52.5], [45.0, 52.5]]]}, "properties": {"cell_id": "18_57", "lon": 46.25, "lat": 53.75}}, {"type": "Feature", "geometry": {"type": "Polygon", "coordinates": [[[45.0, 55.0], [45.0, 57.5], [47.5, 57.5], [47.5, 55.0], [45.0, 55.0]]]}, "properties": {"cell_id": "18_58", "lon": 46.25, "lat": 56.25}}, {"type": "Feature", "geometry": {"type": "Polygon", "coordinates": [[[45.0, 57.5], [45.0, 60.0], [47.5, 60.0], [47.5, 57.5], [45.0, 57.5]]]}, "properties": {"cell_id": "18_59", "lon": 46.25, "lat": 58.75}}, {"type": "Feature", "geometry": {"type": "Polygon", "coordinates": [[[47.5, 50.0], [47.5, 52.5], [50.0, 52.5], [50.0, 50.0], [47.5, 50.0]]]}, "properties": {"cell_id": "19_56", "lon": 48.75, "lat": 51.25}}, {"type": "Feature", "geometry": {"type": "Polygon", "coordinates": [[[47.5, 52.5], [47.5, 55.0], [50.0, 55.0], [50.0, 52.5], [47.5, 52.5]]]}, "properties": {"cell_id": "19_57", "lon": 48.75, "lat": 53.75}}, {"type": "Feature", "geometry": {"type": "Polygon", "coordinates": [[[47.5, 55.0], [47.5, 57.5], [50.0, 57.5], [50.0, 55.0], [47.5, 55.0]]]}, "properties": {"cell_id": "19_58", "lon": 48.75, "lat": 56.25}}, {"type": "Feature", "geometry": {"type": "Polygon", "coordinates": [[[47.5, 57.5], [47.5, 60.0], [50.0, 60.0], [50.0, 57.5], [47.5, 57.5]]]}, "properties": {"cell_id": "19_59", "lon": 48.75, "lat": 58.75}}]}