{"type": "FeatureCollection", "features": [{"type": "Feature", "geometry": {"type": "Polygon", "coordinates": [[[100.0, 30.0], [100.0, 32.5], [102.5, 32.5], [102.5, 30.0], [100.0, 30.0]]]}, "properties": {"cell_id": "40_48", "lon": 101.25, "lat": 31.25}}, {"type": "Feature", "geometry": {"type": "Polygon", "coordinates": [[[100.0, 32.5], [100.0, 35.0], [102.5, 35.0], [102.5, 32.5], [100.0, 32.5]]]}, "properties": {"cell_id": "40_49", "lon": 101.25, "lat": 33.75}}, {"type": "Feature", "geometry": {"type": "Polygon", "coordinates": [[[100.0, 35.0], [100.0, 37.5], [102.5, 37.5], [102.5, 35.0], [100.0, 35.0]]]}, "properties": {"cell_id": "40_50", "lon": 101.25, "lat": 36.25}}, {"type": "Feature", "geometry": {"type": "Polygon", "coordinates": [[[100.0, 37.5], [100.0, 40.0], [102.5, 40.0], [102.5, 37.5], [100.0, 37.5]]]}, "properties": {"cell_id": "40_51", "lon": 101.25, "lat": 38.75}}, {"type": "Feature", "geometry": {"type": "Polygon", "coordinates": [[[102.5, 30.0], [102.5, 32.5], [105.0, 32.5], [105.0, 30.0], [102.5, 30.0]]]}, "properties": {"cell_id": "41_48", "lon": 103.75, "lat": 31.25}}, {"type": "Feature", "geometry": {"type": "Polygon", "coordinates": [[[102.5, 32.5], [102.5, 35.0], [105.0, 35.0], [105.0, 32.5], [102.5, 32.5]]]}, "properties": {"cell_id": "41_49", "lon": 103.75, "lat": 33.75}}, {"type": "Feature", "geometry": {"type": "Polygon", "coordinates": [[[102.5, 35.0], [102.5, 37.5], [105.0, 37.5], [105.0, 35.0], [102.5, 35.0]]]}, "properties": {"cell_id": "41_50", "lon": 103.75, "lat": 36.25}}, {"type": "Feature", "geometry": {"type": "Polygon", "coordinates": [[[102.5, 37.5], [102.5, 40.0], [105.0, 40.0], [105.0, 37.5], [102.5, 37.5]]]}, "properties": {"cell_id": "41_51", "lon": 103.75, "lat": 38.75}}, {"type": "Feature", "geometry": {"type": "Polygon", "coordinates": [[[105.0, 30.0], [105.0, 32.5], [107.5, 32.5], [107.5, 30.0], [105.0, 30.0]]]}, "properties": {"cell_id": "42_48", "lon": 106.25, "lat": 31.25}}, {"type": "Feature", "geometry": {"type": "Polygon", "coordinates": [[[105.0, 32.5], [105.0, 35.0], [107.5, 35.0], [107.5, 32.5], [105.0, 32.5]]]}, "properties": {"cell_id": "42_49", "lon": 106.25, "lat": 33.75}}, {"type": "Feature", "geometry": {"type": "Polygon", "coordinates": [[[105.0, 35.0], [105.0, 37.5], [107.5, 37.5], [107.5, 35.0], [105.0, 35.0]]]}, "properties": {"cell_id": "42_50", "lon": 106.25, "lat": 36.25}}, {"type": "Feature", "geometry": {"type": "Polygon", "coordinates": [[[105.0, 37.5], [105.0, 40.0], [107.5, 40.0], [107.5, 37.5], [105.0, 37.5]]]}, "properties": {"cell_id": "42_51", "lon": 106.25, "lat": 38.75}}, {"type": "Feature", "geometry": {"type": "Polygon", "coordinates": [[[107.5, 30.0], [107.5, 32.5], [110.0, 32.5], [110.0, 30.0], [107.5, 30.0]]]}, "properties": {"cell_id": "43_48", "lon": 108.75, "lat": 31.25}}, {"type": "Feature", "geometry": {"type": "Polygon", "coordinates": [[[107.5, 32.5], [107.5, 35.0], [110.0, 35.0], [110.0, 32.5], [107.5, 32.5]]]}, "properties": {"cell_id": "43_49", "lon": 108.75, "lat": 33.75}}, {"type": "Feature", "geometry": {"type": "Polygon", "coordinates": [[[107.5, 35.0], [107.5, 37.5], [110.0, 37.5], [110.0, 35.0], [107.5, 35.0]]]}, "properties": {"cell_id": "43_50", "lon": 108.75, "lat": 36.25}}, {"type": "Feature", "geometry": {"type": "Polygon", "coordinates": [[[107.5, 37.5], [107.5, 40.0], [110.0, 40.0], [110.0, 37.5], [107.5, 37.5]]]}, "properties": {"cell_id": "43_51", "lon": 108.75, "lat": 38.75}}]}