{"type": "FeatureCollection", "features": [{"type": "Feature", "geometry": {"type": "Polygon", "coordinates": [[[-30.0, 80.0], [-30.0, 82.5], [-27.5, 82.5], [-27.5, 80.0], [-30.0, 80.0]]]}, "properties": {"cell_id": "132_68", "lon": -28.75, "lat": 81.25}}, {"type": "Feature", "geometry": {"type": "Polygon", "coordinates": [[[-27.5, 80.0], [-27.5, 82.5], [-25.0, 82.5], [-25.0, 80.0], [-27.5, 80.0]]]}, "properties": {"cell_id": "133_68", "lon": -26.25, "lat": 81.25}}, {"type": "Feature", "geometry": {"type": "Polygon", "coordinates": [[[-25.0, 80.0], [-25.0, 82.5], [-22.5, 82.5], [-22.5, 80.0], [-25.0, 80.0]]]}, "properties": {"cell_id": "134_68", "lon": -23.75, "lat": 81.25}}, {"type": "Feature", "geometry": {"type": "Polygon", "coordinates": [[[-22.5, 80.0], [-22.5, 82.5], [-20.0, 82.5], [-20.0, 80.0], [-22.5, 80.0]]]}, "properties": {"cell_id": "135_68", "lon": -21.25, "lat": 81.25}}]}