{"type": "FeatureCollection", "features": [{"type": "Feature", "geometry": {"type": "Polygon", "coordinates": [[[130.0, 42.5], [130.0, 45.0], [132.5, 45.0], [132.5, 42.5], [130.0, 42.5]]]}, "properties": {"cell_id": "52_53", "lon": 131.25, "lat": 43.75}}, {"type": "Feature", "geometry": {"type": "Polygon", "coordinates": [[[130.0, 45.0], [130.0, 47.5], [132.5, 47.5], [132.5, 45.0], [130.0, 45.0]]]}, "properties": {"cell_id": "52_54", "lon": 131.25, "lat": 46.25}}, {"type": "Feature", "geometry": {"type": "Polygon", "coordinates": [[[130.0, 47.5], [130.0, 50.0], [132.5, 50.0], [132.5, 47.5], [130.0, 47.5]]]}, "properties": {"cell_id": "52_55", "lon": 131.25, "lat": 48.75}}, {"type": "Feature", "geometry": {"type": "Polygon", "coordinates": [[[132.5, 42.5], [132.5, 45.0], [135.0, 45.0], [135.0, 42.5], [132.5, 42.5]]]}, "properties": {"cell_id": "53_53", "lon": 133.75, "lat": 43.75}}, {"type": "Feature", "geometry": {"type": "Polygon", "coordinates": [[[132.5, 45.0], [132.5, 47.5], [135.0, 47.5], [135.0, 45.0], [132.5, 45.0]]]}, "properties": {"cell_id": "53_54", "lon": 133.75, "lat": 46.25}}, {"type": "Feature", "geometry": {"type": "Polygon", "coordinates": [[[132.5, 47.5], [132.5, 50.0], [135.0, 50.0], [135.0, 47.5], [132.5, 47.5]]]}, "properties": {"cell_id": "53_55", "lon": 133.75, "lat": 48.75}}, {"type": "Feature", "geometry": {"type": "Polygon", "coordinates": [[[135.0, 45.0], [135.0, 47.5], [137.5, 47.5], [137.5, 45.0], [135.0, 45.0]]]}, "properties": {"cell_id": "54_54", "lon": 136.25, "lat": 46.25}}, {"type": "Feature", "geometry": {"type": "Polygon", "coordinates": [[[135.0, 47.5], [135.0, 50.0], [137.5, 50.0], [137.5, 47.5], [135.0, 47.5]]]}, "properties": {"cell_id": "54_55", "lon": 136.25, "lat": 48.75}}, {"type": "Feature", "geometry": {"type": "Polygon", "coordinates": [[[137.5, 47.5], [137.5, 50.0], [140.0, 50.0], [140.0, 47.5], [137.5, 47.5]]]}, "properties": {"cell_id": "55_55", "lon": 138.75, "lat": 48.75}}]}