{"type": "FeatureCollection", "features": [{"type": "Feature", "geometry": {"type": "Polygon", "coordinates": [[[-108.75, 30.0], [-108.75, 31.5], [-107.25, 31.5], [-107.25, 30.0], [-108.75, 30.0]]]}, "properties": {"cell_id": "168_80", "lon": -108.0, "lat": 30.75}}, {"type": "Feature", "geometry": {"type": "Polygon", "coordinates": [[[-108.75, 31.5], [-108.75, 33.0], [-107.25, 33.0], [-107.25, 31.5], [-108.75, 31.5]]]}, "properties": {"cell_id": "168_81", "lon": -108.0, "lat": 32.25}}, {"type": "Feature", "geometry": {"type": "Polygon", "coordinates": [[[-108.75, 33.0], [-108.75, 34.5], [-107.25, 34.5], [-107.25, 33.0], [-108.75, 33.0]]]}, "properties": {"cell_id": "168_82", "lon": -108.0, "lat": 33.75}}, {"type": "Feature", "geometry": {"type": "Polygon", "coordinates": [[[-108.75, 34.5], [-108.75, 36.0], [-107.25, 36.0], [-107.25, 34.5], [-108.75, 34.5]]]}, "properties": {"cell_id": "168_83", "lon": -108.0, "lat": 35.25}}, {"type": "Feature", "geometry": {"type": "Polygon", "coordinates": [[[-108.75, 36.0], [-108.75, 37.5], [-107.25, 37.5], [-107.25, 36.0], [-108.75, 36.0]]]}, "properties": {"cell_id": "168_84", "lon": -108.0, "lat": 36.75}}, {"type": "Feature", "geometry": {"type": "Polygon", "coordinates": [[[-108.75, 37.5], [-108.75, 39.0], [-107.25, 39.0], [-107.25, 37.5], [-108.75, 37.5]]]}, "properties": {"cell_id": "168_85", "lon": -108.0, "lat": 38.25}}, {"type": "Feature", "geometry": {"type": "Polygon", "coordinates": [[[-108.75, 39.0], [-108.75, 40.5], [-107.25, 40.5], [-107.25, 39.0], [-108.75, 39.0]]]}, "properties": {"cell_id": "168_86", "lon": -108.0, "lat": 39.75}}, {"type": "Feature", "geometry": {"type": "Polygon", "coordinates": [[[-107.25, 30.0], [-107.25, 31.5], [-105.75, 31.5], [-105.75, 30.0], [-107.25, 30.0]]]}, "properties": {"cell_id": "169_80", "lon": -106.5, "lat": 30.75}}, {"type": "Feature", "geometry": {"type": "Polygon", "coordinates": [[[-107.25, 31.5], [-107.25, 33.0], [-105.75, 33.0], [-105.75, 31.5], [-107.25, 31.5]]]}, "properties": {"cell_id": "169_81", "lon": -106.5, "lat": 32.25}}, {"type": "Feature", "geometry": {"type": "Polygon", "coordinates": [[[-107.25, 33.0], [-107.25, 34.5], [-105.75, 34.5], [-105.75, 33.0], [-107.25, 33.0]]]}, "properties": {"cell_id": "169_82", "lon": -106.5, "lat": 33.75}}, {"type": "Feature", "geometry": {"type": "Polygon", "coordinates": [[[-107.25, 34.5], [-107.25, 36.0], [-105.75, 36.0], [-105.75, 34.5], [-107.25, 34.5]]]}, "properties": {"cell_id": "169_83", "lon": -106.5, "lat": 35.25}}, {"type": "Feature", "geometry": {"type": "Polygon", "coordinates": [[[-107.25, 36.0], [-107.25, 37.5], [-105.75, 37.5], [-105.75, 36.0], [-107.25, 36.0]]]}, "properties": {"cell_id": "169_84", "lon": -106.5, "lat": 36.75}}, {"type": "Feature", "geometry": {"type": "Polygon", "coordinates": [[[-107.25, 37.5], [-107.25, 39.0], [-105.75, 39.0], [-105.75, 37.5], [-107.25, 37.5]]]}, "properties": {"cell_id": "169_85", "lon": -106.5, "lat": 38.25}}, {"type": "Feature", "geometry": {"type": "Polygon", "coordinates": [[[-107.25, 39.0], [-107.25, 40.5], [-105.75, 40.5], [-105.75, 39.0], [-107.25, 39.0]]]}, "properties": {"cell_id": "169_86", "lon": -106.5, "lat": 39.75}}, {"type": "Feature", "geometry": {"type": "Polygon", "coordinates": [[[-105.75, 30.0], [-105.75, 31.5], [-104.25, 31.5], [-104.25, 30.0], [-105.75, 30.0]]]}, "properties": {"cell_id": "170_80", "lon": -105.0, "lat": 30.75}}, {"type": "Feature", "geometry": {"type": "Polygon", "coordinates": [[[-105.75, 31.5], [-105.75, 33.0], [-104.25, 33.0], [-104.25, 31.5], [-105.75, 31.5]]]}, "properties": {"cell_id": "170_81", "lon": -105.0, "lat": 32.25}}, {"type": "Feature", "geometry": {"type": "Polygon", "coordinates": [[[-105.75, 33.0], [-105.75, 34.5], [-104.25, 34.5], [-104.25, 33.0], [-105.75, 33.0]]]}, "properties": {"cell_id": "170_82", "lon": -105.0, "lat": 33.75}}, {"type": "Feature", "geometry": {"type": "Polygon", "coordinates": [[[-105.75, 34.5], [-105.75, 36.0], [-104.25, 36.0], [-104.25, 34.5], [-105.75, 34.5]]]}, "properties": {"cell_id": "170_83", "lon": -105.0, "lat": 35.25}}, {"type": "Feature", "geometry": {"type": "Polygon", "coordinates": [[[-105.75, 36.0], [-105.75, 37.5], [-104.25, 37.5], [-104.25, 36.0], [-105.75, 36.0]]]}, "properties": {"cell_id": "170_84", "lon": -105.0, "lat": 36.75}}, {"type": "Feature", "geometry": {"type": "Polygon", "coordinates": [[[-105.75, 37.5], [-105.75, 39.0], [-104.25, 39.0], [-104.25, 37.5], [-105.75, 37.5]]]}, "properties": {"cell_id": "170_85", "lon": -105.0, "lat": 38.25}}, {"type": "Feature", "geometry": {"type": "Polygon", "coordinates": [[[-105.75, 39.0], [-105.75, 40.5], [-104.25, 40.5], [-104.25, 39.0], [-105.75, 39.0]]]}, "properties": {"cell_id": "170_86", "lon": -105.0, "lat": 39.75}}, {"type": "Feature", "geometry": {"type": "Polygon", "coordinates": [[[-104.25, 30.0], [-104.25, 31.5], [-102.75, 31.5], [-102.75, 30.0], [-104.25, 30.0]]]}, "properties": {"cell_id": "171_80", "lon": -103.5, "lat": 30.75}}, {"type": "Feature", "geometry": {"type": "Polygon", "coordinates": [[[-104.25, 31.5], [-104.25, 33.0], [-102.75, 33.0], [-102.75, 31.5], [-104.25, 31.5]]]}, "properties": {"cell_id": "171_81", "lon": -103.5, "lat": 32.25}}, {"type": "Feature", "geometry": {"type": "Polygon", "coordinates": [[[-104.25, 33.0], [-104.25, 34.5], [-102.75, 34.5], [-102.75, 33.0], [-104.25, 33.0]]]}, "properties": {"cell_id": "171_82", "lon": -103.5, "lat": 33.75}}, {"type": "Feature", "geometry": {"type": "Polygon", "coordinates": [[[-104.25, 34.5], [-104.25, 36.0], [-102.75, 36.0], [-102.75, 34.5], [-104.25, 34.5]]]}, "properties": {"cell_id": "171_83", "lon": -103.5, "lat": 35.25}}, {"type": "Feature", "geometry": {"type": "Polygon", "coordinates": [[[-104.25, 36.0], [-104.25, 37.5], [-102.75, 37.5], [-102.75, 36.0], [-104.25, 36.0]]]}, "properties": {"cell_id": "171_84", "lon": -103.5, "lat": 36.75}}, {"type": "Feature", "geometry": {"type": "Polygon", "coordinates": [[[-104.25, 37.5], [-104.25, 39.0], [-102.75, 39.0], [-102.75, 37.5], [-104.25, 37.5]]]}, "properties": {"cell_id": "171_85", "lon": -103.5, "lat": 38.25}}, {"type": "Feature", "geometry": {"type": "Polygon", "coordinates": [[[-104.25, 39.0], [-104.25, 40.5], [-102.75, 40.5], [-102.75, 39.0], [-104.25, 39.0]]]}, "properties": {"cell_id": "171_86", "lon": -103.5, "lat": 39.75}}, {"type": "Feature", "geometry": {"type": "Polygon", "coordinates": [[[-102.75, 30.0], [-102.75, 31.5], [-101.25, 31.5], [-101.25, 30.0], [-102.75, 30.0]]]}, "properties": {"cell_id": "172_80", "lon": -102.0, "lat": 30.75}}, {"type": "Feature", "geometry": {"type": "Polygon", "coordinates": [[[-102.75, 31.5], [-102.75, 33.0], [-101.25, 33.0], [-101.25, 31.5], [-102.75, 31.5]]]}, "properties": {"cell_id": "172_81", "lon": -102.0, "lat": 32.25}}, {"type": "Feature", "geometry": {"type": "Polygon", "coordinates": [[[-102.75, 33.0], [-102.75, 34.5], [-101.25, 34.5], [-101.25, 33.0], [-102.75, 33.0]]]}, "properties": {"cell_id": "172_82", "lon": -102.0, "lat": 33.75}}, {"type": "Feature", "geometry": {"type": "Polygon", "coordinates": [[[-102.75, 34.5], [-102.75, 36.0], [-101.25, 36.0], [-101.25, 34.5], [-102.75, 34.5]]]}, "properties": {"cell_id": "172_83", "lon": -102.0, "lat": 35.25}}, {"type": "Feature", "geometry": {"type": "Polygon", "coordinates": [[[-102.75, 36.0], [-102.75, 37.5], [-101.25, 37.5], [-101.25, 36.0], [-102.75, 36.0]]]}, "properties": {"cell_id": "172_84", "lon": -102.0, "lat": 36.75}}, {"type": "Feature", "geometry": {"type": "Polygon", "coordinates": [[[-102.75, 37.5], [-102.75, 39.0], [-101.25, 39.0], [-101.25, 37.5], [-102.75, 37.5]]]}, "properties": {"cell_id": "172_85", "lon": -102.0, "lat": 38.25}}, {"type": "Feature", "geometry": {"type": "Polygon", "coordinates": [[[-102.75, 39.0], [-102.75, 40.5], [-101.25, 40.5], [-101.25, 39.0], [-102.75, 39.0]]]}, "properties": {"cell_id": "172_86", "lon": -102.0, "lat": 39.75}}, {"type": "Feature", "geometry": {"type": "Polygon", "coordinates": [[[-101.25, 30.0], [-101.25, 31.5], [-99.75, 31.5], [-99.75, 30.0], [-101.25, 30.0]]]}, "properties": {"cell_id": "173_80", "lon": -100.5, "lat": 30.75}}, {"type": "Feature", "geometry": {"type": "Polygon", "coordinates": [[[-101.25, 31.5], [-101.25, 33.0], [-99.75, 33.0], [-99.75, 31.5], [-101.25, 31.5]]]}, "properties": {"cell_id": "173_81", "lon": -100.5, "lat": 32.25}}, {"type": "Feature", "geometry": {"type": "Polygon", "coordinates": [[[-101.25, 33.0], [-101.25, 34.5], [-99.75, 34.5], [-99.75, 33.0], [-101.25, 33.0]]]}, "properties": {"cell_id": "173_82", "lon": -100.5, "lat": 33.75}}, {"type": "Feature", "geometry": {"type": "Polygon", "coordinates": [[[-101.25, 34.5], [-101.25, 36.0], [-99.75, 36.0], [-99.75, 34.5], [-101.25, 34.5]]]}, "properties": {"cell_id": "173_83", "lon": -100.5, "lat": 35.25}}, {"type": "Feature", "geometry": {"type": "Polygon", "coordinates": [[[-101.25, 36.0], [-101.25, 37.5], [-99.75, 37.5], [-99.75, 36.0], [-101.25, 36.0]]]}, "properties": {"cell_id": "173_84", "lon": -100.5, "lat": 36.75}}, {"type": "Feature", "geometry": {"type": "Polygon", "coordinates": [[[-101.25, 37.5], [-101.25, 39.0], [-99.75, 39.0], [-99.75, 37.5], [-101.25, 37.5]]]}, "properties": {"cell_id": "173_85", "lon": -100.5, "lat": 38.25}}, {"type": "Feature", "geometry": {"type": "Polygon", "coordinates": [[[-101.25, 39.0], [-101.25, 40.5], [-99.75, 40.5], [-99.75, 39.0], [-101.25, 39.0]]]}, "properties": {"cell_id": "173_86", "lon": -100.5, "lat": 39.75}}]}