{"type": "FeatureCollection", "features": [{"type": "Feature", "geometry": {"type": "Polygon", "coordinates": [[[-0.75, 30.0], [-0.75, 31.5], [0.75, 31.5], [0.75, 30.0], [-0.75, 30.0]]]}, "properties": {"cell_id": "0_80", "lon": 0.0, "lat": 30.75}}, {"type": "Feature", "geometry": {"type": "Polygon", "coordinates": [[[-0.75, 31.5], [-0.75, 33.0], [0.75, 33.0], [0.75, 31.5], [-0.75, 31.5]]]}, "properties": {"cell_id": "0_81", "lon": 0.0, "lat": 32.25}}, {"type": "Feature", "geometry": {"type": "Polygon", "coordinates": [[[-0.75, 33.0], [-0.75, 34.5], [0.75, 34.5], [0.75, 33.0], [-0.75, 33.0]]]}, "properties": {"cell_id": "0_82", "lon": 0.0, "lat": 33.75}}, {"type": "Feature", "geometry": {"type": "Polygon", "coordinates": [[[-0.75, 34.5], [-0.75, 36.0], [0.75, 36.0], [0.75, 34.5], [-0.75, 34.5]]]}, "properties": {"cell_id": "0_83", "lon": 0.0, "lat": 35.25}}, {"type": "Feature", "geometry": {"type": "Polygon", "coordinates": [[[-0.75, 36.0], [-0.75, 37.5], [0.75, 37.5], [0.75, 36.0], [-0.75, 36.0]]]}, "properties": {"cell_id": "0_84", "lon": 0.0, "lat": 36.75}}, {"type": "Feature", "geometry": {"type": "Polygon", "coordinates": [[[-0.75, 37.5], [-0.75, 39.0], [0.75, 39.0], [0.75, 37.5], [-0.75, 37.5]]]}, "properties": {"cell_id": "0_85", "lon": 0.0, "lat": 38.25}}, {"type": "Feature", "geometry": {"type": "Polygon", "coordinates": [[[-0.75, 39.0], [-0.75, 40.5], [0.75, 40.5], [0.75, 39.0], [-0.75, 39.0]]]}, "properties": {"cell_id": "0_86", "lon": 0.0, "lat": 39.75}}, {"type": "Feature", "geometry": {"type": "Polygon", "coordinates": [[[-9.75, 30.0], [-9.75, 31.5], [-8.25, 31.5], [-8.25, 30.0], [-9.75, 30.0]]]}, "properties": {"cell_id": "234_80", "lon": -9.0, "lat": 30.75}}, {"type": "Feature", "geometry": {"type": "Polygon", "coordinates": [[[-9.75, 31.5], [-9.75, 33.0], [-8.25, 33.0], [-8.25, 31.5], [-9.75, 31.5]]]}, "properties": {"cell_id": "234_81", "lon": -9.0, "lat": 32.25}}, {"type": "Feature", "geometry": {"type": "Polygon", "coordinates": [[[-9.75, 37.5], [-9.75, 39.0], [-8.25, 39.0], [-8.25, 37.5], [-9.75, 37.5]]]}, "properties": {"cell_id": "234_85", "lon": -9.0, "lat": 38.25}}, {"type": "Feature", "geometry": {"type": "Polygon", "coordinates": [[[-9.75, 39.0], [-9.75, 40.5], [-8.25, 40.5], [-8.25, 39.0], [-9.75, 39.0]]]}, "properties": {"cell_id": "234_86", "lon": -9.0, "lat": 39.75}}, {"type": "Feature", "geometry": {"type": "Polygon", "coordinates": [[[-8.25, 30.0], [-8.25, 31.5], [-6.75, 31.5], [-6.75, 30.0], [-8.25, 30.0]]]}, "properties": {"cell_id": "235_80", "lon": -7.5, "lat": 30.75}}, {"type": "Feature", "geometry": {"type": "Polygon", "coordinates": [[[-8.25, 31.5], [-8.25, 33.0], [-6.75, 33.0], [-6.75, 31.5], [-8.25, 31.5]]]}, "properties": {"cell_id": "235_81", "lon": -7.5, "lat": 32.25}}, {"type": "Feature", "geometry": {"type": "Polygon", "coordinates": [[[-8.25, 33.0], [-8.25, 34.5], [-6.75, 34.5], [-6.75, 33.0], [-8.25, 33.0]]]}, "properties": {"cell_id": "235_82", "lon": -7.5, "lat": 33.75}}, {"type": "Feature", "geometry": {"type": "Polygon", "coordinates": [[[-8.25, 36.0], [-8.25, 37.5], [-6.75, 37.5], [-6.75, 36.0], [-8.25, 36.0]]]}, "properties": {"cell_id": "235_84", "lon": -7.5, "lat": 36.75}}, {"type": "Feature", "geometry": {"type": "Polygon", "coordinates": [[[-8.25, 37.5], [-8.25, 39.0], [-6.75, 39.0], [-6.75, 37.5], [-8.25, 37.5]]]}, "properties": {"cell_id": "235_85", "lon": -7.5, "lat": 38.25}}, {"type": "Feature", "geometry": {"type": "Polygon", "coordinates": [[[-8.25, 39.0], [-8.25, 40.5], [-6.75, 40.5], [-6.75, 39.0], [-8.25, 39.0]]]}, "properties": {"cell_id": "235_86", "lon": -7.5, "lat": 39.75}}, {"type": "Feature", "geometry": {"type": "Polygon", "coordinates": [[[-6.75, 30.0], [-6.75, 31.5], [-5.25, 31.5], [-5.25, 30.0], [-6.75, 30.0]]]}, "properties": {"cell_id": "236_80", "lon": -6.0, "lat": 30.75}}, {"type": "Feature", "geometry": {"type": "Polygon", "coordinates": [[[-6.75, 31.5], [-6.75, 33.0], [-5.25, 33.0], [-5.25, 31.5], [-6.75, 31.5]]]}, "properties": {"cell_id": "236_81", "lon": -6.0, "lat": 32.25}}, {"type": "Feature", "geometry": {"type": "Polygon", "coordinates": [[[-6.75, 33.0], [-6.75, 34.5], [-5.25, 34.5], [-5.25, 33.0], [-6.75, 33.0]]]}, "properties": {"cell_id": "236_82", "lon": -6.0, "lat": 33.75}}, {"type": "Feature", "geometry": {"type": "Polygon", "coordinates": [[[-6.75, 34.5], [-6.75, 36.0], [-5.25, 36.0], [-5.25, 34.5], [-6.75, 34.5]]]}, "properties": {"cell_id": "236_83", "lon": -6.0, "lat": 35.25}}, {"type": "Feature", "geometry": {"type": "Polygon", "coordinates": [[[-6.75, 36.0], [-6.75, 37.5], [-5.25, 37.5], [-5.25, 36.0], [-6.75, 36.0]]]}, "properties": {"cell_id": "236_84", "lon": -6.0, "lat": 36.75}}, {"type": "Feature", "geometry": {"type": "Polygon", "coordinates": [[[-6.75, 37.5], [-6.75, 39.0], [-5.25, 39.0], [-5.25, 37.5], [-6.75, 37.5]]]}, "properties": {"cell_id": "236_85", "lon": -6.0, "lat": 38.25}}, {"type": "Feature", "geometry": {"type": "Polygon", "coordinates": [[[-6.75, 39.0], [-6.75, 40.5], [-5.25, 40.5], [-5.25, 39.0], [-6.75, 39.0]]]}, "properties": {"cell_id": "236_86", "lon": -6.0, "lat": 39.75}}, {"type": "Feature", "geometry": {"type": "Polygon", "coordinates": [[[-5.25, 30.0], [-5.25, 31.5], [-3.75, 31.5], [-3.75, 30.0], [-5.25, 30.0]]]}, "properties": {"cell_id": "237_80", "lon": -4.5, "lat": 30.75}}, {"type": "Feature", "geometry": {"type": "Polygon", "coordinates": [[[-5.25, 31.5], [-5.25, 33.0], [-3.75, 33.0], [-3.75, 31.5], [-5.25, 31.5]]]}, "properties": {"cell_id": "237_81", "lon": -4.5, "lat": 32.25}}, {"type": "Feature", "geometry": {"type": "Polygon", "coordinates": [[[-5.25, 33.0], [-5.25, 34.5], [-3.75, 34.5], [-3.75, 33.0], [-5.25, 33.0]]]}, "properties": {"cell_id": "237_82", "lon": -4.5, "lat": 33.75}}, {"type": "Feature", "geometry": {"type": "Polygon", "coordinates": [[[-5.25, 34.5], [-5.25, 36.0], [-3.75, 36.0], [-3.75, 34.5], [-5.25, 34.5]]]}, "properties": {"cell_id": "237_83", "lon": -4.5, "lat": 35.25}}, {"type": "Feature", "geometry": {"type": "Polygon", "coordinates": [[[-5.25, 36.0], [-5.25, 37.5], [-3.75, 37.5], [-3.75, 36.0], [-5.25, 36.0]]]}, "properties": {"cell_id": "237_84", "lon": -4.5, "lat": 36.75}}, {"type": "Feature", "geometry": {"type": "Polygon", "coordinates": [[[-5.25, 37.5], [-5.25, 39.0], [-3.75, 39.0], [-3.75, 37.5], [-5.25, 37.5]]]}, "properties": {"cell_id": "237_85", "lon": -4.5, "lat": 38.25}}, {"type": "Feature", "geometry": {"type": "Polygon", "coordinates": [[[-5.25, 39.0], [-5.25, 40.5], [-3.75, 40.5], [-3.75, 39.0], [-5.25, 39.0]]]}, "properties": {"cell_id": "237_86", "lon": -4.5, "lat": 39.75}}, {"type": "Feature", "geometry": {"type": "Polygon", "coordinates": [[[-3.75, 30.0], [-3.75, 31.5], [-2.25, 31.5], [-2.25, 30.0], [-3.75, 30.0]]]}, "properties": {"cell_id": "238_80", "lon": -3.0, "lat": 30.75}}, {"type": "Feature", "geometry": {"type": "Polygon", "coordinates": [[[-3.75, 31.5], [-3.75, 33.0], [-2.25, 33.0], [-2.25, 31.5], [-3.75, 31.5]]]}, "properties": {"cell_id": "238_81", "lon": -3.0, "lat": 32.25}}, {"type": "Feature", "geometry": {"type": "Polygon", "coordinates": [[[-3.75, 33.0], [-3.75, 34.5], [-2.25, 34.5], [-2.25, 33.0], [-3.75, 33.0]]]}, "properties": {"cell_id": "238_82", "lon": -3.0, "lat": 33.75}}, {"type": "Feature", "geometry": {"type": "Polygon", "coordinates": [[[-3.75, 34.5], [-3.75, 36.0], [-2.25, 36.0], [-2.25, 34.5], [-3.75, 34.5]]]}, "properties": {"cell_id": "238_83", "lon": -3.0, "lat": 35.25}}, {"type": "Feature", "geometry": {"type": "Polygon", "coordinates": [[[-3.75, 36.0], [-3.75, 37.5], [-2.25, 37.5], [-2.25, 36.0], [-3.75, 36.0]]]}, "properties": {"cell_id": "238_84", "lon": -3.0, "lat": 36.75}}, {"type": "Feature", "geometry": {"type": "Polygon", "coordinates": [[[-3.75, 37.5], [-3.75, 39.0], [-2.25, 39.0], [-2.25, 37.5], [-3.75, 37.5]]]}, "properties": {"cell_id": "238_85", "lon": -3.0, "lat": 38.25}}, {"type": "Feature", "geometry": {"type": "Polygon", "coordinates": [[[-3.75, 39.0], [-3.75, 40.5], [-2.25, 40.5], [-2.25, 39.0], [-3.75, 39.0]]]}, "properties": {"cell_id": "238_86", "lon": -3.0, "lat": 39.75}}, {"type": "Feature", "geometry": {"type": "Polygon", "coordinates": [[[-2.25, 30.0], [-2.25, 31.5], [-0.75, 31.5], [-0.75, 30.0], [-2.25, 30.0]]]}, "properties": {"cell_id": "239_80", "lon": -1.5, "lat": 30.75}}, {"type": "Feature", "geometry": {"type": "Polygon", "coordinates": [[[-2.25, 31.5], [-2.25, 33.0], [-0.75, 33.0], [-0.75, 31.5], [-2.25, 31.5]]]}, "properties": {"cell_id": "239_81", "lon": -1.5, "lat": 32.25}}, {"type": "Feature", "geometry": {"type": "Polygon", "coordinates": [[[-2.25, 33.0], [-2.25, 34.5], [-0.75, 34.5], [-0.75, 33.0], [-2.25, 33.0]]]}, "properties": {"cell_id": "239_82", "lon": -1.5, "lat": 33.75}}, {"type": "Feature", "geometry": {"type": "Polygon", "coordinates": [[[-2.25, 34.5], [-2.25, 36.0], [-0.75, 36.0], [-0.75, 34.5], [-2.25, 34.5]]]}, "properties": {"cell_id": "239_83", "lon": -1.5, "lat": 35.25}}, {"type": "Feature", "geometry": {"type": "Polygon", "coordinates": [[[-2.25, 36.0], [-2.25, 37.5], [-0.75, 37.5], [-0.75, 36.0], [-2.25, 36.0]]]}, "properties": {"cell_id": "239_84", "lon": -1.5, "lat": 36.75}}, {"type": "Feature", "geometry": {"type": "Polygon", "coordinates": [[[-2.25, 37.5], [-2.25, 39.0], [-0.75, 39.0], [-0.75, 37.5], [-2.25, 37.5]]]}, "properties": {"cell_id": "239_85", "lon": -1.5, "lat": 38.25}}, {"type": "Feature", "geometry": {"type": "Polygon", "coordinates": [[[-2.25, 39.0], [-2.25, 40.5], [-0.75, 40.5], [-0.75, 39.0], [-2.25, 39.0]]]}, "properties": {"cell_id": "239_86", "lon": -1.5, "lat": 39.75}}]}