{"type": "FeatureCollection", "features": [{"type": "Feature", "geometry": {"type": "Polygon", "coordinates": [[[130.0, -2.5], [130.0, 0.0], [132.5, 0.0], [132.5, -2.5], [130.0, -2.5]]]}, "properties": {"cell_id": "52_35", "lon": 131.25, "lat": -1.25}}, {"type": "Feature", "geometry": {"type": "Polygon", "coordinates": [[[132.5, -2.5], [132.5, 0.0], [135.0, 0.0], [135.0, -2.5], [132.5, -2.5]]]}, "properties": {"cell_id": "53_35", "lon": 133.75, "lat": -1.25}}, {"type": "Feature", "geometry": {"type": "Polygon", "coordinates": [[[135.0, -5.0], [135.0, -2.5], [137.5, -2.5], [137.5, -5.0], [135.0, -5.0]]]}, "properties": {"cell_id": "54_34", "lon": 136.25, "lat": -3.75}}, {"type": "Feature", "geometry": {"type": "Polygon", "coordinates": [[[137.5, -7.5], [137.5, -5.0], [140.0, -5.0], [140.0, -7.5], [137.5, -7.5]]]}, "properties": {"cell_id": "55_33", "lon": 138.75, "lat": -6.25}}, {"type": "Feature", "geometry": {"type": "Polygon", "coordinates": [[[137.5, -5.0], [137.5, -2.5], [140.0, -2.5], [140.0, -5.0], [137.5, -5.0]]]}, "properties": {"cell_id": "55_34", "lon": 138.75, "lat": -3.75}}]}