{"type": "FeatureCollection", "features": [{"type": "Feature", "geometry": {"type": "Polygon", "coordinates": [[[-120.0, 50.0], [-120.0, 52.5], [-117.5, 52.5], [-117.5, 50.0], [-120.0, 50.0]]]}, "properties": {"cell_id": "96_56", "lon": -118.75, "lat": 51.25}}, {"type": "Feature", "geometry": {"type": "Polygon", "coordinates": [[[-120.0, 52.5], [-120.0, 55.0], [-117.5, 55.0], [-117.5, 52.5], [-120.0, 52.5]]]}, "properties": {"cell_id": "96_57", "lon": -118.75, "lat": 53.75}}, {"type": "Feature", "geometry": {"type": "Polygon", "coordinates": [[[-120.0, 55.0], [-120.0, 57.5], [-117.5, 57.5], [-117.5, 55.0], [-120.0, 55.0]]]}, "properties": {"cell_id": "96_58", "lon": -118.75, "lat": 56.25}}, {"type": "Feature", "geometry": {"type": "Polygon", "coordinates": [[[-120.0, 57.5], [-120.0, 60.0], [-117.5, 60.0], [-117.5, 57.5], [-120.0, 57.5]]]}, "properties": {"cell_id": "96_59", "lon": -118.75, "lat": 58.75}}, {"type": "Feature", "geometry": {"type": "Polygon", "coordinates": [[[-117.5, 50.0], [-117.5, 52.5], [-115.0, 52.5], [-115.0, 50.0], [-117.5, 50.0]]]}, "properties": {"cell_id": "97_56", "lon": -116.25, "lat": 51.25}}, {"type": "Feature", "geometry": {"type": "Polygon", "coordinates": [[[-117.5, 52.5], [-117.5, 55.0], [-115.0, 55.0], [-115.0, 52.5], [-117.5, 52.5]]]}, "properties": {"cell_id": "97_57", "lon": -116.25, "lat": 53.75}}, {"type": "Feature", "geometry": {"type": "Polygon", "coordinates": [[[-117.5, 55.0], [-117.5, 57.5], [-115.0, 57.5], [-115.0, 55.0], [-117.5, 55.0]]]}, "properties": {"cell_id": "97_58", "lon": -116.25, "lat": 56.25}}, {"type": "Feature", "geometry": {"type": "Polygon", "coordinates": [[[-117.5, 57.5], [-117.5, 60.0], [-115.0, 60.0], [-115.0, 57.5], [-117.5, 57.5]]]}, "properties": {"cell_id": "97_59", "lon": -116.25, "lat": 58.75}}, {"type": "Feature", "geometry": {"type": "Polygon", "coordinates": [[[-115.0, 50.0], [-115.0, 52.5], [-112.5, 52.5], [-112.5, 50.0], [-115.0, 50.0]]]}, "properties": {"cell_id": "98_56", "lon": -113.75, "lat": 51.25}}, {"type": "Feature", "geometry": {"type": "Polygon", "coordinates": [[[-115.0, 52.5], [-115.0, 55.0], [-112.5, 55.0], [-112.5, 52.5], [-115.0, 52.5]]]}, "properties": {"cell_id": "98_57", "lon": -113.75, "lat": 53.75}}, {"type": "Feature", "geometry": {"type": "Polygon", "coordinates": [[[-115.0, 55.0], [-115.0, 57.5], [-112.5, 57.5], [-112.5, 55.0], [-115.0, 55.0]]]}, "properties": {"cell_id": "98_58", "lon": -113.75, "lat": 56.25}}, {"type": "Feature", "geometry": {"type": "Polygon", "coordinates": [[[-115.0, 57.5], [-115.0, 60.0], [-112.5, 60.0], [-112.5, 57.5], [-115.0, 57.5]]]}, "properties": {"cell_id": "98_59", "lon": -113.75, "lat": 58.75}}, {"type": "Feature", "geometry": {"type": "Polygon", "coordinates": [[[-112.5, 50.0], [-112.5, 52.5], [-110.0, 52.5], [-110.0, 50.0], [-112.5, 50.0]]]}, "properties": {"cell_id": "99_56", "lon": -111.25, "lat": 51.25}}, {"type": "Feature", "geometry": {"type": "Polygon", "coordinates": [[[-112.5, 52.5], [-112.5, 55.0], [-110.0, 55.0], [-110.0, 52.5], [-112.5, 52.5]]]}, "properties": {"cell_id": "99_57", "lon": -111.25, "lat": 53.75}}, {"type": "Feature", "geometry": {"type": "Polygon", "coordinates": [[[-112.5, 55.0], [-112.5, 57.5], [-110.0, 57.5], [-110.0, 55.0], [-112.5, 55.0]]]}, "properties": {"cell_id": "99_58", "lon": -111.25, "lat": 56.25}}, {"type": "Feature", "geometry": {"type": "Polygon", "coordinates": [[[-112.5, 57.5], [-112.5, 60.0], [-110.0, 60.0], [-110.0, 57.5], [-112.5, 57.5]]]}, "properties": {"cell_id": "99_59", "lon": -111.25, "lat": 58.75}}]}