{"type": "FeatureCollection", "features": [{"type": "Feature", "geometry": {"type": "Polygon", "coordinates": [[[60.0, 40.0], [60.0, 42.5], [62.5, 42.5], [62.5, 40.0], [60.0, 40.0]]]}, "properties": {"cell_id": "24_52", "lon": 61.25, "lat": 41.25}}, {"type": "Feature", "geometry": {"type": "Polygon", "coordinates": [[[60.0, 42.5], [60.0, 45.0], [62.5, 45.0], [62.5, 42.5], [60.0, 42.5]]]}, "properties": {"cell_id": "24_53", "lon": 61.25, "lat": 43.75}}, {"type": "Feature", "geometry": {"type": "Polygon", "coordinates": [[[60.0, 45.0], [60.0, 47.5], [62.5, 47.5], [62.5, 45.0], [60.0, 45.0]]]}, "properties": {"cell_id": "24_54", "lon": 61.25, "lat": 46.25}}, {"type": "Feature", "geometry": {"type": "Polygon", "coordinates": [[[60.0, 47.5], [60.0, 50.0], [62.5, 50.0], [62.5, 47.5], [60.0, 47.5]]]}, "properties": {"cell_id": "24_55", "lon": 61.25, "lat": 48.75}}, {"type": "Feature", "geometry": {"type": "Polygon", "coordinates": [[[62.5, 40.0], [62.5, 42.5], [65.0, 42.5], [65.0, 40.0], [62.5, 40.0]]]}, "properties": {"cell_id": "25_52", "lon": 63.75, "lat": 41.25}}, {"type": "Feature", "geometry": {"type": "Polygon", "coordinates": [[[62.5, 42.5], [62.5, 45.0], [65.0, 45.0], [65.0, 42.5], [62.5, 42.5]]]}, "properties": {"cell_id": "25_53", "lon": 63.75, "lat": 43.75}}, {"type": "Feature", "geometry": {"type": "Polygon", "coordinates": [[[62.5, 45.0], [62.5, 47.5], [65.0, 47.5], [65.0, 45.0], [62.5, 45.0]]]}, "properties": {"cell_id": "25_54", "lon": 63.75, "lat": 46.25}}, {"type": "Feature", "geometry": {"type": "Polygon", "coordinates": [[[62.5, 47.5], [62.5, 50.0], [65.0, 50.0], [65.0, 47.5], [62.5, 47.5]]]}, "properties": {"cell_id": "25_55", "lon": 63.75, "lat": 48.75}}, {"type": "Feature", "geometry": {"type": "Polygon", "coordinates": [[[65.0, 40.0], [65.0, 42.5], [67.5, 42.5], [67.5, 40.0], [65.0, 40.0]]]}, "properties": {"cell_id": "26_52", "lon": 66.25, "lat": 41.25}}, {"type": "Feature", "geometry": {"type": "Polygon", "coordinates": [[[65.0, 42.5], [65.0, 45.0], [67.5, 45.0], [67.5, 42.5], [65.0, 42.5]]]}, "properties": {"cell_id": "26_53", "lon": 66.25, "lat": 43.75}}, {"type": "Feature", "geometry": {"type": "Polygon", "coordinates": [[[65.0, 45.0], [65.0, 47.5], [67.5, 47.5], [67.5, 45.0], [65.0, 45.0]]]}, "properties": {"cell_id": "26_54", "lon": 66.25, "lat": 46.25}}, {"type": "Feature", "geometry": {"type": "Polygon", "coordinates": [[[65.0, 47.5], [65.0, 50.0], [67.5, 50.0], [67.5, 47.5], [65.0, 47.5]]]}, "properties": {"cell_id": "26_55", "lon": 66.25, "lat": 48.75}}, {"type": "Feature", "geometry": {"type": "Polygon", "coordinates": [[[67.5, 40.0], [67.5, 42.5], [70.0, 42.5], [70.0, 40.0], [67.5, 40.0]]]}, "properties": {"cell_id": "27_52", "lon": 68.75, "lat": 41.25}}, {"type": "Feature", "geometry": {"type": "Polygon", "coordinates": [[[67.5, 42.5], [67.5, 45.0], [70.0, 45.0], [70.0, 42.5], [67.5, 42.5]]]}, "properties": {"cell_id": "27_53", "lon": 68.75, "lat": 43.75}}, {"type": "Feature", "geometry": {"type": "Polygon", "coordinates": [[[67.5, 45.0], [67.5, 47.5], [70.0, 47.5], [70.0, 45.0], [67.5, 45.0]]]}, "properties": {"cell_id": "27_54", "lon": 68.75, "lat": 46.25}}, {"type": "Feature", "geometry": {"type": "Polygon", "coordinates": [[[67.5, 47.5], [67.5, 50.0], [70.0, 50.0], [70.0, 47.5], [67.5, 47.5]]]}, "properties": {"cell_id": "27_55", "lon": 68.75, "lat": 48.75}}]}