{"type": "FeatureCollection", "features": [{"type": "Feature", "geometry": {"type": "Polygon", "coordinates": [[[110.0, 0.0], [110.0, 2.5], [112.5, 2.5], [112.5, 0.0], [110.0, 0.0]]]}, "properties": {"cell_id": "44_36", "lon": 111.25, "lat": 1.25}}, {"type": "Feature", "geometry": {"type": "Polygon", "coordinates": [[[112.5, 0.0], [112.5, 2.5], [115.0, 2.5], [115.0, 0.0], [112.5, 0.0]]]}, "properties": {"cell_id": "45_36", "lon": 113.75, "lat": 1.25}}, {"type": "Feature", "geometry": {"type": "Polygon", "coordinates": [[[112.5, 2.5], [112.5, 5.0], [115.0, 5.0], [115.0, 2.5], [112.5, 2.5]]]}, "properties": {"cell_id": "45_37", "lon": 113.75, "lat": 3.75}}, {"type": "Feature", "geometry": {"type": "Polygon", "coordinates": [[[115.0, 0.0], [115.0, 2.5], [117.5, 2.5], [117.5, 0.0], [115.0, 0.0]]]}, "properties": {"cell_id": "46_36", "lon": 116.25, "lat": 1.25}}, {"type": "Feature", "geometry": {"type": "Polygon", "coordinates": [[[115.0, 2.5], [115.0, 5.0], [117.5, 5.0], [117.5, 2.5], [115.0, 2.5]]]}, "properties": {"cell_id": "46_37", "lon": 116.25, "lat": 3.75}}]}