{"type": "FeatureCollection", "features": [{"type": "Feature", "geometry": {"type": "Polygon", "coordinates": [[[132.5, 70.0], [132.5, 72.5], [135.0, 72.5], [135.0, 70.0], [132.5, 70.0]]]}, "properties": {"cell_id": "53_64", "lon": 133.75, "lat": 71.25}}, {"type": "Feature", "geometry": {"type": "Polygon", "coordinates": [[[135.0, 70.0], [135.0, 72.5], [137.5, 72.5], [137.5, 70.0], [135.0, 70.0]]]}, "properties": {"cell_id": "54_64", "lon": 136.25, "lat": 71.25}}, {"type": "Feature", "geometry": {"type": "Polygon", "coordinates": [[[137.5, 70.0], [137.5, 72.5], [140.0, 72.5], [140.0, 70.0], [137.5, 70.0]]]}, "properties": {"cell_id": "55_64", "lon": 138.75, "lat": 71.25}}]}