{"type": "FeatureCollection", "features": [{"type": "Feature", "geometry": {"type": "Polygon", "coordinates": [[[-48.75, 81.0], [-48.75, 82.5], [-47.25, 82.5], [-47.25, 81.0], [-48.75, 81.0]]]}, "properties": {"cell_id": "208_114", "lon": -48.0, "lat": 81.75}}, {"type": "Feature", "geometry": {"type": "Polygon", "coordinates": [[[-47.25, 81.0], [-47.25, 82.5], [-45.75, 82.5], [-45.75, 81.0], [-47.25, 81.0]]]}, "properties": {"cell_id": "209_114", "lon": -46.5, "lat": 81.75}}, {"type": "Feature", "geometry": {"type": "Polygon", "coordinates": [[[-47.25, 82.5], [-47.25, 84.0], [-45.75, 84.0], [-45.75, 82.5], [-47.25, 82.5]]]}, "properties": {"cell_id": "209_115", "lon": -46.5, "lat": 83.25}}, {"type": "Feature", "geometry": {"type": "Polygon", "coordinates": [[[-45.75, 81.0], [-45.75, 82.5], [-44.25, 82.5], [-44.25, 81.0], [-45.75, 81.0]]]}, "properties": {"cell_id": "210_114", "lon": -45.0, "lat": 81.75}}, {"type": "Feature", "geometry": {"type": "Polygon", "coordinates": [[[-45.75, 82.5], [-45.75, 84.0], [-44.25, 84.0], [-44.25, 82.5], [-45.75, 82.5]]]}, "properties": {"cell_id": "210_115", "lon": -45.0, "lat": 83.25}}, {"type": "Feature", "geometry": {"type": "Polygon", "coordinates": [[[-44.25, 81.0], [-44.25, 82.5], [-42.75, 82.5], [-42.75, 81.0], [-44.25, 81.0]]]}, "properties": {"cell_id": "211_114", "lon": -43.5, "lat": 81.75}}, {"type": "Feature", "geometry": {"type": "Polygon", "coordinates": [[[-44.25, 82.5], [-44.25, 84.0], [-42.75, 84.0], [-42.75, 82.5], [-44.25, 82.5]]]}, "properties": {"cell_id": "211_115", "lon": -43.5, "lat": 83.25}}, {"type": "Feature", "geometry": {"type": "Polygon", "coordinates": [[[-42.75, 81.0], [-42.75, 82.5], [-41.25, 82.5], [-41.25, 81.0], [-42.75, 81.0]]]}, "properties": {"cell_id": "212_114", "lon": -42.0, "lat": 81.75}}, {"type": "Feature", "geometry": {"type": "Polygon", "coordinates": [[[-42.75, 82.5], [-42.75, 84.0], [-41.25, 84.0], [-41.25, 82.5], [-42.75, 82.5]]]}, "properties": {"cell_id": "212_115", "lon": -42.0, "lat": 83.25}}, {"type": "Feature", "geometry": {"type": "Polygon", "coordinates": [[[-41.25, 81.0], [-41.25, 82.5], [-39.75, 82.5], [-39.75, 81.0], [-41.25, 81.0]]]}, "properties": {"cell_id": "213_114", "lon": -40.5, "lat": 81.75}}, {"type": "Feature", "geometry": {"type": "Polygon", "coordinates": [[[-41.25, 82.5], [-41.25, 84.0], [-39.75, 84.0], [-39.75, 82.5], [-41.25, 82.5]]]}, "properties": {"cell_id": "213_115", "lon": -40.5, "lat": 83.25}}]}