{"type": "FeatureCollection", "features": [{"type": "Feature", "geometry": {"type": "Polygon", "coordinates": [[[20.25, -79.5], [20.25, -78.0], [21.75, -78.0], [21.75, -79.5], [20.25, -79.5]]]}, "properties": {"cell_id": "14_7", "lon": 21.0, "lat": -78.75}}, {"type": "Feature", "geometry": {"type": "Polygon", "coordinates": [[[20.25, -78.0], [20.25, -76.5], [21.75, -76.5], [21.75, -78.0], [20.25, -78.0]]]}, "properties": {"cell_id": "14_8", "lon": 21.0, "lat": -77.25}}, {"type": "Feature", "geometry": {"type": "Polygon", "coordinates": [[[20.25, -76.5], [20.25, -75.0], [21.75, -75.0], [21.75, -76.5], [20.25, -76.5]]]}, "properties": {"cell_id": "14_9", "lon": 21.0, "lat": -75.75}}, {"type": "Feature", "geometry": {"type": "Polygon", "coordinates": [[[20.25, -75.0], [20.25, -73.5], [21.75, -73.5], [21.75, -75.0], [20.25, -75.0]]]}, "properties": {"cell_id": "14_10", "lon": 21.0, "lat": -74.25}}, {"type": "Feature", "geometry": {"type": "Polygon", "coordinates": [[[20.25, -73.5], [20.25, -72.0], [21.75, -72.0], [21.75, -73.5], [20.25, -73.5]]]}, "properties": {"cell_id": "14_11", "lon": 21.0, "lat": -72.75}}, {"type": "Feature", "geometry": {"type": "Polygon", "coordinates": [[[20.25, -72.0], [20.25, -70.5], [21.75, -70.5], [21.75, -72.0], [20.25, -72.0]]]}, "properties": {"cell_id": "14_12", "lon": 21.0, "lat": -71.25}}, {"type": "Feature", "geometry": {"type": "Polygon", "coordinates": [[[20.25, -70.5], [20.25, -69.0], [21.75, -69.0], [21.75, -70.5], [20.25, -70.5]]]}, "properties": {"cell_id": "14_13", "lon": 21.0, "lat": -69.75}}, {"type": "Feature", "geometry": {"type": "Polygon", "coordinates": [[[21.75, -79.5], [21.75, -78.0], [23.25, -78.0], [23.25, -79.5], [21.75, -79.5]]]}, "properties": {"cell_id": "15_7", "lon": 22.5, "lat": -78.75}}, {"type": "Feature", "geometry": {"type": "Polygon", "coordinates": [[[21.75, -78.0], [21.75, -76.5], [23.25, -76.5], [23.25, -78.0], [21.75, -78.0]]]}, "properties": {"cell_id": "15_8", "lon": 22.5, "lat": -77.25}}, {"type": "Feature", "geometry": {"type": "Polygon", "coordinates": [[[21.75, -76.5], [21.75, -75.0], [23.25, -75.0], [23.25, -76.5], [21.75, -76.5]]]}, "properties": {"cell_id": "15_9", "lon": 22.5, "lat": -75.75}}, {"type": "Feature", "geometry": {"type": "Polygon", "coordinates": [[[21.75, -75.0], [21.75, -73.5], [23.25, -73.5], [23.25, -75.0], [21.75, -75.0]]]}, "properties": {"cell_id": "15_10", "lon": 22.5, "lat": -74.25}}, {"type": "Feature", "geometry": {"type": "Polygon", "coordinates": [[[21.75, -73.5], [21.75, -72.0], [23.25, -72.0], [23.25, -73.5], [21.75, -73.5]]]}, "properties": {"cell_id": "15_11", "lon": 22.5, "lat": -72.75}}, {"type": "Feature", "geometry": {"type": "Polygon", "coordinates": [[[21.75, -72.0], [21.75, -70.5], [23.25, -70.5], [23.25, -72.0], [21.75, -72.0]]]}, "properties": {"cell_id": "15_12", "lon": 22.5, "lat": -71.25}}, {"type": "Feature", "geometry": {"type": "Polygon", "coordinates": [[[21.75, -70.5], [21.75, -69.0], [23.25, -69.0], [23.25, -70.5], [21.75, -70.5]]]}, "properties": {"cell_id": "15_13", "lon": 22.5, "lat": -69.75}}, {"type": "Feature", "geometry": {"type": "Polygon", "coordinates": [[[23.25, -79.5], [23.25, -78.0], [24.75, -78.0], [24.75, -79.5], [23.25, -79.5]]]}, "properties": {"cell_id": "16_7", "lon": 24.0, "lat": -78.75}}, {"type": "Feature", "geometry": {"type": "Polygon", "coordinates": [[[23.25, -78.0], [23.25, -76.5], [24.75, -76.5], [24.75, -78.0], [23.25, -78.0]]]}, "properties": {"cell_id": "16_8", "lon": 24.0, "lat": -77.25}}, {"type": "Feature", "geometry": {"type": "Polygon", "coordinates": [[[23.25, -76.5], [23.25, -75.0], [24.75, -75.0], [24.75, -76.5], [23.25, -76.5]]]}, "properties": {"cell_id": "16_9", "lon": 24.0, "lat": -75.75}}, {"type": "Feature", "geometry": {"type": "Polygon", "coordinates": [[[23.25, -75.0], [23.25, -73.5], [24.75, -73.5], [24.75, -75.0], [23.25, -75.0]]]}, "properties": {"cell_id": "16_10", "lon": 24.0, "lat": -74.25}}, {"type": "Feature", "geometry": {"type": "Polygon", "coordinates": [[[23.25, -73.5], [23.25, -72.0], [24.75, -72.0], [24.75, -73.5], [23.25, -73.5]]]}, "properties": {"cell_id": "16_11", "lon": 24.0, "lat": -72.75}}, {"type": "Feature", "geometry": {"type": "Polygon", "coordinates": [[[23.25, -72.0], [23.25, -70.5], [24.75, -70.5], [24.75, -72.0], [23.25, -72.0]]]}, "properties": {"cell_id": "16_12", "lon": 24.0, "lat": -71.25}}, {"type": "Feature", "geometry": {"type": "Polygon", "coordinates": [[[23.25, -70.5], [23.25, -69.0], [24.75, -69.0], [24.75, -70.5], [23.25, -70.5]]]}, "properties": {"cell_id": "16_13", "lon": 24.0, "lat": -69.75}}, {"type": "Feature", "geometry": {"type": "Polygon", "coordinates": [[[24.75, -79.5], [24.75, -78.0], [26.25, -78.0], [26.25, -79.5], [24.75, -79.5]]]}, "properties": {"cell_id": "17_7", "lon": 25.5, "lat": -78.75}}, {"type": "Feature", "geometry": {"type": "Polygon", "coordinates": [[[24.75, -78.0], [24.75, -76.5], [26.25, -76.5], [26.25, -78.0], [24.75, -78.0]]]}, "properties": {"cell_id": "17_8", "lon": 25.5, "lat": -77.25}}, {"type": "Feature", "geometry": {"type": "Polygon", "coordinates": [[[24.75, -76.5], [24.75, -75.0], [26.25, -75.0], [26.25, -76.5], [24.75, -76.5]]]}, "properties": {"cell_id": "17_9", "lon": 25.5, "lat": -75.75}}, {"type": "Feature", "geometry": {"type": "Polygon", "coordinates": [[[24.75, -75.0], [24.75, -73.5], [26.25, -73.5], [26.25, -75.0], [24.75, -75.0]]]}, "properties": {"cell_id": "17_10", "lon": 25.5, "lat": -74.25}}, {"type": "Feature", "geometry": {"type": "Polygon", "coordinates": [[[24.75, -73.5], [24.75, -72.0], [26.25, -72.0], [26.25, -73.5], [24.75, -73.5]]]}, "properties": {"cell_id": "17_11", "lon": 25.5, "lat": -72.75}}, {"type": "Feature", "geometry": {"type": "Polygon", "coordinates": [[[24.75, -72.0], [24.75, -70.5], [26.25, -70.5], [26.25, -72.0], [24.75, -72.0]]]}, "properties": {"cell_id": "17_12", "lon": 25.5, "lat": -71.25}}, {"type": "Feature", "geometry": {"type": "Polygon", "coordinates": [[[24.75, -70.5], [24.75, -69.0], [26.25, -69.0], [26.25, -70.5], [24.75, -70.5]]]}, "properties": {"cell_id": "17_13", "lon": 25.5, "lat": -69.75}}, {"type": "Feature", "geometry": {"type": "Polygon", "coordinates": [[[26.25, -79.5], [26.25, -78.0], [27.75, -78.0], [27.75, -79.5], [26.25, -79.5]]]}, "properties": {"cell_id": "18_7", "lon": 27.0, "lat": -78.75}}, {"type": "Feature", "geometry": {"type": "Polygon", "coordinates": [[[26.25, -78.0], [26.25, -76.5], [27.75, -76.5], [27.75, -78.0], [26.25, -78.0]]]}, "properties": {"cell_id": "18_8", "lon": 27.0, "lat": -77.25}}, {"type": "Feature", "geometry": {"type": "Polygon", "coordinates": [[[26.25, -76.5], [26.25, -75.0], [27.75, -75.0], [27.75, -76.5], [26.25, -76.5]]]}, "properties": {"cell_id": "18_9", "lon": 27.0, "lat": -75.75}}, {"type": "Feature", "geometry": {"type": "Polygon", "coordinates": [[[26.25, -75.0], [26.25, -73.5], [27.75, -73.5], [27.75, -75.0], [26.25, -75.0]]]}, "properties": {"cell_id": "18_10", "lon": 27.0, "lat": -74.25}}, {"type": "Feature", "geometry": {"type": "Polygon", "coordinates": [[[26.25, -73.5], [26.25, -72.0], [27.75, -72.0], [27.75, -73.5], [26.25, -73.5]]]}, "properties": {"cell_id": "18_11", "lon": 27.0, "lat": -72.75}}, {"type": "Feature", "geometry": {"type": "Polygon", "coordinates": [[[26.25, -72.0], [26.25, -70.5], [27.75, -70.5], [27.75, -72.0], [26.25, -72.0]]]}, "properties": {"cell_id": "18_12", "lon": 27.0, "lat": -71.25}}, {"type": "Feature", "geometry": {"type": "Polygon", "coordinates": [[[26.25, -70.5], [26.25, -69.0], [27.75, -69.0], [27.75, -70.5], [26.25, -70.5]]]}, "properties": {"cell_id": "18_13", "lon": 27.0, "lat": -69.75}}, {"type": "Feature", "geometry": {"type": "Polygon", "coordinates": [[[27.75, -79.5], [27.75, -78.0], [29.25, -78.0], [29.25, -79.5], [27.75, -79.5]]]}, "properties": {"cell_id": "19_7", "lon": 28.5, "lat": -78.75}}, {"type": "Feature", "geometry": {"type": "Polygon", "coordinates": [[[27.75, -78.0], [27.75, -76.5], [29.25, -76.5], [29.25, -78.0], [27.75, -78.0]]]}, "properties": {"cell_id": "19_8", "lon": 28.5, "lat": -77.25}}, {"type": "Feature", "geometry": {"type": "Polygon", "coordinates": [[[27.75, -76.5], [27.75, -75.0], [29.25, -75.0], [29.25, -76.5], [27.75, -76.5]]]}, "properties": {"cell_id": "19_9", "lon": 28.5, "lat": -75.75}}, {"type": "Feature", "geometry": {"type": "Polygon", "coordinates": [[[27.75, -75.0], [27.75, -73.5], [29.25, -73.5], [29.25, -75.0], [27.75, -75.0]]]}, "properties": {"cell_id": "19_10", "lon": 28.5, "lat": -74.25}}, {"type": "Feature", "geometry": {"type": "Polygon", "coordinates": [[[27.75, -73.5], [27.75, -72.0], [29.25, -72.0], [29.25, -73.5], [27.75, -73.5]]]}, "properties": {"cell_id": "19_11", "lon": 28.5, "lat": -72.75}}, {"type": "Feature", "geometry": {"type": "Polygon", "coordinates": [[[27.75, -72.0], [27.75, -70.5], [29.25, -70.5], [29.25, -72.0], [27.75, -72.0]]]}, "properties": {"cell_id": "19_12", "lon": 28.5, "lat": -71.25}}, {"type": "Feature", "geometry": {"type": "Polygon", "coordinates": [[[27.75, -70.5], [27.75, -69.0], [29.25, -69.0], [29.25, -70.5], [27.75, -70.5]]]}, "properties": {"cell_id": "19_13", "lon": 28.5, "lat": -69.75}}, {"type": "Feature", "geometry": {"type": "Polygon", "coordinates": [[[29.25, -79.5], [29.25, -78.0], [30.75, -78.0], [30.75, -79.5], [29.25, -79.5]]]}, "properties": {"cell_id": "20_7", "lon": 30.0, "lat": -78.75}}, {"type": "Feature", "geometry": {"type": "Polygon", "coordinates": [[[29.25, -78.0], [29.25, -76.5], [30.75, -76.5], [30.75, -78.0], [29.25, -78.0]]]}, "properties": {"cell_id": "20_8", "lon": 30.0, "lat": -77.25}}, {"type": "Feature", "geometry": {"type": "Polygon", "coordinates": [[[29.25, -76.5], [29.25, -75.0], [30.75, -75.0], [30.75, -76.5], [29.25, -76.5]]]}, "properties": {"cell_id": "20_9", "lon": 30.0, "lat": -75.75}}, {"type": "Feature", "geometry": {"type": "Polygon", "coordinates": [[[29.25, -75.0], [29.25, -73.5], [30.75, -73.5], [30.75, -75.0], [29.25, -75.0]]]}, "properties": {"cell_id": "20_10", "lon": 30.0, "lat": -74.25}}, {"type": "Feature", "geometry": {"type": "Polygon", "coordinates": [[[29.25, -73.5], [29.25, -72.0], [30.75, -72.0], [30.75, -73.5], [29.25, -73.5]]]}, "properties": {"cell_id": "20_11", "lon": 30.0, "lat": -72.75}}, {"type": "Feature", "geometry": {"type": "Polygon", "coordinates": [[[29.25, -72.0], [29.25, -70.5], [30.75, -70.5], [30.75, -72.0], [29.25, -72.0]]]}, "properties": {"cell_id": "20_12", "lon": 30.0, "lat": -71.25}}, {"type": "Feature", "geometry": {"type": "Polygon", "coordinates": [[[29.25, -70.5], [29.25, -69.0], [30.75, -69.0], [30.75, -70.5], [29.25, -70.5]]]}, "properties": {"cell_id": "20_13", "lon": 30.0, "lat": -69.75}}]}