{"type": "FeatureCollection", "features": [{"type": "Feature", "geometry": {"type": "Polygon", "coordinates": [[[131.25, -90.0], [131.25, -88.5], [132.75, -88.5], [132.75, -90.0], [131.25, -90.0]]]}, "properties": {"cell_id": "88_0", "lon": 132.0, "lat": -89.25}}, {"type": "Feature", "geometry": {"type": "Polygon", "coordinates": [[[131.25, -88.5], [131.25, -87.0], [132.75, -87.0], [132.75, -88.5], [131.25, -88.5]]]}, "properties": {"cell_id": "88_1", "lon": 132.0, "lat": -87.75}}, {"type": "Feature", "geometry": {"type": "Polygon", "coordinates": [[[131.25, -87.0], [131.25, -85.5], [132.75, -85.5], [132.75, -87.0], [131.25, -87.0]]]}, "properties": {"cell_id": "88_2", "lon": 132.0, "lat": -86.25}}, {"type": "Feature", "geometry": {"type": "Polygon", "coordinates": [[[131.25, -85.5], [131.25, -84.0], [132.75, -84.0], [132.75, -85.5], [131.25, -85.5]]]}, "properties": {"cell_id": "88_3", "lon": 132.0, "lat": -84.75}}, {"type": "Feature", "geometry": {"type": "Polygon", "coordinates": [[[131.25, -84.0], [131.25, -82.5], [132.75, -82.5], [132.75, -84.0], [131.25, -84.0]]]}, "properties": {"cell_id": "88_4", "lon": 132.0, "lat": -83.25}}, {"type": "Feature", "geometry": {"type": "Polygon", "coordinates": [[[131.25, -82.5], [131.25, -81.0], [132.75, -81.0], [132.75, -82.5], [131.25, -82.5]]]}, "properties": {"cell_id": "88_5", "lon": 132.0, "lat": -81.75}}, {"type": "Feature", "geometry": {"type": "Polygon", "coordinates": [[[131.25, -81.0], [131.25, -79.5], [132.75, -79.5], [132.75, -81.0], [131.25, -81.0]]]}, "properties": {"cell_id": "88_6", "lon": 132.0, "lat": -80.25}}, {"type": "Feature", "geometry": {"type": "Polygon", "coordinates": [[[132.75, -90.0], [132.75, -88.5], [134.25, -88.5], [134.25, -90.0], [132.75, -90.0]]]}, "properties": {"cell_id": "89_0", "lon": 133.5, "lat": -89.25}}, {"type": "Feature", "geometry": {"type": "Polygon", "coordinates": [[[132.75, -88.5], [132.75, -87.0], [134.25, -87.0], [134.25, -88.5], [132.75, -88.5]]]}, "properties": {"cell_id": "89_1", "lon": 133.5, "lat": -87.75}}, {"type": "Feature", "geometry": {"type": "Polygon", "coordinates": [[[132.75, -87.0], [132.75, -85.5], [134.25, -85.5], [134.25, -87.0], [132.75, -87.0]]]}, "properties": {"cell_id": "89_2", "lon": 133.5, "lat": -86.25}}, {"type": "Feature", "geometry": {"type": "Polygon", "coordinates": [[[132.75, -85.5], [132.75, -84.0], [134.25, -84.0], [134.25, -85.5], [132.75, -85.5]]]}, "properties": {"cell_id": "89_3", "lon": 133.5, "lat": -84.75}}, {"type": "Feature", "geometry": {"type": "Polygon", "coordinates": [[[132.75, -84.0], [132.75, -82.5], [134.25, -82.5], [134.25, -84.0], [132.75, -84.0]]]}, "properties": {"cell_id": "89_4", "lon": 133.5, "lat": -83.25}}, {"type": "Feature", "geometry": {"type": "Polygon", "coordinates": [[[132.75, -82.5], [132.75, -81.0], [134.25, -81.0], [134.25, -82.5], [132.75, -82.5]]]}, "properties": {"cell_id": "89_5", "lon": 133.5, "lat": -81.75}}, {"type": "Feature", "geometry": {"type": "Polygon", "coordinates": [[[132.75, -81.0], [132.75, -79.5], [134.25, -79.5], [134.25, -81.0], [132.75, -81.0]]]}, "properties": {"cell_id": "89_6", "lon": 133.5, "lat": -80.25}}, {"type": "Feature", "geometry": {"type": "Polygon", "coordinates": [[[134.25, -90.0], [134.25, -88.5], [135.75, -88.5], [135.75, -90.0], [134.25, -90.0]]]}, "properties": {"cell_id": "90_0", "lon": 135.0, "lat": -89.25}}, {"type": "Feature", "geometry": {"type": "Polygon", "coordinates": [[[134.25, -88.5], [134.25, -87.0], [135.75, -87.0], [135.75, -88.5], [134.25, -88.5]]]}, "properties": {"cell_id": "90_1", "lon": 135.0, "lat": -87.75}}, {"type": "Feature", "geometry": {"type": "Polygon", "coordinates": [[[134.25, -87.0], [134.25, -85.5], [135.75, -85.5], [135.75, -87.0], [134.25, -87.0]]]}, "properties": {"cell_id": "90_2", "lon": 135.0, "lat": -86.25}}, {"type": "Feature", "geometry": {"type": "Polygon", "coordinates": [[[134.25, -85.5], [134.25, -84.0], [135.75, -84.0], [135.75, -85.5], [134.25, -85.5]]]}, "properties": {"cell_id": "90_3", "lon": 135.0, "lat": -84.75}}, {"type": "Feature", "geometry": {"type": "Polygon", "coordinates": [[[134.25, -84.0], [134.25, -82.5], [135.75, -82.5], [135.75, -84.0], [134.25, -84.0]]]}, "properties": {"cell_id": "90_4", "lon": 135.0, "lat": -83.25}}, {"type": "Feature", "geometry": {"type": "Polygon", "coordinates": [[[134.25, -82.5], [134.25, -81.0], [135.75, -81.0], [135.75, -82.5], [134.25, -82.5]]]}, "properties": {"cell_id": "90_5", "lon": 135.0, "lat": -81.75}}, {"type": "Feature", "geometry": {"type": "Polygon", "coordinates": [[[134.25, -81.0], [134.25, -79.5], [135.75, -79.5], [135.75, -81.0], [134.25, -81.0]]]}, "properties": {"cell_id": "90_6", "lon": 135.0, "lat": -80.25}}, {"type": "Feature", "geometry": {"type": "Polygon", "coordinates": [[[135.75, -90.0], [135.75, -88.5], [137.25, -88.5], [137.25, -90.0], [135.75, -90.0]]]}, "properties": {"cell_id": "91_0", "lon": 136.5, "lat": -89.25}}, {"type": "Feature", "geometry": {"type": "Polygon", "coordinates": [[[135.75, -88.5], [135.75, -87.0], [137.25, -87.0], [137.25, -88.5], [135.75, -88.5]]]}, "properties": {"cell_id": "91_1", "lon": 136.5, "lat": -87.75}}, {"type": "Feature", "geometry": {"type": "Polygon", "coordinates": [[[135.75, -87.0], [135.75, -85.5], [137.25, -85.5], [137.25, -87.0], [135.75, -87.0]]]}, "properties": {"cell_id": "91_2", "lon": 136.5, "lat": -86.25}}, {"type": "Feature", "geometry": {"type": "Polygon", "coordinates": [[[135.75, -85.5], [135.75, -84.0], [137.25, -84.0], [137.25, -85.5], [135.75, -85.5]]]}, "properties": {"cell_id": "91_3", "lon": 136.5, "lat": -84.75}}, {"type": "Feature", "geometry": {"type": "Polygon", "coordinates": [[[135.75, -84.0], [135.75, -82.5], [137.25, -82.5], [137.25, -84.0], [135.75, -84.0]]]}, "properties": {"cell_id": "91_4", "lon": 136.5, "lat": -83.25}}, {"type": "Feature", "geometry": {"type": "Polygon", "coordinates": [[[135.75, -82.5], [135.75, -81.0], [137.25, -81.0], [137.25, -82.5], [135.75, -82.5]]]}, "properties": {"cell_id": "91_5", "lon": 136.5, "lat": -81.75}}, {"type": "Feature", "geometry": {"type": "Polygon", "coordinates": [[[135.75, -81.0], [135.75, -79.5], [137.25, -79.5], [137.25, -81.0], [135.75, -81.0]]]}, "properties": {"cell_id": "91_6", "lon": 136.5, "lat": -80.25}}, {"type": "Feature", "geometry": {"type": "Polygon", "coordinates": [[[137.25, -90.0], [137.25, -88.5], [138.75, -88.5], [138.75, -90.0], [137.25, -90.0]]]}, "properties": {"cell_id": "92_0", "lon": 138.0, "lat": -89.25}}, {"type": "Feature", "geometry": {"type": "Polygon", "coordinates": [[[137.25, -88.5], [137.25, -87.0], [138.75, -87.0], [138.75, -88.5], [137.25, -88.5]]]}, "properties": {"cell_id": "92_1", "lon": 138.0, "lat": -87.75}}, {"type": "Feature", "geometry": {"type": "Polygon", "coordinates": [[[137.25, -87.0], [137.25, -85.5], [138.75, -85.5], [138.75, -87.0], [137.25, -87.0]]]}, "properties": {"cell_id": "92_2", "lon": 138.0, "lat": -86.25}}, {"type": "Feature", "geometry": {"type": "Polygon", "coordinates": [[[137.25, -85.5], [137.25, -84.0], [138.75, -84.0], [138.75, -85.5], [137.25, -85.5]]]}, "properties": {"cell_id": "92_3", "lon": 138.0, "lat": -84.75}}, {"type": "Feature", "geometry": {"type": "Polygon", "coordinates": [[[137.25, -84.0], [137.25, -82.5], [138.75, -82.5], [138.75, -84.0], [137.25, -84.0]]]}, "properties": {"cell_id": "92_4", "lon": 138.0, "lat": -83.25}}, {"type": "Feature", "geometry": {"type": "Polygon", "coordinates": [[[137.25, -82.5], [137.25, -81.0], [138.75, -81.0], [138.75, -82.5], [137.25, -82.5]]]}, "properties": {"cell_id": "92_5", "lon": 138.0, "lat": -81.75}}, {"type": "Feature", "geometry": {"type": "Polygon", "coordinates": [[[137.25, -81.0], [137.25, -79.5], [138.75, -79.5], [138.75, -81.0], [137.25, -81.0]]]}, "properties": {"cell_id": "92_6", "lon": 138.0, "lat": -80.25}}, {"type": "Feature", "geometry": {"type": "Polygon", "coordinates": [[[138.75, -90.0], [138.75, -88.5], [140.25, -88.5], [140.25, -90.0], [138.75, -90.0]]]}, "properties": {"cell_id": "93_0", "lon": 139.5, "lat": -89.25}}, {"type": "Feature", "geometry": {"type": "Polygon", "coordinates": [[[138.75, -88.5], [138.75, -87.0], [140.25, -87.0], [140.25, -88.5], [138.75, -88.5]]]}, "properties": {"cell_id": "93_1", "lon": 139.5, "lat": -87.75}}, {"type": "Feature", "geometry": {"type": "Polygon", "coordinates": [[[138.75, -87.0], [138.75, -85.5], [140.25, -85.5], [140.25, -87.0], [138.75, -87.0]]]}, "properties": {"cell_id": "93_2", "lon": 139.5, "lat": -86.25}}, {"type": "Feature", "geometry": {"type": "Polygon", "coordinates": [[[138.75, -85.5], [138.75, -84.0], [140.25, -84.0], [140.25, -85.5], [138.75, -85.5]]]}, "properties": {"cell_id": "93_3", "lon": 139.5, "lat": -84.75}}, {"type": "Feature", "geometry": {"type": "Polygon", "coordinates": [[[138.75, -84.0], [138.75, -82.5], [140.25, -82.5], [140.25, -84.0], [138.75, -84.0]]]}, "properties": {"cell_id": "93_4", "lon": 139.5, "lat": -83.25}}, {"type": "Feature", "geometry": {"type": "Polygon", "coordinates": [[[138.75, -82.5], [138.75, -81.0], [140.25, -81.0], [140.25, -82.5], [138.75, -82.5]]]}, "properties": {"cell_id": "93_5", "lon": 139.5, "lat": -81.75}}, {"type": "Feature", "geometry": {"type": "Polygon", "coordinates": [[[138.75, -81.0], [138.75, -79.5], [140.25, -79.5], [140.25, -81.0], [138.75, -81.0]]]}, "properties": {"cell_id": "93_6", "lon": 139.5, "lat": -80.25}}]}