{"type": "FeatureCollection", "features": [{"type": "Feature", "geometry": {"type": "Polygon", "coordinates": [[[50.0, 40.0], [50.0, 42.5], [52.5, 42.5], [52.5, 40.0], [50.0, 40.0]]]}, "properties": {"cell_id": "20_52", "lon": 51.25, "lat": 41.25}}, {"type": "Feature", "geometry": {"type": "Polygon", "coordinates": [[[50.0, 42.5], [50.0, 45.0], [52.5, 45.0], [52.5, 42.5], [50.0, 42.5]]]}, "properties": {"cell_id": "20_53", "lon": 51.25, "lat": 43.75}}, {"type": "Feature", "geometry": {"type": "Polygon", "coordinates": [[[50.0, 45.0], [50.0, 47.5], [52.5, 47.5], [52.5, 45.0], [50.0, 45.0]]]}, "properties": {"cell_id": "20_54", "lon": 51.25, "lat": 46.25}}, {"type": "Feature", "geometry": {"type": "Polygon", "coordinates": [[[50.0, 47.5], [50.0, 50.0], [52.5, 50.0], [52.5, 47.5], [50.0, 47.5]]]}, "properties": {"cell_id": "20_55", "lon": 51.25, "lat": 48.75}}, {"type": "Feature", "geometry": {"type": "Polygon", "coordinates": [[[52.5, 40.0], [52.5, 42.5], [55.0, 42.5], [55.0, 40.0], [52.5, 40.0]]]}, "properties": {"cell_id": "21_52", "lon": 53.75, "lat": 41.25}}, {"type": "Feature", "geometry": {"type": "Polygon", "coordinates": [[[52.5, 42.5], [52.5, 45.0], [55.0, 45.0], [55.0, 42.5], [52.5, 42.5]]]}, "properties": {"cell_id": "21_53", "lon": 53.75, "lat": 43.75}}, {"type": "Feature", "geometry": {"type": "Polygon", "coordinates": [[[52.5, 45.0], [52.5, 47.5], [55.0, 47.5], [55.0, 45.0], [52.5, 45.0]]]}, "properties": {"cell_id": "21_54", "lon": 53.75, "lat": 46.25}}, {"type": "Feature", "geometry": {"type": "Polygon", "coordinates": [[[52.5, 47.5], [52.5, 50.0], [55.0, 50.0], [55.0, 47.5], [52.5, 47.5]]]}, "properties": {"cell_id": "21_55", "lon": 53.75, "lat": 48.75}}, {"type": "Feature", "geometry": {"type": "Polygon", "coordinates": [[[55.0, 40.0], [55.0, 42.5], [57.5, 42.5], [57.5, 40.0], [55.0, 40.0]]]}, "properties": {"cell_id": "22_52", "lon": 56.25, "lat": 41.25}}, {"type": "Feature", "geometry": {"type": "Polygon", "coordinates": [[[55.0, 42.5], [55.0, 45.0], [57.5, 45.0], [57.5, 42.5], [55.0, 42.5]]]}, "properties": {"cell_id": "22_53", "lon": 56.25, "lat": 43.75}}, {"type": "Feature", "geometry": {"type": "Polygon", "coordinates": [[[55.0, 45.0], [55.0, 47.5], [57.5, 47.5], [57.5, 45.0], [55.0, 45.0]]]}, "properties": {"cell_id": "22_54", "lon": 56.25, "lat": 46.25}}, {"type": "Feature", "geometry": {"type": "Polygon", "coordinates": [[[55.0, 47.5], [55.0, 50.0], [57.5, 50.0], [57.5, 47.5], [55.0, 47.5]]]}, "properties": {"cell_id": "22_55", "lon": 56.25, "lat": 48.75}}, {"type": "Feature", "geometry": {"type": "Polygon", "coordinates": [[[57.5, 40.0], [57.5, 42.5], [60.0, 42.5], [60.0, 40.0], [57.5, 40.0]]]}, "properties": {"cell_id": "23_52", "lon": 58.75, "lat": 41.25}}, {"type": "Feature", "geometry": {"type": "Polygon", "coordinates": [[[57.5, 42.5], [57.5, 45.0], [60.0, 45.0], [60.0, 42.5], [57.5, 42.5]]]}, "properties": {"cell_id": "23_53", "lon": 58.75, "lat": 43.75}}, {"type": "Feature", "geometry": {"type": "Polygon", "coordinates": [[[57.5, 45.0], [57.5, 47.5], [60.0, 47.5], [60.0, 45.0], [57.5, 45.0]]]}, "properties": {"cell_id": "23_54", "lon": 58.75, "lat": 46.25}}, {"type": "Feature", "geometry": {"type": "Polygon", "coordinates": [[[57.5, 47.5], [57.5, 50.0], [60.0, 50.0], [60.0, 47.5], [57.5, 47.5]]]}, "properties": {"cell_id": "23_55", "lon": 58.75, "lat": 48.75}}]}