{"type": "FeatureCollection", "features": [{"type": "Feature", "geometry": {"type": "Polygon", "coordinates": [[[60.75, 51.0], [60.75, 52.5], [62.25, 52.5], [62.25, 51.0], [60.75, 51.0]]]}, "properties": {"cell_id": "41_94", "lon": 61.5, "lat": 51.75}}, {"type": "Feature", "geometry": {"type": "Polygon", "coordinates": [[[60.75, 52.5], [60.75, 54.0], [62.25, 54.0], [62.25, 52.5], [60.75, 52.5]]]}, "properties": {"cell_id": "41_95", "lon": 61.5, "lat": 53.25}}, {"type": "Feature", "geometry": {"type": "Polygon", "coordinates": [[[60.75, 54.0], [60.75, 55.5], [62.25, 55.5], [62.25, 54.0], [60.75, 54.0]]]}, "properties": {"cell_id": "41_96", "lon": 61.5, "lat": 54.75}}, {"type": "Feature", "geometry": {"type": "Polygon", "coordinates": [[[60.75, 55.5], [60.75, 57.0], [62.25, 57.0], [62.25, 55.5], [60.75, 55.5]]]}, "properties": {"cell_id": "41_97", "lon": 61.5, "lat": 56.25}}, {"type": "Feature", "geometry": {"type": "Polygon", "coordinates": [[[60.75, 57.0], [60.75, 58.5], [62.25, 58.5], [62.25, 57.0], [60.75, 57.0]]]}, "properties": {"cell_id": "41_98", "lon": 61.5, "lat": 57.75}}, {"type": "Feature", "geometry": {"type": "Polygon", "coordinates": [[[60.75, 58.5], [60.75, 60.0], [62.25, 60.0], [62.25, 58.5], [60.75, 58.5]]]}, "properties": {"cell_id": "41_99", "lon": 61.5, "lat": 59.25}}, {"type": "Feature", "geometry": {"type": "Polygon", "coordinates": [[[62.25, 51.0], [62.25, 52.5], [63.75, 52.5], [63.75, 51.0], [62.25, 51.0]]]}, "properties": {"cell_id": "42_94", "lon": 63.0, "lat": 51.75}}, {"type": "Feature", "geometry": {"type": "Polygon", "coordinates": [[[62.25, 52.5], [62.25, 54.0], [63.75, 54.0], [63.75, 52.5], [62.25, 52.5]]]}, "properties": {"cell_id": "42_95", "lon": 63.0, "lat": 53.25}}, {"type": "Feature", "geometry": {"type": "Polygon", "coordinates": [[[62.25, 54.0], [62.25, 55.5], [63.75, 55.5], [63.75, 54.0], [62.25, 54.0]]]}, "properties": {"cell_id": "42_96", "lon": 63.0, "lat": 54.75}}, {"type": "Feature", "geometry": {"type": "Polygon", "coordinates": [[[62.25, 55.5], [62.25, 57.0], [63.75, 57.0], [63.75, 55.5], [62.25, 55.5]]]}, "properties": {"cell_id": "42_97", "lon": 63.0, "lat": 56.25}}, {"type": "Feature", "geometry": {"type": "Polygon", "coordinates": [[[62.25, 57.0], [62.25, 58.5], [63.75, 58.5], [63.75, 57.0], [62.25, 57.0]]]}, "properties": {"cell_id": "42_98", "lon": 63.0, "lat": 57.75}}, {"type": "Feature", "geometry": {"type": "Polygon", "coordinates": [[[62.25, 58.5], [62.25, 60.0], [63.75, 60.0], [63.75, 58.5], [62.25, 58.5]]]}, "properties": {"cell_id": "42_99", "lon": 63.0, "lat": 59.25}}, {"type": "Feature", "geometry": {"type": "Polygon", "coordinates": [[[63.75, 51.0], [63.75, 52.5], [65.25, 52.5], [65.25, 51.0], [63.75, 51.0]]]}, "properties": {"cell_id": "43_94", "lon": 64.5, "lat": 51.75}}, {"type": "Feature", "geometry": {"type": "Polygon", "coordinates": [[[63.75, 52.5], [63.75, 54.0], [65.25, 54.0], [65.25, 52.5], [63.75, 52.5]]]}, "properties": {"cell_id": "43_95", "lon": 64.5, "lat": 53.25}}, {"type": "Feature", "geometry": {"type": "Polygon", "coordinates": [[[63.75, 54.0], [63.75, 55.5], [65.25, 55.5], [65.25, 54.0], [63.75, 54.0]]]}, "properties": {"cell_id": "43_96", "lon": 64.5, "lat": 54.75}}, {"type": "Feature", "geometry": {"type": "Polygon", "coordinates": [[[63.75, 55.5], [63.75, 57.0], [65.25, 57.0], [65.25, 55.5], [63.75, 55.5]]]}, "properties": {"cell_id": "43_97", "lon": 64.5, "lat": 56.25}}, {"type": "Feature", "geometry": {"type": "Polygon", "coordinates": [[[63.75, 57.0], [63.75, 58.5], [65.25, 58.5], [65.25, 57.0], [63.75, 57.0]]]}, "properties": {"cell_id": "43_98", "lon": 64.5, "lat": 57.75}}, {"type": "Feature", "geometry": {"type": "Polygon", "coordinates": [[[63.75, 58.5], [63.75, 60.0], [65.25, 60.0], [65.25, 58.5], [63.75, 58.5]]]}, "properties": {"cell_id": "43_99", "lon": 64.5, "lat": 59.25}}, {"type": "Feature", "geometry": {"type": "Polygon", "coordinates": [[[65.25, 51.0], [65.25, 52.5], [66.75, 52.5], [66.75, 51.0], [65.25, 51.0]]]}, "properties": {"cell_id": "44_94", "lon": 66.0, "lat": 51.75}}, {"type": "Feature", "geometry": {"type": "Polygon", "coordinates": [[[65.25, 52.5], [65.25, 54.0], [66.75, 54.0], [66.75, 52.5], [65.25, 52.5]]]}, "properties": {"cell_id": "44_95", "lon": 66.0, "lat": 53.25}}, {"type": "Feature", "geometry": {"type": "Polygon", "coordinates": [[[65.25, 54.0], [65.25, 55.5], [66.75, 55.5], [66.75, 54.0], [65.25, 54.0]]]}, "properties": {"cell_id": "44_96", "lon": 66.0, "lat": 54.75}}, {"type": "Feature", "geometry": {"type": "Polygon", "coordinates": [[[65.25, 55.5], [65.25, 57.0], [66.75, 57.0], [66.75, 55.5], [65.25, 55.5]]]}, "properties": {"cell_id": "44_97", "lon": 66.0, "lat": 56.25}}, {"type": "Feature", "geometry": {"type": "Polygon", "coordinates": [[[65.25, 57.0], [65.25, 58.5], [66.75, 58.5], [66.75, 57.0], [65.25, 57.0]]]}, "properties": {"cell_id": "44_98", "lon": 66.0, "lat": 57.75}}, {"type": "Feature", "geometry": {"type": "Polygon", "coordinates": [[[65.25, 58.5], [65.25, 60.0], [66.75, 60.0], [66.75, 58.5], [65.25, 58.5]]]}, "properties": {"cell_id": "44_99", "lon": 66.0, "lat": 59.25}}, {"type": "Feature", "geometry": {"type": "Polygon", "coordinates": [[[66.75, 51.0], [66.75, 52.5], [68.25, 52.5], [68.25, 51.0], [66.75, 51.0]]]}, "properties": {"cell_id": "45_94", "lon": 67.5, "lat": 51.75}}, {"type": "Feature", "geometry": {"type": "Polygon", "coordinates": [[[66.75, 52.5], [66.75, 54.0], [68.25, 54.0], [68.25, 52.5], [66.75, 52.5]]]}, "properties": {"cell_id": "45_95", "lon": 67.5, "lat": 53.25}}, {"type": "Feature", "geometry": {"type": "Polygon", "coordinates": [[[66.75, 54.0], [66.75, 55.5], [68.25, 55.5], [68.25, 54.0], [66.75, 54.0]]]}, "properties": {"cell_id": "45_96", "lon": 67.5, "lat": 54.75}}, {"type": "Feature", "geometry": {"type": "Polygon", "coordinates": [[[66.75, 55.5], [66.75, 57.0], [68.25, 57.0], [68.25, 55.5], [66.75, 55.5]]]}, "properties": {"cell_id": "45_97", "lon": 67.5, "lat": 56.25}}, {"type": "Feature", "geometry": {"type": "Polygon", "coordinates": [[[66.75, 57.0], [66.75, 58.5], [68.25, 58.5], [68.25, 57.0], [66.75, 57.0]]]}, "properties": {"cell_id": "45_98", "lon": 67.5, "lat": 57.75}}, {"type": "Feature", "geometry": {"type": "Polygon", "coordinates": [[[66.75, 58.5], [66.75, 60.0], [68.25, 60.0], [68.25, 58.5], [66.75, 58.5]]]}, "properties": {"cell_id": "45_99", "lon": 67.5, "lat": 59.25}}, {"type": "Feature", "geometry": {"type": "Polygon", "coordinates": [[[68.25, 51.0], [68.25, 52.5], [69.75, 52.5], [69.75, 51.0], [68.25, 51.0]]]}, "properties": {"cell_id": "46_94", "lon": 69.0, "lat": 51.75}}, {"type": "Feature", "geometry": {"type": "Polygon", "coordinates": [[[68.25, 52.5], [68.25, 54.0], [69.75, 54.0], [69.75, 52.5], [68.25, 52.5]]]}, "properties": {"cell_id": "46_95", "lon": 69.0, "lat": 53.25}}, {"type": "Feature", "geometry": {"type": "Polygon", "coordinates": [[[68.25, 54.0], [68.25, 55.5], [69.75, 55.5], [69.75, 54.0], [68.25, 54.0]]]}, "properties": {"cell_id": "46_96", "lon": 69.0, "lat": 54.75}}, {"type": "Feature", "geometry": {"type": "Polygon", "coordinates": [[[68.25, 55.5], [68.25, 57.0], [69.75, 57.0], [69.75, 55.5], [68.25, 55.5]]]}, "properties": {"cell_id": "46_97", "lon": 69.0, "lat": 56.25}}, {"type": "Feature", "geometry": {"type": "Polygon", "coordinates": [[[68.25, 57.0], [68.25, 58.5], [69.75, 58.5], [69.75, 57.0], [68.25, 57.0]]]}, "properties": {"cell_id": "46_98", "lon": 69.0, "lat": 57.75}}, {"type": "Feature", "geometry": {"type": "Polygon", "coordinates": [[[68.25, 58.5], [68.25, 60.0], [69.75, 60.0], [69.75, 58.5], [68.25, 58.5]]]}, "properties": {"cell_id": "46_99", "lon": 69.0, "lat": 59.25}}, {"type": "Feature", "geometry": {"type": "Polygon", "coordinates": [[[69.75, 51.0], [69.75, 52.5], [71.25, 52.5], [71.25, 51.0], [69.75, 51.0]]]}, "properties": {"cell_id": "47_94", "lon": 70.5, "lat": 51.75}}, {"type": "Feature", "geometry": {"type": "Polygon", "coordinates": [[[69.75, 52.5], [69.75, 54.0], [71.25, 54.0], [71.25, 52.5], [69.75, 52.5]]]}, "properties": {"cell_id": "47_95", "lon": 70.5, "lat": 53.25}}, {"type": "Feature", "geometry": {"type": "Polygon", "coordinates": [[[69.75, 54.0], [69.75, 55.5], [71.25, 55.5], [71.25, 54.0], [69.75, 54.0]]]}, "properties": {"cell_id": "47_96", "lon": 70.5, "lat": 54.75}}, {"type": "Feature", "geometry": {"type": "Polygon", "coordinates": [[[69.75, 55.5], [69.75, 57.0], [71.25, 57.0], [71.25, 55.5], [69.75, 55.5]]]}, "properties": {"cell_id": "47_97", "lon": 70.5, "lat": 56.25}}, {"type": "Feature", "geometry": {"type": "Polygon", "coordinates": [[[69.75, 57.0], [69.75, 58.5], [71.25, 58.5], [71.25, 57.0], [69.75, 57.0]]]}, "properties": {"cell_id": "47_98", "lon": 70.5, "lat": 57.75}}, {"type": "Feature", "geometry": {"type": "Polygon", "coordinates": [[[69.75, 58.5], [69.75, 60.0], [71.25, 60.0], [71.25, 58.5], [69.75, 58.5]]]}, "properties": {"cell_id": "47_99", "lon": 70.5, "lat": 59.25}}]}