{"type": "FeatureCollection", "features": [{"type": "Feature", "geometry": {"type": "Polygon", "coordinates": [[[0.0, 40.0], [0.0, 42.5], [2.5, 42.5], [2.5, 40.0], [0.0, 40.0]]]}, "properties": {"cell_id": "0_52", "lon": 1.25, "lat": 41.25}}, {"type": "Feature", "geometry": {"type": "Polygon", "coordinates": [[[0.0, 42.5], [0.0, 45.0], [2.5, 45.0], [2.5, 42.5], [0.0, 42.5]]]}, "properties": {"cell_id": "0_53", "lon": 1.25, "lat": 43.75}}, {"type": "Feature", "geometry": {"type": "Polygon", "coordinates": [[[0.0, 45.0], [0.0, 47.5], [2.5, 47.5], [2.5, 45.0], [0.0, 45.0]]]}, "properties": {"cell_id": "0_54", "lon": 1.25, "lat": 46.25}}, {"type": "Feature", "geometry": {"type": "Polygon", "coordinates": [[[0.0, 47.5], [0.0, 50.0], [2.5, 50.0], [2.5, 47.5], [0.0, 47.5]]]}, "properties": {"cell_id": "0_55", "lon": 1.25, "lat": 48.75}}, {"type": "Feature", "geometry": {"type": "Polygon", "coordinates": [[[2.5, 42.5], [2.5, 45.0], [5.0, 45.0], [5.0, 42.5], [2.5, 42.5]]]}, "properties": {"cell_id": "1_53", "lon": 3.75, "lat": 43.75}}, {"type": "Feature", "geometry": {"type": "Polygon", "coordinates": [[[2.5, 45.0], [2.5, 47.5], [5.0, 47.5], [5.0, 45.0], [2.5, 45.0]]]}, "properties": {"cell_id": "1_54", "lon": 3.75, "lat": 46.25}}, {"type": "Feature", "geometry": {"type": "Polygon", "coordinates": [[[2.5, 47.5], [2.5, 50.0], [5.0, 50.0], [5.0, 47.5], [2.5, 47.5]]]}, "properties": {"cell_id": "1_55", "lon": 3.75, "lat": 48.75}}, {"type": "Feature", "geometry": {"type": "Polygon", "coordinates": [[[5.0, 42.5], [5.0, 45.0], [7.5, 45.0], [7.5, 42.5], [5.0, 42.5]]]}, "properties": {"cell_id": "2_53", "lon": 6.25, "lat": 43.75}}, {"type": "Feature", "geometry": {"type": "Polygon", "coordinates": [[[5.0, 45.0], [5.0, 47.5], [7.5, 47.5], [7.5, 45.0], [5.0, 45.0]]]}, "properties": {"cell_id": "2_54", "lon": 6.25, "lat": 46.25}}, {"type": "Feature", "geometry": {"type": "Polygon", "coordinates": [[[5.0, 47.5], [5.0, 50.0], [7.5, 50.0], [7.5, 47.5], [5.0, 47.5]]]}, "properties": {"cell_id": "2_55", "lon": 6.25, "lat": 48.75}}, {"type": "Feature", "geometry": {"type": "Polygon", "coordinates": [[[7.5, 45.0], [7.5, 47.5], [10.0, 47.5], [10.0, 45.0], [7.5, 45.0]]]}, "properties": {"cell_id": "3_54", "lon": 8.75, "lat": 46.25}}, {"type": "Feature", "geometry": {"type": "Polygon", "coordinates": [[[7.5, 47.5], [7.5, 50.0], [10.0, 50.0], [10.0, 47.5], [7.5, 47.5]]]}, "properties": {"cell_id": "3_55", "lon": 8.75, "lat": 48.75}}]}