{"type": "FeatureCollection", "features": [{"type": "Feature", "geometry": {"type": "Polygon", "coordinates": [[[20.0, 20.0], [20.0, 22.5], [22.5, 22.5], [22.5, 20.0], [20.0, 20.0]]]}, "properties": {"cell_id": "8_44", "lon": 21.25, "lat": 21.25}}, {"type": "Feature", "geometry": {"type": "Polygon", "coordinates": [[[20.0, 22.5], [20.0, 25.0], [22.5, 25.0], [22.5, 22.5], [20.0, 22.5]]]}, "properties": {"cell_id": "8_45", "lon": 21.25, "lat": 23.75}}, {"type": "Feature", "geometry": {"type": "Polygon", "coordinates": [[[20.0, 25.0], [20.0, 27.5], [22.5, 27.5], [22.5, 25.0], [20.0, 25.0]]]}, "properties": {"cell_id": "8_46", "lon": 21.25, "lat": 26.25}}, {"type": "Feature", "geometry": {"type": "Polygon", "coordinates": [[[20.0, 27.5], [20.0, 30.0], [22.5, 30.0], [22.5, 27.5], [20.0, 27.5]]]}, "properties": {"cell_id": "8_47", "lon": 21.25, "lat": 28.75}}, {"type": "Feature", "geometry": {"type": "Polygon", "coordinates": [[[22.5, 20.0], [22.5, 22.5], [25.0, 22.5], [25.0, 20.0], [22.5, 20.0]]]}, "properties": {"cell_id": "9_44", "lon": 23.75, "lat": 21.25}}, {"type": "Feature", "geometry": {"type": "Polygon", "coordinates": [[[22.5, 22.5], [22.5, 25.0], [25.0, 25.0], [25.0, 22.5], [22.5, 22.5]]]}, "properties": {"cell_id": "9_45", "lon": 23.75, "lat": 23.75}}, {"type": "Feature", "geometry": {"type": "Polygon", "coordinates": [[[22.5, 25.0], [22.5, 27.5], [25.0, 27.5], [25.0, 25.0], [22.5, 25.0]]]}, "properties": {"cell_id": "9_46", "lon": 23.75, "lat": 26.25}}, {"type": "Feature", "geometry": {"type": "Polygon", "coordinates": [[[22.5, 27.5], [22.5, 30.0], [25.0, 30.0], [25.0, 27.5], [22.5, 27.5]]]}, "properties": {"cell_id": "9_47", "lon": 23.75, "lat": 28.75}}, {"type": "Feature", "geometry": {"type": "Polygon", "coordinates": [[[25.0, 20.0], [25.0, 22.5], [27.5, 22.5], [27.5, 20.0], [25.0, 20.0]]]}, "properties": {"cell_id": "10_44", "lon": 26.25, "lat": 21.25}}, {"type": "Feature", "geometry": {"type": "Polygon", "coordinates": [[[25.0, 22.5], [25.0, 25.0], [27.5, 25.0], [27.5, 22.5], [25.0, 22.5]]]}, "properties": {"cell_id": "10_45", "lon": 26.25, "lat": 23.75}}, {"type": "Feature", "geometry": {"type": "Polygon", "coordinates": [[[25.0, 25.0], [25.0, 27.5], [27.5, 27.5], [27.5, 25.0], [25.0, 25.0]]]}, "properties": {"cell_id": "10_46", "lon": 26.25, "lat": 26.25}}, {"type": "Feature", "geometry": {"type": "Polygon", "coordinates": [[[25.0, 27.5], [25.0, 30.0], [27.5, 30.0], [27.5, 27.5], [25.0, 27.5]]]}, "properties": {"cell_id": "10_47", "lon": 26.25, "lat": 28.75}}, {"type": "Feature", "geometry": {"type": "Polygon", "coordinates": [[[27.5, 20.0], [27.5, 22.5], [30.0, 22.5], [30.0, 20.0], [27.5, 20.0]]]}, "properties": {"cell_id": "11_44", "lon": 28.75, "lat": 21.25}}, {"type": "Feature", "geometry": {"type": "Polygon", "coordinates": [[[27.5, 22.5], [27.5, 25.0], [30.0, 25.0], [30.0, 22.5], [27.5, 22.5]]]}, "properties": {"cell_id": "11_45", "lon": 28.75, "lat": 23.75}}, {"type": "Feature", "geometry": {"type": "Polygon", "coordinates": [[[27.5, 25.0], [27.5, 27.5], [30.0, 27.5], [30.0, 25.0], [27.5, 25.0]]]}, "properties": {"cell_id": "11_46", "lon": 28.75, "lat": 26.25}}, {"type": "Feature", "geometry": {"type": "Polygon", "coordinates": [[[27.5, 27.5], [27.5, 30.0], [30.0, 30.0], [30.0, 27.5], [27.5, 27.5]]]}, "properties": {"cell_id": "11_47", "lon": 28.75, "lat": 28.75}}]}