{"type": "FeatureCollection", "features": [{"type": "Feature", "geometry": {"type": "Polygon", "coordinates": [[[80.0, 30.0], [80.0, 32.5], [82.5, 32.5], [82.5, 30.0], [80.0, 30.0]]]}, "properties": {"cell_id": "32_48", "lon": 81.25, "lat": 31.25}}, {"type": "Feature", "geometry": {"type": "Polygon", "coordinates": [[[80.0, 32.5], [80.0, 35.0], [82.5, 35.0], [82.5, 32.5], [80.0, 32.5]]]}, "properties": {"cell_id": "32_49", "lon": 81.25, "lat": 33.75}}, {"type": "Feature", "geometry": {"type": "Polygon", "coordinates": [[[80.0, 35.0], [80.0, 37.5], [82.5, 37.5], [82.5, 35.0], [80.0, 35.0]]]}, "properties": {"cell_id": "32_50", "lon": 81.25, "lat": 36.25}}, {"type": "Feature", "geometry": {"type": "Polygon", "coordinates": [[[80.0, 37.5], [80.0, 40.0], [82.5, 40.0], [82.5, 37.5], [80.0, 37.5]]]}, "properties": {"cell_id": "32_51", "lon": 81.25, "lat": 38.75}}, {"type": "Feature", "geometry": {"type": "Polygon", "coordinates": [[[82.5, 30.0], [82.5, 32.5], [85.0, 32.5], [85.0, 30.0], [82.5, 30.0]]]}, "properties": {"cell_id": "33_48", "lon": 83.75, "lat": 31.25}}, {"type": "Feature", "geometry": {"type": "Polygon", "coordinates": [[[82.5, 32.5], [82.5, 35.0], [85.0, 35.0], [85.0, 32.5], [82.5, 32.5]]]}, "properties": {"cell_id": "33_49", "lon": 83.75, "lat": 33.75}}, {"type": "Feature", "geometry": {"type": "Polygon", "coordinates": [[[82.5, 35.0], [82.5, 37.5], [85.0, 37.5], [85.0, 35.0], [82.5, 35.0]]]}, "properties": {"cell_id": "33_50", "lon": 83.75, "lat": 36.25}}, {"type": "Feature", "geometry": {"type": "Polygon", "coordinates": [[[82.5, 37.5], [82.5, 40.0], [85.0, 40.0], [85.0, 37.5], [82.5, 37.5]]]}, "properties": {"cell_id": "33_51", "lon": 83.75, "lat": 38.75}}, {"type": "Feature", "geometry": {"type": "Polygon", "coordinates": [[[85.0, 30.0], [85.0, 32.5], [87.5, 32.5], [87.5, 30.0], [85.0, 30.0]]]}, "properties": {"cell_id": "34_48", "lon": 86.25, "lat": 31.25}}, {"type": "Feature", "geometry": {"type": "Polygon", "coordinates": [[[85.0, 32.5], [85.0, 35.0], [87.5, 35.0], [87.5, 32.5], [85.0, 32.5]]]}, "properties": {"cell_id": "34_49", "lon": 86.25, "lat": 33.75}}, {"type": "Feature", "geometry": {"type": "Polygon", "coordinates": [[[85.0, 35.0], [85.0, 37.5], [87.5, 37.5], [87.5, 35.0], [85.0, 35.0]]]}, "properties": {"cell_id": "34_50", "lon": 86.25, "lat": 36.25}}, {"type": "Feature", "geometry": {"type": "Polygon", "coordinates": [[[85.0, 37.5], [85.0, 40.0], [87.5, 40.0], [87.5, 37.5], [85.0, 37.5]]]}, "properties": {"cell_id": "34_51", "lon": 86.25, "lat": 38.75}}, {"type": "Feature", "geometry": {"type": "Polygon", "coordinates": [[[87.5, 30.0], [87.5, 32.5], [90.0, 32.5], [90.0, 30.0], [87.5, 30.0]]]}, "properties": {"cell_id": "35_48", "lon": 88.75, "lat": 31.25}}, {"type": "Feature", "geometry": {"type": "Polygon", "coordinates": [[[87.5, 32.5], [87.5, 35.0], [90.0, 35.0], [90.0, 32.5], [87.5, 32.5]]]}, "properties": {"cell_id": "35_49", "lon": 88.75, "lat": 33.75}}, {"type": "Feature", "geometry": {"type": "Polygon", "coordinates": [[[87.5, 35.0], [87.5, 37.5], [90.0, 37.5], [90.0, 35.0], [87.5, 35.0]]]}, "properties": {"cell_id": "35_50", "lon": 88.75, "lat": 36.25}}, {"type": "Feature", "geometry": {"type": "Polygon", "coordinates": [[[87.5, 37.5], [87.5, 40.0], [90.0, 40.0], [90.0, 37.5], [87.5, 37.5]]]}, "properties": {"cell_id": "35_51", "lon": 88.75, "lat": 38.75}}]}