{"type": "FeatureCollection", "features": [{"type": "Feature", "geometry": {"type": "Polygon", "coordinates": [[[-39.75, -79.5], [-39.75, -78.0], [-38.25, -78.0], [-38.25, -79.5], [-39.75, -79.5]]]}, "properties": {"cell_id": "214_7", "lon": -39.0, "lat": -78.75}}, {"type": "Feature", "geometry": {"type": "Polygon", "coordinates": [[[-38.25, -79.5], [-38.25, -78.0], [-36.75, -78.0], [-36.75, -79.5], [-38.25, -79.5]]]}, "properties": {"cell_id": "215_7", "lon": -37.5, "lat": -78.75}}, {"type": "Feature", "geometry": {"type": "Polygon", "coordinates": [[[-36.75, -79.5], [-36.75, -78.0], [-35.25, -78.0], [-35.25, -79.5], [-36.75, -79.5]]]}, "properties": {"cell_id": "216_7", "lon": -36.0, "lat": -78.75}}, {"type": "Feature", "geometry": {"type": "Polygon", "coordinates": [[[-35.25, -79.5], [-35.25, -78.0], [-33.75, -78.0], [-33.75, -79.5], [-35.25, -79.5]]]}, "properties": {"cell_id": "217_7", "lon": -34.5, "lat": -78.75}}, {"type": "Feature", "geometry": {"type": "Polygon", "coordinates": [[[-33.75, -79.5], [-33.75, -78.0], [-32.25, -78.0], [-32.25, -79.5], [-33.75, -79.5]]]}, "properties": {"cell_id": "218_7", "lon": -33.0, "lat": -78.75}}, {"type": "Feature", "geometry": {"type": "Polygon", "coordinates": [[[-33.75, -78.0], [-33.75, -76.5], [-32.25, -76.5], [-32.25, -78.0], [-33.75, -78.0]]]}, "properties": {"cell_id": "218_8", "lon": -33.0, "lat": -77.25}}, {"type": "Feature", "geometry": {"type": "Polygon", "coordinates": [[[-32.25, -79.5], [-32.25, -78.0], [-30.75, -78.0], [-30.75, -79.5], [-32.25, -79.5]]]}, "properties": {"cell_id": "219_7", "lon": -31.5, "lat": -78.75}}, {"type": "Feature", "geometry": {"type": "Polygon", "coordinates": [[[-32.25, -78.0], [-32.25, -76.5], [-30.75, -76.5], [-30.75, -78.0], [-32.25, -78.0]]]}, "properties": {"cell_id": "219_8", "lon": -31.5, "lat": -77.25}}, {"type": "Feature", "geometry": {"type": "Polygon", "coordinates": [[[-30.75, -79.5], [-30.75, -78.0], [-29.25, -78.0], [-29.25, -79.5], [-30.75, -79.5]]]}, "properties": {"cell_id": "220_7", "lon": -30.0, "lat": -78.75}}, {"type": "Feature", "geometry": {"type": "Polygon", "coordinates": [[[-30.75, -78.0], [-30.75, -76.5], [-29.25, -76.5], [-29.25, -78.0], [-30.75, -78.0]]]}, "properties": {"cell_id": "220_8", "lon": -30.0, "lat": -77.25}}]}