{"type": "FeatureCollection", "features": [{"type": "Feature", "geometry": {"type": "Polygon", "coordinates": [[[-90.0, 12.5], [-90.0, 15.0], [-87.5, 15.0], [-87.5, 12.5], [-90.0, 12.5]]]}, "properties": {"cell_id": "108_41", "lon": -88.75, "lat": 13.75}}, {"type": "Feature", "geometry": {"type": "Polygon", "coordinates": [[[-90.0, 15.0], [-90.0, 17.5], [-87.5, 17.5], [-87.5, 15.0], [-90.0, 15.0]]]}, "properties": {"cell_id": "108_42", "lon": -88.75, "lat": 16.25}}, {"type": "Feature", "geometry": {"type": "Polygon", "coordinates": [[[-90.0, 17.5], [-90.0, 20.0], [-87.5, 20.0], [-87.5, 17.5], [-90.0, 17.5]]]}, "properties": {"cell_id": "108_43", "lon": -88.75, "lat": 18.75}}, {"type": "Feature", "geometry": {"type": "Polygon", "coordinates": [[[-87.5, 12.5], [-87.5, 15.0], [-85.0, 15.0], [-85.0, 12.5], [-87.5, 12.5]]]}, "properties": {"cell_id": "109_41", "lon": -86.25, "lat": 13.75}}, {"type": "Feature", "geometry": {"type": "Polygon", "coordinates": [[[-85.0, 12.5], [-85.0, 15.0], [-82.5, 15.0], [-82.5, 12.5], [-85.0, 12.5]]]}, "properties": {"cell_id": "110_41", "lon": -83.75, "lat": 13.75}}]}