{"type": "FeatureCollection", "features": [{"type": "Feature", "geometry": {"type": "Polygon", "coordinates": [[[10.0, 10.0], [10.0, 12.5], [12.5, 12.5], [12.5, 10.0], [10.0, 10.0]]]}, "properties": {"cell_id": "4_40", "lon": 11.25, "lat": 11.25}}, {"type": "Feature", "geometry": {"type": "Polygon", "coordinates": [[[10.0, 12.5], [10.0, 15.0], [12.5, 15.0], [12.5, 12.5], [10.0, 12.5]]]}, "properties": {"cell_id": "4_41", "lon": 11.25, "lat": 13.75}}, {"type": "Feature", "geometry": {"type": "Polygon", "coordinates": [[[10.0, 15.0], [10.0, 17.5], [12.5, 17.5], [12.5, 15.0], [10.0, 15.0]]]}, "properties": {"cell_id": "4_42", "lon": 11.25, "lat": 16.25}}, {"type": "Feature", "geometry": {"type": "Polygon", "coordinates": [[[10.0, 17.5], [10.0, 20.0], [12.5, 20.0], [12.5, 17.5], [10.0, 17.5]]]}, "properties": {"cell_id": "4_43", "lon": 11.25, "lat": 18.75}}, {"type": "Feature", "geometry": {"type": "Polygon", "coordinates": [[[12.5, 10.0], [12.5, 12.5], [15.0, 12.5], [15.0, 10.0], [12.5, 10.0]]]}, "properties": {"cell_id": "5_40", "lon": 13.75, "lat": 11.25}}, {"type": "Feature", "geometry": {"type": "Polygon", "coordinates": [[[12.5, 12.5], [12.5, 15.0], [15.0, 15.0], [15.0, 12.5], [12.5, 12.5]]]}, "properties": {"cell_id": "5_41", "lon": 13.75, "lat": 13.75}}, {"type": "Feature", "geometry": {"type": "Polygon", "coordinates": [[[12.5, 15.0], [12.5, 17.5], [15.0, 17.5], [15.0, 15.0], [12.5, 15.0]]]}, "properties": {"cell_id": "5_42", "lon": 13.75, "lat": 16.25}}, {"type": "Feature", "geometry": {"type": "Polygon", "coordinates": [[[12.5, 17.5], [12.5, 20.0], [15.0, 20.0], [15.0, 17.5], [12.5, 17.5]]]}, "properties": {"cell_id": "5_43", "lon": 13.75, "lat": 18.75}}, {"type": "Feature", "geometry": {"type": "Polygon", "coordinates": [[[15.0, 10.0], [15.0, 12.5], [17.5, 12.5], [17.5, 10.0], [15.0, 10.0]]]}, "properties": {"cell_id": "6_40", "lon": 16.25, "lat": 11.25}}, {"type": "Feature", "geometry": {"type": "Polygon", "coordinates": [[[15.0, 12.5], [15.0, 15.0], [17.5, 15.0], [17.5, 12.5], [15.0, 12.5]]]}, "properties": {"cell_id": "6_41", "lon": 16.25, "lat": 13.75}}, {"type": "Feature", "geometry": {"type": "Polygon", "coordinates": [[[15.0, 15.0], [15.0, 17.5], [17.5, 17.5], [17.5, 15.0], [15.0, 15.0]]]}, "properties": {"cell_id": "6_42", "lon": 16.25, "lat": 16.25}}, {"type": "Feature", "geometry": {"type": "Polygon", "coordinates": [[[15.0, 17.5], [15.0, 20.0], [17.5, 20.0], [17.5, 17.5], [15.0, 17.5]]]}, "properties": {"cell_id": "6_43", "lon": 16.25, "lat": 18.75}}, {"type": "Feature", "geometry": {"type": "Polygon", "coordinates": [[[17.5, 10.0], [17.5, 12.5], [20.0, 12.5], [20.0, 10.0], [17.5, 10.0]]]}, "properties": {"cell_id": "7_40", "lon": 18.75, "lat": 11.25}}, {"type": "Feature", "geometry": {"type": "Polygon", "coordinates": [[[17.5, 12.5], [17.5, 15.0], [20.0, 15.0], [20.0, 12.5], [17.5, 12.5]]]}, "properties": {"cell_id": "7_41", "lon": 18.75, "lat": 13.75}}, {"type": "Feature", "geometry": {"type": "Polygon", "coordinates": [[[17.5, 15.0], [17.5, 17.5], [20.0, 17.5], [20.0, 15.0], [17.5, 15.0]]]}, "properties": {"cell_id": "7_42", "lon": 18.75, "lat": 16.25}}, {"type": "Feature", "geometry": {"type": "Polygon", "coordinates": [[[17.5, 17.5], [17.5, 20.0], [20.0, 20.0], [20.0, 17.5], [17.5, 17.5]]]}, "properties": {"cell_id": "7_43", "lon": 18.75, "lat": 18.75}}]}