{"type": "FeatureCollection", "features": [{"type": "Feature", "geometry": {"type": "Polygon", "coordinates": [[[-75.0, -52.5], [-75.0, -50.0], [-72.5, -50.0], [-72.5, -52.5], [-75.0, -52.5]]]}, "properties": {"cell_id": "114_15", "lon": -73.75, "lat": -51.25}}, {"type": "Feature", "geometry": {"type": "Polygon", "coordinates": [[[-72.5, -55.0], [-72.5, -52.5], [-70.0, -52.5], [-70.0, -55.0], [-72.5, -55.0]]]}, "properties": {"cell_id": "115_14", "lon": -71.25, "lat": -53.75}}, {"type": "Feature", "geometry": {"type": "Polygon", "coordinates": [[[-72.5, -52.5], [-72.5, -50.0], [-70.0, -50.0], [-70.0, -52.5], [-72.5, -52.5]]]}, "properties": {"cell_id": "115_15", "lon": -71.25, "lat": -51.25}}]}