{"type": "FeatureCollection", "features": [{"type": "Feature", "geometry": {"type": "Polygon", "coordinates": [[[-60.0, -30.0], [-60.0, -27.5], [-57.5, -27.5], [-57.5, -30.0], [-60.0, -30.0]]]}, "properties": {"cell_id": "120_24", "lon": -58.75, "lat": -28.75}}, {"type": "Feature", "geometry": {"type": "Polygon", "coordinates": [[[-60.0, -27.5], [-60.0, -25.0], [-57.5, -25.0], [-57.5, -27.5], [-60.0, -27.5]]]}, "properties": {"cell_id": "120_25", "lon": -58.75, "lat": -26.25}}, {"type": "Feature", "geometry": {"type": "Polygon", "coordinates": [[[-60.0, -25.0], [-60.0, -22.5], [-57.5, -22.5], [-57.5, -25.0], [-60.0, -25.0]]]}, "properties": {"cell_id": "120_26", "lon": -58.75, "lat": -23.75}}, {"type": "Feature", "geometry": {"type": "Polygon", "coordinates": [[[-60.0, -22.5], [-60.0, -20.0], [-57.5, -20.0], [-57.5, -22.5], [-60.0, -22.5]]]}, "properties": {"cell_id": "120_27", "lon": -58.75, "lat": -21.25}}, {"type": "Feature", "geometry": {"type": "Polygon", "coordinates": [[[-57.5, -30.0], [-57.5, -27.5], [-55.0, -27.5], [-55.0, -30.0], [-57.5, -30.0]]]}, "properties": {"cell_id": "121_24", "lon": -56.25, "lat": -28.75}}, {"type": "Feature", "geometry": {"type": "Polygon", "coordinates": [[[-57.5, -27.5], [-57.5, -25.0], [-55.0, -25.0], [-55.0, -27.5], [-57.5, -27.5]]]}, "properties": {"cell_id": "121_25", "lon": -56.25, "lat": -26.25}}, {"type": "Feature", "geometry": {"type": "Polygon", "coordinates": [[[-57.5, -25.0], [-57.5, -22.5], [-55.0, -22.5], [-55.0, -25.0], [-57.5, -25.0]]]}, "properties": {"cell_id": "121_26", "lon": -56.25, "lat": -23.75}}, {"type": "Feature", "geometry": {"type": "Polygon", "coordinates": [[[-57.5, -22.5], [-57.5, -20.0], [-55.0, -20.0], [-55.0, -22.5], [-57.5, -22.5]]]}, "properties": {"cell_id": "121_27", "lon": -56.25, "lat": -21.25}}, {"type": "Feature", "geometry": {"type": "Polygon", "coordinates": [[[-55.0, -30.0], [-55.0, -27.5], [-52.5, -27.5], [-52.5, -30.0], [-55.0, -30.0]]]}, "properties": {"cell_id": "122_24", "lon": -53.75, "lat": -28.75}}, {"type": "Feature", "geometry": {"type": "Polygon", "coordinates": [[[-55.0, -27.5], [-55.0, -25.0], [-52.5, -25.0], [-52.5, -27.5], [-55.0, -27.5]]]}, "properties": {"cell_id": "122_25", "lon": -53.75, "lat": -26.25}}, {"type": "Feature", "geometry": {"type": "Polygon", "coordinates": [[[-55.0, -25.0], [-55.0, -22.5], [-52.5, -22.5], [-52.5, -25.0], [-55.0, -25.0]]]}, "properties": {"cell_id": "122_26", "lon": -53.75, "lat": -23.75}}, {"type": "Feature", "geometry": {"type": "Polygon", "coordinates": [[[-55.0, -22.5], [-55.0, -20.0], [-52.5, -20.0], [-52.5, -22.5], [-55.0, -22.5]]]}, "properties": {"cell_id": "122_27", "lon": -53.75, "lat": -21.25}}, {"type": "Feature", "geometry": {"type": "Polygon", "coordinates": [[[-52.5, -30.0], [-52.5, -27.5], [-50.0, -27.5], [-50.0, -30.0], [-52.5, -30.0]]]}, "properties": {"cell_id": "123_24", "lon": -51.25, "lat": -28.75}}, {"type": "Feature", "geometry": {"type": "Polygon", "coordinates": [[[-52.5, -27.5], [-52.5, -25.0], [-50.0, -25.0], [-50.0, -27.5], [-52.5, -27.5]]]}, "properties": {"cell_id": "123_25", "lon": -51.25, "lat": -26.25}}, {"type": "Feature", "geometry": {"type": "Polygon", "coordinates": [[[-52.5, -25.0], [-52.5, -22.5], [-50.0, -22.5], [-50.0, -25.0], [-52.5, -25.0]]]}, "properties": {"cell_id": "123_26", "lon": -51.25, "lat": -23.75}}, {"type": "Feature", "geometry": {"type": "Polygon", "coordinates": [[[-52.5, -22.5], [-52.5, -20.0], [-50.0, -20.0], [-50.0, -22.5], [-52.5, -22.5]]]}, "properties": {"cell_id": "123_27", "lon": -51.25, "lat": -21.25}}]}