{"type": "FeatureCollection", "features": [{"type": "Feature", "geometry": {"type": "Polygon", "coordinates": [[[-165.75, 58.5], [-165.75, 60.0], [-164.25, 60.0], [-164.25, 58.5], [-165.75, 58.5]]]}, "properties": {"cell_id": "130_99", "lon": -165.0, "lat": 59.25}}, {"type": "Feature", "geometry": {"type": "Polygon", "coordinates": [[[-164.25, 58.5], [-164.25, 60.0], [-162.75, 60.0], [-162.75, 58.5], [-164.25, 58.5]]]}, "properties": {"cell_id": "131_99", "lon": -163.5, "lat": 59.25}}, {"type": "Feature", "geometry": {"type": "Polygon", "coordinates": [[[-162.75, 58.5], [-162.75, 60.0], [-161.25, 60.0], [-161.25, 58.5], [-162.75, 58.5]]]}, "properties": {"cell_id": "132_99", "lon": -162.0, "lat": 59.25}}, {"type": "Feature", "geometry": {"type": "Polygon", "coordinates": [[[-161.25, 58.5], [-161.25, 60.0], [-159.75, 60.0], [-159.75, 58.5], [-161.25, 58.5]]]}, "properties": {"cell_id": "133_99", "lon": -160.5, "lat": 59.25}}]}