{"type": "FeatureCollection", "features": [{"type": "Feature", "geometry": {"type": "Polygon", "coordinates": [[[-80.0, -10.0], [-80.0, -7.5], [-77.5, -7.5], [-77.5, -10.0], [-80.0, -10.0]]]}, "properties": {"cell_id": "112_32", "lon": -78.75, "lat": -8.75}}, {"type": "Feature", "geometry": {"type": "Polygon", "coordinates": [[[-80.0, -7.5], [-80.0, -5.0], [-77.5, -5.0], [-77.5, -7.5], [-80.0, -7.5]]]}, "properties": {"cell_id": "112_33", "lon": -78.75, "lat": -6.25}}, {"type": "Feature", "geometry": {"type": "Polygon", "coordinates": [[[-80.0, -5.0], [-80.0, -2.5], [-77.5, -2.5], [-77.5, -5.0], [-80.0, -5.0]]]}, "properties": {"cell_id": "112_34", "lon": -78.75, "lat": -3.75}}, {"type": "Feature", "geometry": {"type": "Polygon", "coordinates": [[[-80.0, -2.5], [-80.0, 0.0], [-77.5, 0.0], [-77.5, -2.5], [-80.0, -2.5]]]}, "properties": {"cell_id": "112_35", "lon": -78.75, "lat": -1.25}}, {"type": "Feature", "geometry": {"type": "Polygon", "coordinates": [[[-77.5, -10.0], [-77.5, -7.5], [-75.0, -7.5], [-75.0, -10.0], [-77.5, -10.0]]]}, "properties": {"cell_id": "113_32", "lon": -76.25, "lat": -8.75}}, {"type": "Feature", "geometry": {"type": "Polygon", "coordinates": [[[-77.5, -7.5], [-77.5, -5.0], [-75.0, -5.0], [-75.0, -7.5], [-77.5, -7.5]]]}, "properties": {"cell_id": "113_33", "lon": -76.25, "lat": -6.25}}, {"type": "Feature", "geometry": {"type": "Polygon", "coordinates": [[[-77.5, -5.0], [-77.5, -2.5], [-75.0, -2.5], [-75.0, -5.0], [-77.5, -5.0]]]}, "properties": {"cell_id": "113_34", "lon": -76.25, "lat": -3.75}}, {"type": "Feature", "geometry": {"type": "Polygon", "coordinates": [[[-77.5, -2.5], [-77.5, 0.0], [-75.0, 0.0], [-75.0, -2.5], [-77.5, -2.5]]]}, "properties": {"cell_id": "113_35", "lon": -76.25, "lat": -1.25}}, {"type": "Feature", "geometry": {"type": "Polygon", "coordinates": [[[-75.0, -10.0], [-75.0, -7.5], [-72.5, -7.5], [-72.5, -10.0], [-75.0, -10.0]]]}, "properties": {"cell_id": "114_32", "lon": -73.75, "lat": -8.75}}, {"type": "Feature", "geometry": {"type": "Polygon", "coordinates": [[[-75.0, -7.5], [-75.0, -5.0], [-72.5, -5.0], [-72.5, -7.5], [-75.0, -7.5]]]}, "properties": {"cell_id": "114_33", "lon": -73.75, "lat": -6.25}}, {"type": "Feature", "geometry": {"type": "Polygon", "coordinates": [[[-75.0, -5.0], [-75.0, -2.5], [-72.5, -2.5], [-72.5, -5.0], [-75.0, -5.0]]]}, "properties": {"cell_id": "114_34", "lon": -73.75, "lat": -3.75}}, {"type": "Feature", "geometry": {"type": "Polygon", "coordinates": [[[-75.0, -2.5], [-75.0, 0.0], [-72.5, 0.0], [-72.5, -2.5], [-75.0, -2.5]]]}, "properties": {"cell_id": "114_35", "lon": -73.75, "lat": -1.25}}, {"type": "Feature", "geometry": {"type": "Polygon", "coordinates": [[[-72.5, -10.0], [-72.5, -7.5], [-70.0, -7.5], [-70.0, -10.0], [-72.5, -10.0]]]}, "properties": {"cell_id": "115_32", "lon": -71.25, "lat": -8.75}}, {"type": "Feature", "geometry": {"type": "Polygon", "coordinates": [[[-72.5, -7.5], [-72.5, -5.0], [-70.0, -5.0], [-70.0, -7.5], [-72.5, -7.5]]]}, "properties": {"cell_id": "115_33", "lon": -71.25, "lat": -6.25}}, {"type": "Feature", "geometry": {"type": "Polygon", "coordinates": [[[-72.5, -5.0], [-72.5, -2.5], [-70.0, -2.5], [-70.0, -5.0], [-72.5, -5.0]]]}, "properties": {"cell_id": "115_34", "lon": -71.25, "lat": -3.75}}, {"type": "Feature", "geometry": {"type": "Polygon", "coordinates": [[[-72.5, -2.5], [-72.5, 0.0], [-70.0, 0.0], [-70.0, -2.5], [-72.5, -2.5]]]}, "properties": {"cell_id": "115_35", "lon": -71.25, "lat": -1.25}}]}