{"type": "FeatureCollection", "features": [{"type": "Feature", "geometry": {"type": "Polygon", "coordinates": [[[-179.25, 64.5], [-179.25, 66.0], [-177.75, 66.0], [-177.75, 64.5], [-179.25, 64.5]]]}, "properties": {"cell_id": "121_103", "lon": -178.5, "lat": 65.25}}, {"type": "Feature", "geometry": {"type": "Polygon", "coordinates": [[[-179.25, 66.0], [-179.25, 67.5], [-177.75, 67.5], [-177.75, 66.0], [-179.25, 66.0]]]}, "properties": {"cell_id": "121_104", "lon": -178.5, "lat": 66.75}}, {"type": "Feature", "geometry": {"type": "Polygon", "coordinates": [[[-179.25, 67.5], [-179.25, 69.0], [-177.75, 69.0], [-177.75, 67.5], [-179.25, 67.5]]]}, "properties": {"cell_id": "121_105", "lon": -178.5, "lat": 68.25}}, {"type": "Feature", "geometry": {"type": "Polygon", "coordinates": [[[-177.75, 64.5], [-177.75, 66.0], [-176.25, 66.0], [-176.25, 64.5], [-177.75, 64.5]]]}, "properties": {"cell_id": "122_103", "lon": -177.0, "lat": 65.25}}, {"type": "Feature", "geometry": {"type": "Polygon", "coordinates": [[[-177.75, 66.0], [-177.75, 67.5], [-176.25, 67.5], [-176.25, 66.0], [-177.75, 66.0]]]}, "properties": {"cell_id": "122_104", "lon": -177.0, "lat": 66.75}}, {"type": "Feature", "geometry": {"type": "Polygon", "coordinates": [[[-177.75, 67.5], [-177.75, 69.0], [-176.25, 69.0], [-176.25, 67.5], [-177.75, 67.5]]]}, "properties": {"cell_id": "122_105", "lon": -177.0, "lat": 68.25}}, {"type": "Feature", "geometry": {"type": "Polygon", "coordinates": [[[-176.25, 64.5], [-176.25, 66.0], [-174.75, 66.0], [-174.75, 64.5], [-176.25, 64.5]]]}, "properties": {"cell_id": "123_103", "lon": -175.5, "lat": 65.25}}, {"type": "Feature", "geometry": {"type": "Polygon", "coordinates": [[[-176.25, 66.0], [-176.25, 67.5], [-174.75, 67.5], [-174.75, 66.0], [-176.25, 66.0]]]}, "properties": {"cell_id": "123_104", "lon": -175.5, "lat": 66.75}}, {"type": "Feature", "geometry": {"type": "Polygon", "coordinates": [[[-176.25, 67.5], [-176.25, 69.0], [-174.75, 69.0], [-174.75, 67.5], [-176.25, 67.5]]]}, "properties": {"cell_id": "123_105", "lon": -175.5, "lat": 68.25}}, {"type": "Feature", "geometry": {"type": "Polygon", "coordinates": [[[-174.75, 64.5], [-174.75, 66.0], [-173.25, 66.0], [-173.25, 64.5], [-174.75, 64.5]]]}, "properties": {"cell_id": "124_103", "lon": -174.0, "lat": 65.25}}, {"type": "Feature", "geometry": {"type": "Polygon", "coordinates": [[[-174.75, 66.0], [-174.75, 67.5], [-173.25, 67.5], [-173.25, 66.0], [-174.75, 66.0]]]}, "properties": {"cell_id": "124_104", "lon": -174.0, "lat": 66.75}}, {"type": "Feature", "geometry": {"type": "Polygon", "coordinates": [[[-173.25, 64.5], [-173.25, 66.0], [-171.75, 66.0], [-171.75, 64.5], [-173.25, 64.5]]]}, "properties": {"cell_id": "125_103", "lon": -172.5, "lat": 65.25}}, {"type": "Feature", "geometry": {"type": "Polygon", "coordinates": [[[-173.25, 66.0], [-173.25, 67.5], [-171.75, 67.5], [-171.75, 66.0], [-173.25, 66.0]]]}, "properties": {"cell_id": "125_104", "lon": -172.5, "lat": 66.75}}, {"type": "Feature", "geometry": {"type": "Polygon", "coordinates": [[[-171.75, 64.5], [-171.75, 66.0], [-170.25, 66.0], [-170.25, 64.5], [-171.75, 64.5]]]}, "properties": {"cell_id": "126_103", "lon": -171.0, "lat": 65.25}}, {"type": "Feature", "geometry": {"type": "Polygon", "coordinates": [[[-171.75, 66.0], [-171.75, 67.5], [-170.25, 67.5], [-170.25, 66.0], [-171.75, 66.0]]]}, "properties": {"cell_id": "126_104", "lon": -171.0, "lat": 66.75}}]}