{"type": "FeatureCollection", "features": [{"type": "Feature", "geometry": {"type": "Polygon", "coordinates": [[[155.0, 52.5], [155.0, 55.0], [157.5, 55.0], [157.5, 52.5], [155.0, 52.5]]]}, "properties": {"cell_id": "62_57", "lon": 156.25, "lat": 53.75}}, {"type": "Feature", "geometry": {"type": "Polygon", "coordinates": [[[155.0, 55.0], [155.0, 57.5], [157.5, 57.5], [157.5, 55.0], [155.0, 55.0]]]}, "properties": {"cell_id": "62_58", "lon": 156.25, "lat": 56.25}}, {"type": "Feature", "geometry": {"type": "Polygon", "coordinates": [[[157.5, 52.5], [157.5, 55.0], [160.0, 55.0], [160.0, 52.5], [157.5, 52.5]]]}, "properties": {"cell_id": "63_57", "lon": 158.75, "lat": 53.75}}, {"type": "Feature", "geometry": {"type": "Polygon", "coordinates": [[[157.5, 55.0], [157.5, 57.5], [160.0, 57.5], [160.0, 55.0], [157.5, 55.0]]]}, "properties": {"cell_id": "63_58", "lon": 158.75, "lat": 56.25}}]}