{"type": "FeatureCollection", "features": [{"type": "Feature", "geometry": {"type": "Polygon", "coordinates": [[[-89.25, -90.0], [-89.25, -88.5], [-87.75, -88.5], [-87.75, -90.0], [-89.25, -90.0]]]}, "properties": {"cell_id": "181_0", "lon": -88.5, "lat": -89.25}}, {"type": "Feature", "geometry": {"type": "Polygon", "coordinates": [[[-89.25, -88.5], [-89.25, -87.0], [-87.75, -87.0], [-87.75, -88.5], [-89.25, -88.5]]]}, "properties": {"cell_id": "181_1", "lon": -88.5, "lat": -87.75}}, {"type": "Feature", "geometry": {"type": "Polygon", "coordinates": [[[-89.25, -87.0], [-89.25, -85.5], [-87.75, -85.5], [-87.75, -87.0], [-89.25, -87.0]]]}, "properties": {"cell_id": "181_2", "lon": -88.5, "lat": -86.25}}, {"type": "Feature", "geometry": {"type": "Polygon", "coordinates": [[[-89.25, -85.5], [-89.25, -84.0], [-87.75, -84.0], [-87.75, -85.5], [-89.25, -85.5]]]}, "properties": {"cell_id": "181_3", "lon": -88.5, "lat": -84.75}}, {"type": "Feature", "geometry": {"type": "Polygon", "coordinates": [[[-89.25, -84.0], [-89.25, -82.5], [-87.75, -82.5], [-87.75, -84.0], [-89.25, -84.0]]]}, "properties": {"cell_id": "181_4", "lon": -88.5, "lat": -83.25}}, {"type": "Feature", "geometry": {"type": "Polygon", "coordinates": [[[-89.25, -82.5], [-89.25, -81.0], [-87.75, -81.0], [-87.75, -82.5], [-89.25, -82.5]]]}, "properties": {"cell_id": "181_5", "lon": -88.5, "lat": -81.75}}, {"type": "Feature", "geometry": {"type": "Polygon", "coordinates": [[[-89.25, -81.0], [-89.25, -79.5], [-87.75, -79.5], [-87.75, -81.0], [-89.25, -81.0]]]}, "properties": {"cell_id": "181_6", "lon": -88.5, "lat": -80.25}}, {"type": "Feature", "geometry": {"type": "Polygon", "coordinates": [[[-87.75, -90.0], [-87.75, -88.5], [-86.25, -88.5], [-86.25, -90.0], [-87.75, -90.0]]]}, "properties": {"cell_id": "182_0", "lon": -87.0, "lat": -89.25}}, {"type": "Feature", "geometry": {"type": "Polygon", "coordinates": [[[-87.75, -88.5], [-87.75, -87.0], [-86.25, -87.0], [-86.25, -88.5], [-87.75, -88.5]]]}, "properties": {"cell_id": "182_1", "lon": -87.0, "lat": -87.75}}, {"type": "Feature", "geometry": {"type": "Polygon", "coordinates": [[[-87.75, -87.0], [-87.75, -85.5], [-86.25, -85.5], [-86.25, -87.0], [-87.75, -87.0]]]}, "properties": {"cell_id": "182_2", "lon": -87.0, "lat": -86.25}}, {"type": "Feature", "geometry": {"type": "Polygon", "coordinates": [[[-87.75, -85.5], [-87.75, -84.0], [-86.25, -84.0], [-86.25, -85.5], [-87.75, -85.5]]]}, "properties": {"cell_id": "182_3", "lon": -87.0, "lat": -84.75}}, {"type": "Feature", "geometry": {"type": "Polygon", "coordinates": [[[-87.75, -84.0], [-87.75, -82.5], [-86.25, -82.5], [-86.25, -84.0], [-87.75, -84.0]]]}, "properties": {"cell_id": "182_4", "lon": -87.0, "lat": -83.25}}, {"type": "Feature", "geometry": {"type": "Polygon", "coordinates": [[[-87.75, -82.5], [-87.75, -81.0], [-86.25, -81.0], [-86.25, -82.5], [-87.75, -82.5]]]}, "properties": {"cell_id": "182_5", "lon": -87.0, "lat": -81.75}}, {"type": "Feature", "geometry": {"type": "Polygon", "coordinates": [[[-87.75, -81.0], [-87.75, -79.5], [-86.25, -79.5], [-86.25, -81.0], [-87.75, -81.0]]]}, "properties": {"cell_id": "182_6", "lon": -87.0, "lat": -80.25}}, {"type": "Feature", "geometry": {"type": "Polygon", "coordinates": [[[-86.25, -90.0], [-86.25, -88.5], [-84.75, -88.5], [-84.75, -90.0], [-86.25, -90.0]]]}, "properties": {"cell_id": "183_0", "lon": -85.5, "lat": -89.25}}, {"type": "Feature", "geometry": {"type": "Polygon", "coordinates": [[[-86.25, -88.5], [-86.25, -87.0], [-84.75, -87.0], [-84.75, -88.5], [-86.25, -88.5]]]}, "properties": {"cell_id": "183_1", "lon": -85.5, "lat": -87.75}}, {"type": "Feature", "geometry": {"type": "Polygon", "coordinates": [[[-86.25, -87.0], [-86.25, -85.5], [-84.75, -85.5], [-84.75, -87.0], [-86.25, -87.0]]]}, "properties": {"cell_id": "183_2", "lon": -85.5, "lat": -86.25}}, {"type": "Feature", "geometry": {"type": "Polygon", "coordinates": [[[-86.25, -85.5], [-86.25, -84.0], [-84.75, -84.0], [-84.75, -85.5], [-86.25, -85.5]]]}, "properties": {"cell_id": "183_3", "lon": -85.5, "lat": -84.75}}, {"type": "Feature", "geometry": {"type": "Polygon", "coordinates": [[[-86.25, -84.0], [-86.25, -82.5], [-84.75, -82.5], [-84.75, -84.0], [-86.25, -84.0]]]}, "properties": {"cell_id": "183_4", "lon": -85.5, "lat": -83.25}}, {"type": "Feature", "geometry": {"type": "Polygon", "coordinates": [[[-86.25, -82.5], [-86.25, -81.0], [-84.75, -81.0], [-84.75, -82.5], [-86.25, -82.5]]]}, "properties": {"cell_id": "183_5", "lon": -85.5, "lat": -81.75}}, {"type": "Feature", "geometry": {"type": "Polygon", "coordinates": [[[-86.25, -81.0], [-86.25, -79.5], [-84.75, -79.5], [-84.75, -81.0], [-86.25, -81.0]]]}, "properties": {"cell_id": "183_6", "lon": -85.5, "lat": -80.25}}, {"type": "Feature", "geometry": {"type": "Polygon", "coordinates": [[[-84.75, -90.0], [-84.75, -88.5], [-83.25, -88.5], [-83.25, -90.0], [-84.75, -90.0]]]}, "properties": {"cell_id": "184_0", "lon": -84.0, "lat": -89.25}}, {"type": "Feature", "geometry": {"type": "Polygon", "coordinates": [[[-84.75, -88.5], [-84.75, -87.0], [-83.25, -87.0], [-83.25, -88.5], [-84.75, -88.5]]]}, "properties": {"cell_id": "184_1", "lon": -84.0, "lat": -87.75}}, {"type": "Feature", "geometry": {"type": "Polygon", "coordinates": [[[-84.75, -87.0], [-84.75, -85.5], [-83.25, -85.5], [-83.25, -87.0], [-84.75, -87.0]]]}, "properties": {"cell_id": "184_2", "lon": -84.0, "lat": -86.25}}, {"type": "Feature", "geometry": {"type": "Polygon", "coordinates": [[[-84.75, -85.5], [-84.75, -84.0], [-83.25, -84.0], [-83.25, -85.5], [-84.75, -85.5]]]}, "properties": {"cell_id": "184_3", "lon": -84.0, "lat": -84.75}}, {"type": "Feature", "geometry": {"type": "Polygon", "coordinates": [[[-84.75, -84.0], [-84.75, -82.5], [-83.25, -82.5], [-83.25, -84.0], [-84.75, -84.0]]]}, "properties": {"cell_id": "184_4", "lon": -84.0, "lat": -83.25}}, {"type": "Feature", "geometry": {"type": "Polygon", "coordinates": [[[-84.75, -82.5], [-84.75, -81.0], [-83.25, -81.0], [-83.25, -82.5], [-84.75, -82.5]]]}, "properties": {"cell_id": "184_5", "lon": -84.0, "lat": -81.75}}, {"type": "Feature", "geometry": {"type": "Polygon", "coordinates": [[[-84.75, -81.0], [-84.75, -79.5], [-83.25, -79.5], [-83.25, -81.0], [-84.75, -81.0]]]}, "properties": {"cell_id": "184_6", "lon": -84.0, "lat": -80.25}}, {"type": "Feature", "geometry": {"type": "Polygon", "coordinates": [[[-83.25, -90.0], [-83.25, -88.5], [-81.75, -88.5], [-81.75, -90.0], [-83.25, -90.0]]]}, "properties": {"cell_id": "185_0", "lon": -82.5, "lat": -89.25}}, {"type": "Feature", "geometry": {"type": "Polygon", "coordinates": [[[-83.25, -88.5], [-83.25, -87.0], [-81.75, -87.0], [-81.75, -88.5], [-83.25, -88.5]]]}, "properties": {"cell_id": "185_1", "lon": -82.5, "lat": -87.75}}, {"type": "Feature", "geometry": {"type": "Polygon", "coordinates": [[[-83.25, -87.0], [-83.25, -85.5], [-81.75, -85.5], [-81.75, -87.0], [-83.25, -87.0]]]}, "properties": {"cell_id": "185_2", "lon": -82.5, "lat": -86.25}}, {"type": "Feature", "geometry": {"type": "Polygon", "coordinates": [[[-83.25, -85.5], [-83.25, -84.0], [-81.75, -84.0], [-81.75, -85.5], [-83.25, -85.5]]]}, "properties": {"cell_id": "185_3", "lon": -82.5, "lat": -84.75}}, {"type": "Feature", "geometry": {"type": "Polygon", "coordinates": [[[-83.25, -84.0], [-83.25, -82.5], [-81.75, -82.5], [-81.75, -84.0], [-83.25, -84.0]]]}, "properties": {"cell_id": "185_4", "lon": -82.5, "lat": -83.25}}, {"type": "Feature", "geometry": {"type": "Polygon", "coordinates": [[[-83.25, -82.5], [-83.25, -81.0], [-81.75, -81.0], [-81.75, -82.5], [-83.25, -82.5]]]}, "properties": {"cell_id": "185_5", "lon": -82.5, "lat": -81.75}}, {"type": "Feature", "geometry": {"type": "Polygon", "coordinates": [[[-83.25, -81.0], [-83.25, -79.5], [-81.75, -79.5], [-81.75, -81.0], [-83.25, -81.0]]]}, "properties": {"cell_id": "185_6", "lon": -82.5, "lat": -80.25}}, {"type": "Feature", "geometry": {"type": "Polygon", "coordinates": [[[-81.75, -90.0], [-81.75, -88.5], [-80.25, -88.5], [-80.25, -90.0], [-81.75, -90.0]]]}, "properties": {"cell_id": "186_0", "lon": -81.0, "lat": -89.25}}, {"type": "Feature", "geometry": {"type": "Polygon", "coordinates": [[[-81.75, -88.5], [-81.75, -87.0], [-80.25, -87.0], [-80.25, -88.5], [-81.75, -88.5]]]}, "properties": {"cell_id": "186_1", "lon": -81.0, "lat": -87.75}}, {"type": "Feature", "geometry": {"type": "Polygon", "coordinates": [[[-81.75, -87.0], [-81.75, -85.5], [-80.25, -85.5], [-80.25, -87.0], [-81.75, -87.0]]]}, "properties": {"cell_id": "186_2", "lon": -81.0, "lat": -86.25}}, {"type": "Feature", "geometry": {"type": "Polygon", "coordinates": [[[-81.75, -85.5], [-81.75, -84.0], [-80.25, -84.0], [-80.25, -85.5], [-81.75, -85.5]]]}, "properties": {"cell_id": "186_3", "lon": -81.0, "lat": -84.75}}, {"type": "Feature", "geometry": {"type": "Polygon", "coordinates": [[[-81.75, -84.0], [-81.75, -82.5], [-80.25, -82.5], [-80.25, -84.0], [-81.75, -84.0]]]}, "properties": {"cell_id": "186_4", "lon": -81.0, "lat": -83.25}}, {"type": "Feature", "geometry": {"type": "Polygon", "coordinates": [[[-81.75, -82.5], [-81.75, -81.0], [-80.25, -81.0], [-80.25, -82.5], [-81.75, -82.5]]]}, "properties": {"cell_id": "186_5", "lon": -81.0, "lat": -81.75}}, {"type": "Feature", "geometry": {"type": "Polygon", "coordinates": [[[-81.75, -81.0], [-81.75, -79.5], [-80.25, -79.5], [-80.25, -81.0], [-81.75, -81.0]]]}, "properties": {"cell_id": "186_6", "lon": -81.0, "lat": -80.25}}, {"type": "Feature", "geometry": {"type": "Polygon", "coordinates": [[[-80.25, -90.0], [-80.25, -88.5], [-78.75, -88.5], [-78.75, -90.0], [-80.25, -90.0]]]}, "properties": {"cell_id": "187_0", "lon": -79.5, "lat": -89.25}}, {"type": "Feature", "geometry": {"type": "Polygon", "coordinates": [[[-80.25, -88.5], [-80.25, -87.0], [-78.75, -87.0], [-78.75, -88.5], [-80.25, -88.5]]]}, "properties": {"cell_id": "187_1", "lon": -79.5, "lat": -87.75}}, {"type": "Feature", "geometry": {"type": "Polygon", "coordinates": [[[-80.25, -87.0], [-80.25, -85.5], [-78.75, -85.5], [-78.75, -87.0], [-80.25, -87.0]]]}, "properties": {"cell_id": "187_2", "lon": -79.5, "lat": -86.25}}, {"type": "Feature", "geometry": {"type": "Polygon", "coordinates": [[[-80.25, -85.5], [-80.25, -84.0], [-78.75, -84.0], [-78.75, -85.5], [-80.25, -85.5]]]}, "properties": {"cell_id": "187_3", "lon": -79.5, "lat": -84.75}}, {"type": "Feature", "geometry": {"type": "Polygon", "coordinates": [[[-80.25, -84.0], [-80.25, -82.5], [-78.75, -82.5], [-78.75, -84.0], [-80.25, -84.0]]]}, "properties": {"cell_id": "187_4", "lon": -79.5, "lat": -83.25}}, {"type": "Feature", "geometry": {"type": "Polygon", "coordinates": [[[-80.25, -82.5], [-80.25, -81.0], [-78.75, -81.0], [-78.75, -82.5], [-80.25, -82.5]]]}, "properties": {"cell_id": "187_5", "lon": -79.5, "lat": -81.75}}, {"type": "Feature", "geometry": {"type": "Polygon", "coordinates": [[[-80.25, -81.0], [-80.25, -79.5], [-78.75, -79.5], [-78.75, -81.0], [-80.25, -81.0]]]}, "properties": {"cell_id": "187_6", "lon": -79.5, "lat": -80.25}}]}