{"type": "FeatureCollection", "features": [{"type": "Feature", "geometry": {"type": "Polygon", "coordinates": [[[-60.0, 50.0], [-60.0, 52.5], [-57.5, 52.5], [-57.5, 50.0], [-60.0, 50.0]]]}, "properties": {"cell_id": "120_56", "lon": -58.75, "lat": 51.25}}, {"type": "Feature", "geometry": {"type": "Polygon", "coordinates": [[[-60.0, 52.5], [-60.0, 55.0], [-57.5, 55.0], [-57.5, 52.5], [-60.0, 52.5]]]}, "properties": {"cell_id": "120_57", "lon": -58.75, "lat": 53.75}}, {"type": "Feature", "geometry": {"type": "Polygon", "coordinates": [[[-57.5, 50.0], [-57.5, 52.5], [-55.0, 52.5], [-55.0, 50.0], [-57.5, 50.0]]]}, "properties": {"cell_id": "121_56", "lon": -56.25, "lat": 51.25}}]}