{"type": "FeatureCollection", "features": [{"type": "Feature", "geometry": {"type": "Polygon", "coordinates": [[[140.25, 60.0], [140.25, 61.5], [141.75, 61.5], [141.75, 60.0], [140.25, 60.0]]]}, "properties": {"cell_id": "94_100", "lon": 141.0, "lat": 60.75}}, {"type": "Feature", "geometry": {"type": "Polygon", "coordinates": [[[140.25, 61.5], [140.25, 63.0], [141.75, 63.0], [141.75, 61.5], [140.25, 61.5]]]}, "properties": {"cell_id": "94_101", "lon": 141.0, "lat": 62.25}}, {"type": "Feature", "geometry": {"type": "Polygon", "coordinates": [[[140.25, 63.0], [140.25, 64.5], [141.75, 64.5], [141.75, 63.0], [140.25, 63.0]]]}, "properties": {"cell_id": "94_102", "lon": 141.0, "lat": 63.75}}, {"type": "Feature", "geometry": {"type": "Polygon", "coordinates": [[[140.25, 64.5], [140.25, 66.0], [141.75, 66.0], [141.75, 64.5], [140.25, 64.5]]]}, "properties": {"cell_id": "94_103", "lon": 141.0, "lat": 65.25}}, {"type": "Feature", "geometry": {"type": "Polygon", "coordinates": [[[140.25, 66.0], [140.25, 67.5], [141.75, 67.5], [141.75, 66.0], [140.25, 66.0]]]}, "properties": {"cell_id": "94_104", "lon": 141.0, "lat": 66.75}}, {"type": "Feature", "geometry": {"type": "Polygon", "coordinates": [[[140.25, 67.5], [140.25, 69.0], [141.75, 69.0], [141.75, 67.5], [140.25, 67.5]]]}, "properties": {"cell_id": "94_105", "lon": 141.0, "lat": 68.25}}, {"type": "Feature", "geometry": {"type": "Polygon", "coordinates": [[[140.25, 69.0], [140.25, 70.5], [141.75, 70.5], [141.75, 69.0], [140.25, 69.0]]]}, "properties": {"cell_id": "94_106", "lon": 141.0, "lat": 69.75}}, {"type": "Feature", "geometry": {"type": "Polygon", "coordinates": [[[141.75, 60.0], [141.75, 61.5], [143.25, 61.5], [143.25, 60.0], [141.75, 60.0]]]}, "properties": {"cell_id": "95_100", "lon": 142.5, "lat": 60.75}}, {"type": "Feature", "geometry": {"type": "Polygon", "coordinates": [[[141.75, 61.5], [141.75, 63.0], [143.25, 63.0], [143.25, 61.5], [141.75, 61.5]]]}, "properties": {"cell_id": "95_101", "lon": 142.5, "lat": 62.25}}, {"type": "Feature", "geometry": {"type": "Polygon", "coordinates": [[[141.75, 63.0], [141.75, 64.5], [143.25, 64.5], [143.25, 63.0], [141.75, 63.0]]]}, "properties": {"cell_id": "95_102", "lon": 142.5, "lat": 63.75}}, {"type": "Feature", "geometry": {"type": "Polygon", "coordinates": [[[141.75, 64.5], [141.75, 66.0], [143.25, 66.0], [143.25, 64.5], [141.75, 64.5]]]}, "properties": {"cell_id": "95_103", "lon": 142.5, "lat": 65.25}}, {"type": "Feature", "geometry": {"type": "Polygon", "coordinates": [[[141.75, 66.0], [141.75, 67.5], [143.25, 67.5], [143.25, 66.0], [141.75, 66.0]]]}, "properties": {"cell_id": "95_104", "lon": 142.5, "lat": 66.75}}, {"type": "Feature", "geometry": {"type": "Polygon", "coordinates": [[[141.75, 67.5], [141.75, 69.0], [143.25, 69.0], [143.25, 67.5], [141.75, 67.5]]]}, "properties": {"cell_id": "95_105", "lon": 142.5, "lat": 68.25}}, {"type": "Feature", "geometry": {"type": "Polygon", "coordinates": [[[141.75, 69.0], [141.75, 70.5], [143.25, 70.5], [143.25, 69.0], [141.75, 69.0]]]}, "properties": {"cell_id": "95_106", "lon": 142.5, "lat": 69.75}}, {"type": "Feature", "geometry": {"type": "Polygon", "coordinates": [[[143.25, 60.0], [143.25, 61.5], [144.75, 61.5], [144.75, 60.0], [143.25, 60.0]]]}, "properties": {"cell_id": "96_100", "lon": 144.0, "lat": 60.75}}, {"type": "Feature", "geometry": {"type": "Polygon", "coordinates": [[[143.25, 61.5], [143.25, 63.0], [144.75, 63.0], [144.75, 61.5], [143.25, 61.5]]]}, "properties": {"cell_id": "96_101", "lon": 144.0, "lat": 62.25}}, {"type": "Feature", "geometry": {"type": "Polygon", "coordinates": [[[143.25, 63.0], [143.25, 64.5], [144.75, 64.5], [144.75, 63.0], [143.25, 63.0]]]}, "properties": {"cell_id": "96_102", "lon": 144.0, "lat": 63.75}}, {"type": "Feature", "geometry": {"type": "Polygon", "coordinates": [[[143.25, 64.5], [143.25, 66.0], [144.75, 66.0], [144.75, 64.5], [143.25, 64.5]]]}, "properties": {"cell_id": "96_103", "lon": 144.0, "lat": 65.25}}, {"type": "Feature", "geometry": {"type": "Polygon", "coordinates": [[[143.25, 66.0], [143.25, 67.5], [144.75, 67.5], [144.75, 66.0], [143.25, 66.0]]]}, "properties": {"cell_id": "96_104", "lon": 144.0, "lat": 66.75}}, {"type": "Feature", "geometry": {"type": "Polygon", "coordinates": [[[143.25, 67.5], [143.25, 69.0], [144.75, 69.0], [144.75, 67.5], [143.25, 67.5]]]}, "properties": {"cell_id": "96_105", "lon": 144.0, "lat": 68.25}}, {"type": "Feature", "geometry": {"type": "Polygon", "coordinates": [[[143.25, 69.0], [143.25, 70.5], [144.75, 70.5], [144.75, 69.0], [143.25, 69.0]]]}, "properties": {"cell_id": "96_106", "lon": 144.0, "lat": 69.75}}, {"type": "Feature", "geometry": {"type": "Polygon", "coordinates": [[[144.75, 60.0], [144.75, 61.5], [146.25, 61.5], [146.25, 60.0], [144.75, 60.0]]]}, "properties": {"cell_id": "97_100", "lon": 145.5, "lat": 60.75}}, {"type": "Feature", "geometry": {"type": "Polygon", "coordinates": [[[144.75, 61.5], [144.75, 63.0], [146.25, 63.0], [146.25, 61.5], [144.75, 61.5]]]}, "properties": {"cell_id": "97_101", "lon": 145.5, "lat": 62.25}}, {"type": "Feature", "geometry": {"type": "Polygon", "coordinates": [[[144.75, 63.0], [144.75, 64.5], [146.25, 64.5], [146.25, 63.0], [144.75, 63.0]]]}, "properties": {"cell_id": "97_102", "lon": 145.5, "lat": 63.75}}, {"type": "Feature", "geometry": {"type": "Polygon", "coordinates": [[[144.75, 64.5], [144.75, 66.0], [146.25, 66.0], [146.25, 64.5], [144.75, 64.5]]]}, "properties": {"cell_id": "97_103", "lon": 145.5, "lat": 65.25}}, {"type": "Feature", "geometry": {"type": "Polygon", "coordinates": [[[144.75, 66.0], [144.75, 67.5], [146.25, 67.5], [146.25, 66.0], [144.75, 66.0]]]}, "properties": {"cell_id": "97_104", "lon": 145.5, "lat": 66.75}}, {"type": "Feature", "geometry": {"type": "Polygon", "coordinates": [[[144.75, 67.5], [144.75, 69.0], [146.25, 69.0], [146.25, 67.5], [144.75, 67.5]]]}, "properties": {"cell_id": "97_105", "lon": 145.5, "lat": 68.25}}, {"type": "Feature", "geometry": {"type": "Polygon", "coordinates": [[[144.75, 69.0], [144.75, 70.5], [146.25, 70.5], [146.25, 69.0], [144.75, 69.0]]]}, "properties": {"cell_id": "97_106", "lon": 145.5, "lat": 69.75}}, {"type": "Feature", "geometry": {"type": "Polygon", "coordinates": [[[146.25, 60.0], [146.25, 61.5], [147.75, 61.5], [147.75, 60.0], [146.25, 60.0]]]}, "properties": {"cell_id": "98_100", "lon": 147.0, "lat": 60.75}}, {"type": "Feature", "geometry": {"type": "Polygon", "coordinates": [[[146.25, 61.5], [146.25, 63.0], [147.75, 63.0], [147.75, 61.5], [146.25, 61.5]]]}, "properties": {"cell_id": "98_101", "lon": 147.0, "lat": 62.25}}, {"type": "Feature", "geometry": {"type": "Polygon", "coordinates": [[[146.25, 63.0], [146.25, 64.5], [147.75, 64.5], [147.75, 63.0], [146.25, 63.0]]]}, "properties": {"cell_id": "98_102", "lon": 147.0, "lat": 63.75}}, {"type": "Feature", "geometry": {"type": "Polygon", "coordinates": [[[146.25, 64.5], [146.25, 66.0], [147.75, 66.0], [147.75, 64.5], [146.25, 64.5]]]}, "properties": {"cell_id": "98_103", "lon": 147.0, "lat": 65.25}}, {"type": "Feature", "geometry": {"type": "Polygon", "coordinates": [[[146.25, 66.0], [146.25, 67.5], [147.75, 67.5], [147.75, 66.0], [146.25, 66.0]]]}, "properties": {"cell_id": "98_104", "lon": 147.0, "lat": 66.75}}, {"type": "Feature", "geometry": {"type": "Polygon", "coordinates": [[[146.25, 67.5], [146.25, 69.0], [147.75, 69.0], [147.75, 67.5], [146.25, 67.5]]]}, "properties": {"cell_id": "98_105", "lon": 147.0, "lat": 68.25}}, {"type": "Feature", "geometry": {"type": "Polygon", "coordinates": [[[146.25, 69.0], [146.25, 70.5], [147.75, 70.5], [147.75, 69.0], [146.25, 69.0]]]}, "properties": {"cell_id": "98_106", "lon": 147.0, "lat": 69.75}}, {"type": "Feature", "geometry": {"type": "Polygon", "coordinates": [[[147.75, 60.0], [147.75, 61.5], [149.25, 61.5], [149.25, 60.0], [147.75, 60.0]]]}, "properties": {"cell_id": "99_100", "lon": 148.5, "lat": 60.75}}, {"type": "Feature", "geometry": {"type": "Polygon", "coordinates": [[[147.75, 61.5], [147.75, 63.0], [149.25, 63.0], [149.25, 61.5], [147.75, 61.5]]]}, "properties": {"cell_id": "99_101", "lon": 148.5, "lat": 62.25}}, {"type": "Feature", "geometry": {"type": "Polygon", "coordinates": [[[147.75, 63.0], [147.75, 64.5], [149.25, 64.5], [149.25, 63.0], [147.75, 63.0]]]}, "properties": {"cell_id": "99_102", "lon": 148.5, "lat": 63.75}}, {"type": "Feature", "geometry": {"type": "Polygon", "coordinates": [[[147.75, 64.5], [147.75, 66.0], [149.25, 66.0], [149.25, 64.5], [147.75, 64.5]]]}, "properties": {"cell_id": "99_103", "lon": 148.5, "lat": 65.25}}, {"type": "Feature", "geometry": {"type": "Polygon", "coordinates": [[[147.75, 66.0], [147.75, 67.5], [149.25, 67.5], [149.25, 66.0], [147.75, 66.0]]]}, "properties": {"cell_id": "99_104", "lon": 148.5, "lat": 66.75}}, {"type": "Feature", "geometry": {"type": "Polygon", "coordinates": [[[147.75, 67.5], [147.75, 69.0], [149.25, 69.0], [149.25, 67.5], [147.75, 67.5]]]}, "properties": {"cell_id": "99_105", "lon": 148.5, "lat": 68.25}}, {"type": "Feature", "geometry": {"type": "Polygon", "coordinates": [[[147.75, 69.0], [147.75, 70.5], [149.25, 70.5], [149.25, 69.0], [147.75, 69.0]]]}, "properties": {"cell_id": "99_106", "lon": 148.5, "lat": 69.75}}, {"type": "Feature", "geometry": {"type": "Polygon", "coordinates": [[[149.25, 60.0], [149.25, 61.5], [150.75, 61.5], [150.75, 60.0], [149.25, 60.0]]]}, "properties": {"cell_id": "100_100", "lon": 150.0, "lat": 60.75}}, {"type": "Feature", "geometry": {"type": "Polygon", "coordinates": [[[149.25, 61.5], [149.25, 63.0], [150.75, 63.0], [150.75, 61.5], [149.25, 61.5]]]}, "properties": {"cell_id": "100_101", "lon": 150.0, "lat": 62.25}}, {"type": "Feature", "geometry": {"type": "Polygon", "coordinates": [[[149.25, 63.0], [149.25, 64.5], [150.75, 64.5], [150.75, 63.0], [149.25, 63.0]]]}, "properties": {"cell_id": "100_102", "lon": 150.0, "lat": 63.75}}, {"type": "Feature", "geometry": {"type": "Polygon", "coordinates": [[[149.25, 64.5], [149.25, 66.0], [150.75, 66.0], [150.75, 64.5], [149.25, 64.5]]]}, "properties": {"cell_id": "100_103", "lon": 150.0, "lat": 65.25}}, {"type": "Feature", "geometry": {"type": "Polygon", "coordinates": [[[149.25, 66.0], [149.25, 67.5], [150.75, 67.5], [150.75, 66.0], [149.25, 66.0]]]}, "properties": {"cell_id": "100_104", "lon": 150.0, "lat": 66.75}}, {"type": "Feature", "geometry": {"type": "Polygon", "coordinates": [[[149.25, 67.5], [149.25, 69.0], [150.75, 69.0], [150.75, 67.5], [149.25, 67.5]]]}, "properties": {"cell_id": "100_105", "lon": 150.0, "lat": 68.25}}, {"type": "Feature", "geometry": {"type": "Polygon", "coordinates": [[[149.25, 69.0], [149.25, 70.5], [150.75, 70.5], [150.75, 69.0], [149.25, 69.0]]]}, "properties": {"cell_id": "100_106", "lon": 150.0, "lat": 69.75}}]}