{"type": "FeatureCollection", "features": [{"type": "Feature", "geometry": {"type": "Polygon", "coordinates": [[[90.0, 70.0], [90.0, 72.5], [92.5, 72.5], [92.5, 70.0], [90.0, 70.0]]]}, "properties": {"cell_id": "36_64", "lon": 91.25, "lat": 71.25}}, {"type": "Feature", "geometry": {"type": "Polygon", "coordinates": [[[90.0, 72.5], [90.0, 75.0], [92.5, 75.0], [92.5, 72.5], [90.0, 72.5]]]}, "properties": {"cell_id": "36_65", "lon": 91.25, "lat": 73.75}}, {"type": "Feature", "geometry": {"type": "Polygon", "coordinates": [[[92.5, 70.0], [92.5, 72.5], [95.0, 72.5], [95.0, 70.0], [92.5, 70.0]]]}, "properties": {"cell_id": "37_64", "lon": 93.75, "lat": 71.25}}, {"type": "Feature", "geometry": {"type": "Polygon", "coordinates": [[[92.5, 72.5], [92.5, 75.0], [95.0, 75.0], [95.0, 72.5], [92.5, 72.5]]]}, "properties": {"cell_id": "37_65", "lon": 93.75, "lat": 73.75}}, {"type": "Feature", "geometry": {"type": "Polygon", "coordinates": [[[95.0, 70.0], [95.0, 72.5], [97.5, 72.5], [97.5, 70.0], [95.0, 70.0]]]}, "properties": {"cell_id": "38_64", "lon": 96.25, "lat": 71.25}}, {"type": "Feature", "geometry": {"type": "Polygon", "coordinates": [[[95.0, 72.5], [95.0, 75.0], [97.5, 75.0], [97.5, 72.5], [95.0, 72.5]]]}, "properties": {"cell_id": "38_65", "lon": 96.25, "lat": 73.75}}, {"type": "Feature", "geometry": {"type": "Polygon", "coordinates": [[[97.5, 70.0], [97.5, 72.5], [100.0, 72.5], [100.0, 70.0], [97.5, 70.0]]]}, "properties": {"cell_id": "39_64", "lon": 98.75, "lat": 71.25}}, {"type": "Feature", "geometry": {"type": "Polygon", "coordinates": [[[97.5, 72.5], [97.5, 75.0], [100.0, 75.0], [100.0, 72.5], [97.5, 72.5]]]}, "properties": {"cell_id": "39_65", "lon": 98.75, "lat": 73.75}}, {"type": "Feature", "geometry": {"type": "Polygon", "coordinates": [[[97.5, 75.0], [97.5, 77.5], [100.0, 77.5], [100.0, 75.0], [97.5, 75.0]]]}, "properties": {"cell_id": "39_66", "lon": 98.75, "lat": 76.25}}]}