{"type": "FeatureCollection", "features": [{"type": "Feature", "geometry": {"type": "Polygon", "coordinates": [[[-99.75, 72.0], [-99.75, 73.5], [-98.25, 73.5], [-98.25, 72.0], [-99.75, 72.0]]]}, "properties": {"cell_id": "174_108", "lon": -99.0, "lat": 72.75}}, {"type": "Feature", "geometry": {"type": "Polygon", "coordinates": [[[-99.75, 73.5], [-99.75, 75.0], [-98.25, 75.0], [-98.25, 73.5], [-99.75, 73.5]]]}, "properties": {"cell_id": "174_109", "lon": -99.0, "lat": 74.25}}, {"type": "Feature", "geometry": {"type": "Polygon", "coordinates": [[[-99.75, 75.0], [-99.75, 76.5], [-98.25, 76.5], [-98.25, 75.0], [-99.75, 75.0]]]}, "properties": {"cell_id": "174_110", "lon": -99.0, "lat": 75.75}}, {"type": "Feature", "geometry": {"type": "Polygon", "coordinates": [[[-98.25, 70.5], [-98.25, 72.0], [-96.75, 72.0], [-96.75, 70.5], [-98.25, 70.5]]]}, "properties": {"cell_id": "175_107", "lon": -97.5, "lat": 71.25}}, {"type": "Feature", "geometry": {"type": "Polygon", "coordinates": [[[-98.25, 72.0], [-98.25, 73.5], [-96.75, 73.5], [-96.75, 72.0], [-98.25, 72.0]]]}, "properties": {"cell_id": "175_108", "lon": -97.5, "lat": 72.75}}, {"type": "Feature", "geometry": {"type": "Polygon", "coordinates": [[[-98.25, 73.5], [-98.25, 75.0], [-96.75, 75.0], [-96.75, 73.5], [-98.25, 73.5]]]}, "properties": {"cell_id": "175_109", "lon": -97.5, "lat": 74.25}}, {"type": "Feature", "geometry": {"type": "Polygon", "coordinates": [[[-98.25, 75.0], [-98.25, 76.5], [-96.75, 76.5], [-96.75, 75.0], [-98.25, 75.0]]]}, "properties": {"cell_id": "175_110", "lon": -97.5, "lat": 75.75}}, {"type": "Feature", "geometry": {"type": "Polygon", "coordinates": [[[-96.75, 70.5], [-96.75, 72.0], [-95.25, 72.0], [-95.25, 70.5], [-96.75, 70.5]]]}, "properties": {"cell_id": "176_107", "lon": -96.0, "lat": 71.25}}, {"type": "Feature", "geometry": {"type": "Polygon", "coordinates": [[[-96.75, 72.0], [-96.75, 73.5], [-95.25, 73.5], [-95.25, 72.0], [-96.75, 72.0]]]}, "properties": {"cell_id": "176_108", "lon": -96.0, "lat": 72.75}}, {"type": "Feature", "geometry": {"type": "Polygon", "coordinates": [[[-96.75, 73.5], [-96.75, 75.0], [-95.25, 75.0], [-95.25, 73.5], [-96.75, 73.5]]]}, "properties": {"cell_id": "176_109", "lon": -96.0, "lat": 74.25}}, {"type": "Feature", "geometry": {"type": "Polygon", "coordinates": [[[-96.75, 75.0], [-96.75, 76.5], [-95.25, 76.5], [-95.25, 75.0], [-96.75, 75.0]]]}, "properties": {"cell_id": "176_110", "lon": -96.0, "lat": 75.75}}, {"type": "Feature", "geometry": {"type": "Polygon", "coordinates": [[[-95.25, 70.5], [-95.25, 72.0], [-93.75, 72.0], [-93.75, 70.5], [-95.25, 70.5]]]}, "properties": {"cell_id": "177_107", "lon": -94.5, "lat": 71.25}}, {"type": "Feature", "geometry": {"type": "Polygon", "coordinates": [[[-95.25, 72.0], [-95.25, 73.5], [-93.75, 73.5], [-93.75, 72.0], [-95.25, 72.0]]]}, "properties": {"cell_id": "177_108", "lon": -94.5, "lat": 72.75}}, {"type": "Feature", "geometry": {"type": "Polygon", "coordinates": [[[-95.25, 73.5], [-95.25, 75.0], [-93.75, 75.0], [-93.75, 73.5], [-95.25, 73.5]]]}, "properties": {"cell_id": "177_109", "lon": -94.5, "lat": 74.25}}, {"type": "Feature", "geometry": {"type": "Polygon", "coordinates": [[[-95.25, 75.0], [-95.25, 76.5], [-93.75, 76.5], [-93.75, 75.0], [-95.25, 75.0]]]}, "properties": {"cell_id": "177_110", "lon": -94.5, "lat": 75.75}}, {"type": "Feature", "geometry": {"type": "Polygon", "coordinates": [[[-95.25, 78.0], [-95.25, 79.5], [-93.75, 79.5], [-93.75, 78.0], [-95.25, 78.0]]]}, "properties": {"cell_id": "177_112", "lon": -94.5, "lat": 78.75}}, {"type": "Feature", "geometry": {"type": "Polygon", "coordinates": [[[-95.25, 79.5], [-95.25, 81.0], [-93.75, 81.0], [-93.75, 79.5], [-95.25, 79.5]]]}, "properties": {"cell_id": "177_113", "lon": -94.5, "lat": 80.25}}, {"type": "Feature", "geometry": {"type": "Polygon", "coordinates": [[[-93.75, 78.0], [-93.75, 79.5], [-92.25, 79.5], [-92.25, 78.0], [-93.75, 78.0]]]}, "properties": {"cell_id": "178_112", "lon": -93.0, "lat": 78.75}}, {"type": "Feature", "geometry": {"type": "Polygon", "coordinates": [[[-93.75, 79.5], [-93.75, 81.0], [-92.25, 81.0], [-92.25, 79.5], [-93.75, 79.5]]]}, "properties": {"cell_id": "178_113", "lon": -93.0, "lat": 80.25}}, {"type": "Feature", "geometry": {"type": "Polygon", "coordinates": [[[-92.25, 75.0], [-92.25, 76.5], [-90.75, 76.5], [-90.75, 75.0], [-92.25, 75.0]]]}, "properties": {"cell_id": "179_110", "lon": -91.5, "lat": 75.75}}, {"type": "Feature", "geometry": {"type": "Polygon", "coordinates": [[[-92.25, 76.5], [-92.25, 78.0], [-90.75, 78.0], [-90.75, 76.5], [-92.25, 76.5]]]}, "properties": {"cell_id": "179_111", "lon": -91.5, "lat": 77.25}}, {"type": "Feature", "geometry": {"type": "Polygon", "coordinates": [[[-92.25, 78.0], [-92.25, 79.5], [-90.75, 79.5], [-90.75, 78.0], [-92.25, 78.0]]]}, "properties": {"cell_id": "179_112", "lon": -91.5, "lat": 78.75}}, {"type": "Feature", "geometry": {"type": "Polygon", "coordinates": [[[-92.25, 79.5], [-92.25, 81.0], [-90.75, 81.0], [-90.75, 79.5], [-92.25, 79.5]]]}, "properties": {"cell_id": "179_113", "lon": -91.5, "lat": 80.25}}, {"type": "Feature", "geometry": {"type": "Polygon", "coordinates": [[[-90.75, 75.0], [-90.75, 76.5], [-89.25, 76.5], [-89.25, 75.0], [-90.75, 75.0]]]}, "properties": {"cell_id": "180_110", "lon": -90.0, "lat": 75.75}}, {"type": "Feature", "geometry": {"type": "Polygon", "coordinates": [[[-90.75, 76.5], [-90.75, 78.0], [-89.25, 78.0], [-89.25, 76.5], [-90.75, 76.5]]]}, "properties": {"cell_id": "180_111", "lon": -90.0, "lat": 77.25}}, {"type": "Feature", "geometry": {"type": "Polygon", "coordinates": [[[-90.75, 78.0], [-90.75, 79.5], [-89.25, 79.5], [-89.25, 78.0], [-90.75, 78.0]]]}, "properties": {"cell_id": "180_112", "lon": -90.0, "lat": 78.75}}, {"type": "Feature", "geometry": {"type": "Polygon", "coordinates": [[[-90.75, 79.5], [-90.75, 81.0], [-89.25, 81.0], [-89.25, 79.5], [-90.75, 79.5]]]}, "properties": {"cell_id": "180_113", "lon": -90.0, "lat": 80.25}}]}