{"type": "FeatureCollection", "features": [{"type": "Feature", "geometry": {"type": "Polygon", "coordinates": [[[50.0, 50.0], [50.0, 52.5], [52.5, 52.5], [52.5, 50.0], [50.0, 50.0]]]}, "properties": {"cell_id": "20_56", "lon": 51.25, "lat": 51.25}}, {"type": "Feature", "geometry": {"type": "Polygon", "coordinates": [[[50.0, 52.5], [50.0, 55.0], [52.5, 55.0], [52.5, 52.5], [50.0, 52.5]]]}, "properties": {"cell_id": "20_57", "lon": 51.25, "lat": 53.75}}, {"type": "Feature", "geometry": {"type": "Polygon", "coordinates": [[[50.0, 55.0], [50.0, 57.5], [52.5, 57.5], [52.5, 55.0], [50.0, 55.0]]]}, "properties": {"cell_id": "20_58", "lon": 51.25, "lat": 56.25}}, {"type": "Feature", "geometry": {"type": "Polygon", "coordinates": [[[50.0, 57.5], [50.0, 60.0], [52.5, 60.0], [52.5, 57.5], [50.0, 57.5]]]}, "properties": {"cell_id": "20_59", "lon": 51.25, "lat": 58.75}}, {"type": "Feature", "geometry": {"type": "Polygon", "coordinates": [[[52.5, 50.0], [52.5, 52.5], [55.0, 52.5], [55.0, 50.0], [52.5, 50.0]]]}, "properties": {"cell_id": "21_56", "lon": 53.75, "lat": 51.25}}, {"type": "Feature", "geometry": {"type": "Polygon", "coordinates": [[[52.5, 52.5], [52.5, 55.0], [55.0, 55.0], [55.0, 52.5], [52.5, 52.5]]]}, "properties": {"cell_id": "21_57", "lon": 53.75, "lat": 53.75}}, {"type": "Feature", "geometry": {"type": "Polygon", "coordinates": [[[52.5, 55.0], [52.5, 57.5], [55.0, 57.5], [55.0, 55.0], [52.5, 55.0]]]}, "properties": {"cell_id": "21_58", "lon": 53.75, "lat": 56.25}}, {"type": "Feature", "geometry": {"type": "Polygon", "coordinates": [[[52.5, 57.5], [52.5, 60.0], [55.0, 60.0], [55.0, 57.5], [52.5, 57.5]]]}, "properties": {"cell_id": "21_59", "lon": 53.75, "lat": 58.75}}, {"type": "Feature", "geometry": {"type": "Polygon", "coordinates": [[[55.0, 50.0], [55.0, 52.5], [57.5, 52.5], [57.5, 50.0], [55.0, 50.0]]]}, "properties": {"cell_id": "22_56", "lon": 56.25, "lat": 51.25}}, {"type": "Feature", "geometry": {"type": "Polygon", "coordinates": [[[55.0, 52.5], [55.0, 55.0], [57.5, 55.0], [57.5, 52.5], [55.0, 52.5]]]}, "properties": {"cell_id": "22_57", "lon": 56.25, "lat": 53.75}}, {"type": "Feature", "geometry": {"type": "Polygon", "coordinates": [[[55.0, 55.0], [55.0, 57.5], [57.5, 57.5], [57.5, 55.0], [55.0, 55.0]]]}, "properties": {"cell_id": "22_58", "lon": 56.25, "lat": 56.25}}, {"type": "Feature", "geometry": {"type": "Polygon", "coordinates": [[[55.0, 57.5], [55.0, 60.0], [57.5, 60.0], [57.5, 57.5], [55.0, 57.5]]]}, "properties": {"cell_id": "22_59", "lon": 56.25, "lat": 58.75}}, {"type": "Feature", "geometry": {"type": "Polygon", "coordinates": [[[57.5, 50.0], [57.5, 52.5], [60.0, 52.5], [60.0, 50.0], [57.5, 50.0]]]}, "properties": {"cell_id": "23_56", "lon": 58.75, "lat": 51.25}}, {"type": "Feature", "geometry": {"type": "Polygon", "coordinates": [[[57.5, 52.5], [57.5, 55.0], [60.0, 55.0], [60.0, 52.5], [57.5, 52.5]]]}, "properties": {"cell_id": "23_57", "lon": 58.75, "lat": 53.75}}, {"type": "Feature", "geometry": {"type": "Polygon", "coordinates": [[[57.5, 55.0], [57.5, 57.5], [60.0, 57.5], [60.0, 55.0], [57.5, 55.0]]]}, "properties": {"cell_id": "23_58", "lon": 58.75, "lat": 56.25}}, {"type": "Feature", "geometry": {"type": "Polygon", "coordinates": [[[57.5, 57.5], [57.5, 60.0], [60.0, 60.0], [60.0, 57.5], [57.5, 57.5]]]}, "properties": {"cell_id": "23_59", "lon": 58.75, "lat": 58.75}}]}