{"type": "FeatureCollection", "features": [{"type": "Feature", "geometry": {"type": "Polygon", "coordinates": [[[120.0, 30.0], [120.0, 32.5], [122.5, 32.5], [122.5, 30.0], [120.0, 30.0]]]}, "properties": {"cell_id": "48_48", "lon": 121.25, "lat": 31.25}}, {"type": "Feature", "geometry": {"type": "Polygon", "coordinates": [[[125.0, 37.5], [125.0, 40.0], [127.5, 40.0], [127.5, 37.5], [125.0, 37.5]]]}, "properties": {"cell_id": "50_51", "lon": 126.25, "lat": 38.75}}, {"type": "Feature", "geometry": {"type": "Polygon", "coordinates": [[[127.5, 35.0], [127.5, 37.5], [130.0, 37.5], [130.0, 35.0], [127.5, 35.0]]]}, "properties": {"cell_id": "51_50", "lon": 128.75, "lat": 36.25}}]}