{"type": "FeatureCollection", "features": [{"type": "Feature", "geometry": {"type": "Polygon", "coordinates": [[[60.0, 25.0], [60.0, 27.5], [62.5, 27.5], [62.5, 25.0], [60.0, 25.0]]]}, "properties": {"cell_id": "24_46", "lon": 61.25, "lat": 26.25}}, {"type": "Feature", "geometry": {"type": "Polygon", "coordinates": [[[60.0, 27.5], [60.0, 30.0], [62.5, 30.0], [62.5, 27.5], [60.0, 27.5]]]}, "properties": {"cell_id": "24_47", "lon": 61.25, "lat": 28.75}}, {"type": "Feature", "geometry": {"type": "Polygon", "coordinates": [[[62.5, 25.0], [62.5, 27.5], [65.0, 27.5], [65.0, 25.0], [62.5, 25.0]]]}, "properties": {"cell_id": "25_46", "lon": 63.75, "lat": 26.25}}, {"type": "Feature", "geometry": {"type": "Polygon", "coordinates": [[[62.5, 27.5], [62.5, 30.0], [65.0, 30.0], [65.0, 27.5], [62.5, 27.5]]]}, "properties": {"cell_id": "25_47", "lon": 63.75, "lat": 28.75}}, {"type": "Feature", "geometry": {"type": "Polygon", "coordinates": [[[65.0, 25.0], [65.0, 27.5], [67.5, 27.5], [67.5, 25.0], [65.0, 25.0]]]}, "properties": {"cell_id": "26_46", "lon": 66.25, "lat": 26.25}}, {"type": "Feature", "geometry": {"type": "Polygon", "coordinates": [[[65.0, 27.5], [65.0, 30.0], [67.5, 30.0], [67.5, 27.5], [65.0, 27.5]]]}, "properties": {"cell_id": "26_47", "lon": 66.25, "lat": 28.75}}, {"type": "Feature", "geometry": {"type": "Polygon", "coordinates": [[[67.5, 22.5], [67.5, 25.0], [70.0, 25.0], [70.0, 22.5], [67.5, 22.5]]]}, "properties": {"cell_id": "27_45", "lon": 68.75, "lat": 23.75}}, {"type": "Feature", "geometry": {"type": "Polygon", "coordinates": [[[67.5, 25.0], [67.5, 27.5], [70.0, 27.5], [70.0, 25.0], [67.5, 25.0]]]}, "properties": {"cell_id": "27_46", "lon": 68.75, "lat": 26.25}}, {"type": "Feature", "geometry": {"type": "Polygon", "coordinates": [[[67.5, 27.5], [67.5, 30.0], [70.0, 30.0], [70.0, 27.5], [67.5, 27.5]]]}, "properties": {"cell_id": "27_47", "lon": 68.75, "lat": 28.75}}]}