{"type": "FeatureCollection", "features": [{"type": "Feature", "geometry": {"type": "Polygon", "coordinates": [[[-149.25, -79.5], [-149.25, -78.0], [-147.75, -78.0], [-147.75, -79.5], [-149.25, -79.5]]]}, "properties": {"cell_id": "141_7", "lon": -148.5, "lat": -78.75}}, {"type": "Feature", "geometry": {"type": "Polygon", "coordinates": [[[-149.25, -78.0], [-149.25, -76.5], [-147.75, -76.5], [-147.75, -78.0], [-149.25, -78.0]]]}, "properties": {"cell_id": "141_8", "lon": -148.5, "lat": -77.25}}, {"type": "Feature", "geometry": {"type": "Polygon", "coordinates": [[[-149.25, -76.5], [-149.25, -75.0], [-147.75, -75.0], [-147.75, -76.5], [-149.25, -76.5]]]}, "properties": {"cell_id": "141_9", "lon": -148.5, "lat": -75.75}}, {"type": "Feature", "geometry": {"type": "Polygon", "coordinates": [[[-147.75, -79.5], [-147.75, -78.0], [-146.25, -78.0], [-146.25, -79.5], [-147.75, -79.5]]]}, "properties": {"cell_id": "142_7", "lon": -147.0, "lat": -78.75}}, {"type": "Feature", "geometry": {"type": "Polygon", "coordinates": [[[-147.75, -78.0], [-147.75, -76.5], [-146.25, -76.5], [-146.25, -78.0], [-147.75, -78.0]]]}, "properties": {"cell_id": "142_8", "lon": -147.0, "lat": -77.25}}, {"type": "Feature", "geometry": {"type": "Polygon", "coordinates": [[[-147.75, -76.5], [-147.75, -75.0], [-146.25, -75.0], [-146.25, -76.5], [-147.75, -76.5]]]}, "properties": {"cell_id": "142_9", "lon": -147.0, "lat": -75.75}}, {"type": "Feature", "geometry": {"type": "Polygon", "coordinates": [[[-146.25, -79.5], [-146.25, -78.0], [-144.75, -78.0], [-144.75, -79.5], [-146.25, -79.5]]]}, "properties": {"cell_id": "143_7", "lon": -145.5, "lat": -78.75}}, {"type": "Feature", "geometry": {"type": "Polygon", "coordinates": [[[-146.25, -78.0], [-146.25, -76.5], [-144.75, -76.5], [-144.75, -78.0], [-146.25, -78.0]]]}, "properties": {"cell_id": "143_8", "lon": -145.5, "lat": -77.25}}, {"type": "Feature", "geometry": {"type": "Polygon", "coordinates": [[[-146.25, -76.5], [-146.25, -75.0], [-144.75, -75.0], [-144.75, -76.5], [-146.25, -76.5]]]}, "properties": {"cell_id": "143_9", "lon": -145.5, "lat": -75.75}}, {"type": "Feature", "geometry": {"type": "Polygon", "coordinates": [[[-144.75, -79.5], [-144.75, -78.0], [-143.25, -78.0], [-143.25, -79.5], [-144.75, -79.5]]]}, "properties": {"cell_id": "144_7", "lon": -144.0, "lat": -78.75}}, {"type": "Feature", "geometry": {"type": "Polygon", "coordinates": [[[-144.75, -78.0], [-144.75, -76.5], [-143.25, -76.5], [-143.25, -78.0], [-144.75, -78.0]]]}, "properties": {"cell_id": "144_8", "lon": -144.0, "lat": -77.25}}, {"type": "Feature", "geometry": {"type": "Polygon", "coordinates": [[[-144.75, -76.5], [-144.75, -75.0], [-143.25, -75.0], [-143.25, -76.5], [-144.75, -76.5]]]}, "properties": {"cell_id": "144_9", "lon": -144.0, "lat": -75.75}}, {"type": "Feature", "geometry": {"type": "Polygon", "coordinates": [[[-143.25, -79.5], [-143.25, -78.0], [-141.75, -78.0], [-141.75, -79.5], [-143.25, -79.5]]]}, "properties": {"cell_id": "145_7", "lon": -142.5, "lat": -78.75}}, {"type": "Feature", "geometry": {"type": "Polygon", "coordinates": [[[-143.25, -78.0], [-143.25, -76.5], [-141.75, -76.5], [-141.75, -78.0], [-143.25, -78.0]]]}, "properties": {"cell_id": "145_8", "lon": -142.5, "lat": -77.25}}, {"type": "Feature", "geometry": {"type": "Polygon", "coordinates": [[[-143.25, -76.5], [-143.25, -75.0], [-141.75, -75.0], [-141.75, -76.5], [-143.25, -76.5]]]}, "properties": {"cell_id": "145_9", "lon": -142.5, "lat": -75.75}}, {"type": "Feature", "geometry": {"type": "Polygon", "coordinates": [[[-141.75, -79.5], [-141.75, -78.0], [-140.25, -78.0], [-140.25, -79.5], [-141.75, -79.5]]]}, "properties": {"cell_id": "146_7", "lon": -141.0, "lat": -78.75}}, {"type": "Feature", "geometry": {"type": "Polygon", "coordinates": [[[-141.75, -78.0], [-141.75, -76.5], [-140.25, -76.5], [-140.25, -78.0], [-141.75, -78.0]]]}, "properties": {"cell_id": "146_8", "lon": -141.0, "lat": -77.25}}, {"type": "Feature", "geometry": {"type": "Polygon", "coordinates": [[[-141.75, -76.5], [-141.75, -75.0], [-140.25, -75.0], [-140.25, -76.5], [-141.75, -76.5]]]}, "properties": {"cell_id": "146_9", "lon": -141.0, "lat": -75.75}}, {"type": "Feature", "geometry": {"type": "Polygon", "coordinates": [[[-140.25, -79.5], [-140.25, -78.0], [-138.75, -78.0], [-138.75, -79.5], [-140.25, -79.5]]]}, "properties": {"cell_id": "147_7", "lon": -139.5, "lat": -78.75}}, {"type": "Feature", "geometry": {"type": "Polygon", "coordinates": [[[-140.25, -78.0], [-140.25, -76.5], [-138.75, -76.5], [-138.75, -78.0], [-140.25, -78.0]]]}, "properties": {"cell_id": "147_8", "lon": -139.5, "lat": -77.25}}, {"type": "Feature", "geometry": {"type": "Polygon", "coordinates": [[[-140.25, -76.5], [-140.25, -75.0], [-138.75, -75.0], [-138.75, -76.5], [-140.25, -76.5]]]}, "properties": {"cell_id": "147_9", "lon": -139.5, "lat": -75.75}}]}