{"type": "FeatureCollection", "features": [{"type": "Feature", "geometry": {"type": "Polygon", "coordinates": [[[-77.5, -15.0], [-77.5, -12.5], [-75.0, -12.5], [-75.0, -15.0], [-77.5, -15.0]]]}, "properties": {"cell_id": "113_30", "lon": -76.25, "lat": -13.75}}, {"type": "Feature", "geometry": {"type": "Polygon", "coordinates": [[[-77.5, -12.5], [-77.5, -10.0], [-75.0, -10.0], [-75.0, -12.5], [-77.5, -12.5]]]}, "properties": {"cell_id": "113_31", "lon": -76.25, "lat": -11.25}}, {"type": "Feature", "geometry": {"type": "Polygon", "coordinates": [[[-75.0, -15.0], [-75.0, -12.5], [-72.5, -12.5], [-72.5, -15.0], [-75.0, -15.0]]]}, "properties": {"cell_id": "114_30", "lon": -73.75, "lat": -13.75}}, {"type": "Feature", "geometry": {"type": "Polygon", "coordinates": [[[-75.0, -12.5], [-75.0, -10.0], [-72.5, -10.0], [-72.5, -12.5], [-75.0, -12.5]]]}, "properties": {"cell_id": "114_31", "lon": -73.75, "lat": -11.25}}, {"type": "Feature", "geometry": {"type": "Polygon", "coordinates": [[[-72.5, -17.5], [-72.5, -15.0], [-70.0, -15.0], [-70.0, -17.5], [-72.5, -17.5]]]}, "properties": {"cell_id": "115_29", "lon": -71.25, "lat": -16.25}}, {"type": "Feature", "geometry": {"type": "Polygon", "coordinates": [[[-72.5, -15.0], [-72.5, -12.5], [-70.0, -12.5], [-70.0, -15.0], [-72.5, -15.0]]]}, "properties": {"cell_id": "115_30", "lon": -71.25, "lat": -13.75}}, {"type": "Feature", "geometry": {"type": "Polygon", "coordinates": [[[-72.5, -12.5], [-72.5, -10.0], [-70.0, -10.0], [-70.0, -12.5], [-72.5, -12.5]]]}, "properties": {"cell_id": "115_31", "lon": -71.25, "lat": -11.25}}]}