{"type": "FeatureCollection", "features": [{"type": "Feature", "geometry": {"type": "Polygon", "coordinates": [[[71.25, -79.5], [71.25, -78.0], [72.75, -78.0], [72.75, -79.5], [71.25, -79.5]]]}, "properties": {"cell_id": "48_7", "lon": 72.0, "lat": -78.75}}, {"type": "Feature", "geometry": {"type": "Polygon", "coordinates": [[[71.25, -78.0], [71.25, -76.5], [72.75, -76.5], [72.75, -78.0], [71.25, -78.0]]]}, "properties": {"cell_id": "48_8", "lon": 72.0, "lat": -77.25}}, {"type": "Feature", "geometry": {"type": "Polygon", "coordinates": [[[71.25, -76.5], [71.25, -75.0], [72.75, -75.0], [72.75, -76.5], [71.25, -76.5]]]}, "properties": {"cell_id": "48_9", "lon": 72.0, "lat": -75.75}}, {"type": "Feature", "geometry": {"type": "Polygon", "coordinates": [[[71.25, -75.0], [71.25, -73.5], [72.75, -73.5], [72.75, -75.0], [71.25, -75.0]]]}, "properties": {"cell_id": "48_10", "lon": 72.0, "lat": -74.25}}, {"type": "Feature", "geometry": {"type": "Polygon", "coordinates": [[[71.25, -73.5], [71.25, -72.0], [72.75, -72.0], [72.75, -73.5], [71.25, -73.5]]]}, "properties": {"cell_id": "48_11", "lon": 72.0, "lat": -72.75}}, {"type": "Feature", "geometry": {"type": "Polygon", "coordinates": [[[71.25, -72.0], [71.25, -70.5], [72.75, -70.5], [72.75, -72.0], [71.25, -72.0]]]}, "properties": {"cell_id": "48_12", "lon": 72.0, "lat": -71.25}}, {"type": "Feature", "geometry": {"type": "Polygon", "coordinates": [[[71.25, -70.5], [71.25, -69.0], [72.75, -69.0], [72.75, -70.5], [71.25, -70.5]]]}, "properties": {"cell_id": "48_13", "lon": 72.0, "lat": -69.75}}, {"type": "Feature", "geometry": {"type": "Polygon", "coordinates": [[[72.75, -79.5], [72.75, -78.0], [74.25, -78.0], [74.25, -79.5], [72.75, -79.5]]]}, "properties": {"cell_id": "49_7", "lon": 73.5, "lat": -78.75}}, {"type": "Feature", "geometry": {"type": "Polygon", "coordinates": [[[72.75, -78.0], [72.75, -76.5], [74.25, -76.5], [74.25, -78.0], [72.75, -78.0]]]}, "properties": {"cell_id": "49_8", "lon": 73.5, "lat": -77.25}}, {"type": "Feature", "geometry": {"type": "Polygon", "coordinates": [[[72.75, -76.5], [72.75, -75.0], [74.25, -75.0], [74.25, -76.5], [72.75, -76.5]]]}, "properties": {"cell_id": "49_9", "lon": 73.5, "lat": -75.75}}, {"type": "Feature", "geometry": {"type": "Polygon", "coordinates": [[[72.75, -75.0], [72.75, -73.5], [74.25, -73.5], [74.25, -75.0], [72.75, -75.0]]]}, "properties": {"cell_id": "49_10", "lon": 73.5, "lat": -74.25}}, {"type": "Feature", "geometry": {"type": "Polygon", "coordinates": [[[72.75, -73.5], [72.75, -72.0], [74.25, -72.0], [74.25, -73.5], [72.75, -73.5]]]}, "properties": {"cell_id": "49_11", "lon": 73.5, "lat": -72.75}}, {"type": "Feature", "geometry": {"type": "Polygon", "coordinates": [[[72.75, -72.0], [72.75, -70.5], [74.25, -70.5], [74.25, -72.0], [72.75, -72.0]]]}, "properties": {"cell_id": "49_12", "lon": 73.5, "lat": -71.25}}, {"type": "Feature", "geometry": {"type": "Polygon", "coordinates": [[[72.75, -70.5], [72.75, -69.0], [74.25, -69.0], [74.25, -70.5], [72.75, -70.5]]]}, "properties": {"cell_id": "49_13", "lon": 73.5, "lat": -69.75}}, {"type": "Feature", "geometry": {"type": "Polygon", "coordinates": [[[74.25, -79.5], [74.25, -78.0], [75.75, -78.0], [75.75, -79.5], [74.25, -79.5]]]}, "properties": {"cell_id": "50_7", "lon": 75.0, "lat": -78.75}}, {"type": "Feature", "geometry": {"type": "Polygon", "coordinates": [[[74.25, -78.0], [74.25, -76.5], [75.75, -76.5], [75.75, -78.0], [74.25, -78.0]]]}, "properties": {"cell_id": "50_8", "lon": 75.0, "lat": -77.25}}, {"type": "Feature", "geometry": {"type": "Polygon", "coordinates": [[[74.25, -76.5], [74.25, -75.0], [75.75, -75.0], [75.75, -76.5], [74.25, -76.5]]]}, "properties": {"cell_id": "50_9", "lon": 75.0, "lat": -75.75}}, {"type": "Feature", "geometry": {"type": "Polygon", "coordinates": [[[74.25, -75.0], [74.25, -73.5], [75.75, -73.5], [75.75, -75.0], [74.25, -75.0]]]}, "properties": {"cell_id": "50_10", "lon": 75.0, "lat": -74.25}}, {"type": "Feature", "geometry": {"type": "Polygon", "coordinates": [[[74.25, -73.5], [74.25, -72.0], [75.75, -72.0], [75.75, -73.5], [74.25, -73.5]]]}, "properties": {"cell_id": "50_11", "lon": 75.0, "lat": -72.75}}, {"type": "Feature", "geometry": {"type": "Polygon", "coordinates": [[[74.25, -72.0], [74.25, -70.5], [75.75, -70.5], [75.75, -72.0], [74.25, -72.0]]]}, "properties": {"cell_id": "50_12", "lon": 75.0, "lat": -71.25}}, {"type": "Feature", "geometry": {"type": "Polygon", "coordinates": [[[74.25, -70.5], [74.25, -69.0], [75.75, -69.0], [75.75, -70.5], [74.25, -70.5]]]}, "properties": {"cell_id": "50_13", "lon": 75.0, "lat": -69.75}}, {"type": "Feature", "geometry": {"type": "Polygon", "coordinates": [[[75.75, -79.5], [75.75, -78.0], [77.25, -78.0], [77.25, -79.5], [75.75, -79.5]]]}, "properties": {"cell_id": "51_7", "lon": 76.5, "lat": -78.75}}, {"type": "Feature", "geometry": {"type": "Polygon", "coordinates": [[[75.75, -78.0], [75.75, -76.5], [77.25, -76.5], [77.25, -78.0], [75.75, -78.0]]]}, "properties": {"cell_id": "51_8", "lon": 76.5, "lat": -77.25}}, {"type": "Feature", "geometry": {"type": "Polygon", "coordinates": [[[75.75, -76.5], [75.75, -75.0], [77.25, -75.0], [77.25, -76.5], [75.75, -76.5]]]}, "properties": {"cell_id": "51_9", "lon": 76.5, "lat": -75.75}}, {"type": "Feature", "geometry": {"type": "Polygon", "coordinates": [[[75.75, -75.0], [75.75, -73.5], [77.25, -73.5], [77.25, -75.0], [75.75, -75.0]]]}, "properties": {"cell_id": "51_10", "lon": 76.5, "lat": -74.25}}, {"type": "Feature", "geometry": {"type": "Polygon", "coordinates": [[[75.75, -73.5], [75.75, -72.0], [77.25, -72.0], [77.25, -73.5], [75.75, -73.5]]]}, "properties": {"cell_id": "51_11", "lon": 76.5, "lat": -72.75}}, {"type": "Feature", "geometry": {"type": "Polygon", "coordinates": [[[75.75, -72.0], [75.75, -70.5], [77.25, -70.5], [77.25, -72.0], [75.75, -72.0]]]}, "properties": {"cell_id": "51_12", "lon": 76.5, "lat": -71.25}}, {"type": "Feature", "geometry": {"type": "Polygon", "coordinates": [[[75.75, -70.5], [75.75, -69.0], [77.25, -69.0], [77.25, -70.5], [75.75, -70.5]]]}, "properties": {"cell_id": "51_13", "lon": 76.5, "lat": -69.75}}, {"type": "Feature", "geometry": {"type": "Polygon", "coordinates": [[[77.25, -79.5], [77.25, -78.0], [78.75, -78.0], [78.75, -79.5], [77.25, -79.5]]]}, "properties": {"cell_id": "52_7", "lon": 78.0, "lat": -78.75}}, {"type": "Feature", "geometry": {"type": "Polygon", "coordinates": [[[77.25, -78.0], [77.25, -76.5], [78.75, -76.5], [78.75, -78.0], [77.25, -78.0]]]}, "properties": {"cell_id": "52_8", "lon": 78.0, "lat": -77.25}}, {"type": "Feature", "geometry": {"type": "Polygon", "coordinates": [[[77.25, -76.5], [77.25, -75.0], [78.75, -75.0], [78.75, -76.5], [77.25, -76.5]]]}, "properties": {"cell_id": "52_9", "lon": 78.0, "lat": -75.75}}, {"type": "Feature", "geometry": {"type": "Polygon", "coordinates": [[[77.25, -75.0], [77.25, -73.5], [78.75, -73.5], [78.75, -75.0], [77.25, -75.0]]]}, "properties": {"cell_id": "52_10", "lon": 78.0, "lat": -74.25}}, {"type": "Feature", "geometry": {"type": "Polygon", "coordinates": [[[77.25, -73.5], [77.25, -72.0], [78.75, -72.0], [78.75, -73.5], [77.25, -73.5]]]}, "properties": {"cell_id": "52_11", "lon": 78.0, "lat": -72.75}}, {"type": "Feature", "geometry": {"type": "Polygon", "coordinates": [[[77.25, -72.0], [77.25, -70.5], [78.75, -70.5], [78.75, -72.0], [77.25, -72.0]]]}, "properties": {"cell_id": "52_12", "lon": 78.0, "lat": -71.25}}, {"type": "Feature", "geometry": {"type": "Polygon", "coordinates": [[[77.25, -70.5], [77.25, -69.0], [78.75, -69.0], [78.75, -70.5], [77.25, -70.5]]]}, "properties": {"cell_id": "52_13", "lon": 78.0, "lat": -69.75}}, {"type": "Feature", "geometry": {"type": "Polygon", "coordinates": [[[78.75, -79.5], [78.75, -78.0], [80.25, -78.0], [80.25, -79.5], [78.75, -79.5]]]}, "properties": {"cell_id": "53_7", "lon": 79.5, "lat": -78.75}}, {"type": "Feature", "geometry": {"type": "Polygon", "coordinates": [[[78.75, -78.0], [78.75, -76.5], [80.25, -76.5], [80.25, -78.0], [78.75, -78.0]]]}, "properties": {"cell_id": "53_8", "lon": 79.5, "lat": -77.25}}, {"type": "Feature", "geometry": {"type": "Polygon", "coordinates": [[[78.75, -76.5], [78.75, -75.0], [80.25, -75.0], [80.25, -76.5], [78.75, -76.5]]]}, "properties": {"cell_id": "53_9", "lon": 79.5, "lat": -75.75}}, {"type": "Feature", "geometry": {"type": "Polygon", "coordinates": [[[78.75, -75.0], [78.75, -73.5], [80.25, -73.5], [80.25, -75.0], [78.75, -75.0]]]}, "properties": {"cell_id": "53_10", "lon": 79.5, "lat": -74.25}}, {"type": "Feature", "geometry": {"type": "Polygon", "coordinates": [[[78.75, -73.5], [78.75, -72.0], [80.25, -72.0], [80.25, -73.5], [78.75, -73.5]]]}, "properties": {"cell_id": "53_11", "lon": 79.5, "lat": -72.75}}, {"type": "Feature", "geometry": {"type": "Polygon", "coordinates": [[[78.75, -72.0], [78.75, -70.5], [80.25, -70.5], [80.25, -72.0], [78.75, -72.0]]]}, "properties": {"cell_id": "53_12", "lon": 79.5, "lat": -71.25}}, {"type": "Feature", "geometry": {"type": "Polygon", "coordinates": [[[78.75, -70.5], [78.75, -69.0], [80.25, -69.0], [80.25, -70.5], [78.75, -70.5]]]}, "properties": {"cell_id": "53_13", "lon": 79.5, "lat": -69.75}}]}