{"type": "FeatureCollection", "features": [{"type": "Feature", "geometry": {"type": "Polygon", "coordinates": [[[0.0, 10.0], [0.0, 12.5], [2.5, 12.5], [2.5, 10.0], [0.0, 10.0]]]}, "properties": {"cell_id": "0_40", "lon": 1.25, "lat": 11.25}}, {"type": "Feature", "geometry": {"type": "Polygon", "coordinates": [[[0.0, 12.5], [0.0, 15.0], [2.5, 15.0], [2.5, 12.5], [0.0, 12.5]]]}, "properties": {"cell_id": "0_41", "lon": 1.25, "lat": 13.75}}, {"type": "Feature", "geometry": {"type": "Polygon", "coordinates": [[[0.0, 15.0], [0.0, 17.5], [2.5, 17.5], [2.5, 15.0], [0.0, 15.0]]]}, "properties": {"cell_id": "0_42", "lon": 1.25, "lat": 16.25}}, {"type": "Feature", "geometry": {"type": "Polygon", "coordinates": [[[0.0, 17.5], [0.0, 20.0], [2.5, 20.0], [2.5, 17.5], [0.0, 17.5]]]}, "properties": {"cell_id": "0_43", "lon": 1.25, "lat": 18.75}}, {"type": "Feature", "geometry": {"type": "Polygon", "coordinates": [[[2.5, 10.0], [2.5, 12.5], [5.0, 12.5], [5.0, 10.0], [2.5, 10.0]]]}, "properties": {"cell_id": "1_40", "lon": 3.75, "lat": 11.25}}, {"type": "Feature", "geometry": {"type": "Polygon", "coordinates": [[[2.5, 12.5], [2.5, 15.0], [5.0, 15.0], [5.0, 12.5], [2.5, 12.5]]]}, "properties": {"cell_id": "1_41", "lon": 3.75, "lat": 13.75}}, {"type": "Feature", "geometry": {"type": "Polygon", "coordinates": [[[2.5, 15.0], [2.5, 17.5], [5.0, 17.5], [5.0, 15.0], [2.5, 15.0]]]}, "properties": {"cell_id": "1_42", "lon": 3.75, "lat": 16.25}}, {"type": "Feature", "geometry": {"type": "Polygon", "coordinates": [[[2.5, 17.5], [2.5, 20.0], [5.0, 20.0], [5.0, 17.5], [2.5, 17.5]]]}, "properties": {"cell_id": "1_43", "lon": 3.75, "lat": 18.75}}, {"type": "Feature", "geometry": {"type": "Polygon", "coordinates": [[[5.0, 10.0], [5.0, 12.5], [7.5, 12.5], [7.5, 10.0], [5.0, 10.0]]]}, "properties": {"cell_id": "2_40", "lon": 6.25, "lat": 11.25}}, {"type": "Feature", "geometry": {"type": "Polygon", "coordinates": [[[5.0, 12.5], [5.0, 15.0], [7.5, 15.0], [7.5, 12.5], [5.0, 12.5]]]}, "properties": {"cell_id": "2_41", "lon": 6.25, "lat": 13.75}}, {"type": "Feature", "geometry": {"type": "Polygon", "coordinates": [[[5.0, 15.0], [5.0, 17.5], [7.5, 17.5], [7.5, 15.0], [5.0, 15.0]]]}, "properties": {"cell_id": "2_42", "lon": 6.25, "lat": 16.25}}, {"type": "Feature", "geometry": {"type": "Polygon", "coordinates": [[[5.0, 17.5], [5.0, 20.0], [7.5, 20.0], [7.5, 17.5], [5.0, 17.5]]]}, "properties": {"cell_id": "2_43", "lon": 6.25, "lat": 18.75}}, {"type": "Feature", "geometry": {"type": "Polygon", "coordinates": [[[7.5, 10.0], [7.5, 12.5], [10.0, 12.5], [10.0, 10.0], [7.5, 10.0]]]}, "properties": {"cell_id": "3_40", "lon": 8.75, "lat": 11.25}}, {"type": "Feature", "geometry": {"type": "Polygon", "coordinates": [[[7.5, 12.5], [7.5, 15.0], [10.0, 15.0], [10.0, 12.5], [7.5, 12.5]]]}, "properties": {"cell_id": "3_41", "lon": 8.75, "lat": 13.75}}, {"type": "Feature", "geometry": {"type": "Polygon", "coordinates": [[[7.5, 15.0], [7.5, 17.5], [10.0, 17.5], [10.0, 15.0], [7.5, 15.0]]]}, "properties": {"cell_id": "3_42", "lon": 8.75, "lat": 16.25}}, {"type": "Feature", "geometry": {"type": "Polygon", "coordinates": [[[7.5, 17.5], [7.5, 20.0], [10.0, 20.0], [10.0, 17.5], [7.5, 17.5]]]}, "properties": {"cell_id": "3_43", "lon": 8.75, "lat": 18.75}}]}