{"type": "FeatureCollection", "features": [{"type": "Feature", "geometry": {"type": "Polygon", "coordinates": [[[40.0, 20.0], [40.0, 22.5], [42.5, 22.5], [42.5, 20.0], [40.0, 20.0]]]}, "properties": {"cell_id": "16_44", "lon": 41.25, "lat": 21.25}}, {"type": "Feature", "geometry": {"type": "Polygon", "coordinates": [[[40.0, 22.5], [40.0, 25.0], [42.5, 25.0], [42.5, 22.5], [40.0, 22.5]]]}, "properties": {"cell_id": "16_45", "lon": 41.25, "lat": 23.75}}, {"type": "Feature", "geometry": {"type": "Polygon", "coordinates": [[[40.0, 25.0], [40.0, 27.5], [42.5, 27.5], [42.5, 25.0], [40.0, 25.0]]]}, "properties": {"cell_id": "16_46", "lon": 41.25, "lat": 26.25}}, {"type": "Feature", "geometry": {"type": "Polygon", "coordinates": [[[40.0, 27.5], [40.0, 30.0], [42.5, 30.0], [42.5, 27.5], [40.0, 27.5]]]}, "properties": {"cell_id": "16_47", "lon": 41.25, "lat": 28.75}}, {"type": "Feature", "geometry": {"type": "Polygon", "coordinates": [[[42.5, 20.0], [42.5, 22.5], [45.0, 22.5], [45.0, 20.0], [42.5, 20.0]]]}, "properties": {"cell_id": "17_44", "lon": 43.75, "lat": 21.25}}, {"type": "Feature", "geometry": {"type": "Polygon", "coordinates": [[[42.5, 22.5], [42.5, 25.0], [45.0, 25.0], [45.0, 22.5], [42.5, 22.5]]]}, "properties": {"cell_id": "17_45", "lon": 43.75, "lat": 23.75}}, {"type": "Feature", "geometry": {"type": "Polygon", "coordinates": [[[42.5, 25.0], [42.5, 27.5], [45.0, 27.5], [45.0, 25.0], [42.5, 25.0]]]}, "properties": {"cell_id": "17_46", "lon": 43.75, "lat": 26.25}}, {"type": "Feature", "geometry": {"type": "Polygon", "coordinates": [[[42.5, 27.5], [42.5, 30.0], [45.0, 30.0], [45.0, 27.5], [42.5, 27.5]]]}, "properties": {"cell_id": "17_47", "lon": 43.75, "lat": 28.75}}, {"type": "Feature", "geometry": {"type": "Polygon", "coordinates": [[[45.0, 20.0], [45.0, 22.5], [47.5, 22.5], [47.5, 20.0], [45.0, 20.0]]]}, "properties": {"cell_id": "18_44", "lon": 46.25, "lat": 21.25}}, {"type": "Feature", "geometry": {"type": "Polygon", "coordinates": [[[45.0, 22.5], [45.0, 25.0], [47.5, 25.0], [47.5, 22.5], [45.0, 22.5]]]}, "properties": {"cell_id": "18_45", "lon": 46.25, "lat": 23.75}}, {"type": "Feature", "geometry": {"type": "Polygon", "coordinates": [[[45.0, 25.0], [45.0, 27.5], [47.5, 27.5], [47.5, 25.0], [45.0, 25.0]]]}, "properties": {"cell_id": "18_46", "lon": 46.25, "lat": 26.25}}, {"type": "Feature", "geometry": {"type": "Polygon", "coordinates": [[[45.0, 27.5], [45.0, 30.0], [47.5, 30.0], [47.5, 27.5], [45.0, 27.5]]]}, "properties": {"cell_id": "18_47", "lon": 46.25, "lat": 28.75}}, {"type": "Feature", "geometry": {"type": "Polygon", "coordinates": [[[47.5, 20.0], [47.5, 22.5], [50.0, 22.5], [50.0, 20.0], [47.5, 20.0]]]}, "properties": {"cell_id": "19_44", "lon": 48.75, "lat": 21.25}}, {"type": "Feature", "geometry": {"type": "Polygon", "coordinates": [[[47.5, 22.5], [47.5, 25.0], [50.0, 25.0], [50.0, 22.5], [47.5, 22.5]]]}, "properties": {"cell_id": "19_45", "lon": 48.75, "lat": 23.75}}, {"type": "Feature", "geometry": {"type": "Polygon", "coordinates": [[[47.5, 25.0], [47.5, 27.5], [50.0, 27.5], [50.0, 25.0], [47.5, 25.0]]]}, "properties": {"cell_id": "19_46", "lon": 48.75, "lat": 26.25}}]}