{"type": "FeatureCollection", "features": [{"type": "Feature", "geometry": {"type": "Polygon", "coordinates": [[[-159.75, -79.5], [-159.75, -78.0], [-158.25, -78.0], [-158.25, -79.5], [-159.75, -79.5]]]}, "properties": {"cell_id": "134_7", "lon": -159.0, "lat": -78.75}}, {"type": "Feature", "geometry": {"type": "Polygon", "coordinates": [[[-158.25, -79.5], [-158.25, -78.0], [-156.75, -78.0], [-156.75, -79.5], [-158.25, -79.5]]]}, "properties": {"cell_id": "135_7", "lon": -157.5, "lat": -78.75}}, {"type": "Feature", "geometry": {"type": "Polygon", "coordinates": [[[-156.75, -79.5], [-156.75, -78.0], [-155.25, -78.0], [-155.25, -79.5], [-156.75, -79.5]]]}, "properties": {"cell_id": "136_7", "lon": -156.0, "lat": -78.75}}, {"type": "Feature", "geometry": {"type": "Polygon", "coordinates": [[[-155.25, -79.5], [-155.25, -78.0], [-153.75, -78.0], [-153.75, -79.5], [-155.25, -79.5]]]}, "properties": {"cell_id": "137_7", "lon": -154.5, "lat": -78.75}}, {"type": "Feature", "geometry": {"type": "Polygon", "coordinates": [[[-153.75, -79.5], [-153.75, -78.0], [-152.25, -78.0], [-152.25, -79.5], [-153.75, -79.5]]]}, "properties": {"cell_id": "138_7", "lon": -153.0, "lat": -78.75}}, {"type": "Feature", "geometry": {"type": "Polygon", "coordinates": [[[-152.25, -79.5], [-152.25, -78.0], [-150.75, -78.0], [-150.75, -79.5], [-152.25, -79.5]]]}, "properties": {"cell_id": "139_7", "lon": -151.5, "lat": -78.75}}, {"type": "Feature", "geometry": {"type": "Polygon", "coordinates": [[[-150.75, -79.5], [-150.75, -78.0], [-149.25, -78.0], [-149.25, -79.5], [-150.75, -79.5]]]}, "properties": {"cell_id": "140_7", "lon": -150.0, "lat": -78.75}}, {"type": "Feature", "geometry": {"type": "Polygon", "coordinates": [[[-150.75, -78.0], [-150.75, -76.5], [-149.25, -76.5], [-149.25, -78.0], [-150.75, -78.0]]]}, "properties": {"cell_id": "140_8", "lon": -150.0, "lat": -77.25}}, {"type": "Feature", "geometry": {"type": "Polygon", "coordinates": [[[-150.75, -76.5], [-150.75, -75.0], [-149.25, -75.0], [-149.25, -76.5], [-150.75, -76.5]]]}, "properties": {"cell_id": "140_9", "lon": -150.0, "lat": -75.75}}]}