{"type": "FeatureCollection", "features": [{"type": "Feature", "geometry": {"type": "Polygon", "coordinates": [[[42.75, -25.5], [42.75, -24.0], [44.25, -24.0], [44.25, -25.5], [42.75, -25.5]]]}, "properties": {"cell_id": "29_43", "lon": 43.5, "lat": -24.75}}, {"type": "Feature", "geometry": {"type": "Polygon", "coordinates": [[[42.75, -24.0], [42.75, -22.5], [44.25, -22.5], [44.25, -24.0], [42.75, -24.0]]]}, "properties": {"cell_id": "29_44", "lon": 43.5, "lat": -23.25}}, {"type": "Feature", "geometry": {"type": "Polygon", "coordinates": [[[42.75, -22.5], [42.75, -21.0], [44.25, -21.0], [44.25, -22.5], [42.75, -22.5]]]}, "properties": {"cell_id": "29_45", "lon": 43.5, "lat": -21.75}}, {"type": "Feature", "geometry": {"type": "Polygon", "coordinates": [[[42.75, -21.0], [42.75, -19.5], [44.25, -19.5], [44.25, -21.0], [42.75, -21.0]]]}, "properties": {"cell_id": "29_46", "lon": 43.5, "lat": -20.25}}, {"type": "Feature", "geometry": {"type": "Polygon", "coordinates": [[[44.25, -25.5], [44.25, -24.0], [45.75, -24.0], [45.75, -25.5], [44.25, -25.5]]]}, "properties": {"cell_id": "30_43", "lon": 45.0, "lat": -24.75}}, {"type": "Feature", "geometry": {"type": "Polygon", "coordinates": [[[44.25, -24.0], [44.25, -22.5], [45.75, -22.5], [45.75, -24.0], [44.25, -24.0]]]}, "properties": {"cell_id": "30_44", "lon": 45.0, "lat": -23.25}}, {"type": "Feature", "geometry": {"type": "Polygon", "coordinates": [[[44.25, -22.5], [44.25, -21.0], [45.75, -21.0], [45.75, -22.5], [44.25, -22.5]]]}, "properties": {"cell_id": "30_45", "lon": 45.0, "lat": -21.75}}, {"type": "Feature", "geometry": {"type": "Polygon", "coordinates": [[[44.25, -21.0], [44.25, -19.5], [45.75, -19.5], [45.75, -21.0], [44.25, -21.0]]]}, "properties": {"cell_id": "30_46", "lon": 45.0, "lat": -20.25}}, {"type": "Feature", "geometry": {"type": "Polygon", "coordinates": [[[45.75, -25.5], [45.75, -24.0], [47.25, -24.0], [47.25, -25.5], [45.75, -25.5]]]}, "properties": {"cell_id": "31_43", "lon": 46.5, "lat": -24.75}}, {"type": "Feature", "geometry": {"type": "Polygon", "coordinates": [[[45.75, -24.0], [45.75, -22.5], [47.25, -22.5], [47.25, -24.0], [45.75, -24.0]]]}, "properties": {"cell_id": "31_44", "lon": 46.5, "lat": -23.25}}, {"type": "Feature", "geometry": {"type": "Polygon", "coordinates": [[[45.75, -22.5], [45.75, -21.0], [47.25, -21.0], [47.25, -22.5], [45.75, -22.5]]]}, "properties": {"cell_id": "31_45", "lon": 46.5, "lat": -21.75}}, {"type": "Feature", "geometry": {"type": "Polygon", "coordinates": [[[45.75, -21.0], [45.75, -19.5], [47.25, -19.5], [47.25, -21.0], [45.75, -21.0]]]}, "properties": {"cell_id": "31_46", "lon": 46.5, "lat": -20.25}}, {"type": "Feature", "geometry": {"type": "Polygon", "coordinates": [[[47.25, -24.0], [47.25, -22.5], [48.75, -22.5], [48.75, -24.0], [47.25, -24.0]]]}, "properties": {"cell_id": "32_44", "lon": 48.0, "lat": -23.25}}, {"type": "Feature", "geometry": {"type": "Polygon", "coordinates": [[[47.25, -22.5], [47.25, -21.0], [48.75, -21.0], [48.75, -22.5], [47.25, -22.5]]]}, "properties": {"cell_id": "32_45", "lon": 48.0, "lat": -21.75}}, {"type": "Feature", "geometry": {"type": "Polygon", "coordinates": [[[47.25, -21.0], [47.25, -19.5], [48.75, -19.5], [48.75, -21.0], [47.25, -21.0]]]}, "properties": {"cell_id": "32_46", "lon": 48.0, "lat": -20.25}}]}