{"type": "FeatureCollection", "features": [{"type": "Feature", "geometry": {"type": "Polygon", "coordinates": [[[-90.0, 70.0], [-90.0, 72.5], [-87.5, 72.5], [-87.5, 70.0], [-90.0, 70.0]]]}, "properties": {"cell_id": "108_64", "lon": -88.75, "lat": 71.25}}, {"type": "Feature", "geometry": {"type": "Polygon", "coordinates": [[[-90.0, 77.5], [-90.0, 80.0], [-87.5, 80.0], [-87.5, 77.5], [-90.0, 77.5]]]}, "properties": {"cell_id": "108_67", "lon": -88.75, "lat": 78.75}}, {"type": "Feature", "geometry": {"type": "Polygon", "coordinates": [[[-87.5, 70.0], [-87.5, 72.5], [-85.0, 72.5], [-85.0, 70.0], [-87.5, 70.0]]]}, "properties": {"cell_id": "109_64", "lon": -86.25, "lat": 71.25}}, {"type": "Feature", "geometry": {"type": "Polygon", "coordinates": [[[-87.5, 72.5], [-87.5, 75.0], [-85.0, 75.0], [-85.0, 72.5], [-87.5, 72.5]]]}, "properties": {"cell_id": "109_65", "lon": -86.25, "lat": 73.75}}, {"type": "Feature", "geometry": {"type": "Polygon", "coordinates": [[[-87.5, 77.5], [-87.5, 80.0], [-85.0, 80.0], [-85.0, 77.5], [-87.5, 77.5]]]}, "properties": {"cell_id": "109_67", "lon": -86.25, "lat": 78.75}}, {"type": "Feature", "geometry": {"type": "Polygon", "coordinates": [[[-85.0, 70.0], [-85.0, 72.5], [-82.5, 72.5], [-82.5, 70.0], [-85.0, 70.0]]]}, "properties": {"cell_id": "110_64", "lon": -83.75, "lat": 71.25}}, {"type": "Feature", "geometry": {"type": "Polygon", "coordinates": [[[-85.0, 77.5], [-85.0, 80.0], [-82.5, 80.0], [-82.5, 77.5], [-85.0, 77.5]]]}, "properties": {"cell_id": "110_67", "lon": -83.75, "lat": 78.75}}, {"type": "Feature", "geometry": {"type": "Polygon", "coordinates": [[[-82.5, 70.0], [-82.5, 72.5], [-80.0, 72.5], [-80.0, 70.0], [-82.5, 70.0]]]}, "properties": {"cell_id": "111_64", "lon": -81.25, "lat": 71.25}}, {"type": "Feature", "geometry": {"type": "Polygon", "coordinates": [[[-82.5, 77.5], [-82.5, 80.0], [-80.0, 80.0], [-80.0, 77.5], [-82.5, 77.5]]]}, "properties": {"cell_id": "111_67", "lon": -81.25, "lat": 78.75}}]}