{"type": "FeatureCollection", "features": [{"type": "Feature", "geometry": {"type": "Polygon", "coordinates": [[[-80.0, 40.0], [-80.0, 42.5], [-77.5, 42.5], [-77.5, 40.0], [-80.0, 40.0]]]}, "properties": {"cell_id": "112_52", "lon": -78.75, "lat": 41.25}}, {"type": "Feature", "geometry": {"type": "Polygon", "coordinates": [[[-80.0, 42.5], [-80.0, 45.0], [-77.5, 45.0], [-77.5, 42.5], [-80.0, 42.5]]]}, "properties": {"cell_id": "112_53", "lon": -78.75, "lat": 43.75}}, {"type": "Feature", "geometry": {"type": "Polygon", "coordinates": [[[-80.0, 45.0], [-80.0, 47.5], [-77.5, 47.5], [-77.5, 45.0], [-80.0, 45.0]]]}, "properties": {"cell_id": "112_54", "lon": -78.75, "lat": 46.25}}, {"type": "Feature", "geometry": {"type": "Polygon", "coordinates": [[[-80.0, 47.5], [-80.0, 50.0], [-77.5, 50.0], [-77.5, 47.5], [-80.0, 47.5]]]}, "properties": {"cell_id": "112_55", "lon": -78.75, "lat": 48.75}}, {"type": "Feature", "geometry": {"type": "Polygon", "coordinates": [[[-77.5, 40.0], [-77.5, 42.5], [-75.0, 42.5], [-75.0, 40.0], [-77.5, 40.0]]]}, "properties": {"cell_id": "113_52", "lon": -76.25, "lat": 41.25}}, {"type": "Feature", "geometry": {"type": "Polygon", "coordinates": [[[-77.5, 42.5], [-77.5, 45.0], [-75.0, 45.0], [-75.0, 42.5], [-77.5, 42.5]]]}, "properties": {"cell_id": "113_53", "lon": -76.25, "lat": 43.75}}, {"type": "Feature", "geometry": {"type": "Polygon", "coordinates": [[[-77.5, 45.0], [-77.5, 47.5], [-75.0, 47.5], [-75.0, 45.0], [-77.5, 45.0]]]}, "properties": {"cell_id": "113_54", "lon": -76.25, "lat": 46.25}}, {"type": "Feature", "geometry": {"type": "Polygon", "coordinates": [[[-77.5, 47.5], [-77.5, 50.0], [-75.0, 50.0], [-75.0, 47.5], [-77.5, 47.5]]]}, "properties": {"cell_id": "113_55", "lon": -76.25, "lat": 48.75}}, {"type": "Feature", "geometry": {"type": "Polygon", "coordinates": [[[-75.0, 40.0], [-75.0, 42.5], [-72.5, 42.5], [-72.5, 40.0], [-75.0, 40.0]]]}, "properties": {"cell_id": "114_52", "lon": -73.75, "lat": 41.25}}, {"type": "Feature", "geometry": {"type": "Polygon", "coordinates": [[[-75.0, 42.5], [-75.0, 45.0], [-72.5, 45.0], [-72.5, 42.5], [-75.0, 42.5]]]}, "properties": {"cell_id": "114_53", "lon": -73.75, "lat": 43.75}}, {"type": "Feature", "geometry": {"type": "Polygon", "coordinates": [[[-75.0, 45.0], [-75.0, 47.5], [-72.5, 47.5], [-72.5, 45.0], [-75.0, 45.0]]]}, "properties": {"cell_id": "114_54", "lon": -73.75, "lat": 46.25}}, {"type": "Feature", "geometry": {"type": "Polygon", "coordinates": [[[-75.0, 47.5], [-75.0, 50.0], [-72.5, 50.0], [-72.5, 47.5], [-75.0, 47.5]]]}, "properties": {"cell_id": "114_55", "lon": -73.75, "lat": 48.75}}, {"type": "Feature", "geometry": {"type": "Polygon", "coordinates": [[[-72.5, 42.5], [-72.5, 45.0], [-70.0, 45.0], [-70.0, 42.5], [-72.5, 42.5]]]}, "properties": {"cell_id": "115_53", "lon": -71.25, "lat": 43.75}}, {"type": "Feature", "geometry": {"type": "Polygon", "coordinates": [[[-72.5, 45.0], [-72.5, 47.5], [-70.0, 47.5], [-70.0, 45.0], [-72.5, 45.0]]]}, "properties": {"cell_id": "115_54", "lon": -71.25, "lat": 46.25}}, {"type": "Feature", "geometry": {"type": "Polygon", "coordinates": [[[-72.5, 47.5], [-72.5, 50.0], [-70.0, 50.0], [-70.0, 47.5], [-72.5, 47.5]]]}, "properties": {"cell_id": "115_55", "lon": -71.25, "lat": 48.75}}]}