{"type": "FeatureCollection", "features": [{"type": "Feature", "geometry": {"type": "Polygon", "coordinates": [[[10.0, 42.5], [10.0, 45.0], [12.5, 45.0], [12.5, 42.5], [10.0, 42.5]]]}, "properties": {"cell_id": "4_53", "lon": 11.25, "lat": 43.75}}, {"type": "Feature", "geometry": {"type": "Polygon", "coordinates": [[[10.0, 45.0], [10.0, 47.5], [12.5, 47.5], [12.5, 45.0], [10.0, 45.0]]]}, "properties": {"cell_id": "4_54", "lon": 11.25, "lat": 46.25}}, {"type": "Feature", "geometry": {"type": "Polygon", "coordinates": [[[10.0, 47.5], [10.0, 50.0], [12.5, 50.0], [12.5, 47.5], [10.0, 47.5]]]}, "properties": {"cell_id": "4_55", "lon": 11.25, "lat": 48.75}}, {"type": "Feature", "geometry": {"type": "Polygon", "coordinates": [[[12.5, 40.0], [12.5, 42.5], [15.0, 42.5], [15.0, 40.0], [12.5, 40.0]]]}, "properties": {"cell_id": "5_52", "lon": 13.75, "lat": 41.25}}, {"type": "Feature", "geometry": {"type": "Polygon", "coordinates": [[[12.5, 45.0], [12.5, 47.5], [15.0, 47.5], [15.0, 45.0], [12.5, 45.0]]]}, "properties": {"cell_id": "5_54", "lon": 13.75, "lat": 46.25}}, {"type": "Feature", "geometry": {"type": "Polygon", "coordinates": [[[12.5, 47.5], [12.5, 50.0], [15.0, 50.0], [15.0, 47.5], [12.5, 47.5]]]}, "properties": {"cell_id": "5_55", "lon": 13.75, "lat": 48.75}}, {"type": "Feature", "geometry": {"type": "Polygon", "coordinates": [[[15.0, 40.0], [15.0, 42.5], [17.5, 42.5], [17.5, 40.0], [15.0, 40.0]]]}, "properties": {"cell_id": "6_52", "lon": 16.25, "lat": 41.25}}, {"type": "Feature", "geometry": {"type": "Polygon", "coordinates": [[[15.0, 42.5], [15.0, 45.0], [17.5, 45.0], [17.5, 42.5], [15.0, 42.5]]]}, "properties": {"cell_id": "6_53", "lon": 16.25, "lat": 43.75}}, {"type": "Feature", "geometry": {"type": "Polygon", "coordinates": [[[15.0, 45.0], [15.0, 47.5], [17.5, 47.5], [17.5, 45.0], [15.0, 45.0]]]}, "properties": {"cell_id": "6_54", "lon": 16.25, "lat": 46.25}}, {"type": "Feature", "geometry": {"type": "Polygon", "coordinates": [[[15.0, 47.5], [15.0, 50.0], [17.5, 50.0], [17.5, 47.5], [15.0, 47.5]]]}, "properties": {"cell_id": "6_55", "lon": 16.25, "lat": 48.75}}, {"type": "Feature", "geometry": {"type": "Polygon", "coordinates": [[[17.5, 42.5], [17.5, 45.0], [20.0, 45.0], [20.0, 42.5], [17.5, 42.5]]]}, "properties": {"cell_id": "7_53", "lon": 18.75, "lat": 43.75}}, {"type": "Feature", "geometry": {"type": "Polygon", "coordinates": [[[17.5, 45.0], [17.5, 47.5], [20.0, 47.5], [20.0, 45.0], [17.5, 45.0]]]}, "properties": {"cell_id": "7_54", "lon": 18.75, "lat": 46.25}}, {"type": "Feature", "geometry": {"type": "Polygon", "coordinates": [[[17.5, 47.5], [17.5, 50.0], [20.0, 50.0], [20.0, 47.5], [17.5, 47.5]]]}, "properties": {"cell_id": "7_55", "lon": 18.75, "lat": 48.75}}]}