{"type": "FeatureCollection", "features": [{"type": "Feature", "geometry": {"type": "Polygon", "coordinates": [[[8.25, -3.0], [8.25, -1.5], [9.75, -1.5], [9.75, -3.0], [8.25, -3.0]]]}, "properties": {"cell_id": "6_58", "lon": 9.0, "lat": -2.25}}, {"type": "Feature", "geometry": {"type": "Polygon", "coordinates": [[[8.25, -1.5], [8.25, 0.0], [9.75, 0.0], [9.75, -1.5], [8.25, -1.5]]]}, "properties": {"cell_id": "6_59", "lon": 9.0, "lat": -0.75}}, {"type": "Feature", "geometry": {"type": "Polygon", "coordinates": [[[9.75, -4.5], [9.75, -3.0], [11.25, -3.0], [11.25, -4.5], [9.75, -4.5]]]}, "properties": {"cell_id": "7_57", "lon": 10.5, "lat": -3.75}}, {"type": "Feature", "geometry": {"type": "Polygon", "coordinates": [[[9.75, -3.0], [9.75, -1.5], [11.25, -1.5], [11.25, -3.0], [9.75, -3.0]]]}, "properties": {"cell_id": "7_58", "lon": 10.5, "lat": -2.25}}, {"type": "Feature", "geometry": {"type": "Polygon", "coordinates": [[[9.75, -1.5], [9.75, 0.0], [11.25, 0.0], [11.25, -1.5], [9.75, -1.5]]]}, "properties": {"cell_id": "7_59", "lon": 10.5, "lat": -0.75}}]}