{"type": "FeatureCollection", "features": [{"type": "Feature", "geometry": {"type": "Polygon", "coordinates": [[[-75.0, -50.0], [-75.0, -47.5], [-72.5, -47.5], [-72.5, -50.0], [-75.0, -50.0]]]}, "properties": {"cell_id": "114_16", "lon": -73.75, "lat": -48.75}}, {"type": "Feature", "geometry": {"type": "Polygon", "coordinates": [[[-75.0, -47.5], [-75.0, -45.0], [-72.5, -45.0], [-72.5, -47.5], [-75.0, -47.5]]]}, "properties": {"cell_id": "114_17", "lon": -73.75, "lat": -46.25}}, {"type": "Feature", "geometry": {"type": "Polygon", "coordinates": [[[-75.0, -42.5], [-75.0, -40.0], [-72.5, -40.0], [-72.5, -42.5], [-75.0, -42.5]]]}, "properties": {"cell_id": "114_19", "lon": -73.75, "lat": -41.25}}, {"type": "Feature", "geometry": {"type": "Polygon", "coordinates": [[[-72.5, -50.0], [-72.5, -47.5], [-70.0, -47.5], [-70.0, -50.0], [-72.5, -50.0]]]}, "properties": {"cell_id": "115_16", "lon": -71.25, "lat": -48.75}}, {"type": "Feature", "geometry": {"type": "Polygon", "coordinates": [[[-72.5, -47.5], [-72.5, -45.0], [-70.0, -45.0], [-70.0, -47.5], [-72.5, -47.5]]]}, "properties": {"cell_id": "115_17", "lon": -71.25, "lat": -46.25}}, {"type": "Feature", "geometry": {"type": "Polygon", "coordinates": [[[-72.5, -45.0], [-72.5, -42.5], [-70.0, -42.5], [-70.0, -45.0], [-72.5, -45.0]]]}, "properties": {"cell_id": "115_18", "lon": -71.25, "lat": -43.75}}, {"type": "Feature", "geometry": {"type": "Polygon", "coordinates": [[[-72.5, -42.5], [-72.5, -40.0], [-70.0, -40.0], [-70.0, -42.5], [-72.5, -42.5]]]}, "properties": {"cell_id": "115_19", "lon": -71.25, "lat": -41.25}}]}