{"type": "FeatureCollection", "features": [{"type": "Feature", "geometry": {"type": "Polygon", "coordinates": [[[-70.0, 0.0], [-70.0, 2.5], [-67.5, 2.5], [-67.5, 0.0], [-70.0, 0.0]]]}, "properties": {"cell_id": "116_36", "lon": -68.75, "lat": 1.25}}, {"type": "Feature", "geometry": {"type": "Polygon", "coordinates": [[[-70.0, 2.5], [-70.0, 5.0], [-67.5, 5.0], [-67.5, 2.5], [-70.0, 2.5]]]}, "properties": {"cell_id": "116_37", "lon": -68.75, "lat": 3.75}}, {"type": "Feature", "geometry": {"type": "Polygon", "coordinates": [[[-70.0, 5.0], [-70.0, 7.5], [-67.5, 7.5], [-67.5, 5.0], [-70.0, 5.0]]]}, "properties": {"cell_id": "116_38", "lon": -68.75, "lat": 6.25}}, {"type": "Feature", "geometry": {"type": "Polygon", "coordinates": [[[-70.0, 7.5], [-70.0, 10.0], [-67.5, 10.0], [-67.5, 7.5], [-70.0, 7.5]]]}, "properties": {"cell_id": "116_39", "lon": -68.75, "lat": 8.75}}, {"type": "Feature", "geometry": {"type": "Polygon", "coordinates": [[[-67.5, 0.0], [-67.5, 2.5], [-65.0, 2.5], [-65.0, 0.0], [-67.5, 0.0]]]}, "properties": {"cell_id": "117_36", "lon": -66.25, "lat": 1.25}}, {"type": "Feature", "geometry": {"type": "Polygon", "coordinates": [[[-67.5, 2.5], [-67.5, 5.0], [-65.0, 5.0], [-65.0, 2.5], [-67.5, 2.5]]]}, "properties": {"cell_id": "117_37", "lon": -66.25, "lat": 3.75}}, {"type": "Feature", "geometry": {"type": "Polygon", "coordinates": [[[-67.5, 5.0], [-67.5, 7.5], [-65.0, 7.5], [-65.0, 5.0], [-67.5, 5.0]]]}, "properties": {"cell_id": "117_38", "lon": -66.25, "lat": 6.25}}, {"type": "Feature", "geometry": {"type": "Polygon", "coordinates": [[[-67.5, 7.5], [-67.5, 10.0], [-65.0, 10.0], [-65.0, 7.5], [-67.5, 7.5]]]}, "properties": {"cell_id": "117_39", "lon": -66.25, "lat": 8.75}}, {"type": "Feature", "geometry": {"type": "Polygon", "coordinates": [[[-65.0, 0.0], [-65.0, 2.5], [-62.5, 2.5], [-62.5, 0.0], [-65.0, 0.0]]]}, "properties": {"cell_id": "118_36", "lon": -63.75, "lat": 1.25}}, {"type": "Feature", "geometry": {"type": "Polygon", "coordinates": [[[-65.0, 2.5], [-65.0, 5.0], [-62.5, 5.0], [-62.5, 2.5], [-65.0, 2.5]]]}, "properties": {"cell_id": "118_37", "lon": -63.75, "lat": 3.75}}, {"type": "Feature", "geometry": {"type": "Polygon", "coordinates": [[[-65.0, 5.0], [-65.0, 7.5], [-62.5, 7.5], [-62.5, 5.0], [-65.0, 5.0]]]}, "properties": {"cell_id": "118_38", "lon": -63.75, "lat": 6.25}}, {"type": "Feature", "geometry": {"type": "Polygon", "coordinates": [[[-65.0, 7.5], [-65.0, 10.0], [-62.5, 10.0], [-62.5, 7.5], [-65.0, 7.5]]]}, "properties": {"cell_id": "118_39", "lon": -63.75, "lat": 8.75}}, {"type": "Feature", "geometry": {"type": "Polygon", "coordinates": [[[-62.5, 0.0], [-62.5, 2.5], [-60.0, 2.5], [-60.0, 0.0], [-62.5, 0.0]]]}, "properties": {"cell_id": "119_36", "lon": -61.25, "lat": 1.25}}, {"type": "Feature", "geometry": {"type": "Polygon", "coordinates": [[[-62.5, 2.5], [-62.5, 5.0], [-60.0, 5.0], [-60.0, 2.5], [-62.5, 2.5]]]}, "properties": {"cell_id": "119_37", "lon": -61.25, "lat": 3.75}}, {"type": "Feature", "geometry": {"type": "Polygon", "coordinates": [[[-62.5, 5.0], [-62.5, 7.5], [-60.0, 7.5], [-60.0, 5.0], [-62.5, 5.0]]]}, "properties": {"cell_id": "119_38", "lon": -61.25, "lat": 6.25}}, {"type": "Feature", "geometry": {"type": "Polygon", "coordinates": [[[-62.5, 7.5], [-62.5, 10.0], [-60.0, 10.0], [-60.0, 7.5], [-62.5, 7.5]]]}, "properties": {"cell_id": "119_39", "lon": -61.25, "lat": 8.75}}]}