{"type": "FeatureCollection", "features": [{"type": "Feature", "geometry": {"type": "Polygon", "coordinates": [[[20.0, 0.0], [20.0, 2.5], [22.5, 2.5], [22.5, 0.0], [20.0, 0.0]]]}, "properties": {"cell_id": "8_36", "lon": 21.25, "lat": 1.25}}, {"type": "Feature", "geometry": {"type": "Polygon", "coordinates": [[[20.0, 2.5], [20.0, 5.0], [22.5, 5.0], [22.5, 2.5], [20.0, 2.5]]]}, "properties": {"cell_id": "8_37", "lon": 21.25, "lat": 3.75}}, {"type": "Feature", "geometry": {"type": "Polygon", "coordinates": [[[20.0, 5.0], [20.0, 7.5], [22.5, 7.5], [22.5, 5.0], [20.0, 5.0]]]}, "properties": {"cell_id": "8_38", "lon": 21.25, "lat": 6.25}}, {"type": "Feature", "geometry": {"type": "Polygon", "coordinates": [[[20.0, 7.5], [20.0, 10.0], [22.5, 10.0], [22.5, 7.5], [20.0, 7.5]]]}, "properties": {"cell_id": "8_39", "lon": 21.25, "lat": 8.75}}, {"type": "Feature", "geometry": {"type": "Polygon", "coordinates": [[[22.5, 0.0], [22.5, 2.5], [25.0, 2.5], [25.0, 0.0], [22.5, 0.0]]]}, "properties": {"cell_id": "9_36", "lon": 23.75, "lat": 1.25}}, {"type": "Feature", "geometry": {"type": "Polygon", "coordinates": [[[22.5, 2.5], [22.5, 5.0], [25.0, 5.0], [25.0, 2.5], [22.5, 2.5]]]}, "properties": {"cell_id": "9_37", "lon": 23.75, "lat": 3.75}}, {"type": "Feature", "geometry": {"type": "Polygon", "coordinates": [[[22.5, 5.0], [22.5, 7.5], [25.0, 7.5], [25.0, 5.0], [22.5, 5.0]]]}, "properties": {"cell_id": "9_38", "lon": 23.75, "lat": 6.25}}, {"type": "Feature", "geometry": {"type": "Polygon", "coordinates": [[[22.5, 7.5], [22.5, 10.0], [25.0, 10.0], [25.0, 7.5], [22.5, 7.5]]]}, "properties": {"cell_id": "9_39", "lon": 23.75, "lat": 8.75}}, {"type": "Feature", "geometry": {"type": "Polygon", "coordinates": [[[25.0, 0.0], [25.0, 2.5], [27.5, 2.5], [27.5, 0.0], [25.0, 0.0]]]}, "properties": {"cell_id": "10_36", "lon": 26.25, "lat": 1.25}}, {"type": "Feature", "geometry": {"type": "Polygon", "coordinates": [[[25.0, 2.5], [25.0, 5.0], [27.5, 5.0], [27.5, 2.5], [25.0, 2.5]]]}, "properties": {"cell_id": "10_37", "lon": 26.25, "lat": 3.75}}, {"type": "Feature", "geometry": {"type": "Polygon", "coordinates": [[[25.0, 5.0], [25.0, 7.5], [27.5, 7.5], [27.5, 5.0], [25.0, 5.0]]]}, "properties": {"cell_id": "10_38", "lon": 26.25, "lat": 6.25}}, {"type": "Feature", "geometry": {"type": "Polygon", "coordinates": [[[25.0, 7.5], [25.0, 10.0], [27.5, 10.0], [27.5, 7.5], [25.0, 7.5]]]}, "properties": {"cell_id": "10_39", "lon": 26.25, "lat": 8.75}}, {"type": "Feature", "geometry": {"type": "Polygon", "coordinates": [[[27.5, 0.0], [27.5, 2.5], [30.0, 2.5], [30.0, 0.0], [27.5, 0.0]]]}, "properties": {"cell_id": "11_36", "lon": 28.75, "lat": 1.25}}, {"type": "Feature", "geometry": {"type": "Polygon", "coordinates": [[[27.5, 2.5], [27.5, 5.0], [30.0, 5.0], [30.0, 2.5], [27.5, 2.5]]]}, "properties": {"cell_id": "11_37", "lon": 28.75, "lat": 3.75}}, {"type": "Feature", "geometry": {"type": "Polygon", "coordinates": [[[27.5, 5.0], [27.5, 7.5], [30.0, 7.5], [30.0, 5.0], [27.5, 5.0]]]}, "properties": {"cell_id": "11_38", "lon": 28.75, "lat": 6.25}}, {"type": "Feature", "geometry": {"type": "Polygon", "coordinates": [[[27.5, 7.5], [27.5, 10.0], [30.0, 10.0], [30.0, 7.5], [27.5, 7.5]]]}, "properties": {"cell_id": "11_39", "lon": 28.75, "lat": 8.75}}]}