{"type": "FeatureCollection", "features": [{"type": "Feature", "geometry": {"type": "Polygon", "coordinates": [[[-100.0, 20.0], [-100.0, 22.5], [-97.5, 22.5], [-97.5, 20.0], [-100.0, 20.0]]]}, "properties": {"cell_id": "104_44", "lon": -98.75, "lat": 21.25}}, {"type": "Feature", "geometry": {"type": "Polygon", "coordinates": [[[-100.0, 22.5], [-100.0, 25.0], [-97.5, 25.0], [-97.5, 22.5], [-100.0, 22.5]]]}, "properties": {"cell_id": "104_45", "lon": -98.75, "lat": 23.75}}, {"type": "Feature", "geometry": {"type": "Polygon", "coordinates": [[[-100.0, 25.0], [-100.0, 27.5], [-97.5, 27.5], [-97.5, 25.0], [-100.0, 25.0]]]}, "properties": {"cell_id": "104_46", "lon": -98.75, "lat": 26.25}}, {"type": "Feature", "geometry": {"type": "Polygon", "coordinates": [[[-100.0, 27.5], [-100.0, 30.0], [-97.5, 30.0], [-97.5, 27.5], [-100.0, 27.5]]]}, "properties": {"cell_id": "104_47", "lon": -98.75, "lat": 28.75}}, {"type": "Feature", "geometry": {"type": "Polygon", "coordinates": [[[-97.5, 27.5], [-97.5, 30.0], [-95.0, 30.0], [-95.0, 27.5], [-97.5, 27.5]]]}, "properties": {"cell_id": "105_47", "lon": -96.25, "lat": 28.75}}]}