{"type": "FeatureCollection", "features": [{"type": "Feature", "geometry": {"type": "Polygon", "coordinates": [[[112.5, -27.5], [112.5, -25.0], [115.0, -25.0], [115.0, -27.5], [112.5, -27.5]]]}, "properties": {"cell_id": "45_25", "lon": 113.75, "lat": -26.25}}, {"type": "Feature", "geometry": {"type": "Polygon", "coordinates": [[[112.5, -25.0], [112.5, -22.5], [115.0, -22.5], [115.0, -25.0], [112.5, -25.0]]]}, "properties": {"cell_id": "45_26", "lon": 113.75, "lat": -23.75}}, {"type": "Feature", "geometry": {"type": "Polygon", "coordinates": [[[115.0, -30.0], [115.0, -27.5], [117.5, -27.5], [117.5, -30.0], [115.0, -30.0]]]}, "properties": {"cell_id": "46_24", "lon": 116.25, "lat": -28.75}}, {"type": "Feature", "geometry": {"type": "Polygon", "coordinates": [[[115.0, -27.5], [115.0, -25.0], [117.5, -25.0], [117.5, -27.5], [115.0, -27.5]]]}, "properties": {"cell_id": "46_25", "lon": 116.25, "lat": -26.25}}, {"type": "Feature", "geometry": {"type": "Polygon", "coordinates": [[[115.0, -25.0], [115.0, -22.5], [117.5, -22.5], [117.5, -25.0], [115.0, -25.0]]]}, "properties": {"cell_id": "46_26", "lon": 116.25, "lat": -23.75}}, {"type": "Feature", "geometry": {"type": "Polygon", "coordinates": [[[115.0, -22.5], [115.0, -20.0], [117.5, -20.0], [117.5, -22.5], [115.0, -22.5]]]}, "properties": {"cell_id": "46_27", "lon": 116.25, "lat": -21.25}}, {"type": "Feature", "geometry": {"type": "Polygon", "coordinates": [[[117.5, -30.0], [117.5, -27.5], [120.0, -27.5], [120.0, -30.0], [117.5, -30.0]]]}, "properties": {"cell_id": "47_24", "lon": 118.75, "lat": -28.75}}, {"type": "Feature", "geometry": {"type": "Polygon", "coordinates": [[[117.5, -27.5], [117.5, -25.0], [120.0, -25.0], [120.0, -27.5], [117.5, -27.5]]]}, "properties": {"cell_id": "47_25", "lon": 118.75, "lat": -26.25}}, {"type": "Feature", "geometry": {"type": "Polygon", "coordinates": [[[117.5, -25.0], [117.5, -22.5], [120.0, -22.5], [120.0, -25.0], [117.5, -25.0]]]}, "properties": {"cell_id": "47_26", "lon": 118.75, "lat": -23.75}}, {"type": "Feature", "geometry": {"type": "Polygon", "coordinates": [[[117.5, -22.5], [117.5, -20.0], [120.0, -20.0], [120.0, -22.5], [117.5, -22.5]]]}, "properties": {"cell_id": "47_27", "lon": 118.75, "lat": -21.25}}]}