{"type": "FeatureCollection", "features": [{"type": "Feature", "geometry": {"type": "Polygon", "coordinates": [[[-80.25, -9.0], [-80.25, -7.5], [-78.75, -7.5], [-78.75, -9.0], [-80.25, -9.0]]]}, "properties": {"cell_id": "187_54", "lon": -79.5, "lat": -8.25}}, {"type": "Feature", "geometry": {"type": "Polygon", "coordinates": [[[-80.25, -7.5], [-80.25, -6.0], [-78.75, -6.0], [-78.75, -7.5], [-80.25, -7.5]]]}, "properties": {"cell_id": "187_55", "lon": -79.5, "lat": -6.75}}, {"type": "Feature", "geometry": {"type": "Polygon", "coordinates": [[[-80.25, -6.0], [-80.25, -4.5], [-78.75, -4.5], [-78.75, -6.0], [-80.25, -6.0]]]}, "properties": {"cell_id": "187_56", "lon": -79.5, "lat": -5.25}}, {"type": "Feature", "geometry": {"type": "Polygon", "coordinates": [[[-80.25, -4.5], [-80.25, -3.0], [-78.75, -3.0], [-78.75, -4.5], [-80.25, -4.5]]]}, "properties": {"cell_id": "187_57", "lon": -79.5, "lat": -3.75}}, {"type": "Feature", "geometry": {"type": "Polygon", "coordinates": [[[-80.25, -3.0], [-80.25, -1.5], [-78.75, -1.5], [-78.75, -3.0], [-80.25, -3.0]]]}, "properties": {"cell_id": "187_58", "lon": -79.5, "lat": -2.25}}, {"type": "Feature", "geometry": {"type": "Polygon", "coordinates": [[[-80.25, -1.5], [-80.25, 0.0], [-78.75, 0.0], [-78.75, -1.5], [-80.25, -1.5]]]}, "properties": {"cell_id": "187_59", "lon": -79.5, "lat": -0.75}}]}