{"type": "FeatureCollection", "features": [{"type": "Feature", "geometry": {"type": "Polygon", "coordinates": [[[101.25, 21.0], [101.25, 22.5], [102.75, 22.5], [102.75, 21.0], [101.25, 21.0]]]}, "properties": {"cell_id": "68_74", "lon": 102.0, "lat": 21.75}}, {"type": "Feature", "geometry": {"type": "Polygon", "coordinates": [[[101.25, 22.5], [101.25, 24.0], [102.75, 24.0], [102.75, 22.5], [101.25, 22.5]]]}, "properties": {"cell_id": "68_75", "lon": 102.0, "lat": 23.25}}, {"type": "Feature", "geometry": {"type": "Polygon", "coordinates": [[[101.25, 24.0], [101.25, 25.5], [102.75, 25.5], [102.75, 24.0], [101.25, 24.0]]]}, "properties": {"cell_id": "68_76", "lon": 102.0, "lat": 24.75}}, {"type": "Feature", "geometry": {"type": "Polygon", "coordinates": [[[101.25, 25.5], [101.25, 27.0], [102.75, 27.0], [102.75, 25.5], [101.25, 25.5]]]}, "properties": {"cell_id": "68_77", "lon": 102.0, "lat": 26.25}}, {"type": "Feature", "geometry": {"type": "Polygon", "coordinates": [[[101.25, 27.0], [101.25, 28.5], [102.75, 28.5], [102.75, 27.0], [101.25, 27.0]]]}, "properties": {"cell_id": "68_78", "lon": 102.0, "lat": 27.75}}, {"type": "Feature", "geometry": {"type": "Polygon", "coordinates": [[[101.25, 28.5], [101.25, 30.0], [102.75, 30.0], [102.75, 28.5], [101.25, 28.5]]]}, "properties": {"cell_id": "68_79", "lon": 102.0, "lat": 29.25}}, {"type": "Feature", "geometry": {"type": "Polygon", "coordinates": [[[102.75, 21.0], [102.75, 22.5], [104.25, 22.5], [104.25, 21.0], [102.75, 21.0]]]}, "properties": {"cell_id": "69_74", "lon": 103.5, "lat": 21.75}}, {"type": "Feature", "geometry": {"type": "Polygon", "coordinates": [[[102.75, 22.5], [102.75, 24.0], [104.25, 24.0], [104.25, 22.5], [102.75, 22.5]]]}, "properties": {"cell_id": "69_75", "lon": 103.5, "lat": 23.25}}, {"type": "Feature", "geometry": {"type": "Polygon", "coordinates": [[[102.75, 24.0], [102.75, 25.5], [104.25, 25.5], [104.25, 24.0], [102.75, 24.0]]]}, "properties": {"cell_id": "69_76", "lon": 103.5, "lat": 24.75}}, {"type": "Feature", "geometry": {"type": "Polygon", "coordinates": [[[102.75, 25.5], [102.75, 27.0], [104.25, 27.0], [104.25, 25.5], [102.75, 25.5]]]}, "properties": {"cell_id": "69_77", "lon": 103.5, "lat": 26.25}}, {"type": "Feature", "geometry": {"type": "Polygon", "coordinates": [[[102.75, 27.0], [102.75, 28.5], [104.25, 28.5], [104.25, 27.0], [102.75, 27.0]]]}, "properties": {"cell_id": "69_78", "lon": 103.5, "lat": 27.75}}, {"type": "Feature", "geometry": {"type": "Polygon", "coordinates": [[[102.75, 28.5], [102.75, 30.0], [104.25, 30.0], [104.25, 28.5], [102.75, 28.5]]]}, "properties": {"cell_id": "69_79", "lon": 103.5, "lat": 29.25}}, {"type": "Feature", "geometry": {"type": "Polygon", "coordinates": [[[104.25, 21.0], [104.25, 22.5], [105.75, 22.5], [105.75, 21.0], [104.25, 21.0]]]}, "properties": {"cell_id": "70_74", "lon": 105.0, "lat": 21.75}}, {"type": "Feature", "geometry": {"type": "Polygon", "coordinates": [[[104.25, 22.5], [104.25, 24.0], [105.75, 24.0], [105.75, 22.5], [104.25, 22.5]]]}, "properties": {"cell_id": "70_75", "lon": 105.0, "lat": 23.25}}, {"type": "Feature", "geometry": {"type": "Polygon", "coordinates": [[[104.25, 24.0], [104.25, 25.5], [105.75, 25.5], [105.75, 24.0], [104.25, 24.0]]]}, "properties": {"cell_id": "70_76", "lon": 105.0, "lat": 24.75}}, {"type": "Feature", "geometry": {"type": "Polygon", "coordinates": [[[104.25, 25.5], [104.25, 27.0], [105.75, 27.0], [105.75, 25.5], [104.25, 25.5]]]}, "properties": {"cell_id": "70_77", "lon": 105.0, "lat": 26.25}}, {"type": "Feature", "geometry": {"type": "Polygon", "coordinates": [[[104.25, 27.0], [104.25, 28.5], [105.75, 28.5], [105.75, 27.0], [104.25, 27.0]]]}, "properties": {"cell_id": "70_78", "lon": 105.0, "lat": 27.75}}, {"type": "Feature", "geometry": {"type": "Polygon", "coordinates": [[[104.25, 28.5], [104.25, 30.0], [105.75, 30.0], [105.75, 28.5], [104.25, 28.5]]]}, "properties": {"cell_id": "70_79", "lon": 105.0, "lat": 29.25}}, {"type": "Feature", "geometry": {"type": "Polygon", "coordinates": [[[105.75, 21.0], [105.75, 22.5], [107.25, 22.5], [107.25, 21.0], [105.75, 21.0]]]}, "properties": {"cell_id": "71_74", "lon": 106.5, "lat": 21.75}}, {"type": "Feature", "geometry": {"type": "Polygon", "coordinates": [[[105.75, 22.5], [105.75, 24.0], [107.25, 24.0], [107.25, 22.5], [105.75, 22.5]]]}, "properties": {"cell_id": "71_75", "lon": 106.5, "lat": 23.25}}, {"type": "Feature", "geometry": {"type": "Polygon", "coordinates": [[[105.75, 24.0], [105.75, 25.5], [107.25, 25.5], [107.25, 24.0], [105.75, 24.0]]]}, "properties": {"cell_id": "71_76", "lon": 106.5, "lat": 24.75}}, {"type": "Feature", "geometry": {"type": "Polygon", "coordinates": [[[105.75, 25.5], [105.75, 27.0], [107.25, 27.0], [107.25, 25.5], [105.75, 25.5]]]}, "properties": {"cell_id": "71_77", "lon": 106.5, "lat": 26.25}}, {"type": "Feature", "geometry": {"type": "Polygon", "coordinates": [[[105.75, 27.0], [105.75, 28.5], [107.25, 28.5], [107.25, 27.0], [105.75, 27.0]]]}, "properties": {"cell_id": "71_78", "lon": 106.5, "lat": 27.75}}, {"type": "Feature", "geometry": {"type": "Polygon", "coordinates": [[[105.75, 28.5], [105.75, 30.0], [107.25, 30.0], [107.25, 28.5], [105.75, 28.5]]]}, "properties": {"cell_id": "71_79", "lon": 106.5, "lat": 29.25}}, {"type": "Feature", "geometry": {"type": "Polygon", "coordinates": [[[107.25, 21.0], [107.25, 22.5], [108.75, 22.5], [108.75, 21.0], [107.25, 21.0]]]}, "properties": {"cell_id": "72_74", "lon": 108.0, "lat": 21.75}}, {"type": "Feature", "geometry": {"type": "Polygon", "coordinates": [[[107.25, 22.5], [107.25, 24.0], [108.75, 24.0], [108.75, 22.5], [107.25, 22.5]]]}, "properties": {"cell_id": "72_75", "lon": 108.0, "lat": 23.25}}, {"type": "Feature", "geometry": {"type": "Polygon", "coordinates": [[[107.25, 24.0], [107.25, 25.5], [108.75, 25.5], [108.75, 24.0], [107.25, 24.0]]]}, "properties": {"cell_id": "72_76", "lon": 108.0, "lat": 24.75}}, {"type": "Feature", "geometry": {"type": "Polygon", "coordinates": [[[107.25, 25.5], [107.25, 27.0], [108.75, 27.0], [108.75, 25.5], [107.25, 25.5]]]}, "properties": {"cell_id": "72_77", "lon": 108.0, "lat": 26.25}}, {"type": "Feature", "geometry": {"type": "Polygon", "coordinates": [[[107.25, 27.0], [107.25, 28.5], [108.75, 28.5], [108.75, 27.0], [107.25, 27.0]]]}, "properties": {"cell_id": "72_78", "lon": 108.0, "lat": 27.75}}, {"type": "Feature", "geometry": {"type": "Polygon", "coordinates": [[[107.25, 28.5], [107.25, 30.0], [108.75, 30.0], [108.75, 28.5], [107.25, 28.5]]]}, "properties": {"cell_id": "72_79", "lon": 108.0, "lat": 29.25}}, {"type": "Feature", "geometry": {"type": "Polygon", "coordinates": [[[108.75, 21.0], [108.75, 22.5], [110.25, 22.5], [110.25, 21.0], [108.75, 21.0]]]}, "properties": {"cell_id": "73_74", "lon": 109.5, "lat": 21.75}}, {"type": "Feature", "geometry": {"type": "Polygon", "coordinates": [[[108.75, 22.5], [108.75, 24.0], [110.25, 24.0], [110.25, 22.5], [108.75, 22.5]]]}, "properties": {"cell_id": "73_75", "lon": 109.5, "lat": 23.25}}, {"type": "Feature", "geometry": {"type": "Polygon", "coordinates": [[[108.75, 24.0], [108.75, 25.5], [110.25, 25.5], [110.25, 24.0], [108.75, 24.0]]]}, "properties": {"cell_id": "73_76", "lon": 109.5, "lat": 24.75}}, {"type": "Feature", "geometry": {"type": "Polygon", "coordinates": [[[108.75, 25.5], [108.75, 27.0], [110.25, 27.0], [110.25, 25.5], [108.75, 25.5]]]}, "properties": {"cell_id": "73_77", "lon": 109.5, "lat": 26.25}}, {"type": "Feature", "geometry": {"type": "Polygon", "coordinates": [[[108.75, 27.0], [108.75, 28.5], [110.25, 28.5], [110.25, 27.0], [108.75, 27.0]]]}, "properties": {"cell_id": "73_78", "lon": 109.5, "lat": 27.75}}, {"type": "Feature", "geometry": {"type": "Polygon", "coordinates": [[[108.75, 28.5], [108.75, 30.0], [110.25, 30.0], [110.25, 28.5], [108.75, 28.5]]]}, "properties": {"cell_id": "73_79", "lon": 109.5, "lat": 29.25}}]}