{"type": "FeatureCollection", "features": [{"type": "Feature", "geometry": {"type": "Polygon", "coordinates": [[[50.25, 21.0], [50.25, 22.5], [51.75, 22.5], [51.75, 21.0], [50.25, 21.0]]]}, "properties": {"cell_id": "34_74", "lon": 51.0, "lat": 21.75}}, {"type": "Feature", "geometry": {"type": "Polygon", "coordinates": [[[50.25, 22.5], [50.25, 24.0], [51.75, 24.0], [51.75, 22.5], [50.25, 22.5]]]}, "properties": {"cell_id": "34_75", "lon": 51.0, "lat": 23.25}}, {"type": "Feature", "geometry": {"type": "Polygon", "coordinates": [[[50.25, 24.0], [50.25, 25.5], [51.75, 25.5], [51.75, 24.0], [50.25, 24.0]]]}, "properties": {"cell_id": "34_76", "lon": 51.0, "lat": 24.75}}, {"type": "Feature", "geometry": {"type": "Polygon", "coordinates": [[[50.25, 27.0], [50.25, 28.5], [51.75, 28.5], [51.75, 27.0], [50.25, 27.0]]]}, "properties": {"cell_id": "34_78", "lon": 51.0, "lat": 27.75}}, {"type": "Feature", "geometry": {"type": "Polygon", "coordinates": [[[50.25, 28.5], [50.25, 30.0], [51.75, 30.0], [51.75, 28.5], [50.25, 28.5]]]}, "properties": {"cell_id": "34_79", "lon": 51.0, "lat": 29.25}}, {"type": "Feature", "geometry": {"type": "Polygon", "coordinates": [[[51.75, 21.0], [51.75, 22.5], [53.25, 22.5], [53.25, 21.0], [51.75, 21.0]]]}, "properties": {"cell_id": "35_74", "lon": 52.5, "lat": 21.75}}, {"type": "Feature", "geometry": {"type": "Polygon", "coordinates": [[[51.75, 22.5], [51.75, 24.0], [53.25, 24.0], [53.25, 22.5], [51.75, 22.5]]]}, "properties": {"cell_id": "35_75", "lon": 52.5, "lat": 23.25}}, {"type": "Feature", "geometry": {"type": "Polygon", "coordinates": [[[51.75, 24.0], [51.75, 25.5], [53.25, 25.5], [53.25, 24.0], [51.75, 24.0]]]}, "properties": {"cell_id": "35_76", "lon": 52.5, "lat": 24.75}}, {"type": "Feature", "geometry": {"type": "Polygon", "coordinates": [[[51.75, 27.0], [51.75, 28.5], [53.25, 28.5], [53.25, 27.0], [51.75, 27.0]]]}, "properties": {"cell_id": "35_78", "lon": 52.5, "lat": 27.75}}, {"type": "Feature", "geometry": {"type": "Polygon", "coordinates": [[[51.75, 28.5], [51.75, 30.0], [53.25, 30.0], [53.25, 28.5], [51.75, 28.5]]]}, "properties": {"cell_id": "35_79", "lon": 52.5, "lat": 29.25}}, {"type": "Feature", "geometry": {"type": "Polygon", "coordinates": [[[53.25, 21.0], [53.25, 22.5], [54.75, 22.5], [54.75, 21.0], [53.25, 21.0]]]}, "properties": {"cell_id": "36_74", "lon": 54.0, "lat": 21.75}}, {"type": "Feature", "geometry": {"type": "Polygon", "coordinates": [[[53.25, 22.5], [53.25, 24.0], [54.75, 24.0], [54.75, 22.5], [53.25, 22.5]]]}, "properties": {"cell_id": "36_75", "lon": 54.0, "lat": 23.25}}, {"type": "Feature", "geometry": {"type": "Polygon", "coordinates": [[[53.25, 24.0], [53.25, 25.5], [54.75, 25.5], [54.75, 24.0], [53.25, 24.0]]]}, "properties": {"cell_id": "36_76", "lon": 54.0, "lat": 24.75}}, {"type": "Feature", "geometry": {"type": "Polygon", "coordinates": [[[53.25, 27.0], [53.25, 28.5], [54.75, 28.5], [54.75, 27.0], [53.25, 27.0]]]}, "properties": {"cell_id": "36_78", "lon": 54.0, "lat": 27.75}}, {"type": "Feature", "geometry": {"type": "Polygon", "coordinates": [[[53.25, 28.5], [53.25, 30.0], [54.75, 30.0], [54.75, 28.5], [53.25, 28.5]]]}, "properties": {"cell_id": "36_79", "lon": 54.0, "lat": 29.25}}, {"type": "Feature", "geometry": {"type": "Polygon", "coordinates": [[[54.75, 21.0], [54.75, 22.5], [56.25, 22.5], [56.25, 21.0], [54.75, 21.0]]]}, "properties": {"cell_id": "37_74", "lon": 55.5, "lat": 21.75}}, {"type": "Feature", "geometry": {"type": "Polygon", "coordinates": [[[54.75, 22.5], [54.75, 24.0], [56.25, 24.0], [56.25, 22.5], [54.75, 22.5]]]}, "properties": {"cell_id": "37_75", "lon": 55.5, "lat": 23.25}}, {"type": "Feature", "geometry": {"type": "Polygon", "coordinates": [[[54.75, 24.0], [54.75, 25.5], [56.25, 25.5], [56.25, 24.0], [54.75, 24.0]]]}, "properties": {"cell_id": "37_76", "lon": 55.5, "lat": 24.75}}, {"type": "Feature", "geometry": {"type": "Polygon", "coordinates": [[[54.75, 25.5], [54.75, 27.0], [56.25, 27.0], [56.25, 25.5], [54.75, 25.5]]]}, "properties": {"cell_id": "37_77", "lon": 55.5, "lat": 26.25}}, {"type": "Feature", "geometry": {"type": "Polygon", "coordinates": [[[54.75, 27.0], [54.75, 28.5], [56.25, 28.5], [56.25, 27.0], [54.75, 27.0]]]}, "properties": {"cell_id": "37_78", "lon": 55.5, "lat": 27.75}}, {"type": "Feature", "geometry": {"type": "Polygon", "coordinates": [[[54.75, 28.5], [54.75, 30.0], [56.25, 30.0], [56.25, 28.5], [54.75, 28.5]]]}, "properties": {"cell_id": "37_79", "lon": 55.5, "lat": 29.25}}, {"type": "Feature", "geometry": {"type": "Polygon", "coordinates": [[[56.25, 21.0], [56.25, 22.5], [57.75, 22.5], [57.75, 21.0], [56.25, 21.0]]]}, "properties": {"cell_id": "38_74", "lon": 57.0, "lat": 21.75}}, {"type": "Feature", "geometry": {"type": "Polygon", "coordinates": [[[56.25, 22.5], [56.25, 24.0], [57.75, 24.0], [57.75, 22.5], [56.25, 22.5]]]}, "properties": {"cell_id": "38_75", "lon": 57.0, "lat": 23.25}}, {"type": "Feature", "geometry": {"type": "Polygon", "coordinates": [[[56.25, 24.0], [56.25, 25.5], [57.75, 25.5], [57.75, 24.0], [56.25, 24.0]]]}, "properties": {"cell_id": "38_76", "lon": 57.0, "lat": 24.75}}, {"type": "Feature", "geometry": {"type": "Polygon", "coordinates": [[[56.25, 25.5], [56.25, 27.0], [57.75, 27.0], [57.75, 25.5], [56.25, 25.5]]]}, "properties": {"cell_id": "38_77", "lon": 57.0, "lat": 26.25}}, {"type": "Feature", "geometry": {"type": "Polygon", "coordinates": [[[56.25, 27.0], [56.25, 28.5], [57.75, 28.5], [57.75, 27.0], [56.25, 27.0]]]}, "properties": {"cell_id": "38_78", "lon": 57.0, "lat": 27.75}}, {"type": "Feature", "geometry": {"type": "Polygon", "coordinates": [[[56.25, 28.5], [56.25, 30.0], [57.75, 30.0], [57.75, 28.5], [56.25, 28.5]]]}, "properties": {"cell_id": "38_79", "lon": 57.0, "lat": 29.25}}, {"type": "Feature", "geometry": {"type": "Polygon", "coordinates": [[[57.75, 24.0], [57.75, 25.5], [59.25, 25.5], [59.25, 24.0], [57.75, 24.0]]]}, "properties": {"cell_id": "39_76", "lon": 58.5, "lat": 24.75}}, {"type": "Feature", "geometry": {"type": "Polygon", "coordinates": [[[57.75, 25.5], [57.75, 27.0], [59.25, 27.0], [59.25, 25.5], [57.75, 25.5]]]}, "properties": {"cell_id": "39_77", "lon": 58.5, "lat": 26.25}}, {"type": "Feature", "geometry": {"type": "Polygon", "coordinates": [[[57.75, 27.0], [57.75, 28.5], [59.25, 28.5], [59.25, 27.0], [57.75, 27.0]]]}, "properties": {"cell_id": "39_78", "lon": 58.5, "lat": 27.75}}, {"type": "Feature", "geometry": {"type": "Polygon", "coordinates": [[[57.75, 28.5], [57.75, 30.0], [59.25, 30.0], [59.25, 28.5], [57.75, 28.5]]]}, "properties": {"cell_id": "39_79", "lon": 58.5, "lat": 29.25}}, {"type": "Feature", "geometry": {"type": "Polygon", "coordinates": [[[59.25, 24.0], [59.25, 25.5], [60.75, 25.5], [60.75, 24.0], [59.25, 24.0]]]}, "properties": {"cell_id": "40_76", "lon": 60.0, "lat": 24.75}}, {"type": "Feature", "geometry": {"type": "Polygon", "coordinates": [[[59.25, 25.5], [59.25, 27.0], [60.75, 27.0], [60.75, 25.5], [59.25, 25.5]]]}, "properties": {"cell_id": "40_77", "lon": 60.0, "lat": 26.25}}, {"type": "Feature", "geometry": {"type": "Polygon", "coordinates": [[[59.25, 27.0], [59.25, 28.5], [60.75, 28.5], [60.75, 27.0], [59.25, 27.0]]]}, "properties": {"cell_id": "40_78", "lon": 60.0, "lat": 27.75}}, {"type": "Feature", "geometry": {"type": "Polygon", "coordinates": [[[59.25, 28.5], [59.25, 30.0], [60.75, 30.0], [60.75, 28.5], [59.25, 28.5]]]}, "properties": {"cell_id": "40_79", "lon": 60.0, "lat": 29.25}}]}