{"type": "FeatureCollection", "features": [{"type": "Feature", "geometry": {"type": "Polygon", "coordinates": [[[-110.0, 60.0], [-110.0, 62.5], [-107.5, 62.5], [-107.5, 60.0], [-110.0, 60.0]]]}, "properties": {"cell_id": "100_60", "lon": -108.75, "lat": 61.25}}, {"type": "Feature", "geometry": {"type": "Polygon", "coordinates": [[[-110.0, 62.5], [-110.0, 65.0], [-107.5, 65.0], [-107.5, 62.5], [-110.0, 62.5]]]}, "properties": {"cell_id": "100_61", "lon": -108.75, "lat": 63.75}}, {"type": "Feature", "geometry": {"type": "Polygon", "coordinates": [[[-110.0, 65.0], [-110.0, 67.5], [-107.5, 67.5], [-107.5, 65.0], [-110.0, 65.0]]]}, "properties": {"cell_id": "100_62", "lon": -108.75, "lat": 66.25}}, {"type": "Feature", "geometry": {"type": "Polygon", "coordinates": [[[-107.5, 60.0], [-107.5, 62.5], [-105.0, 62.5], [-105.0, 60.0], [-107.5, 60.0]]]}, "properties": {"cell_id": "101_60", "lon": -106.25, "lat": 61.25}}, {"type": "Feature", "geometry": {"type": "Polygon", "coordinates": [[[-107.5, 62.5], [-107.5, 65.0], [-105.0, 65.0], [-105.0, 62.5], [-107.5, 62.5]]]}, "properties": {"cell_id": "101_61", "lon": -106.25, "lat": 63.75}}, {"type": "Feature", "geometry": {"type": "Polygon", "coordinates": [[[-107.5, 65.0], [-107.5, 67.5], [-105.0, 67.5], [-105.0, 65.0], [-107.5, 65.0]]]}, "properties": {"cell_id": "101_62", "lon": -106.25, "lat": 66.25}}, {"type": "Feature", "geometry": {"type": "Polygon", "coordinates": [[[-107.5, 67.5], [-107.5, 70.0], [-105.0, 70.0], [-105.0, 67.5], [-107.5, 67.5]]]}, "properties": {"cell_id": "101_63", "lon": -106.25, "lat": 68.75}}, {"type": "Feature", "geometry": {"type": "Polygon", "coordinates": [[[-105.0, 60.0], [-105.0, 62.5], [-102.5, 62.5], [-102.5, 60.0], [-105.0, 60.0]]]}, "properties": {"cell_id": "102_60", "lon": -103.75, "lat": 61.25}}, {"type": "Feature", "geometry": {"type": "Polygon", "coordinates": [[[-105.0, 62.5], [-105.0, 65.0], [-102.5, 65.0], [-102.5, 62.5], [-105.0, 62.5]]]}, "properties": {"cell_id": "102_61", "lon": -103.75, "lat": 63.75}}, {"type": "Feature", "geometry": {"type": "Polygon", "coordinates": [[[-105.0, 65.0], [-105.0, 67.5], [-102.5, 67.5], [-102.5, 65.0], [-105.0, 65.0]]]}, "properties": {"cell_id": "102_62", "lon": -103.75, "lat": 66.25}}, {"type": "Feature", "geometry": {"type": "Polygon", "coordinates": [[[-102.5, 60.0], [-102.5, 62.5], [-100.0, 62.5], [-100.0, 60.0], [-102.5, 60.0]]]}, "properties": {"cell_id": "103_60", "lon": -101.25, "lat": 61.25}}, {"type": "Feature", "geometry": {"type": "Polygon", "coordinates": [[[-102.5, 62.5], [-102.5, 65.0], [-100.0, 65.0], [-100.0, 62.5], [-102.5, 62.5]]]}, "properties": {"cell_id": "103_61", "lon": -101.25, "lat": 63.75}}, {"type": "Feature", "geometry": {"type": "Polygon", "coordinates": [[[-102.5, 65.0], [-102.5, 67.5], [-100.0, 67.5], [-100.0, 65.0], [-102.5, 65.0]]]}, "properties": {"cell_id": "103_62", "lon": -101.25, "lat": 66.25}}]}