{"type": "FeatureCollection", "features": [{"type": "Feature", "geometry": {"type": "Polygon", "coordinates": [[[-59.25, 48.0], [-59.25, 49.5], [-57.75, 49.5], [-57.75, 48.0], [-59.25, 48.0]]]}, "properties": {"cell_id": "201_92", "lon": -58.5, "lat": 48.75}}, {"type": "Feature", "geometry": {"type": "Polygon", "coordinates": [[[-59.25, 49.5], [-59.25, 51.0], [-57.75, 51.0], [-57.75, 49.5], [-59.25, 49.5]]]}, "properties": {"cell_id": "201_93", "lon": -58.5, "lat": 50.25}}, {"type": "Feature", "geometry": {"type": "Polygon", "coordinates": [[[-57.75, 46.5], [-57.75, 48.0], [-56.25, 48.0], [-56.25, 46.5], [-57.75, 46.5]]]}, "properties": {"cell_id": "202_91", "lon": -57.0, "lat": 47.25}}, {"type": "Feature", "geometry": {"type": "Polygon", "coordinates": [[[-57.75, 48.0], [-57.75, 49.5], [-56.25, 49.5], [-56.25, 48.0], [-57.75, 48.0]]]}, "properties": {"cell_id": "202_92", "lon": -57.0, "lat": 48.75}}, {"type": "Feature", "geometry": {"type": "Polygon", "coordinates": [[[-57.75, 49.5], [-57.75, 51.0], [-56.25, 51.0], [-56.25, 49.5], [-57.75, 49.5]]]}, "properties": {"cell_id": "202_93", "lon": -57.0, "lat": 50.25}}, {"type": "Feature", "geometry": {"type": "Polygon", "coordinates": [[[-56.25, 46.5], [-56.25, 48.0], [-54.75, 48.0], [-54.75, 46.5], [-56.25, 46.5]]]}, "properties": {"cell_id": "203_91", "lon": -55.5, "lat": 47.25}}, {"type": "Feature", "geometry": {"type": "Polygon", "coordinates": [[[-56.25, 48.0], [-56.25, 49.5], [-54.75, 49.5], [-54.75, 48.0], [-56.25, 48.0]]]}, "properties": {"cell_id": "203_92", "lon": -55.5, "lat": 48.75}}, {"type": "Feature", "geometry": {"type": "Polygon", "coordinates": [[[-56.25, 49.5], [-56.25, 51.0], [-54.75, 51.0], [-54.75, 49.5], [-56.25, 49.5]]]}, "properties": {"cell_id": "203_93", "lon": -55.5, "lat": 50.25}}, {"type": "Feature", "geometry": {"type": "Polygon", "coordinates": [[[-54.75, 46.5], [-54.75, 48.0], [-53.25, 48.0], [-53.25, 46.5], [-54.75, 46.5]]]}, "properties": {"cell_id": "204_91", "lon": -54.0, "lat": 47.25}}, {"type": "Feature", "geometry": {"type": "Polygon", "coordinates": [[[-54.75, 48.0], [-54.75, 49.5], [-53.25, 49.5], [-53.25, 48.0], [-54.75, 48.0]]]}, "properties": {"cell_id": "204_92", "lon": -54.0, "lat": 48.75}}]}