{"type": "FeatureCollection", "features": [{"type": "Feature", "geometry": {"type": "Polygon", "coordinates": [[[-70.0, 50.0], [-70.0, 52.5], [-67.5, 52.5], [-67.5, 50.0], [-70.0, 50.0]]]}, "properties": {"cell_id": "116_56", "lon": -68.75, "lat": 51.25}}, {"type": "Feature", "geometry": {"type": "Polygon", "coordinates": [[[-70.0, 52.5], [-70.0, 55.0], [-67.5, 55.0], [-67.5, 52.5], [-70.0, 52.5]]]}, "properties": {"cell_id": "116_57", "lon": -68.75, "lat": 53.75}}, {"type": "Feature", "geometry": {"type": "Polygon", "coordinates": [[[-70.0, 55.0], [-70.0, 57.5], [-67.5, 57.5], [-67.5, 55.0], [-70.0, 55.0]]]}, "properties": {"cell_id": "116_58", "lon": -68.75, "lat": 56.25}}, {"type": "Feature", "geometry": {"type": "Polygon", "coordinates": [[[-70.0, 57.5], [-70.0, 60.0], [-67.5, 60.0], [-67.5, 57.5], [-70.0, 57.5]]]}, "properties": {"cell_id": "116_59", "lon": -68.75, "lat": 58.75}}, {"type": "Feature", "geometry": {"type": "Polygon", "coordinates": [[[-67.5, 50.0], [-67.5, 52.5], [-65.0, 52.5], [-65.0, 50.0], [-67.5, 50.0]]]}, "properties": {"cell_id": "117_56", "lon": -66.25, "lat": 51.25}}, {"type": "Feature", "geometry": {"type": "Polygon", "coordinates": [[[-67.5, 52.5], [-67.5, 55.0], [-65.0, 55.0], [-65.0, 52.5], [-67.5, 52.5]]]}, "properties": {"cell_id": "117_57", "lon": -66.25, "lat": 53.75}}, {"type": "Feature", "geometry": {"type": "Polygon", "coordinates": [[[-67.5, 55.0], [-67.5, 57.5], [-65.0, 57.5], [-65.0, 55.0], [-67.5, 55.0]]]}, "properties": {"cell_id": "117_58", "lon": -66.25, "lat": 56.25}}, {"type": "Feature", "geometry": {"type": "Polygon", "coordinates": [[[-65.0, 50.0], [-65.0, 52.5], [-62.5, 52.5], [-62.5, 50.0], [-65.0, 50.0]]]}, "properties": {"cell_id": "118_56", "lon": -63.75, "lat": 51.25}}, {"type": "Feature", "geometry": {"type": "Polygon", "coordinates": [[[-65.0, 52.5], [-65.0, 55.0], [-62.5, 55.0], [-62.5, 52.5], [-65.0, 52.5]]]}, "properties": {"cell_id": "118_57", "lon": -63.75, "lat": 53.75}}, {"type": "Feature", "geometry": {"type": "Polygon", "coordinates": [[[-65.0, 55.0], [-65.0, 57.5], [-62.5, 57.5], [-62.5, 55.0], [-65.0, 55.0]]]}, "properties": {"cell_id": "118_58", "lon": -63.75, "lat": 56.25}}, {"type": "Feature", "geometry": {"type": "Polygon", "coordinates": [[[-65.0, 57.5], [-65.0, 60.0], [-62.5, 60.0], [-62.5, 57.5], [-65.0, 57.5]]]}, "properties": {"cell_id": "118_59", "lon": -63.75, "lat": 58.75}}, {"type": "Feature", "geometry": {"type": "Polygon", "coordinates": [[[-62.5, 50.0], [-62.5, 52.5], [-60.0, 52.5], [-60.0, 50.0], [-62.5, 50.0]]]}, "properties": {"cell_id": "119_56", "lon": -61.25, "lat": 51.25}}, {"type": "Feature", "geometry": {"type": "Polygon", "coordinates": [[[-62.5, 52.5], [-62.5, 55.0], [-60.0, 55.0], [-60.0, 52.5], [-62.5, 52.5]]]}, "properties": {"cell_id": "119_57", "lon": -61.25, "lat": 53.75}}]}