{"type": "FeatureCollection", "features": [{"type": "Feature", "geometry": {"type": "Polygon", "coordinates": [[[-59.25, 75.0], [-59.25, 76.5], [-57.75, 76.5], [-57.75, 75.0], [-59.25, 75.0]]]}, "properties": {"cell_id": "201_110", "lon": -58.5, "lat": 75.75}}, {"type": "Feature", "geometry": {"type": "Polygon", "coordinates": [[[-59.25, 76.5], [-59.25, 78.0], [-57.75, 78.0], [-57.75, 76.5], [-59.25, 76.5]]]}, "properties": {"cell_id": "201_111", "lon": -58.5, "lat": 77.25}}, {"type": "Feature", "geometry": {"type": "Polygon", "coordinates": [[[-59.25, 78.0], [-59.25, 79.5], [-57.75, 79.5], [-57.75, 78.0], [-59.25, 78.0]]]}, "properties": {"cell_id": "201_112", "lon": -58.5, "lat": 78.75}}, {"type": "Feature", "geometry": {"type": "Polygon", "coordinates": [[[-59.25, 79.5], [-59.25, 81.0], [-57.75, 81.0], [-57.75, 79.5], [-59.25, 79.5]]]}, "properties": {"cell_id": "201_113", "lon": -58.5, "lat": 80.25}}, {"type": "Feature", "geometry": {"type": "Polygon", "coordinates": [[[-57.75, 73.5], [-57.75, 75.0], [-56.25, 75.0], [-56.25, 73.5], [-57.75, 73.5]]]}, "properties": {"cell_id": "202_109", "lon": -57.0, "lat": 74.25}}, {"type": "Feature", "geometry": {"type": "Polygon", "coordinates": [[[-57.75, 75.0], [-57.75, 76.5], [-56.25, 76.5], [-56.25, 75.0], [-57.75, 75.0]]]}, "properties": {"cell_id": "202_110", "lon": -57.0, "lat": 75.75}}, {"type": "Feature", "geometry": {"type": "Polygon", "coordinates": [[[-57.75, 76.5], [-57.75, 78.0], [-56.25, 78.0], [-56.25, 76.5], [-57.75, 76.5]]]}, "properties": {"cell_id": "202_111", "lon": -57.0, "lat": 77.25}}, {"type": "Feature", "geometry": {"type": "Polygon", "coordinates": [[[-57.75, 78.0], [-57.75, 79.5], [-56.25, 79.5], [-56.25, 78.0], [-57.75, 78.0]]]}, "properties": {"cell_id": "202_112", "lon": -57.0, "lat": 78.75}}, {"type": "Feature", "geometry": {"type": "Polygon", "coordinates": [[[-57.75, 79.5], [-57.75, 81.0], [-56.25, 81.0], [-56.25, 79.5], [-57.75, 79.5]]]}, "properties": {"cell_id": "202_113", "lon": -57.0, "lat": 80.25}}, {"type": "Feature", "geometry": {"type": "Polygon", "coordinates": [[[-56.25, 70.5], [-56.25, 72.0], [-54.75, 72.0], [-54.75, 70.5], [-56.25, 70.5]]]}, "properties": {"cell_id": "203_107", "lon": -55.5, "lat": 71.25}}, {"type": "Feature", "geometry": {"type": "Polygon", "coordinates": [[[-56.25, 72.0], [-56.25, 73.5], [-54.75, 73.5], [-54.75, 72.0], [-56.25, 72.0]]]}, "properties": {"cell_id": "203_108", "lon": -55.5, "lat": 72.75}}, {"type": "Feature", "geometry": {"type": "Polygon", "coordinates": [[[-56.25, 73.5], [-56.25, 75.0], [-54.75, 75.0], [-54.75, 73.5], [-56.25, 73.5]]]}, "properties": {"cell_id": "203_109", "lon": -55.5, "lat": 74.25}}, {"type": "Feature", "geometry": {"type": "Polygon", "coordinates": [[[-56.25, 75.0], [-56.25, 76.5], [-54.75, 76.5], [-54.75, 75.0], [-56.25, 75.0]]]}, "properties": {"cell_id": "203_110", "lon": -55.5, "lat": 75.75}}, {"type": "Feature", "geometry": {"type": "Polygon", "coordinates": [[[-56.25, 76.5], [-56.25, 78.0], [-54.75, 78.0], [-54.75, 76.5], [-56.25, 76.5]]]}, "properties": {"cell_id": "203_111", "lon": -55.5, "lat": 77.25}}, {"type": "Feature", "geometry": {"type": "Polygon", "coordinates": [[[-56.25, 78.0], [-56.25, 79.5], [-54.75, 79.5], [-54.75, 78.0], [-56.25, 78.0]]]}, "properties": {"cell_id": "203_112", "lon": -55.5, "lat": 78.75}}, {"type": "Feature", "geometry": {"type": "Polygon", "coordinates": [[[-56.25, 79.5], [-56.25, 81.0], [-54.75, 81.0], [-54.75, 79.5], [-56.25, 79.5]]]}, "properties": {"cell_id": "203_113", "lon": -55.5, "lat": 80.25}}, {"type": "Feature", "geometry": {"type": "Polygon", "coordinates": [[[-54.75, 70.5], [-54.75, 72.0], [-53.25, 72.0], [-53.25, 70.5], [-54.75, 70.5]]]}, "properties": {"cell_id": "204_107", "lon": -54.0, "lat": 71.25}}, {"type": "Feature", "geometry": {"type": "Polygon", "coordinates": [[[-54.75, 72.0], [-54.75, 73.5], [-53.25, 73.5], [-53.25, 72.0], [-54.75, 72.0]]]}, "properties": {"cell_id": "204_108", "lon": -54.0, "lat": 72.75}}, {"type": "Feature", "geometry": {"type": "Polygon", "coordinates": [[[-54.75, 73.5], [-54.75, 75.0], [-53.25, 75.0], [-53.25, 73.5], [-54.75, 73.5]]]}, "properties": {"cell_id": "204_109", "lon": -54.0, "lat": 74.25}}, {"type": "Feature", "geometry": {"type": "Polygon", "coordinates": [[[-54.75, 75.0], [-54.75, 76.5], [-53.25, 76.5], [-53.25, 75.0], [-54.75, 75.0]]]}, "properties": {"cell_id": "204_110", "lon": -54.0, "lat": 75.75}}, {"type": "Feature", "geometry": {"type": "Polygon", "coordinates": [[[-54.75, 76.5], [-54.75, 78.0], [-53.25, 78.0], [-53.25, 76.5], [-54.75, 76.5]]]}, "properties": {"cell_id": "204_111", "lon": -54.0, "lat": 77.25}}, {"type": "Feature", "geometry": {"type": "Polygon", "coordinates": [[[-54.75, 78.0], [-54.75, 79.5], [-53.25, 79.5], [-53.25, 78.0], [-54.75, 78.0]]]}, "properties": {"cell_id": "204_112", "lon": -54.0, "lat": 78.75}}, {"type": "Feature", "geometry": {"type": "Polygon", "coordinates": [[[-54.75, 79.5], [-54.75, 81.0], [-53.25, 81.0], [-53.25, 79.5], [-54.75, 79.5]]]}, "properties": {"cell_id": "204_113", "lon": -54.0, "lat": 80.25}}, {"type": "Feature", "geometry": {"type": "Polygon", "coordinates": [[[-53.25, 70.5], [-53.25, 72.0], [-51.75, 72.0], [-51.75, 70.5], [-53.25, 70.5]]]}, "properties": {"cell_id": "205_107", "lon": -52.5, "lat": 71.25}}, {"type": "Feature", "geometry": {"type": "Polygon", "coordinates": [[[-53.25, 72.0], [-53.25, 73.5], [-51.75, 73.5], [-51.75, 72.0], [-53.25, 72.0]]]}, "properties": {"cell_id": "205_108", "lon": -52.5, "lat": 72.75}}, {"type": "Feature", "geometry": {"type": "Polygon", "coordinates": [[[-53.25, 73.5], [-53.25, 75.0], [-51.75, 75.0], [-51.75, 73.5], [-53.25, 73.5]]]}, "properties": {"cell_id": "205_109", "lon": -52.5, "lat": 74.25}}, {"type": "Feature", "geometry": {"type": "Polygon", "coordinates": [[[-53.25, 75.0], [-53.25, 76.5], [-51.75, 76.5], [-51.75, 75.0], [-53.25, 75.0]]]}, "properties": {"cell_id": "205_110", "lon": -52.5, "lat": 75.75}}, {"type": "Feature", "geometry": {"type": "Polygon", "coordinates": [[[-53.25, 76.5], [-53.25, 78.0], [-51.75, 78.0], [-51.75, 76.5], [-53.25, 76.5]]]}, "properties": {"cell_id": "205_111", "lon": -52.5, "lat": 77.25}}, {"type": "Feature", "geometry": {"type": "Polygon", "coordinates": [[[-53.25, 78.0], [-53.25, 79.5], [-51.75, 79.5], [-51.75, 78.0], [-53.25, 78.0]]]}, "properties": {"cell_id": "205_112", "lon": -52.5, "lat": 78.75}}, {"type": "Feature", "geometry": {"type": "Polygon", "coordinates": [[[-53.25, 79.5], [-53.25, 81.0], [-51.75, 81.0], [-51.75, 79.5], [-53.25, 79.5]]]}, "properties": {"cell_id": "205_113", "lon": -52.5, "lat": 80.25}}, {"type": "Feature", "geometry": {"type": "Polygon", "coordinates": [[[-51.75, 70.5], [-51.75, 72.0], [-50.25, 72.0], [-50.25, 70.5], [-51.75, 70.5]]]}, "properties": {"cell_id": "206_107", "lon": -51.0, "lat": 71.25}}, {"type": "Feature", "geometry": {"type": "Polygon", "coordinates": [[[-51.75, 72.0], [-51.75, 73.5], [-50.25, 73.5], [-50.25, 72.0], [-51.75, 72.0]]]}, "properties": {"cell_id": "206_108", "lon": -51.0, "lat": 72.75}}, {"type": "Feature", "geometry": {"type": "Polygon", "coordinates": [[[-51.75, 73.5], [-51.75, 75.0], [-50.25, 75.0], [-50.25, 73.5], [-51.75, 73.5]]]}, "properties": {"cell_id": "206_109", "lon": -51.0, "lat": 74.25}}, {"type": "Feature", "geometry": {"type": "Polygon", "coordinates": [[[-51.75, 75.0], [-51.75, 76.5], [-50.25, 76.5], [-50.25, 75.0], [-51.75, 75.0]]]}, "properties": {"cell_id": "206_110", "lon": -51.0, "lat": 75.75}}, {"type": "Feature", "geometry": {"type": "Polygon", "coordinates": [[[-51.75, 76.5], [-51.75, 78.0], [-50.25, 78.0], [-50.25, 76.5], [-51.75, 76.5]]]}, "properties": {"cell_id": "206_111", "lon": -51.0, "lat": 77.25}}, {"type": "Feature", "geometry": {"type": "Polygon", "coordinates": [[[-51.75, 78.0], [-51.75, 79.5], [-50.25, 79.5], [-50.25, 78.0], [-51.75, 78.0]]]}, "properties": {"cell_id": "206_112", "lon": -51.0, "lat": 78.75}}, {"type": "Feature", "geometry": {"type": "Polygon", "coordinates": [[[-51.75, 79.5], [-51.75, 81.0], [-50.25, 81.0], [-50.25, 79.5], [-51.75, 79.5]]]}, "properties": {"cell_id": "206_113", "lon": -51.0, "lat": 80.25}}, {"type": "Feature", "geometry": {"type": "Polygon", "coordinates": [[[-50.25, 70.5], [-50.25, 72.0], [-48.75, 72.0], [-48.75, 70.5], [-50.25, 70.5]]]}, "properties": {"cell_id": "207_107", "lon": -49.5, "lat": 71.25}}, {"type": "Feature", "geometry": {"type": "Polygon", "coordinates": [[[-50.25, 72.0], [-50.25, 73.5], [-48.75, 73.5], [-48.75, 72.0], [-50.25, 72.0]]]}, "properties": {"cell_id": "207_108", "lon": -49.5, "lat": 72.75}}, {"type": "Feature", "geometry": {"type": "Polygon", "coordinates": [[[-50.25, 73.5], [-50.25, 75.0], [-48.75, 75.0], [-48.75, 73.5], [-50.25, 73.5]]]}, "properties": {"cell_id": "207_109", "lon": -49.5, "lat": 74.25}}, {"type": "Feature", "geometry": {"type": "Polygon", "coordinates": [[[-50.25, 75.0], [-50.25, 76.5], [-48.75, 76.5], [-48.75, 75.0], [-50.25, 75.0]]]}, "properties": {"cell_id": "207_110", "lon": -49.5, "lat": 75.75}}, {"type": "Feature", "geometry": {"type": "Polygon", "coordinates": [[[-50.25, 76.5], [-50.25, 78.0], [-48.75, 78.0], [-48.75, 76.5], [-50.25, 76.5]]]}, "properties": {"cell_id": "207_111", "lon": -49.5, "lat": 77.25}}, {"type": "Feature", "geometry": {"type": "Polygon", "coordinates": [[[-50.25, 78.0], [-50.25, 79.5], [-48.75, 79.5], [-48.75, 78.0], [-50.25, 78.0]]]}, "properties": {"cell_id": "207_112", "lon": -49.5, "lat": 78.75}}, {"type": "Feature", "geometry": {"type": "Polygon", "coordinates": [[[-50.25, 79.5], [-50.25, 81.0], [-48.75, 81.0], [-48.75, 79.5], [-50.25, 79.5]]]}, "properties": {"cell_id": "207_113", "lon": -49.5, "lat": 80.25}}]}