{"type": "FeatureCollection", "features": [{"type": "Feature", "geometry": {"type": "Polygon", "coordinates": [[[-100.0, 40.0], [-100.0, 42.5], [-97.5, 42.5], [-97.5, 40.0], [-100.0, 40.0]]]}, "properties": {"cell_id": "104_52", "lon": -98.75, "lat": 41.25}}, {"type": "Feature", "geometry": {"type": "Polygon", "coordinates": [[[-100.0, 42.5], [-100.0, 45.0], [-97.5, 45.0], [-97.5, 42.5], [-100.0, 42.5]]]}, "properties": {"cell_id": "104_53", "lon": -98.75, "lat": 43.75}}, {"type": "Feature", "geometry": {"type": "Polygon", "coordinates": [[[-100.0, 45.0], [-100.0, 47.5], [-97.5, 47.5], [-97.5, 45.0], [-100.0, 45.0]]]}, "properties": {"cell_id": "104_54", "lon": -98.75, "lat": 46.25}}, {"type": "Feature", "geometry": {"type": "Polygon", "coordinates": [[[-100.0, 47.5], [-100.0, 50.0], [-97.5, 50.0], [-97.5, 47.5], [-100.0, 47.5]]]}, "properties": {"cell_id": "104_55", "lon": -98.75, "lat": 48.75}}, {"type": "Feature", "geometry": {"type": "Polygon", "coordinates": [[[-97.5, 40.0], [-97.5, 42.5], [-95.0, 42.5], [-95.0, 40.0], [-97.5, 40.0]]]}, "properties": {"cell_id": "105_52", "lon": -96.25, "lat": 41.25}}, {"type": "Feature", "geometry": {"type": "Polygon", "coordinates": [[[-97.5, 42.5], [-97.5, 45.0], [-95.0, 45.0], [-95.0, 42.5], [-97.5, 42.5]]]}, "properties": {"cell_id": "105_53", "lon": -96.25, "lat": 43.75}}, {"type": "Feature", "geometry": {"type": "Polygon", "coordinates": [[[-97.5, 45.0], [-97.5, 47.5], [-95.0, 47.5], [-95.0, 45.0], [-97.5, 45.0]]]}, "properties": {"cell_id": "105_54", "lon": -96.25, "lat": 46.25}}, {"type": "Feature", "geometry": {"type": "Polygon", "coordinates": [[[-97.5, 47.5], [-97.5, 50.0], [-95.0, 50.0], [-95.0, 47.5], [-97.5, 47.5]]]}, "properties": {"cell_id": "105_55", "lon": -96.25, "lat": 48.75}}, {"type": "Feature", "geometry": {"type": "Polygon", "coordinates": [[[-95.0, 40.0], [-95.0, 42.5], [-92.5, 42.5], [-92.5, 40.0], [-95.0, 40.0]]]}, "properties": {"cell_id": "106_52", "lon": -93.75, "lat": 41.25}}, {"type": "Feature", "geometry": {"type": "Polygon", "coordinates": [[[-95.0, 42.5], [-95.0, 45.0], [-92.5, 45.0], [-92.5, 42.5], [-95.0, 42.5]]]}, "properties": {"cell_id": "106_53", "lon": -93.75, "lat": 43.75}}, {"type": "Feature", "geometry": {"type": "Polygon", "coordinates": [[[-95.0, 45.0], [-95.0, 47.5], [-92.5, 47.5], [-92.5, 45.0], [-95.0, 45.0]]]}, "properties": {"cell_id": "106_54", "lon": -93.75, "lat": 46.25}}, {"type": "Feature", "geometry": {"type": "Polygon", "coordinates": [[[-95.0, 47.5], [-95.0, 50.0], [-92.5, 50.0], [-92.5, 47.5], [-95.0, 47.5]]]}, "properties": {"cell_id": "106_55", "lon": -93.75, "lat": 48.75}}, {"type": "Feature", "geometry": {"type": "Polygon", "coordinates": [[[-92.5, 40.0], [-92.5, 42.5], [-90.0, 42.5], [-90.0, 40.0], [-92.5, 40.0]]]}, "properties": {"cell_id": "107_52", "lon": -91.25, "lat": 41.25}}, {"type": "Feature", "geometry": {"type": "Polygon", "coordinates": [[[-92.5, 42.5], [-92.5, 45.0], [-90.0, 45.0], [-90.0, 42.5], [-92.5, 42.5]]]}, "properties": {"cell_id": "107_53", "lon": -91.25, "lat": 43.75}}, {"type": "Feature", "geometry": {"type": "Polygon", "coordinates": [[[-92.5, 45.0], [-92.5, 47.5], [-90.0, 47.5], [-90.0, 45.0], [-92.5, 45.0]]]}, "properties": {"cell_id": "107_54", "lon": -91.25, "lat": 46.25}}, {"type": "Feature", "geometry": {"type": "Polygon", "coordinates": [[[-92.5, 47.5], [-92.5, 50.0], [-90.0, 50.0], [-90.0, 47.5], [-92.5, 47.5]]]}, "properties": {"cell_id": "107_55", "lon": -91.25, "lat": 48.75}}]}