{"type": "FeatureCollection", "features": [{"type": "Feature", "geometry": {"type": "Polygon", "coordinates": [[[20.0, -20.0], [20.0, -17.5], [22.5, -17.5], [22.5, -20.0], [20.0, -20.0]]]}, "properties": {"cell_id": "8_28", "lon": 21.25, "lat": -18.75}}, {"type": "Feature", "geometry": {"type": "Polygon", "coordinates": [[[20.0, -17.5], [20.0, -15.0], [22.5, -15.0], [22.5, -17.5], [20.0, -17.5]]]}, "properties": {"cell_id": "8_29", "lon": 21.25, "lat": -16.25}}, {"type": "Feature", "geometry": {"type": "Polygon", "coordinates": [[[20.0, -15.0], [20.0, -12.5], [22.5, -12.5], [22.5, -15.0], [20.0, -15.0]]]}, "properties": {"cell_id": "8_30", "lon": 21.25, "lat": -13.75}}, {"type": "Feature", "geometry": {"type": "Polygon", "coordinates": [[[20.0, -12.5], [20.0, -10.0], [22.5, -10.0], [22.5, -12.5], [20.0, -12.5]]]}, "properties": {"cell_id": "8_31", "lon": 21.25, "lat": -11.25}}, {"type": "Feature", "geometry": {"type": "Polygon", "coordinates": [[[22.5, -20.0], [22.5, -17.5], [25.0, -17.5], [25.0, -20.0], [22.5, -20.0]]]}, "properties": {"cell_id": "9_28", "lon": 23.75, "lat": -18.75}}, {"type": "Feature", "geometry": {"type": "Polygon", "coordinates": [[[22.5, -17.5], [22.5, -15.0], [25.0, -15.0], [25.0, -17.5], [22.5, -17.5]]]}, "properties": {"cell_id": "9_29", "lon": 23.75, "lat": -16.25}}, {"type": "Feature", "geometry": {"type": "Polygon", "coordinates": [[[22.5, -15.0], [22.5, -12.5], [25.0, -12.5], [25.0, -15.0], [22.5, -15.0]]]}, "properties": {"cell_id": "9_30", "lon": 23.75, "lat": -13.75}}, {"type": "Feature", "geometry": {"type": "Polygon", "coordinates": [[[22.5, -12.5], [22.5, -10.0], [25.0, -10.0], [25.0, -12.5], [22.5, -12.5]]]}, "properties": {"cell_id": "9_31", "lon": 23.75, "lat": -11.25}}, {"type": "Feature", "geometry": {"type": "Polygon", "coordinates": [[[25.0, -20.0], [25.0, -17.5], [27.5, -17.5], [27.5, -20.0], [25.0, -20.0]]]}, "properties": {"cell_id": "10_28", "lon": 26.25, "lat": -18.75}}, {"type": "Feature", "geometry": {"type": "Polygon", "coordinates": [[[25.0, -17.5], [25.0, -15.0], [27.5, -15.0], [27.5, -17.5], [25.0, -17.5]]]}, "properties": {"cell_id": "10_29", "lon": 26.25, "lat": -16.25}}, {"type": "Feature", "geometry": {"type": "Polygon", "coordinates": [[[25.0, -15.0], [25.0, -12.5], [27.5, -12.5], [27.5, -15.0], [25.0, -15.0]]]}, "properties": {"cell_id": "10_30", "lon": 26.25, "lat": -13.75}}, {"type": "Feature", "geometry": {"type": "Polygon", "coordinates": [[[25.0, -12.5], [25.0, -10.0], [27.5, -10.0], [27.5, -12.5], [25.0, -12.5]]]}, "properties": {"cell_id": "10_31", "lon": 26.25, "lat": -11.25}}, {"type": "Feature", "geometry": {"type": "Polygon", "coordinates": [[[27.5, -20.0], [27.5, -17.5], [30.0, -17.5], [30.0, -20.0], [27.5, -20.0]]]}, "properties": {"cell_id": "11_28", "lon": 28.75, "lat": -18.75}}, {"type": "Feature", "geometry": {"type": "Polygon", "coordinates": [[[27.5, -17.5], [27.5, -15.0], [30.0, -15.0], [30.0, -17.5], [27.5, -17.5]]]}, "properties": {"cell_id": "11_29", "lon": 28.75, "lat": -16.25}}, {"type": "Feature", "geometry": {"type": "Polygon", "coordinates": [[[27.5, -15.0], [27.5, -12.5], [30.0, -12.5], [30.0, -15.0], [27.5, -15.0]]]}, "properties": {"cell_id": "11_30", "lon": 28.75, "lat": -13.75}}, {"type": "Feature", "geometry": {"type": "Polygon", "coordinates": [[[27.5, -12.5], [27.5, -10.0], [30.0, -10.0], [30.0, -12.5], [27.5, -12.5]]]}, "properties": {"cell_id": "11_31", "lon": 28.75, "lat": -11.25}}]}