{"type": "FeatureCollection", "features": [{"type": "Feature", "geometry": {"type": "Polygon", "coordinates": [[[-143.25, 58.5], [-143.25, 60.0], [-141.75, 60.0], [-141.75, 58.5], [-143.25, 58.5]]]}, "properties": {"cell_id": "145_99", "lon": -142.5, "lat": 59.25}}, {"type": "Feature", "geometry": {"type": "Polygon", "coordinates": [[[-141.75, 58.5], [-141.75, 60.0], [-140.25, 60.0], [-140.25, 58.5], [-141.75, 58.5]]]}, "properties": {"cell_id": "146_99", "lon": -141.0, "lat": 59.25}}, {"type": "Feature", "geometry": {"type": "Polygon", "coordinates": [[[-140.25, 58.5], [-140.25, 60.0], [-138.75, 60.0], [-138.75, 58.5], [-140.25, 58.5]]]}, "properties": {"cell_id": "147_99", "lon": -139.5, "lat": 59.25}}]}