{"type": "FeatureCollection", "features": [{"type": "Feature", "geometry": {"type": "Polygon", "coordinates": [[[140.25, -90.0], [140.25, -88.5], [141.75, -88.5], [141.75, -90.0], [140.25, -90.0]]]}, "properties": {"cell_id": "94_0", "lon": 141.0, "lat": -89.25}}, {"type": "Feature", "geometry": {"type": "Polygon", "coordinates": [[[140.25, -88.5], [140.25, -87.0], [141.75, -87.0], [141.75, -88.5], [140.25, -88.5]]]}, "properties": {"cell_id": "94_1", "lon": 141.0, "lat": -87.75}}, {"type": "Feature", "geometry": {"type": "Polygon", "coordinates": [[[140.25, -87.0], [140.25, -85.5], [141.75, -85.5], [141.75, -87.0], [140.25, -87.0]]]}, "properties": {"cell_id": "94_2", "lon": 141.0, "lat": -86.25}}, {"type": "Feature", "geometry": {"type": "Polygon", "coordinates": [[[140.25, -85.5], [140.25, -84.0], [141.75, -84.0], [141.75, -85.5], [140.25, -85.5]]]}, "properties": {"cell_id": "94_3", "lon": 141.0, "lat": -84.75}}, {"type": "Feature", "geometry": {"type": "Polygon", "coordinates": [[[140.25, -84.0], [140.25, -82.5], [141.75, -82.5], [141.75, -84.0], [140.25, -84.0]]]}, "properties": {"cell_id": "94_4", "lon": 141.0, "lat": -83.25}}, {"type": "Feature", "geometry": {"type": "Polygon", "coordinates": [[[140.25, -82.5], [140.25, -81.0], [141.75, -81.0], [141.75, -82.5], [140.25, -82.5]]]}, "properties": {"cell_id": "94_5", "lon": 141.0, "lat": -81.75}}, {"type": "Feature", "geometry": {"type": "Polygon", "coordinates": [[[140.25, -81.0], [140.25, -79.5], [141.75, -79.5], [141.75, -81.0], [140.25, -81.0]]]}, "properties": {"cell_id": "94_6", "lon": 141.0, "lat": -80.25}}, {"type": "Feature", "geometry": {"type": "Polygon", "coordinates": [[[141.75, -90.0], [141.75, -88.5], [143.25, -88.5], [143.25, -90.0], [141.75, -90.0]]]}, "properties": {"cell_id": "95_0", "lon": 142.5, "lat": -89.25}}, {"type": "Feature", "geometry": {"type": "Polygon", "coordinates": [[[141.75, -88.5], [141.75, -87.0], [143.25, -87.0], [143.25, -88.5], [141.75, -88.5]]]}, "properties": {"cell_id": "95_1", "lon": 142.5, "lat": -87.75}}, {"type": "Feature", "geometry": {"type": "Polygon", "coordinates": [[[141.75, -87.0], [141.75, -85.5], [143.25, -85.5], [143.25, -87.0], [141.75, -87.0]]]}, "properties": {"cell_id": "95_2", "lon": 142.5, "lat": -86.25}}, {"type": "Feature", "geometry": {"type": "Polygon", "coordinates": [[[141.75, -85.5], [141.75, -84.0], [143.25, -84.0], [143.25, -85.5], [141.75, -85.5]]]}, "properties": {"cell_id": "95_3", "lon": 142.5, "lat": -84.75}}, {"type": "Feature", "geometry": {"type": "Polygon", "coordinates": [[[141.75, -84.0], [141.75, -82.5], [143.25, -82.5], [143.25, -84.0], [141.75, -84.0]]]}, "properties": {"cell_id": "95_4", "lon": 142.5, "lat": -83.25}}, {"type": "Feature", "geometry": {"type": "Polygon", "coordinates": [[[141.75, -82.5], [141.75, -81.0], [143.25, -81.0], [143.25, -82.5], [141.75, -82.5]]]}, "properties": {"cell_id": "95_5", "lon": 142.5, "lat": -81.75}}, {"type": "Feature", "geometry": {"type": "Polygon", "coordinates": [[[141.75, -81.0], [141.75, -79.5], [143.25, -79.5], [143.25, -81.0], [141.75, -81.0]]]}, "properties": {"cell_id": "95_6", "lon": 142.5, "lat": -80.25}}, {"type": "Feature", "geometry": {"type": "Polygon", "coordinates": [[[143.25, -90.0], [143.25, -88.5], [144.75, -88.5], [144.75, -90.0], [143.25, -90.0]]]}, "properties": {"cell_id": "96_0", "lon": 144.0, "lat": -89.25}}, {"type": "Feature", "geometry": {"type": "Polygon", "coordinates": [[[143.25, -88.5], [143.25, -87.0], [144.75, -87.0], [144.75, -88.5], [143.25, -88.5]]]}, "properties": {"cell_id": "96_1", "lon": 144.0, "lat": -87.75}}, {"type": "Feature", "geometry": {"type": "Polygon", "coordinates": [[[143.25, -87.0], [143.25, -85.5], [144.75, -85.5], [144.75, -87.0], [143.25, -87.0]]]}, "properties": {"cell_id": "96_2", "lon": 144.0, "lat": -86.25}}, {"type": "Feature", "geometry": {"type": "Polygon", "coordinates": [[[143.25, -85.5], [143.25, -84.0], [144.75, -84.0], [144.75, -85.5], [143.25, -85.5]]]}, "properties": {"cell_id": "96_3", "lon": 144.0, "lat": -84.75}}, {"type": "Feature", "geometry": {"type": "Polygon", "coordinates": [[[143.25, -84.0], [143.25, -82.5], [144.75, -82.5], [144.75, -84.0], [143.25, -84.0]]]}, "properties": {"cell_id": "96_4", "lon": 144.0, "lat": -83.25}}, {"type": "Feature", "geometry": {"type": "Polygon", "coordinates": [[[143.25, -82.5], [143.25, -81.0], [144.75, -81.0], [144.75, -82.5], [143.25, -82.5]]]}, "properties": {"cell_id": "96_5", "lon": 144.0, "lat": -81.75}}, {"type": "Feature", "geometry": {"type": "Polygon", "coordinates": [[[143.25, -81.0], [143.25, -79.5], [144.75, -79.5], [144.75, -81.0], [143.25, -81.0]]]}, "properties": {"cell_id": "96_6", "lon": 144.0, "lat": -80.25}}, {"type": "Feature", "geometry": {"type": "Polygon", "coordinates": [[[144.75, -90.0], [144.75, -88.5], [146.25, -88.5], [146.25, -90.0], [144.75, -90.0]]]}, "properties": {"cell_id": "97_0", "lon": 145.5, "lat": -89.25}}, {"type": "Feature", "geometry": {"type": "Polygon", "coordinates": [[[144.75, -88.5], [144.75, -87.0], [146.25, -87.0], [146.25, -88.5], [144.75, -88.5]]]}, "properties": {"cell_id": "97_1", "lon": 145.5, "lat": -87.75}}, {"type": "Feature", "geometry": {"type": "Polygon", "coordinates": [[[144.75, -87.0], [144.75, -85.5], [146.25, -85.5], [146.25, -87.0], [144.75, -87.0]]]}, "properties": {"cell_id": "97_2", "lon": 145.5, "lat": -86.25}}, {"type": "Feature", "geometry": {"type": "Polygon", "coordinates": [[[144.75, -85.5], [144.75, -84.0], [146.25, -84.0], [146.25, -85.5], [144.75, -85.5]]]}, "properties": {"cell_id": "97_3", "lon": 145.5, "lat": -84.75}}, {"type": "Feature", "geometry": {"type": "Polygon", "coordinates": [[[144.75, -84.0], [144.75, -82.5], [146.25, -82.5], [146.25, -84.0], [144.75, -84.0]]]}, "properties": {"cell_id": "97_4", "lon": 145.5, "lat": -83.25}}, {"type": "Feature", "geometry": {"type": "Polygon", "coordinates": [[[144.75, -82.5], [144.75, -81.0], [146.25, -81.0], [146.25, -82.5], [144.75, -82.5]]]}, "properties": {"cell_id": "97_5", "lon": 145.5, "lat": -81.75}}, {"type": "Feature", "geometry": {"type": "Polygon", "coordinates": [[[144.75, -81.0], [144.75, -79.5], [146.25, -79.5], [146.25, -81.0], [144.75, -81.0]]]}, "properties": {"cell_id": "97_6", "lon": 145.5, "lat": -80.25}}, {"type": "Feature", "geometry": {"type": "Polygon", "coordinates": [[[146.25, -90.0], [146.25, -88.5], [147.75, -88.5], [147.75, -90.0], [146.25, -90.0]]]}, "properties": {"cell_id": "98_0", "lon": 147.0, "lat": -89.25}}, {"type": "Feature", "geometry": {"type": "Polygon", "coordinates": [[[146.25, -88.5], [146.25, -87.0], [147.75, -87.0], [147.75, -88.5], [146.25, -88.5]]]}, "properties": {"cell_id": "98_1", "lon": 147.0, "lat": -87.75}}, {"type": "Feature", "geometry": {"type": "Polygon", "coordinates": [[[146.25, -87.0], [146.25, -85.5], [147.75, -85.5], [147.75, -87.0], [146.25, -87.0]]]}, "properties": {"cell_id": "98_2", "lon": 147.0, "lat": -86.25}}, {"type": "Feature", "geometry": {"type": "Polygon", "coordinates": [[[146.25, -85.5], [146.25, -84.0], [147.75, -84.0], [147.75, -85.5], [146.25, -85.5]]]}, "properties": {"cell_id": "98_3", "lon": 147.0, "lat": -84.75}}, {"type": "Feature", "geometry": {"type": "Polygon", "coordinates": [[[146.25, -84.0], [146.25, -82.5], [147.75, -82.5], [147.75, -84.0], [146.25, -84.0]]]}, "properties": {"cell_id": "98_4", "lon": 147.0, "lat": -83.25}}, {"type": "Feature", "geometry": {"type": "Polygon", "coordinates": [[[146.25, -82.5], [146.25, -81.0], [147.75, -81.0], [147.75, -82.5], [146.25, -82.5]]]}, "properties": {"cell_id": "98_5", "lon": 147.0, "lat": -81.75}}, {"type": "Feature", "geometry": {"type": "Polygon", "coordinates": [[[146.25, -81.0], [146.25, -79.5], [147.75, -79.5], [147.75, -81.0], [146.25, -81.0]]]}, "properties": {"cell_id": "98_6", "lon": 147.0, "lat": -80.25}}, {"type": "Feature", "geometry": {"type": "Polygon", "coordinates": [[[147.75, -90.0], [147.75, -88.5], [149.25, -88.5], [149.25, -90.0], [147.75, -90.0]]]}, "properties": {"cell_id": "99_0", "lon": 148.5, "lat": -89.25}}, {"type": "Feature", "geometry": {"type": "Polygon", "coordinates": [[[147.75, -88.5], [147.75, -87.0], [149.25, -87.0], [149.25, -88.5], [147.75, -88.5]]]}, "properties": {"cell_id": "99_1", "lon": 148.5, "lat": -87.75}}, {"type": "Feature", "geometry": {"type": "Polygon", "coordinates": [[[147.75, -87.0], [147.75, -85.5], [149.25, -85.5], [149.25, -87.0], [147.75, -87.0]]]}, "properties": {"cell_id": "99_2", "lon": 148.5, "lat": -86.25}}, {"type": "Feature", "geometry": {"type": "Polygon", "coordinates": [[[147.75, -85.5], [147.75, -84.0], [149.25, -84.0], [149.25, -85.5], [147.75, -85.5]]]}, "properties": {"cell_id": "99_3", "lon": 148.5, "lat": -84.75}}, {"type": "Feature", "geometry": {"type": "Polygon", "coordinates": [[[147.75, -84.0], [147.75, -82.5], [149.25, -82.5], [149.25, -84.0], [147.75, -84.0]]]}, "properties": {"cell_id": "99_4", "lon": 148.5, "lat": -83.25}}, {"type": "Feature", "geometry": {"type": "Polygon", "coordinates": [[[147.75, -82.5], [147.75, -81.0], [149.25, -81.0], [149.25, -82.5], [147.75, -82.5]]]}, "properties": {"cell_id": "99_5", "lon": 148.5, "lat": -81.75}}, {"type": "Feature", "geometry": {"type": "Polygon", "coordinates": [[[147.75, -81.0], [147.75, -79.5], [149.25, -79.5], [149.25, -81.0], [147.75, -81.0]]]}, "properties": {"cell_id": "99_6", "lon": 148.5, "lat": -80.25}}, {"type": "Feature", "geometry": {"type": "Polygon", "coordinates": [[[149.25, -90.0], [149.25, -88.5], [150.75, -88.5], [150.75, -90.0], [149.25, -90.0]]]}, "properties": {"cell_id": "100_0", "lon": 150.0, "lat": -89.25}}, {"type": "Feature", "geometry": {"type": "Polygon", "coordinates": [[[149.25, -88.5], [149.25, -87.0], [150.75, -87.0], [150.75, -88.5], [149.25, -88.5]]]}, "properties": {"cell_id": "100_1", "lon": 150.0, "lat": -87.75}}, {"type": "Feature", "geometry": {"type": "Polygon", "coordinates": [[[149.25, -87.0], [149.25, -85.5], [150.75, -85.5], [150.75, -87.0], [149.25, -87.0]]]}, "properties": {"cell_id": "100_2", "lon": 150.0, "lat": -86.25}}, {"type": "Feature", "geometry": {"type": "Polygon", "coordinates": [[[149.25, -85.5], [149.25, -84.0], [150.75, -84.0], [150.75, -85.5], [149.25, -85.5]]]}, "properties": {"cell_id": "100_3", "lon": 150.0, "lat": -84.75}}, {"type": "Feature", "geometry": {"type": "Polygon", "coordinates": [[[149.25, -84.0], [149.25, -82.5], [150.75, -82.5], [150.75, -84.0], [149.25, -84.0]]]}, "properties": {"cell_id": "100_4", "lon": 150.0, "lat": -83.25}}, {"type": "Feature", "geometry": {"type": "Polygon", "coordinates": [[[149.25, -82.5], [149.25, -81.0], [150.75, -81.0], [150.75, -82.5], [149.25, -82.5]]]}, "properties": {"cell_id": "100_5", "lon": 150.0, "lat": -81.75}}, {"type": "Feature", "geometry": {"type": "Polygon", "coordinates": [[[149.25, -81.0], [149.25, -79.5], [150.75, -79.5], [150.75, -81.0], [149.25, -81.0]]]}, "properties": {"cell_id": "100_6", "lon": 150.0, "lat": -80.25}}]}