{"type": "FeatureCollection", "features": [{"type": "Feature", "geometry": {"type": "Polygon", "coordinates": [[[-100.0, 17.5], [-100.0, 20.0], [-97.5, 20.0], [-97.5, 17.5], [-100.0, 17.5]]]}, "properties": {"cell_id": "104_43", "lon": -98.75, "lat": 18.75}}, {"type": "Feature", "geometry": {"type": "Polygon", "coordinates": [[[-97.5, 15.0], [-97.5, 17.5], [-95.0, 17.5], [-95.0, 15.0], [-97.5, 15.0]]]}, "properties": {"cell_id": "105_42", "lon": -96.25, "lat": 16.25}}, {"type": "Feature", "geometry": {"type": "Polygon", "coordinates": [[[-97.5, 17.5], [-97.5, 20.0], [-95.0, 20.0], [-95.0, 17.5], [-97.5, 17.5]]]}, "properties": {"cell_id": "105_43", "lon": -96.25, "lat": 18.75}}, {"type": "Feature", "geometry": {"type": "Polygon", "coordinates": [[[-95.0, 15.0], [-95.0, 17.5], [-92.5, 17.5], [-92.5, 15.0], [-95.0, 15.0]]]}, "properties": {"cell_id": "106_42", "lon": -93.75, "lat": 16.25}}, {"type": "Feature", "geometry": {"type": "Polygon", "coordinates": [[[-92.5, 15.0], [-92.5, 17.5], [-90.0, 17.5], [-90.0, 15.0], [-92.5, 15.0]]]}, "properties": {"cell_id": "107_42", "lon": -91.25, "lat": 16.25}}, {"type": "Feature", "geometry": {"type": "Polygon", "coordinates": [[[-92.5, 17.5], [-92.5, 20.0], [-90.0, 20.0], [-90.0, 17.5], [-92.5, 17.5]]]}, "properties": {"cell_id": "107_43", "lon": -91.25, "lat": 18.75}}]}