{"type": "FeatureCollection", "features": [{"type": "Feature", "geometry": {"type": "Polygon", "coordinates": [[[20.25, 10.5], [20.25, 12.0], [21.75, 12.0], [21.75, 10.5], [20.25, 10.5]]]}, "properties": {"cell_id": "14_67", "lon": 21.0, "lat": 11.25}}, {"type": "Feature", "geometry": {"type": "Polygon", "coordinates": [[[20.25, 12.0], [20.25, 13.5], [21.75, 13.5], [21.75, 12.0], [20.25, 12.0]]]}, "properties": {"cell_id": "14_68", "lon": 21.0, "lat": 12.75}}, {"type": "Feature", "geometry": {"type": "Polygon", "coordinates": [[[20.25, 13.5], [20.25, 15.0], [21.75, 15.0], [21.75, 13.5], [20.25, 13.5]]]}, "properties": {"cell_id": "14_69", "lon": 21.0, "lat": 14.25}}, {"type": "Feature", "geometry": {"type": "Polygon", "coordinates": [[[20.25, 15.0], [20.25, 16.5], [21.75, 16.5], [21.75, 15.0], [20.25, 15.0]]]}, "properties": {"cell_id": "14_70", "lon": 21.0, "lat": 15.75}}, {"type": "Feature", "geometry": {"type": "Polygon", "coordinates": [[[20.25, 16.5], [20.25, 18.0], [21.75, 18.0], [21.75, 16.5], [20.25, 16.5]]]}, "properties": {"cell_id": "14_71", "lon": 21.0, "lat": 17.25}}, {"type": "Feature", "geometry": {"type": "Polygon", "coordinates": [[[20.25, 18.0], [20.25, 19.5], [21.75, 19.5], [21.75, 18.0], [20.25, 18.0]]]}, "properties": {"cell_id": "14_72", "lon": 21.0, "lat": 18.75}}, {"type": "Feature", "geometry": {"type": "Polygon", "coordinates": [[[20.25, 19.5], [20.25, 21.0], [21.75, 21.0], [21.75, 19.5], [20.25, 19.5]]]}, "properties": {"cell_id": "14_73", "lon": 21.0, "lat": 20.25}}, {"type": "Feature", "geometry": {"type": "Polygon", "coordinates": [[[21.75, 10.5], [21.75, 12.0], [23.25, 12.0], [23.25, 10.5], [21.75, 10.5]]]}, "properties": {"cell_id": "15_67", "lon": 22.5, "lat": 11.25}}, {"type": "Feature", "geometry": {"type": "Polygon", "coordinates": [[[21.75, 12.0], [21.75, 13.5], [23.25, 13.5], [23.25, 12.0], [21.75, 12.0]]]}, "properties": {"cell_id": "15_68", "lon": 22.5, "lat": 12.75}}, {"type": "Feature", "geometry": {"type": "Polygon", "coordinates": [[[21.75, 13.5], [21.75, 15.0], [23.25, 15.0], [23.25, 13.5], [21.75, 13.5]]]}, "properties": {"cell_id": "15_69", "lon": 22.5, "lat": 14.25}}, {"type": "Feature", "geometry": {"type": "Polygon", "coordinates": [[[21.75, 15.0], [21.75, 16.5], [23.25, 16.5], [23.25, 15.0], [21.75, 15.0]]]}, "properties": {"cell_id": "15_70", "lon": 22.5, "lat": 15.75}}, {"type": "Feature", "geometry": {"type": "Polygon", "coordinates": [[[21.75, 16.5], [21.75, 18.0], [23.25, 18.0], [23.25, 16.5], [21.75, 16.5]]]}, "properties": {"cell_id": "15_71", "lon": 22.5, "lat": 17.25}}, {"type": "Feature", "geometry": {"type": "Polygon", "coordinates": [[[21.75, 18.0], [21.75, 19.5], [23.25, 19.5], [23.25, 18.0], [21.75, 18.0]]]}, "properties": {"cell_id": "15_72", "lon": 22.5, "lat": 18.75}}, {"type": "Feature", "geometry": {"type": "Polygon", "coordinates": [[[21.75, 19.5], [21.75, 21.0], [23.25, 21.0], [23.25, 19.5], [21.75, 19.5]]]}, "properties": {"cell_id": "15_73", "lon": 22.5, "lat": 20.25}}, {"type": "Feature", "geometry": {"type": "Polygon", "coordinates": [[[23.25, 10.5], [23.25, 12.0], [24.75, 12.0], [24.75, 10.5], [23.25, 10.5]]]}, "properties": {"cell_id": "16_67", "lon": 24.0, "lat": 11.25}}, {"type": "Feature", "geometry": {"type": "Polygon", "coordinates": [[[23.25, 12.0], [23.25, 13.5], [24.75, 13.5], [24.75, 12.0], [23.25, 12.0]]]}, "properties": {"cell_id": "16_68", "lon": 24.0, "lat": 12.75}}, {"type": "Feature", "geometry": {"type": "Polygon", "coordinates": [[[23.25, 13.5], [23.25, 15.0], [24.75, 15.0], [24.75, 13.5], [23.25, 13.5]]]}, "properties": {"cell_id": "16_69", "lon": 24.0, "lat": 14.25}}, {"type": "Feature", "geometry": {"type": "Polygon", "coordinates": [[[23.25, 15.0], [23.25, 16.5], [24.75, 16.5], [24.75, 15.0], [23.25, 15.0]]]}, "properties": {"cell_id": "16_70", "lon": 24.0, "lat": 15.75}}, {"type": "Feature", "geometry": {"type": "Polygon", "coordinates": [[[23.25, 16.5], [23.25, 18.0], [24.75, 18.0], [24.75, 16.5], [23.25, 16.5]]]}, "properties": {"cell_id": "16_71", "lon": 24.0, "lat": 17.25}}, {"type": "Feature", "geometry": {"type": "Polygon", "coordinates": [[[23.25, 18.0], [23.25, 19.5], [24.75, 19.5], [24.75, 18.0], [23.25, 18.0]]]}, "properties": {"cell_id": "16_72", "lon": 24.0, "lat": 18.75}}, {"type": "Feature", "geometry": {"type": "Polygon", "coordinates": [[[23.25, 19.5], [23.25, 21.0], [24.75, 21.0], [24.75, 19.5], [23.25, 19.5]]]}, "properties": {"cell_id": "16_73", "lon": 24.0, "lat": 20.25}}, {"type": "Feature", "geometry": {"type": "Polygon", "coordinates": [[[24.75, 10.5], [24.75, 12.0], [26.25, 12.0], [26.25, 10.5], [24.75, 10.5]]]}, "properties": {"cell_id": "17_67", "lon": 25.5, "lat": 11.25}}, {"type": "Feature", "geometry": {"type": "Polygon", "coordinates": [[[24.75, 12.0], [24.75, 13.5], [26.25, 13.5], [26.25, 12.0], [24.75, 12.0]]]}, "properties": {"cell_id": "17_68", "lon": 25.5, "lat": 12.75}}, {"type": "Feature", "geometry": {"type": "Polygon", "coordinates": [[[24.75, 13.5], [24.75, 15.0], [26.25, 15.0], [26.25, 13.5], [24.75, 13.5]]]}, "properties": {"cell_id": "17_69", "lon": 25.5, "lat": 14.25}}, {"type": "Feature", "geometry": {"type": "Polygon", "coordinates": [[[24.75, 15.0], [24.75, 16.5], [26.25, 16.5], [26.25, 15.0], [24.75, 15.0]]]}, "properties": {"cell_id": "17_70", "lon": 25.5, "lat": 15.75}}, {"type": "Feature", "geometry": {"type": "Polygon", "coordinates": [[[24.75, 16.5], [24.75, 18.0], [26.25, 18.0], [26.25, 16.5], [24.75, 16.5]]]}, "properties": {"cell_id": "17_71", "lon": 25.5, "lat": 17.25}}, {"type": "Feature", "geometry": {"type": "Polygon", "coordinates": [[[24.75, 18.0], [24.75, 19.5], [26.25, 19.5], [26.25, 18.0], [24.75, 18.0]]]}, "properties": {"cell_id": "17_72", "lon": 25.5, "lat": 18.75}}, {"type": "Feature", "geometry": {"type": "Polygon", "coordinates": [[[24.75, 19.5], [24.75, 21.0], [26.25, 21.0], [26.25, 19.5], [24.75, 19.5]]]}, "properties": {"cell_id": "17_73", "lon": 25.5, "lat": 20.25}}, {"type": "Feature", "geometry": {"type": "Polygon", "coordinates": [[[26.25, 10.5], [26.25, 12.0], [27.75, 12.0], [27.75, 10.5], [26.25, 10.5]]]}, "properties": {"cell_id": "18_67", "lon": 27.0, "lat": 11.25}}, {"type": "Feature", "geometry": {"type": "Polygon", "coordinates": [[[26.25, 12.0], [26.25, 13.5], [27.75, 13.5], [27.75, 12.0], [26.25, 12.0]]]}, "properties": {"cell_id": "18_68", "lon": 27.0, "lat": 12.75}}, {"type": "Feature", "geometry": {"type": "Polygon", "coordinates": [[[26.25, 13.5], [26.25, 15.0], [27.75, 15.0], [27.75, 13.5], [26.25, 13.5]]]}, "properties": {"cell_id": "18_69", "lon": 27.0, "lat": 14.25}}, {"type": "Feature", "geometry": {"type": "Polygon", "coordinates": [[[26.25, 15.0], [26.25, 16.5], [27.75, 16.5], [27.75, 15.0], [26.25, 15.0]]]}, "properties": {"cell_id": "18_70", "lon": 27.0, "lat": 15.75}}, {"type": "Feature", "geometry": {"type": "Polygon", "coordinates": [[[26.25, 16.5], [26.25, 18.0], [27.75, 18.0], [27.75, 16.5], [26.25, 16.5]]]}, "properties": {"cell_id": "18_71", "lon": 27.0, "lat": 17.25}}, {"type": "Feature", "geometry": {"type": "Polygon", "coordinates": [[[26.25, 18.0], [26.25, 19.5], [27.75, 19.5], [27.75, 18.0], [26.25, 18.0]]]}, "properties": {"cell_id": "18_72", "lon": 27.0, "lat": 18.75}}, {"type": "Feature", "geometry": {"type": "Polygon", "coordinates": [[[26.25, 19.5], [26.25, 21.0], [27.75, 21.0], [27.75, 19.5], [26.25, 19.5]]]}, "properties": {"cell_id": "18_73", "lon": 27.0, "lat": 20.25}}, {"type": "Feature", "geometry": {"type": "Polygon", "coordinates": [[[27.75, 10.5], [27.75, 12.0], [29.25, 12.0], [29.25, 10.5], [27.75, 10.5]]]}, "properties": {"cell_id": "19_67", "lon": 28.5, "lat": 11.25}}, {"type": "Feature", "geometry": {"type": "Polygon", "coordinates": [[[27.75, 12.0], [27.75, 13.5], [29.25, 13.5], [29.25, 12.0], [27.75, 12.0]]]}, "properties": {"cell_id": "19_68", "lon": 28.5, "lat": 12.75}}, {"type": "Feature", "geometry": {"type": "Polygon", "coordinates": [[[27.75, 13.5], [27.75, 15.0], [29.25, 15.0], [29.25, 13.5], [27.75, 13.5]]]}, "properties": {"cell_id": "19_69", "lon": 28.5, "lat": 14.25}}, {"type": "Feature", "geometry": {"type": "Polygon", "coordinates": [[[27.75, 15.0], [27.75, 16.5], [29.25, 16.5], [29.25, 15.0], [27.75, 15.0]]]}, "properties": {"cell_id": "19_70", "lon": 28.5, "lat": 15.75}}, {"type": "Feature", "geometry": {"type": "Polygon", "coordinates": [[[27.75, 16.5], [27.75, 18.0], [29.25, 18.0], [29.25, 16.5], [27.75, 16.5]]]}, "properties": {"cell_id": "19_71", "lon": 28.5, "lat": 17.25}}, {"type": "Feature", "geometry": {"type": "Polygon", "coordinates": [[[27.75, 18.0], [27.75, 19.5], [29.25, 19.5], [29.25, 18.0], [27.75, 18.0]]]}, "properties": {"cell_id": "19_72", "lon": 28.5, "lat": 18.75}}, {"type": "Feature", "geometry": {"type": "Polygon", "coordinates": [[[27.75, 19.5], [27.75, 21.0], [29.25, 21.0], [29.25, 19.5], [27.75, 19.5]]]}, "properties": {"cell_id": "19_73", "lon": 28.5, "lat": 20.25}}, {"type": "Feature", "geometry": {"type": "Polygon", "coordinates": [[[29.25, 10.5], [29.25, 12.0], [30.75, 12.0], [30.75, 10.5], [29.25, 10.5]]]}, "properties": {"cell_id": "20_67", "lon": 30.0, "lat": 11.25}}, {"type": "Feature", "geometry": {"type": "Polygon", "coordinates": [[[29.25, 12.0], [29.25, 13.5], [30.75, 13.5], [30.75, 12.0], [29.25, 12.0]]]}, "properties": {"cell_id": "20_68", "lon": 30.0, "lat": 12.75}}, {"type": "Feature", "geometry": {"type": "Polygon", "coordinates": [[[29.25, 13.5], [29.25, 15.0], [30.75, 15.0], [30.75, 13.5], [29.25, 13.5]]]}, "properties": {"cell_id": "20_69", "lon": 30.0, "lat": 14.25}}, {"type": "Feature", "geometry": {"type": "Polygon", "coordinates": [[[29.25, 15.0], [29.25, 16.5], [30.75, 16.5], [30.75, 15.0], [29.25, 15.0]]]}, "properties": {"cell_id": "20_70", "lon": 30.0, "lat": 15.75}}, {"type": "Feature", "geometry": {"type": "Polygon", "coordinates": [[[29.25, 16.5], [29.25, 18.0], [30.75, 18.0], [30.75, 16.5], [29.25, 16.5]]]}, "properties": {"cell_id": "20_71", "lon": 30.0, "lat": 17.25}}, {"type": "Feature", "geometry": {"type": "Polygon", "coordinates": [[[29.25, 18.0], [29.25, 19.5], [30.75, 19.5], [30.75, 18.0], [29.25, 18.0]]]}, "properties": {"cell_id": "20_72", "lon": 30.0, "lat": 18.75}}, {"type": "Feature", "geometry": {"type": "Polygon", "coordinates": [[[29.25, 19.5], [29.25, 21.0], [30.75, 21.0], [30.75, 19.5], [29.25, 19.5]]]}, "properties": {"cell_id": "20_73", "lon": 30.0, "lat": 20.25}}]}