{"type": "FeatureCollection", "features": [{"type": "Feature", "geometry": {"type": "Polygon", "coordinates": [[[40.0, 0.0], [40.0, 2.5], [42.5, 2.5], [42.5, 0.0], [40.0, 0.0]]]}, "properties": {"cell_id": "16_36", "lon": 41.25, "lat": 1.25}}, {"type": "Feature", "geometry": {"type": "Polygon", "coordinates": [[[40.0, 2.5], [40.0, 5.0], [42.5, 5.0], [42.5, 2.5], [40.0, 2.5]]]}, "properties": {"cell_id": "16_37", "lon": 41.25, "lat": 3.75}}, {"type": "Feature", "geometry": {"type": "Polygon", "coordinates": [[[40.0, 5.0], [40.0, 7.5], [42.5, 7.5], [42.5, 5.0], [40.0, 5.0]]]}, "properties": {"cell_id": "16_38", "lon": 41.25, "lat": 6.25}}, {"type": "Feature", "geometry": {"type": "Polygon", "coordinates": [[[40.0, 7.5], [40.0, 10.0], [42.5, 10.0], [42.5, 7.5], [40.0, 7.5]]]}, "properties": {"cell_id": "16_39", "lon": 41.25, "lat": 8.75}}, {"type": "Feature", "geometry": {"type": "Polygon", "coordinates": [[[42.5, 0.0], [42.5, 2.5], [45.0, 2.5], [45.0, 0.0], [42.5, 0.0]]]}, "properties": {"cell_id": "17_36", "lon": 43.75, "lat": 1.25}}, {"type": "Feature", "geometry": {"type": "Polygon", "coordinates": [[[42.5, 2.5], [42.5, 5.0], [45.0, 5.0], [45.0, 2.5], [42.5, 2.5]]]}, "properties": {"cell_id": "17_37", "lon": 43.75, "lat": 3.75}}, {"type": "Feature", "geometry": {"type": "Polygon", "coordinates": [[[42.5, 5.0], [42.5, 7.5], [45.0, 7.5], [45.0, 5.0], [42.5, 5.0]]]}, "properties": {"cell_id": "17_38", "lon": 43.75, "lat": 6.25}}, {"type": "Feature", "geometry": {"type": "Polygon", "coordinates": [[[42.5, 7.5], [42.5, 10.0], [45.0, 10.0], [45.0, 7.5], [42.5, 7.5]]]}, "properties": {"cell_id": "17_39", "lon": 43.75, "lat": 8.75}}, {"type": "Feature", "geometry": {"type": "Polygon", "coordinates": [[[45.0, 2.5], [45.0, 5.0], [47.5, 5.0], [47.5, 2.5], [45.0, 2.5]]]}, "properties": {"cell_id": "18_37", "lon": 46.25, "lat": 3.75}}, {"type": "Feature", "geometry": {"type": "Polygon", "coordinates": [[[45.0, 5.0], [45.0, 7.5], [47.5, 7.5], [47.5, 5.0], [45.0, 5.0]]]}, "properties": {"cell_id": "18_38", "lon": 46.25, "lat": 6.25}}, {"type": "Feature", "geometry": {"type": "Polygon", "coordinates": [[[45.0, 7.5], [45.0, 10.0], [47.5, 10.0], [47.5, 7.5], [45.0, 7.5]]]}, "properties": {"cell_id": "18_39", "lon": 46.25, "lat": 8.75}}, {"type": "Feature", "geometry": {"type": "Polygon", "coordinates": [[[47.5, 5.0], [47.5, 7.5], [50.0, 7.5], [50.0, 5.0], [47.5, 5.0]]]}, "properties": {"cell_id": "19_38", "lon": 48.75, "lat": 6.25}}, {"type": "Feature", "geometry": {"type": "Polygon", "coordinates": [[[47.5, 7.5], [47.5, 10.0], [50.0, 10.0], [50.0, 7.5], [47.5, 7.5]]]}, "properties": {"cell_id": "19_39", "lon": 48.75, "lat": 8.75}}]}