{"type": "FeatureCollection", "features": [{"type": "Feature", "geometry": {"type": "Polygon", "coordinates": [[[-69.75, 81.0], [-69.75, 82.5], [-68.25, 82.5], [-68.25, 81.0], [-69.75, 81.0]]]}, "properties": {"cell_id": "194_114", "lon": -69.0, "lat": 81.75}}, {"type": "Feature", "geometry": {"type": "Polygon", "coordinates": [[[-69.75, 82.5], [-69.75, 84.0], [-68.25, 84.0], [-68.25, 82.5], [-69.75, 82.5]]]}, "properties": {"cell_id": "194_115", "lon": -69.0, "lat": 83.25}}, {"type": "Feature", "geometry": {"type": "Polygon", "coordinates": [[[-68.25, 81.0], [-68.25, 82.5], [-66.75, 82.5], [-66.75, 81.0], [-68.25, 81.0]]]}, "properties": {"cell_id": "195_114", "lon": -67.5, "lat": 81.75}}, {"type": "Feature", "geometry": {"type": "Polygon", "coordinates": [[[-68.25, 82.5], [-68.25, 84.0], [-66.75, 84.0], [-66.75, 82.5], [-68.25, 82.5]]]}, "properties": {"cell_id": "195_115", "lon": -67.5, "lat": 83.25}}, {"type": "Feature", "geometry": {"type": "Polygon", "coordinates": [[[-66.75, 81.0], [-66.75, 82.5], [-65.25, 82.5], [-65.25, 81.0], [-66.75, 81.0]]]}, "properties": {"cell_id": "196_114", "lon": -66.0, "lat": 81.75}}, {"type": "Feature", "geometry": {"type": "Polygon", "coordinates": [[[-65.25, 81.0], [-65.25, 82.5], [-63.75, 82.5], [-63.75, 81.0], [-65.25, 81.0]]]}, "properties": {"cell_id": "197_114", "lon": -64.5, "lat": 81.75}}, {"type": "Feature", "geometry": {"type": "Polygon", "coordinates": [[[-65.25, 82.5], [-65.25, 84.0], [-63.75, 84.0], [-63.75, 82.5], [-65.25, 82.5]]]}, "properties": {"cell_id": "197_115", "lon": -64.5, "lat": 83.25}}, {"type": "Feature", "geometry": {"type": "Polygon", "coordinates": [[[-63.75, 81.0], [-63.75, 82.5], [-62.25, 82.5], [-62.25, 81.0], [-63.75, 81.0]]]}, "properties": {"cell_id": "198_114", "lon": -63.0, "lat": 81.75}}, {"type": "Feature", "geometry": {"type": "Polygon", "coordinates": [[[-62.25, 81.0], [-62.25, 82.5], [-60.75, 82.5], [-60.75, 81.0], [-62.25, 81.0]]]}, "properties": {"cell_id": "199_114", "lon": -61.5, "lat": 81.75}}, {"type": "Feature", "geometry": {"type": "Polygon", "coordinates": [[[-60.75, 81.0], [-60.75, 82.5], [-59.25, 82.5], [-59.25, 81.0], [-60.75, 81.0]]]}, "properties": {"cell_id": "200_114", "lon": -60.0, "lat": 81.75}}]}