{"type": "FeatureCollection", "features": [{"type": "Feature", "geometry": {"type": "Polygon", "coordinates": [[[-125.0, 72.5], [-125.0, 75.0], [-122.5, 75.0], [-122.5, 72.5], [-125.0, 72.5]]]}, "properties": {"cell_id": "94_65", "lon": -123.75, "lat": 73.75}}, {"type": "Feature", "geometry": {"type": "Polygon", "coordinates": [[[-122.5, 72.5], [-122.5, 75.0], [-120.0, 75.0], [-120.0, 72.5], [-122.5, 72.5]]]}, "properties": {"cell_id": "95_65", "lon": -121.25, "lat": 73.75}}, {"type": "Feature", "geometry": {"type": "Polygon", "coordinates": [[[-122.5, 75.0], [-122.5, 77.5], [-120.0, 77.5], [-120.0, 75.0], [-122.5, 75.0]]]}, "properties": {"cell_id": "95_66", "lon": -121.25, "lat": 76.25}}]}