{"type": "FeatureCollection", "features": [{"type": "Feature", "geometry": {"type": "Polygon", "coordinates": [[[-86.25, 9.0], [-86.25, 10.5], [-84.75, 10.5], [-84.75, 9.0], [-86.25, 9.0]]]}, "properties": {"cell_id": "183_66", "lon": -85.5, "lat": 9.75}}, {"type": "Feature", "geometry": {"type": "Polygon", "coordinates": [[[-84.75, 7.5], [-84.75, 9.0], [-83.25, 9.0], [-83.25, 7.5], [-84.75, 7.5]]]}, "properties": {"cell_id": "184_65", "lon": -84.0, "lat": 8.25}}, {"type": "Feature", "geometry": {"type": "Polygon", "coordinates": [[[-84.75, 9.0], [-84.75, 10.5], [-83.25, 10.5], [-83.25, 9.0], [-84.75, 9.0]]]}, "properties": {"cell_id": "184_66", "lon": -84.0, "lat": 9.75}}, {"type": "Feature", "geometry": {"type": "Polygon", "coordinates": [[[-83.25, 7.5], [-83.25, 9.0], [-81.75, 9.0], [-81.75, 7.5], [-83.25, 7.5]]]}, "properties": {"cell_id": "185_65", "lon": -82.5, "lat": 8.25}}, {"type": "Feature", "geometry": {"type": "Polygon", "coordinates": [[[-83.25, 9.0], [-83.25, 10.5], [-81.75, 10.5], [-81.75, 9.0], [-83.25, 9.0]]]}, "properties": {"cell_id": "185_66", "lon": -82.5, "lat": 9.75}}, {"type": "Feature", "geometry": {"type": "Polygon", "coordinates": [[[-81.75, 7.5], [-81.75, 9.0], [-80.25, 9.0], [-80.25, 7.5], [-81.75, 7.5]]]}, "properties": {"cell_id": "186_65", "lon": -81.0, "lat": 8.25}}, {"type": "Feature", "geometry": {"type": "Polygon", "coordinates": [[[-80.25, 0.0], [-80.25, 1.5], [-78.75, 1.5], [-78.75, 0.0], [-80.25, 0.0]]]}, "properties": {"cell_id": "187_60", "lon": -79.5, "lat": 0.75}}, {"type": "Feature", "geometry": {"type": "Polygon", "coordinates": [[[-80.25, 7.5], [-80.25, 9.0], [-78.75, 9.0], [-78.75, 7.5], [-80.25, 7.5]]]}, "properties": {"cell_id": "187_65", "lon": -79.5, "lat": 8.25}}]}