{"type": "FeatureCollection", "features": [{"type": "Feature", "geometry": {"type": "Polygon", "coordinates": [[[20.0, -30.0], [20.0, -27.5], [22.5, -27.5], [22.5, -30.0], [20.0, -30.0]]]}, "properties": {"cell_id": "8_24", "lon": 21.25, "lat": -28.75}}, {"type": "Feature", "geometry": {"type": "Polygon", "coordinates": [[[20.0, -27.5], [20.0, -25.0], [22.5, -25.0], [22.5, -27.5], [20.0, -27.5]]]}, "properties": {"cell_id": "8_25", "lon": 21.25, "lat": -26.25}}, {"type": "Feature", "geometry": {"type": "Polygon", "coordinates": [[[20.0, -25.0], [20.0, -22.5], [22.5, -22.5], [22.5, -25.0], [20.0, -25.0]]]}, "properties": {"cell_id": "8_26", "lon": 21.25, "lat": -23.75}}, {"type": "Feature", "geometry": {"type": "Polygon", "coordinates": [[[20.0, -22.5], [20.0, -20.0], [22.5, -20.0], [22.5, -22.5], [20.0, -22.5]]]}, "properties": {"cell_id": "8_27", "lon": 21.25, "lat": -21.25}}, {"type": "Feature", "geometry": {"type": "Polygon", "coordinates": [[[22.5, -30.0], [22.5, -27.5], [25.0, -27.5], [25.0, -30.0], [22.5, -30.0]]]}, "properties": {"cell_id": "9_24", "lon": 23.75, "lat": -28.75}}, {"type": "Feature", "geometry": {"type": "Polygon", "coordinates": [[[22.5, -27.5], [22.5, -25.0], [25.0, -25.0], [25.0, -27.5], [22.5, -27.5]]]}, "properties": {"cell_id": "9_25", "lon": 23.75, "lat": -26.25}}, {"type": "Feature", "geometry": {"type": "Polygon", "coordinates": [[[22.5, -25.0], [22.5, -22.5], [25.0, -22.5], [25.0, -25.0], [22.5, -25.0]]]}, "properties": {"cell_id": "9_26", "lon": 23.75, "lat": -23.75}}, {"type": "Feature", "geometry": {"type": "Polygon", "coordinates": [[[22.5, -22.5], [22.5, -20.0], [25.0, -20.0], [25.0, -22.5], [22.5, -22.5]]]}, "properties": {"cell_id": "9_27", "lon": 23.75, "lat": -21.25}}, {"type": "Feature", "geometry": {"type": "Polygon", "coordinates": [[[25.0, -30.0], [25.0, -27.5], [27.5, -27.5], [27.5, -30.0], [25.0, -30.0]]]}, "properties": {"cell_id": "10_24", "lon": 26.25, "lat": -28.75}}, {"type": "Feature", "geometry": {"type": "Polygon", "coordinates": [[[25.0, -27.5], [25.0, -25.0], [27.5, -25.0], [27.5, -27.5], [25.0, -27.5]]]}, "properties": {"cell_id": "10_25", "lon": 26.25, "lat": -26.25}}, {"type": "Feature", "geometry": {"type": "Polygon", "coordinates": [[[25.0, -25.0], [25.0, -22.5], [27.5, -22.5], [27.5, -25.0], [25.0, -25.0]]]}, "properties": {"cell_id": "10_26", "lon": 26.25, "lat": -23.75}}, {"type": "Feature", "geometry": {"type": "Polygon", "coordinates": [[[25.0, -22.5], [25.0, -20.0], [27.5, -20.0], [27.5, -22.5], [25.0, -22.5]]]}, "properties": {"cell_id": "10_27", "lon": 26.25, "lat": -21.25}}, {"type": "Feature", "geometry": {"type": "Polygon", "coordinates": [[[27.5, -30.0], [27.5, -27.5], [30.0, -27.5], [30.0, -30.0], [27.5, -30.0]]]}, "properties": {"cell_id": "11_24", "lon": 28.75, "lat": -28.75}}, {"type": "Feature", "geometry": {"type": "Polygon", "coordinates": [[[27.5, -27.5], [27.5, -25.0], [30.0, -25.0], [30.0, -27.5], [27.5, -27.5]]]}, "properties": {"cell_id": "11_25", "lon": 28.75, "lat": -26.25}}, {"type": "Feature", "geometry": {"type": "Polygon", "coordinates": [[[27.5, -25.0], [27.5, -22.5], [30.0, -22.5], [30.0, -25.0], [27.5, -25.0]]]}, "properties": {"cell_id": "11_26", "lon": 28.75, "lat": -23.75}}, {"type": "Feature", "geometry": {"type": "Polygon", "coordinates": [[[27.5, -22.5], [27.5, -20.0], [30.0, -20.0], [30.0, -22.5], [27.5, -22.5]]]}, "properties": {"cell_id": "11_27", "lon": 28.75, "lat": -21.25}}]}