{"type": "FeatureCollection", "features": [{"type": "Feature", "geometry": {"type": "Polygon", "coordinates": [[[-50.0, -20.0], [-50.0, -17.5], [-47.5, -17.5], [-47.5, -20.0], [-50.0, -20.0]]]}, "properties": {"cell_id": "124_28", "lon": -48.75, "lat": -18.75}}, {"type": "Feature", "geometry": {"type": "Polygon", "coordinates": [[[-50.0, -17.5], [-50.0, -15.0], [-47.5, -15.0], [-47.5, -17.5], [-50.0, -17.5]]]}, "properties": {"cell_id": "124_29", "lon": -48.75, "lat": -16.25}}, {"type": "Feature", "geometry": {"type": "Polygon", "coordinates": [[[-50.0, -15.0], [-50.0, -12.5], [-47.5, -12.5], [-47.5, -15.0], [-50.0, -15.0]]]}, "properties": {"cell_id": "124_30", "lon": -48.75, "lat": -13.75}}, {"type": "Feature", "geometry": {"type": "Polygon", "coordinates": [[[-50.0, -12.5], [-50.0, -10.0], [-47.5, -10.0], [-47.5, -12.5], [-50.0, -12.5]]]}, "properties": {"cell_id": "124_31", "lon": -48.75, "lat": -11.25}}, {"type": "Feature", "geometry": {"type": "Polygon", "coordinates": [[[-47.5, -20.0], [-47.5, -17.5], [-45.0, -17.5], [-45.0, -20.0], [-47.5, -20.0]]]}, "properties": {"cell_id": "125_28", "lon": -46.25, "lat": -18.75}}, {"type": "Feature", "geometry": {"type": "Polygon", "coordinates": [[[-47.5, -17.5], [-47.5, -15.0], [-45.0, -15.0], [-45.0, -17.5], [-47.5, -17.5]]]}, "properties": {"cell_id": "125_29", "lon": -46.25, "lat": -16.25}}, {"type": "Feature", "geometry": {"type": "Polygon", "coordinates": [[[-47.5, -15.0], [-47.5, -12.5], [-45.0, -12.5], [-45.0, -15.0], [-47.5, -15.0]]]}, "properties": {"cell_id": "125_30", "lon": -46.25, "lat": -13.75}}, {"type": "Feature", "geometry": {"type": "Polygon", "coordinates": [[[-47.5, -12.5], [-47.5, -10.0], [-45.0, -10.0], [-45.0, -12.5], [-47.5, -12.5]]]}, "properties": {"cell_id": "125_31", "lon": -46.25, "lat": -11.25}}, {"type": "Feature", "geometry": {"type": "Polygon", "coordinates": [[[-45.0, -20.0], [-45.0, -17.5], [-42.5, -17.5], [-42.5, -20.0], [-45.0, -20.0]]]}, "properties": {"cell_id": "126_28", "lon": -43.75, "lat": -18.75}}, {"type": "Feature", "geometry": {"type": "Polygon", "coordinates": [[[-45.0, -17.5], [-45.0, -15.0], [-42.5, -15.0], [-42.5, -17.5], [-45.0, -17.5]]]}, "properties": {"cell_id": "126_29", "lon": -43.75, "lat": -16.25}}, {"type": "Feature", "geometry": {"type": "Polygon", "coordinates": [[[-45.0, -15.0], [-45.0, -12.5], [-42.5, -12.5], [-42.5, -15.0], [-45.0, -15.0]]]}, "properties": {"cell_id": "126_30", "lon": -43.75, "lat": -13.75}}, {"type": "Feature", "geometry": {"type": "Polygon", "coordinates": [[[-45.0, -12.5], [-45.0, -10.0], [-42.5, -10.0], [-42.5, -12.5], [-45.0, -12.5]]]}, "properties": {"cell_id": "126_31", "lon": -43.75, "lat": -11.25}}, {"type": "Feature", "geometry": {"type": "Polygon", "coordinates": [[[-42.5, -20.0], [-42.5, -17.5], [-40.0, -17.5], [-40.0, -20.0], [-42.5, -20.0]]]}, "properties": {"cell_id": "127_28", "lon": -41.25, "lat": -18.75}}, {"type": "Feature", "geometry": {"type": "Polygon", "coordinates": [[[-42.5, -17.5], [-42.5, -15.0], [-40.0, -15.0], [-40.0, -17.5], [-42.5, -17.5]]]}, "properties": {"cell_id": "127_29", "lon": -41.25, "lat": -16.25}}, {"type": "Feature", "geometry": {"type": "Polygon", "coordinates": [[[-42.5, -15.0], [-42.5, -12.5], [-40.0, -12.5], [-40.0, -15.0], [-42.5, -15.0]]]}, "properties": {"cell_id": "127_30", "lon": -41.25, "lat": -13.75}}, {"type": "Feature", "geometry": {"type": "Polygon", "coordinates": [[[-42.5, -12.5], [-42.5, -10.0], [-40.0, -10.0], [-40.0, -12.5], [-42.5, -12.5]]]}, "properties": {"cell_id": "127_31", "lon": -41.25, "lat": -11.25}}]}