{"type": "FeatureCollection", "features": [{"type": "Feature", "geometry": {"type": "Polygon", "coordinates": [[[101.25, 51.0], [101.25, 52.5], [102.75, 52.5], [102.75, 51.0], [101.25, 51.0]]]}, "properties": {"cell_id": "68_94", "lon": 102.0, "lat": 51.75}}, {"type": "Feature", "geometry": {"type": "Polygon", "coordinates": [[[101.25, 52.5], [101.25, 54.0], [102.75, 54.0], [102.75, 52.5], [101.25, 52.5]]]}, "properties": {"cell_id": "68_95", "lon": 102.0, "lat": 53.25}}, {"type": "Feature", "geometry": {"type": "Polygon", "coordinates": [[[101.25, 54.0], [101.25, 55.5], [102.75, 55.5], [102.75, 54.0], [101.25, 54.0]]]}, "properties": {"cell_id": "68_96", "lon": 102.0, "lat": 54.75}}, {"type": "Feature", "geometry": {"type": "Polygon", "coordinates": [[[101.25, 55.5], [101.25, 57.0], [102.75, 57.0], [102.75, 55.5], [101.25, 55.5]]]}, "properties": {"cell_id": "68_97", "lon": 102.0, "lat": 56.25}}, {"type": "Feature", "geometry": {"type": "Polygon", "coordinates": [[[101.25, 57.0], [101.25, 58.5], [102.75, 58.5], [102.75, 57.0], [101.25, 57.0]]]}, "properties": {"cell_id": "68_98", "lon": 102.0, "lat": 57.75}}, {"type": "Feature", "geometry": {"type": "Polygon", "coordinates": [[[101.25, 58.5], [101.25, 60.0], [102.75, 60.0], [102.75, 58.5], [101.25, 58.5]]]}, "properties": {"cell_id": "68_99", "lon": 102.0, "lat": 59.25}}, {"type": "Feature", "geometry": {"type": "Polygon", "coordinates": [[[102.75, 51.0], [102.75, 52.5], [104.25, 52.5], [104.25, 51.0], [102.75, 51.0]]]}, "properties": {"cell_id": "69_94", "lon": 103.5, "lat": 51.75}}, {"type": "Feature", "geometry": {"type": "Polygon", "coordinates": [[[102.75, 52.5], [102.75, 54.0], [104.25, 54.0], [104.25, 52.5], [102.75, 52.5]]]}, "properties": {"cell_id": "69_95", "lon": 103.5, "lat": 53.25}}, {"type": "Feature", "geometry": {"type": "Polygon", "coordinates": [[[102.75, 54.0], [102.75, 55.5], [104.25, 55.5], [104.25, 54.0], [102.75, 54.0]]]}, "properties": {"cell_id": "69_96", "lon": 103.5, "lat": 54.75}}, {"type": "Feature", "geometry": {"type": "Polygon", "coordinates": [[[102.75, 55.5], [102.75, 57.0], [104.25, 57.0], [104.25, 55.5], [102.75, 55.5]]]}, "properties": {"cell_id": "69_97", "lon": 103.5, "lat": 56.25}}, {"type": "Feature", "geometry": {"type": "Polygon", "coordinates": [[[102.75, 57.0], [102.75, 58.5], [104.25, 58.5], [104.25, 57.0], [102.75, 57.0]]]}, "properties": {"cell_id": "69_98", "lon": 103.5, "lat": 57.75}}, {"type": "Feature", "geometry": {"type": "Polygon", "coordinates": [[[102.75, 58.5], [102.75, 60.0], [104.25, 60.0], [104.25, 58.5], [102.75, 58.5]]]}, "properties": {"cell_id": "69_99", "lon": 103.5, "lat": 59.25}}, {"type": "Feature", "geometry": {"type": "Polygon", "coordinates": [[[104.25, 51.0], [104.25, 52.5], [105.75, 52.5], [105.75, 51.0], [104.25, 51.0]]]}, "properties": {"cell_id": "70_94", "lon": 105.0, "lat": 51.75}}, {"type": "Feature", "geometry": {"type": "Polygon", "coordinates": [[[104.25, 52.5], [104.25, 54.0], [105.75, 54.0], [105.75, 52.5], [104.25, 52.5]]]}, "properties": {"cell_id": "70_95", "lon": 105.0, "lat": 53.25}}, {"type": "Feature", "geometry": {"type": "Polygon", "coordinates": [[[104.25, 54.0], [104.25, 55.5], [105.75, 55.5], [105.75, 54.0], [104.25, 54.0]]]}, "properties": {"cell_id": "70_96", "lon": 105.0, "lat": 54.75}}, {"type": "Feature", "geometry": {"type": "Polygon", "coordinates": [[[104.25, 55.5], [104.25, 57.0], [105.75, 57.0], [105.75, 55.5], [104.25, 55.5]]]}, "properties": {"cell_id": "70_97", "lon": 105.0, "lat": 56.25}}, {"type": "Feature", "geometry": {"type": "Polygon", "coordinates": [[[104.25, 57.0], [104.25, 58.5], [105.75, 58.5], [105.75, 57.0], [104.25, 57.0]]]}, "properties": {"cell_id": "70_98", "lon": 105.0, "lat": 57.75}}, {"type": "Feature", "geometry": {"type": "Polygon", "coordinates": [[[104.25, 58.5], [104.25, 60.0], [105.75, 60.0], [105.75, 58.5], [104.25, 58.5]]]}, "properties": {"cell_id": "70_99", "lon": 105.0, "lat": 59.25}}, {"type": "Feature", "geometry": {"type": "Polygon", "coordinates": [[[105.75, 51.0], [105.75, 52.5], [107.25, 52.5], [107.25, 51.0], [105.75, 51.0]]]}, "properties": {"cell_id": "71_94", "lon": 106.5, "lat": 51.75}}, {"type": "Feature", "geometry": {"type": "Polygon", "coordinates": [[[105.75, 52.5], [105.75, 54.0], [107.25, 54.0], [107.25, 52.5], [105.75, 52.5]]]}, "properties": {"cell_id": "71_95", "lon": 106.5, "lat": 53.25}}, {"type": "Feature", "geometry": {"type": "Polygon", "coordinates": [[[105.75, 54.0], [105.75, 55.5], [107.25, 55.5], [107.25, 54.0], [105.75, 54.0]]]}, "properties": {"cell_id": "71_96", "lon": 106.5, "lat": 54.75}}, {"type": "Feature", "geometry": {"type": "Polygon", "coordinates": [[[105.75, 55.5], [105.75, 57.0], [107.25, 57.0], [107.25, 55.5], [105.75, 55.5]]]}, "properties": {"cell_id": "71_97", "lon": 106.5, "lat": 56.25}}, {"type": "Feature", "geometry": {"type": "Polygon", "coordinates": [[[105.75, 57.0], [105.75, 58.5], [107.25, 58.5], [107.25, 57.0], [105.75, 57.0]]]}, "properties": {"cell_id": "71_98", "lon": 106.5, "lat": 57.75}}, {"type": "Feature", "geometry": {"type": "Polygon", "coordinates": [[[105.75, 58.5], [105.75, 60.0], [107.25, 60.0], [107.25, 58.5], [105.75, 58.5]]]}, "properties": {"cell_id": "71_99", "lon": 106.5, "lat": 59.25}}, {"type": "Feature", "geometry": {"type": "Polygon", "coordinates": [[[107.25, 51.0], [107.25, 52.5], [108.75, 52.5], [108.75, 51.0], [107.25, 51.0]]]}, "properties": {"cell_id": "72_94", "lon": 108.0, "lat": 51.75}}, {"type": "Feature", "geometry": {"type": "Polygon", "coordinates": [[[107.25, 52.5], [107.25, 54.0], [108.75, 54.0], [108.75, 52.5], [107.25, 52.5]]]}, "properties": {"cell_id": "72_95", "lon": 108.0, "lat": 53.25}}, {"type": "Feature", "geometry": {"type": "Polygon", "coordinates": [[[107.25, 54.0], [107.25, 55.5], [108.75, 55.5], [108.75, 54.0], [107.25, 54.0]]]}, "properties": {"cell_id": "72_96", "lon": 108.0, "lat": 54.75}}, {"type": "Feature", "geometry": {"type": "Polygon", "coordinates": [[[107.25, 55.5], [107.25, 57.0], [108.75, 57.0], [108.75, 55.5], [107.25, 55.5]]]}, "properties": {"cell_id": "72_97", "lon": 108.0, "lat": 56.25}}, {"type": "Feature", "geometry": {"type": "Polygon", "coordinates": [[[107.25, 57.0], [107.25, 58.5], [108.75, 58.5], [108.75, 57.0], [107.25, 57.0]]]}, "properties": {"cell_id": "72_98", "lon": 108.0, "lat": 57.75}}, {"type": "Feature", "geometry": {"type": "Polygon", "coordinates": [[[107.25, 58.5], [107.25, 60.0], [108.75, 60.0], [108.75, 58.5], [107.25, 58.5]]]}, "properties": {"cell_id": "72_99", "lon": 108.0, "lat": 59.25}}, {"type": "Feature", "geometry": {"type": "Polygon", "coordinates": [[[108.75, 51.0], [108.75, 52.5], [110.25, 52.5], [110.25, 51.0], [108.75, 51.0]]]}, "properties": {"cell_id": "73_94", "lon": 109.5, "lat": 51.75}}, {"type": "Feature", "geometry": {"type": "Polygon", "coordinates": [[[108.75, 52.5], [108.75, 54.0], [110.25, 54.0], [110.25, 52.5], [108.75, 52.5]]]}, "properties": {"cell_id": "73_95", "lon": 109.5, "lat": 53.25}}, {"type": "Feature", "geometry": {"type": "Polygon", "coordinates": [[[108.75, 54.0], [108.75, 55.5], [110.25, 55.5], [110.25, 54.0], [108.75, 54.0]]]}, "properties": {"cell_id": "73_96", "lon": 109.5, "lat": 54.75}}, {"type": "Feature", "geometry": {"type": "Polygon", "coordinates": [[[108.75, 55.5], [108.75, 57.0], [110.25, 57.0], [110.25, 55.5], [108.75, 55.5]]]}, "properties": {"cell_id": "73_97", "lon": 109.5, "lat": 56.25}}, {"type": "Feature", "geometry": {"type": "Polygon", "coordinates": [[[108.75, 57.0], [108.75, 58.5], [110.25, 58.5], [110.25, 57.0], [108.75, 57.0]]]}, "properties": {"cell_id": "73_98", "lon": 109.5, "lat": 57.75}}, {"type": "Feature", "geometry": {"type": "Polygon", "coordinates": [[[108.75, 58.5], [108.75, 60.0], [110.25, 60.0], [110.25, 58.5], [108.75, 58.5]]]}, "properties": {"cell_id": "73_99", "lon": 109.5, "lat": 59.25}}]}