{"type": "FeatureCollection", "features": [{"type": "Feature", "geometry": {"type": "Polygon", "coordinates": [[[130.0, -32.5], [130.0, -30.0], [132.5, -30.0], [132.5, -32.5], [130.0, -32.5]]]}, "properties": {"cell_id": "52_23", "lon": 131.25, "lat": -31.25}}, {"type": "Feature", "geometry": {"type": "Polygon", "coordinates": [[[132.5, -32.5], [132.5, -30.0], [135.0, -30.0], [135.0, -32.5], [132.5, -32.5]]]}, "properties": {"cell_id": "53_23", "lon": 133.75, "lat": -31.25}}, {"type": "Feature", "geometry": {"type": "Polygon", "coordinates": [[[135.0, -35.0], [135.0, -32.5], [137.5, -32.5], [137.5, -35.0], [135.0, -35.0]]]}, "properties": {"cell_id": "54_22", "lon": 136.25, "lat": -33.75}}, {"type": "Feature", "geometry": {"type": "Polygon", "coordinates": [[[135.0, -32.5], [135.0, -30.0], [137.5, -30.0], [137.5, -32.5], [135.0, -32.5]]]}, "properties": {"cell_id": "54_23", "lon": 136.25, "lat": -31.25}}, {"type": "Feature", "geometry": {"type": "Polygon", "coordinates": [[[137.5, -35.0], [137.5, -32.5], [140.0, -32.5], [140.0, -35.0], [137.5, -35.0]]]}, "properties": {"cell_id": "55_22", "lon": 138.75, "lat": -33.75}}, {"type": "Feature", "geometry": {"type": "Polygon", "coordinates": [[[137.5, -32.5], [137.5, -30.0], [140.0, -30.0], [140.0, -32.5], [137.5, -32.5]]]}, "properties": {"cell_id": "55_23", "lon": 138.75, "lat": -31.25}}]}