{"type": "FeatureCollection", "features": [{"type": "Feature", "geometry": {"type": "Polygon", "coordinates": [[[170.25, -46.5], [170.25, -45.0], [171.75, -45.0], [171.75, -46.5], [170.25, -46.5]]]}, "properties": {"cell_id": "114_29", "lon": 171.0, "lat": -45.75}}, {"type": "Feature", "geometry": {"type": "Polygon", "coordinates": [[[170.25, -45.0], [170.25, -43.5], [171.75, -43.5], [171.75, -45.0], [170.25, -45.0]]]}, "properties": {"cell_id": "114_30", "lon": 171.0, "lat": -44.25}}, {"type": "Feature", "geometry": {"type": "Polygon", "coordinates": [[[170.25, -43.5], [170.25, -42.0], [171.75, -42.0], [171.75, -43.5], [170.25, -43.5]]]}, "properties": {"cell_id": "114_31", "lon": 171.0, "lat": -42.75}}, {"type": "Feature", "geometry": {"type": "Polygon", "coordinates": [[[171.75, -45.0], [171.75, -43.5], [173.25, -43.5], [173.25, -45.0], [171.75, -45.0]]]}, "properties": {"cell_id": "115_30", "lon": 172.5, "lat": -44.25}}, {"type": "Feature", "geometry": {"type": "Polygon", "coordinates": [[[171.75, -43.5], [171.75, -42.0], [173.25, -42.0], [173.25, -43.5], [171.75, -43.5]]]}, "properties": {"cell_id": "115_31", "lon": 172.5, "lat": -42.75}}, {"type": "Feature", "geometry": {"type": "Polygon", "coordinates": [[[171.75, -42.0], [171.75, -40.5], [173.25, -40.5], [173.25, -42.0], [171.75, -42.0]]]}, "properties": {"cell_id": "115_32", "lon": 172.5, "lat": -41.25}}, {"type": "Feature", "geometry": {"type": "Polygon", "coordinates": [[[173.25, -43.5], [173.25, -42.0], [174.75, -42.0], [174.75, -43.5], [173.25, -43.5]]]}, "properties": {"cell_id": "116_31", "lon": 174.0, "lat": -42.75}}, {"type": "Feature", "geometry": {"type": "Polygon", "coordinates": [[[173.25, -42.0], [173.25, -40.5], [174.75, -40.5], [174.75, -42.0], [173.25, -42.0]]]}, "properties": {"cell_id": "116_32", "lon": 174.0, "lat": -41.25}}, {"type": "Feature", "geometry": {"type": "Polygon", "coordinates": [[[173.25, -40.5], [173.25, -39.0], [174.75, -39.0], [174.75, -40.5], [173.25, -40.5]]]}, "properties": {"cell_id": "116_33", "lon": 174.0, "lat": -39.75}}, {"type": "Feature", "geometry": {"type": "Polygon", "coordinates": [[[174.75, -42.0], [174.75, -40.5], [176.25, -40.5], [176.25, -42.0], [174.75, -42.0]]]}, "properties": {"cell_id": "117_32", "lon": 175.5, "lat": -41.25}}, {"type": "Feature", "geometry": {"type": "Polygon", "coordinates": [[[174.75, -40.5], [174.75, -39.0], [176.25, -39.0], [176.25, -40.5], [174.75, -40.5]]]}, "properties": {"cell_id": "117_33", "lon": 175.5, "lat": -39.75}}, {"type": "Feature", "geometry": {"type": "Polygon", "coordinates": [[[176.25, -40.5], [176.25, -39.0], [177.75, -39.0], [177.75, -40.5], [176.25, -40.5]]]}, "properties": {"cell_id": "118_33", "lon": 177.0, "lat": -39.75}}]}