{"type": "FeatureCollection", "features": [{"type": "Feature", "geometry": {"type": "Polygon", "coordinates": [[[170.0, 60.0], [170.0, 62.5], [172.5, 62.5], [172.5, 60.0], [170.0, 60.0]]]}, "properties": {"cell_id": "68_60", "lon": 171.25, "lat": 61.25}}, {"type": "Feature", "geometry": {"type": "Polygon", "coordinates": [[[170.0, 62.5], [170.0, 65.0], [172.5, 65.0], [172.5, 62.5], [170.0, 62.5]]]}, "properties": {"cell_id": "68_61", "lon": 171.25, "lat": 63.75}}, {"type": "Feature", "geometry": {"type": "Polygon", "coordinates": [[[170.0, 65.0], [170.0, 67.5], [172.5, 67.5], [172.5, 65.0], [170.0, 65.0]]]}, "properties": {"cell_id": "68_62", "lon": 171.25, "lat": 66.25}}, {"type": "Feature", "geometry": {"type": "Polygon", "coordinates": [[[170.0, 67.5], [170.0, 70.0], [172.5, 70.0], [172.5, 67.5], [170.0, 67.5]]]}, "properties": {"cell_id": "68_63", "lon": 171.25, "lat": 68.75}}, {"type": "Feature", "geometry": {"type": "Polygon", "coordinates": [[[172.5, 62.5], [172.5, 65.0], [175.0, 65.0], [175.0, 62.5], [172.5, 62.5]]]}, "properties": {"cell_id": "69_61", "lon": 173.75, "lat": 63.75}}, {"type": "Feature", "geometry": {"type": "Polygon", "coordinates": [[[172.5, 65.0], [172.5, 67.5], [175.0, 67.5], [175.0, 65.0], [172.5, 65.0]]]}, "properties": {"cell_id": "69_62", "lon": 173.75, "lat": 66.25}}, {"type": "Feature", "geometry": {"type": "Polygon", "coordinates": [[[172.5, 67.5], [172.5, 70.0], [175.0, 70.0], [175.0, 67.5], [172.5, 67.5]]]}, "properties": {"cell_id": "69_63", "lon": 173.75, "lat": 68.75}}, {"type": "Feature", "geometry": {"type": "Polygon", "coordinates": [[[175.0, 62.5], [175.0, 65.0], [177.5, 65.0], [177.5, 62.5], [175.0, 62.5]]]}, "properties": {"cell_id": "70_61", "lon": 176.25, "lat": 63.75}}, {"type": "Feature", "geometry": {"type": "Polygon", "coordinates": [[[175.0, 65.0], [175.0, 67.5], [177.5, 67.5], [177.5, 65.0], [175.0, 65.0]]]}, "properties": {"cell_id": "70_62", "lon": 176.25, "lat": 66.25}}, {"type": "Feature", "geometry": {"type": "Polygon", "coordinates": [[[175.0, 67.5], [175.0, 70.0], [177.5, 70.0], [177.5, 67.5], [175.0, 67.5]]]}, "properties": {"cell_id": "70_63", "lon": 176.25, "lat": 68.75}}, {"type": "Feature", "geometry": {"type": "Polygon", "coordinates": [[[177.5, 65.0], [177.5, 67.5], [180.0, 67.5], [180.0, 65.0], [177.5, 65.0]]]}, "properties": {"cell_id": "71_62", "lon": 178.75, "lat": 66.25}}, {"type": "Feature", "geometry": {"type": "Polygon", "coordinates": [[[177.5, 67.5], [177.5, 70.0], [180.0, 70.0], [180.0, 67.5], [177.5, 67.5]]]}, "properties": {"cell_id": "71_63", "lon": 178.75, "lat": 68.75}}]}