{"type": "FeatureCollection", "features": [{"type": "Feature", "geometry": {"type": "Polygon", "coordinates": [[[-10.0, 40.0], [-10.0, 42.5], [-7.5, 42.5], [-7.5, 40.0], [-10.0, 40.0]]]}, "properties": {"cell_id": "140_52", "lon": -8.75, "lat": 41.25}}, {"type": "Feature", "geometry": {"type": "Polygon", "coordinates": [[[-7.5, 40.0], [-7.5, 42.5], [-5.0, 42.5], [-5.0, 40.0], [-7.5, 40.0]]]}, "properties": {"cell_id": "141_52", "lon": -6.25, "lat": 41.25}}, {"type": "Feature", "geometry": {"type": "Polygon", "coordinates": [[[-5.0, 40.0], [-5.0, 42.5], [-2.5, 42.5], [-2.5, 40.0], [-5.0, 40.0]]]}, "properties": {"cell_id": "142_52", "lon": -3.75, "lat": 41.25}}, {"type": "Feature", "geometry": {"type": "Polygon", "coordinates": [[[-5.0, 47.5], [-5.0, 50.0], [-2.5, 50.0], [-2.5, 47.5], [-5.0, 47.5]]]}, "properties": {"cell_id": "142_55", "lon": -3.75, "lat": 48.75}}, {"type": "Feature", "geometry": {"type": "Polygon", "coordinates": [[[-2.5, 40.0], [-2.5, 42.5], [0.0, 42.5], [0.0, 40.0], [-2.5, 40.0]]]}, "properties": {"cell_id": "143_52", "lon": -1.25, "lat": 41.25}}, {"type": "Feature", "geometry": {"type": "Polygon", "coordinates": [[[-2.5, 42.5], [-2.5, 45.0], [0.0, 45.0], [0.0, 42.5], [-2.5, 42.5]]]}, "properties": {"cell_id": "143_53", "lon": -1.25, "lat": 43.75}}, {"type": "Feature", "geometry": {"type": "Polygon", "coordinates": [[[-2.5, 45.0], [-2.5, 47.5], [0.0, 47.5], [0.0, 45.0], [-2.5, 45.0]]]}, "properties": {"cell_id": "143_54", "lon": -1.25, "lat": 46.25}}, {"type": "Feature", "geometry": {"type": "Polygon", "coordinates": [[[-2.5, 47.5], [-2.5, 50.0], [0.0, 50.0], [0.0, 47.5], [-2.5, 47.5]]]}, "properties": {"cell_id": "143_55", "lon": -1.25, "lat": 48.75}}]}