{"type": "FeatureCollection", "features": [{"type": "Feature", "geometry": {"type": "Polygon", "coordinates": [[[-125.0, 40.0], [-125.0, 42.5], [-122.5, 42.5], [-122.5, 40.0], [-125.0, 40.0]]]}, "properties": {"cell_id": "94_52", "lon": -123.75, "lat": 41.25}}, {"type": "Feature", "geometry": {"type": "Polygon", "coordinates": [[[-125.0, 42.5], [-125.0, 45.0], [-122.5, 45.0], [-122.5, 42.5], [-125.0, 42.5]]]}, "properties": {"cell_id": "94_53", "lon": -123.75, "lat": 43.75}}, {"type": "Feature", "geometry": {"type": "Polygon", "coordinates": [[[-125.0, 45.0], [-125.0, 47.5], [-122.5, 47.5], [-122.5, 45.0], [-125.0, 45.0]]]}, "properties": {"cell_id": "94_54", "lon": -123.75, "lat": 46.25}}, {"type": "Feature", "geometry": {"type": "Polygon", "coordinates": [[[-125.0, 47.5], [-125.0, 50.0], [-122.5, 50.0], [-122.5, 47.5], [-125.0, 47.5]]]}, "properties": {"cell_id": "94_55", "lon": -123.75, "lat": 48.75}}, {"type": "Feature", "geometry": {"type": "Polygon", "coordinates": [[[-122.5, 40.0], [-122.5, 42.5], [-120.0, 42.5], [-120.0, 40.0], [-122.5, 40.0]]]}, "properties": {"cell_id": "95_52", "lon": -121.25, "lat": 41.25}}, {"type": "Feature", "geometry": {"type": "Polygon", "coordinates": [[[-122.5, 42.5], [-122.5, 45.0], [-120.0, 45.0], [-120.0, 42.5], [-122.5, 42.5]]]}, "properties": {"cell_id": "95_53", "lon": -121.25, "lat": 43.75}}, {"type": "Feature", "geometry": {"type": "Polygon", "coordinates": [[[-122.5, 45.0], [-122.5, 47.5], [-120.0, 47.5], [-120.0, 45.0], [-122.5, 45.0]]]}, "properties": {"cell_id": "95_54", "lon": -121.25, "lat": 46.25}}, {"type": "Feature", "geometry": {"type": "Polygon", "coordinates": [[[-122.5, 47.5], [-122.5, 50.0], [-120.0, 50.0], [-120.0, 47.5], [-122.5, 47.5]]]}, "properties": {"cell_id": "95_55", "lon": -121.25, "lat": 48.75}}]}