{"type": "FeatureCollection", "features": [{"type": "Feature", "geometry": {"type": "Polygon", "coordinates": [[[70.0, 70.0], [70.0, 72.5], [72.5, 72.5], [72.5, 70.0], [70.0, 70.0]]]}, "properties": {"cell_id": "28_64", "lon": 71.25, "lat": 71.25}}, {"type": "Feature", "geometry": {"type": "Polygon", "coordinates": [[[72.5, 70.0], [72.5, 72.5], [75.0, 72.5], [75.0, 70.0], [72.5, 70.0]]]}, "properties": {"cell_id": "29_64", "lon": 73.75, "lat": 71.25}}, {"type": "Feature", "geometry": {"type": "Polygon", "coordinates": [[[77.5, 70.0], [77.5, 72.5], [80.0, 72.5], [80.0, 70.0], [77.5, 70.0]]]}, "properties": {"cell_id": "31_64", "lon": 78.75, "lat": 71.25}}]}