{"type": "FeatureCollection", "features": [{"type": "Feature", "geometry": {"type": "Polygon", "coordinates": [[[150.75, -69.0], [150.75, -67.5], [152.25, -67.5], [152.25, -69.0], [150.75, -69.0]]]}, "properties": {"cell_id": "101_14", "lon": 151.5, "lat": -68.25}}, {"type": "Feature", "geometry": {"type": "Polygon", "coordinates": [[[152.25, -69.0], [152.25, -67.5], [153.75, -67.5], [153.75, -69.0], [152.25, -69.0]]]}, "properties": {"cell_id": "102_14", "lon": 153.0, "lat": -68.25}}, {"type": "Feature", "geometry": {"type": "Polygon", "coordinates": [[[153.75, -69.0], [153.75, -67.5], [155.25, -67.5], [155.25, -69.0], [153.75, -69.0]]]}, "properties": {"cell_id": "103_14", "lon": 154.5, "lat": -68.25}}]}