{"type": "FeatureCollection", "features": [{"type": "Feature", "geometry": {"type": "Polygon", "coordinates": [[[-69.75, -55.5], [-69.75, -54.0], [-68.25, -54.0], [-68.25, -55.5], [-69.75, -55.5]]]}, "properties": {"cell_id": "194_23", "lon": -69.0, "lat": -54.75}}, {"type": "Feature", "geometry": {"type": "Polygon", "coordinates": [[[-69.75, -54.0], [-69.75, -52.5], [-68.25, -52.5], [-68.25, -54.0], [-69.75, -54.0]]]}, "properties": {"cell_id": "194_24", "lon": -69.0, "lat": -53.25}}, {"type": "Feature", "geometry": {"type": "Polygon", "coordinates": [[[-69.75, -52.5], [-69.75, -51.0], [-68.25, -51.0], [-68.25, -52.5], [-69.75, -52.5]]]}, "properties": {"cell_id": "194_25", "lon": -69.0, "lat": -51.75}}, {"type": "Feature", "geometry": {"type": "Polygon", "coordinates": [[[-69.75, -51.0], [-69.75, -49.5], [-68.25, -49.5], [-68.25, -51.0], [-69.75, -51.0]]]}, "properties": {"cell_id": "194_26", "lon": -69.0, "lat": -50.25}}, {"type": "Feature", "geometry": {"type": "Polygon", "coordinates": [[[-68.25, -55.5], [-68.25, -54.0], [-66.75, -54.0], [-66.75, -55.5], [-68.25, -55.5]]]}, "properties": {"cell_id": "195_23", "lon": -67.5, "lat": -54.75}}, {"type": "Feature", "geometry": {"type": "Polygon", "coordinates": [[[-68.25, -54.0], [-68.25, -52.5], [-66.75, -52.5], [-66.75, -54.0], [-68.25, -54.0]]]}, "properties": {"cell_id": "195_24", "lon": -67.5, "lat": -53.25}}, {"type": "Feature", "geometry": {"type": "Polygon", "coordinates": [[[-68.25, -51.0], [-68.25, -49.5], [-66.75, -49.5], [-66.75, -51.0], [-68.25, -51.0]]]}, "properties": {"cell_id": "195_26", "lon": -67.5, "lat": -50.25}}]}