{"type": "FeatureCollection", "features": [{"type": "Feature", "geometry": {"type": "Polygon", "coordinates": [[[-120.0, 35.0], [-120.0, 37.5], [-117.5, 37.5], [-117.5, 35.0], [-120.0, 35.0]]]}, "properties": {"cell_id": "96_50", "lon": -118.75, "lat": 36.25}}, {"type": "Feature", "geometry": {"type": "Polygon", "coordinates": [[[-120.0, 37.5], [-120.0, 40.0], [-117.5, 40.0], [-117.5, 37.5], [-120.0, 37.5]]]}, "properties": {"cell_id": "96_51", "lon": -118.75, "lat": 38.75}}, {"type": "Feature", "geometry": {"type": "Polygon", "coordinates": [[[-117.5, 30.0], [-117.5, 32.5], [-115.0, 32.5], [-115.0, 30.0], [-117.5, 30.0]]]}, "properties": {"cell_id": "97_48", "lon": -116.25, "lat": 31.25}}, {"type": "Feature", "geometry": {"type": "Polygon", "coordinates": [[[-117.5, 32.5], [-117.5, 35.0], [-115.0, 35.0], [-115.0, 32.5], [-117.5, 32.5]]]}, "properties": {"cell_id": "97_49", "lon": -116.25, "lat": 33.75}}, {"type": "Feature", "geometry": {"type": "Polygon", "coordinates": [[[-117.5, 35.0], [-117.5, 37.5], [-115.0, 37.5], [-115.0, 35.0], [-117.5, 35.0]]]}, "properties": {"cell_id": "97_50", "lon": -116.25, "lat": 36.25}}, {"type": "Feature", "geometry": {"type": "Polygon", "coordinates": [[[-117.5, 37.5], [-117.5, 40.0], [-115.0, 40.0], [-115.0, 37.5], [-117.5, 37.5]]]}, "properties": {"cell_id": "97_51", "lon": -116.25, "lat": 38.75}}, {"type": "Feature", "geometry": {"type": "Polygon", "coordinates": [[[-115.0, 32.5], [-115.0, 35.0], [-112.5, 35.0], [-112.5, 32.5], [-115.0, 32.5]]]}, "properties": {"cell_id": "98_49", "lon": -113.75, "lat": 33.75}}, {"type": "Feature", "geometry": {"type": "Polygon", "coordinates": [[[-115.0, 35.0], [-115.0, 37.5], [-112.5, 37.5], [-112.5, 35.0], [-115.0, 35.0]]]}, "properties": {"cell_id": "98_50", "lon": -113.75, "lat": 36.25}}, {"type": "Feature", "geometry": {"type": "Polygon", "coordinates": [[[-115.0, 37.5], [-115.0, 40.0], [-112.5, 40.0], [-112.5, 37.5], [-115.0, 37.5]]]}, "properties": {"cell_id": "98_51", "lon": -113.75, "lat": 38.75}}, {"type": "Feature", "geometry": {"type": "Polygon", "coordinates": [[[-112.5, 30.0], [-112.5, 32.5], [-110.0, 32.5], [-110.0, 30.0], [-112.5, 30.0]]]}, "properties": {"cell_id": "99_48", "lon": -111.25, "lat": 31.25}}, {"type": "Feature", "geometry": {"type": "Polygon", "coordinates": [[[-112.5, 32.5], [-112.5, 35.0], [-110.0, 35.0], [-110.0, 32.5], [-112.5, 32.5]]]}, "properties": {"cell_id": "99_49", "lon": -111.25, "lat": 33.75}}, {"type": "Feature", "geometry": {"type": "Polygon", "coordinates": [[[-112.5, 35.0], [-112.5, 37.5], [-110.0, 37.5], [-110.0, 35.0], [-112.5, 35.0]]]}, "properties": {"cell_id": "99_50", "lon": -111.25, "lat": 36.25}}, {"type": "Feature", "geometry": {"type": "Polygon", "coordinates": [[[-112.5, 37.5], [-112.5, 40.0], [-110.0, 40.0], [-110.0, 37.5], [-112.5, 37.5]]]}, "properties": {"cell_id": "99_51", "lon": -111.25, "lat": 38.75}}]}