{"type": "FeatureCollection", "features": [{"type": "Feature", "geometry": {"type": "Polygon", "coordinates": [[[-10.0, 20.0], [-10.0, 22.5], [-7.5, 22.5], [-7.5, 20.0], [-10.0, 20.0]]]}, "properties": {"cell_id": "140_44", "lon": -8.75, "lat": 21.25}}, {"type": "Feature", "geometry": {"type": "Polygon", "coordinates": [[[-10.0, 22.5], [-10.0, 25.0], [-7.5, 25.0], [-7.5, 22.5], [-10.0, 22.5]]]}, "properties": {"cell_id": "140_45", "lon": -8.75, "lat": 23.75}}, {"type": "Feature", "geometry": {"type": "Polygon", "coordinates": [[[-10.0, 25.0], [-10.0, 27.5], [-7.5, 27.5], [-7.5, 25.0], [-10.0, 25.0]]]}, "properties": {"cell_id": "140_46", "lon": -8.75, "lat": 26.25}}, {"type": "Feature", "geometry": {"type": "Polygon", "coordinates": [[[-10.0, 27.5], [-10.0, 30.0], [-7.5, 30.0], [-7.5, 27.5], [-10.0, 27.5]]]}, "properties": {"cell_id": "140_47", "lon": -8.75, "lat": 28.75}}, {"type": "Feature", "geometry": {"type": "Polygon", "coordinates": [[[-7.5, 20.0], [-7.5, 22.5], [-5.0, 22.5], [-5.0, 20.0], [-7.5, 20.0]]]}, "properties": {"cell_id": "141_44", "lon": -6.25, "lat": 21.25}}, {"type": "Feature", "geometry": {"type": "Polygon", "coordinates": [[[-7.5, 22.5], [-7.5, 25.0], [-5.0, 25.0], [-5.0, 22.5], [-7.5, 22.5]]]}, "properties": {"cell_id": "141_45", "lon": -6.25, "lat": 23.75}}, {"type": "Feature", "geometry": {"type": "Polygon", "coordinates": [[[-7.5, 25.0], [-7.5, 27.5], [-5.0, 27.5], [-5.0, 25.0], [-7.5, 25.0]]]}, "properties": {"cell_id": "141_46", "lon": -6.25, "lat": 26.25}}, {"type": "Feature", "geometry": {"type": "Polygon", "coordinates": [[[-7.5, 27.5], [-7.5, 30.0], [-5.0, 30.0], [-5.0, 27.5], [-7.5, 27.5]]]}, "properties": {"cell_id": "141_47", "lon": -6.25, "lat": 28.75}}, {"type": "Feature", "geometry": {"type": "Polygon", "coordinates": [[[-5.0, 20.0], [-5.0, 22.5], [-2.5, 22.5], [-2.5, 20.0], [-5.0, 20.0]]]}, "properties": {"cell_id": "142_44", "lon": -3.75, "lat": 21.25}}, {"type": "Feature", "geometry": {"type": "Polygon", "coordinates": [[[-5.0, 22.5], [-5.0, 25.0], [-2.5, 25.0], [-2.5, 22.5], [-5.0, 22.5]]]}, "properties": {"cell_id": "142_45", "lon": -3.75, "lat": 23.75}}, {"type": "Feature", "geometry": {"type": "Polygon", "coordinates": [[[-5.0, 25.0], [-5.0, 27.5], [-2.5, 27.5], [-2.5, 25.0], [-5.0, 25.0]]]}, "properties": {"cell_id": "142_46", "lon": -3.75, "lat": 26.25}}, {"type": "Feature", "geometry": {"type": "Polygon", "coordinates": [[[-5.0, 27.5], [-5.0, 30.0], [-2.5, 30.0], [-2.5, 27.5], [-5.0, 27.5]]]}, "properties": {"cell_id": "142_47", "lon": -3.75, "lat": 28.75}}, {"type": "Feature", "geometry": {"type": "Polygon", "coordinates": [[[-2.5, 20.0], [-2.5, 22.5], [0.0, 22.5], [0.0, 20.0], [-2.5, 20.0]]]}, "properties": {"cell_id": "143_44", "lon": -1.25, "lat": 21.25}}, {"type": "Feature", "geometry": {"type": "Polygon", "coordinates": [[[-2.5, 22.5], [-2.5, 25.0], [0.0, 25.0], [0.0, 22.5], [-2.5, 22.5]]]}, "properties": {"cell_id": "143_45", "lon": -1.25, "lat": 23.75}}, {"type": "Feature", "geometry": {"type": "Polygon", "coordinates": [[[-2.5, 25.0], [-2.5, 27.5], [0.0, 27.5], [0.0, 25.0], [-2.5, 25.0]]]}, "properties": {"cell_id": "143_46", "lon": -1.25, "lat": 26.25}}, {"type": "Feature", "geometry": {"type": "Polygon", "coordinates": [[[-2.5, 27.5], [-2.5, 30.0], [0.0, 30.0], [0.0, 27.5], [-2.5, 27.5]]]}, "properties": {"cell_id": "143_47", "lon": -1.25, "lat": 28.75}}]}