{"type": "FeatureCollection", "features": [{"type": "Feature", "geometry": {"type": "Polygon", "coordinates": [[[10.0, 50.0], [10.0, 52.5], [12.5, 52.5], [12.5, 50.0], [10.0, 50.0]]]}, "properties": {"cell_id": "4_56", "lon": 11.25, "lat": 51.25}}, {"type": "Feature", "geometry": {"type": "Polygon", "coordinates": [[[10.0, 52.5], [10.0, 55.0], [12.5, 55.0], [12.5, 52.5], [10.0, 52.5]]]}, "properties": {"cell_id": "4_57", "lon": 11.25, "lat": 53.75}}, {"type": "Feature", "geometry": {"type": "Polygon", "coordinates": [[[10.0, 57.5], [10.0, 60.0], [12.5, 60.0], [12.5, 57.5], [10.0, 57.5]]]}, "properties": {"cell_id": "4_59", "lon": 11.25, "lat": 58.75}}, {"type": "Feature", "geometry": {"type": "Polygon", "coordinates": [[[12.5, 50.0], [12.5, 52.5], [15.0, 52.5], [15.0, 50.0], [12.5, 50.0]]]}, "properties": {"cell_id": "5_56", "lon": 13.75, "lat": 51.25}}, {"type": "Feature", "geometry": {"type": "Polygon", "coordinates": [[[12.5, 52.5], [12.5, 55.0], [15.0, 55.0], [15.0, 52.5], [12.5, 52.5]]]}, "properties": {"cell_id": "5_57", "lon": 13.75, "lat": 53.75}}, {"type": "Feature", "geometry": {"type": "Polygon", "coordinates": [[[12.5, 55.0], [12.5, 57.5], [15.0, 57.5], [15.0, 55.0], [12.5, 55.0]]]}, "properties": {"cell_id": "5_58", "lon": 13.75, "lat": 56.25}}, {"type": "Feature", "geometry": {"type": "Polygon", "coordinates": [[[12.5, 57.5], [12.5, 60.0], [15.0, 60.0], [15.0, 57.5], [12.5, 57.5]]]}, "properties": {"cell_id": "5_59", "lon": 13.75, "lat": 58.75}}, {"type": "Feature", "geometry": {"type": "Polygon", "coordinates": [[[15.0, 50.0], [15.0, 52.5], [17.5, 52.5], [17.5, 50.0], [15.0, 50.0]]]}, "properties": {"cell_id": "6_56", "lon": 16.25, "lat": 51.25}}, {"type": "Feature", "geometry": {"type": "Polygon", "coordinates": [[[15.0, 52.5], [15.0, 55.0], [17.5, 55.0], [17.5, 52.5], [15.0, 52.5]]]}, "properties": {"cell_id": "6_57", "lon": 16.25, "lat": 53.75}}, {"type": "Feature", "geometry": {"type": "Polygon", "coordinates": [[[15.0, 57.5], [15.0, 60.0], [17.5, 60.0], [17.5, 57.5], [15.0, 57.5]]]}, "properties": {"cell_id": "6_59", "lon": 16.25, "lat": 58.75}}, {"type": "Feature", "geometry": {"type": "Polygon", "coordinates": [[[17.5, 50.0], [17.5, 52.5], [20.0, 52.5], [20.0, 50.0], [17.5, 50.0]]]}, "properties": {"cell_id": "7_56", "lon": 18.75, "lat": 51.25}}, {"type": "Feature", "geometry": {"type": "Polygon", "coordinates": [[[17.5, 52.5], [17.5, 55.0], [20.0, 55.0], [20.0, 52.5], [17.5, 52.5]]]}, "properties": {"cell_id": "7_57", "lon": 18.75, "lat": 53.75}}]}