{"type": "FeatureCollection", "features": [{"type": "Feature", "geometry": {"type": "Polygon", "coordinates": [[[140.25, -69.0], [140.25, -67.5], [141.75, -67.5], [141.75, -69.0], [140.25, -69.0]]]}, "properties": {"cell_id": "94_14", "lon": 141.0, "lat": -68.25}}, {"type": "Feature", "geometry": {"type": "Polygon", "coordinates": [[[140.25, -67.5], [140.25, -66.0], [141.75, -66.0], [141.75, -67.5], [140.25, -67.5]]]}, "properties": {"cell_id": "94_15", "lon": 141.0, "lat": -66.75}}, {"type": "Feature", "geometry": {"type": "Polygon", "coordinates": [[[141.75, -69.0], [141.75, -67.5], [143.25, -67.5], [143.25, -69.0], [141.75, -69.0]]]}, "properties": {"cell_id": "95_14", "lon": 142.5, "lat": -68.25}}, {"type": "Feature", "geometry": {"type": "Polygon", "coordinates": [[[141.75, -67.5], [141.75, -66.0], [143.25, -66.0], [143.25, -67.5], [141.75, -67.5]]]}, "properties": {"cell_id": "95_15", "lon": 142.5, "lat": -66.75}}, {"type": "Feature", "geometry": {"type": "Polygon", "coordinates": [[[143.25, -69.0], [143.25, -67.5], [144.75, -67.5], [144.75, -69.0], [143.25, -69.0]]]}, "properties": {"cell_id": "96_14", "lon": 144.0, "lat": -68.25}}, {"type": "Feature", "geometry": {"type": "Polygon", "coordinates": [[[143.25, -67.5], [143.25, -66.0], [144.75, -66.0], [144.75, -67.5], [143.25, -67.5]]]}, "properties": {"cell_id": "96_15", "lon": 144.0, "lat": -66.75}}, {"type": "Feature", "geometry": {"type": "Polygon", "coordinates": [[[144.75, -69.0], [144.75, -67.5], [146.25, -67.5], [146.25, -69.0], [144.75, -69.0]]]}, "properties": {"cell_id": "97_14", "lon": 145.5, "lat": -68.25}}, {"type": "Feature", "geometry": {"type": "Polygon", "coordinates": [[[144.75, -67.5], [144.75, -66.0], [146.25, -66.0], [146.25, -67.5], [144.75, -67.5]]]}, "properties": {"cell_id": "97_15", "lon": 145.5, "lat": -66.75}}, {"type": "Feature", "geometry": {"type": "Polygon", "coordinates": [[[146.25, -69.0], [146.25, -67.5], [147.75, -67.5], [147.75, -69.0], [146.25, -69.0]]]}, "properties": {"cell_id": "98_14", "lon": 147.0, "lat": -68.25}}, {"type": "Feature", "geometry": {"type": "Polygon", "coordinates": [[[146.25, -67.5], [146.25, -66.0], [147.75, -66.0], [147.75, -67.5], [146.25, -67.5]]]}, "properties": {"cell_id": "98_15", "lon": 147.0, "lat": -66.75}}]}