{"type": "FeatureCollection", "features": [{"type": "Feature", "geometry": {"type": "Polygon", "coordinates": [[[120.0, -35.0], [120.0, -32.5], [122.5, -32.5], [122.5, -35.0], [120.0, -35.0]]]}, "properties": {"cell_id": "48_22", "lon": 121.25, "lat": -33.75}}, {"type": "Feature", "geometry": {"type": "Polygon", "coordinates": [[[120.0, -32.5], [120.0, -30.0], [122.5, -30.0], [122.5, -32.5], [120.0, -32.5]]]}, "properties": {"cell_id": "48_23", "lon": 121.25, "lat": -31.25}}, {"type": "Feature", "geometry": {"type": "Polygon", "coordinates": [[[122.5, -35.0], [122.5, -32.5], [125.0, -32.5], [125.0, -35.0], [122.5, -35.0]]]}, "properties": {"cell_id": "49_22", "lon": 123.75, "lat": -33.75}}, {"type": "Feature", "geometry": {"type": "Polygon", "coordinates": [[[122.5, -32.5], [122.5, -30.0], [125.0, -30.0], [125.0, -32.5], [122.5, -32.5]]]}, "properties": {"cell_id": "49_23", "lon": 123.75, "lat": -31.25}}, {"type": "Feature", "geometry": {"type": "Polygon", "coordinates": [[[125.0, -32.5], [125.0, -30.0], [127.5, -30.0], [127.5, -32.5], [125.0, -32.5]]]}, "properties": {"cell_id": "50_23", "lon": 126.25, "lat": -31.25}}, {"type": "Feature", "geometry": {"type": "Polygon", "coordinates": [[[127.5, -32.5], [127.5, -30.0], [130.0, -30.0], [130.0, -32.5], [127.5, -32.5]]]}, "properties": {"cell_id": "51_23", "lon": 128.75, "lat": -31.25}}]}