{"type": "FeatureCollection", "features": [{"type": "Feature", "geometry": {"type": "Polygon", "coordinates": [[[-93.75, 81.0], [-93.75, 82.5], [-92.25, 82.5], [-92.25, 81.0], [-93.75, 81.0]]]}, "properties": {"cell_id": "178_114", "lon": -93.0, "lat": 81.75}}, {"type": "Feature", "geometry": {"type": "Polygon", "coordinates": [[[-92.25, 81.0], [-92.25, 82.5], [-90.75, 82.5], [-90.75, 81.0], [-92.25, 81.0]]]}, "properties": {"cell_id": "179_114", "lon": -91.5, "lat": 81.75}}, {"type": "Feature", "geometry": {"type": "Polygon", "coordinates": [[[-90.75, 81.0], [-90.75, 82.5], [-89.25, 82.5], [-89.25, 81.0], [-90.75, 81.0]]]}, "properties": {"cell_id": "180_114", "lon": -90.0, "lat": 81.75}}]}