{"type": "FeatureCollection", "features": [{"type": "Feature", "geometry": {"type": "Polygon", "coordinates": [[[-11.25, 52.5], [-11.25, 54.0], [-9.75, 54.0], [-9.75, 52.5], [-11.25, 52.5]]]}, "properties": {"cell_id": "233_95", "lon": -10.5, "lat": 53.25}}, {"type": "Feature", "geometry": {"type": "Polygon", "coordinates": [[[-11.25, 54.0], [-11.25, 55.5], [-9.75, 55.5], [-9.75, 54.0], [-11.25, 54.0]]]}, "properties": {"cell_id": "233_96", "lon": -10.5, "lat": 54.75}}, {"type": "Feature", "geometry": {"type": "Polygon", "coordinates": [[[-11.25, 55.5], [-11.25, 57.0], [-9.75, 57.0], [-9.75, 55.5], [-11.25, 55.5]]]}, "properties": {"cell_id": "233_97", "lon": -10.5, "lat": 56.25}}]}