{"type": "FeatureCollection", "features": [{"type": "Feature", "geometry": {"type": "Polygon", "coordinates": [[[90.0, 60.0], [90.0, 62.5], [92.5, 62.5], [92.5, 60.0], [90.0, 60.0]]]}, "properties": {"cell_id": "36_60", "lon": 91.25, "lat": 61.25}}, {"type": "Feature", "geometry": {"type": "Polygon", "coordinates": [[[90.0, 62.5], [90.0, 65.0], [92.5, 65.0], [92.5, 62.5], [90.0, 62.5]]]}, "properties": {"cell_id": "36_61", "lon": 91.25, "lat": 63.75}}, {"type": "Feature", "geometry": {"type": "Polygon", "coordinates": [[[90.0, 65.0], [90.0, 67.5], [92.5, 67.5], [92.5, 65.0], [90.0, 65.0]]]}, "properties": {"cell_id": "36_62", "lon": 91.25, "lat": 66.25}}, {"type": "Feature", "geometry": {"type": "Polygon", "coordinates": [[[90.0, 67.5], [90.0, 70.0], [92.5, 70.0], [92.5, 67.5], [90.0, 67.5]]]}, "properties": {"cell_id": "36_63", "lon": 91.25, "lat": 68.75}}, {"type": "Feature", "geometry": {"type": "Polygon", "coordinates": [[[92.5, 60.0], [92.5, 62.5], [95.0, 62.5], [95.0, 60.0], [92.5, 60.0]]]}, "properties": {"cell_id": "37_60", "lon": 93.75, "lat": 61.25}}, {"type": "Feature", "geometry": {"type": "Polygon", "coordinates": [[[92.5, 62.5], [92.5, 65.0], [95.0, 65.0], [95.0, 62.5], [92.5, 62.5]]]}, "properties": {"cell_id": "37_61", "lon": 93.75, "lat": 63.75}}, {"type": "Feature", "geometry": {"type": "Polygon", "coordinates": [[[92.5, 65.0], [92.5, 67.5], [95.0, 67.5], [95.0, 65.0], [92.5, 65.0]]]}, "properties": {"cell_id": "37_62", "lon": 93.75, "lat": 66.25}}, {"type": "Feature", "geometry": {"type": "Polygon", "coordinates": [[[92.5, 67.5], [92.5, 70.0], [95.0, 70.0], [95.0, 67.5], [92.5, 67.5]]]}, "properties": {"cell_id": "37_63", "lon": 93.75, "lat": 68.75}}, {"type": "Feature", "geometry": {"type": "Polygon", "coordinates": [[[95.0, 60.0], [95.0, 62.5], [97.5, 62.5], [97.5, 60.0], [95.0, 60.0]]]}, "properties": {"cell_id": "38_60", "lon": 96.25, "lat": 61.25}}, {"type": "Feature", "geometry": {"type": "Polygon", "coordinates": [[[95.0, 62.5], [95.0, 65.0], [97.5, 65.0], [97.5, 62.5], [95.0, 62.5]]]}, "properties": {"cell_id": "38_61", "lon": 96.25, "lat": 63.75}}, {"type": "Feature", "geometry": {"type": "Polygon", "coordinates": [[[95.0, 65.0], [95.0, 67.5], [97.5, 67.5], [97.5, 65.0], [95.0, 65.0]]]}, "properties": {"cell_id": "38_62", "lon": 96.25, "lat": 66.25}}, {"type": "Feature", "geometry": {"type": "Polygon", "coordinates": [[[95.0, 67.5], [95.0, 70.0], [97.5, 70.0], [97.5, 67.5], [95.0, 67.5]]]}, "properties": {"cell_id": "38_63", "lon": 96.25, "lat": 68.75}}, {"type": "Feature", "geometry": {"type": "Polygon", "coordinates": [[[97.5, 60.0], [97.5, 62.5], [100.0, 62.5], [100.0, 60.0], [97.5, 60.0]]]}, "properties": {"cell_id": "39_60", "lon": 98.75, "lat": 61.25}}, {"type": "Feature", "geometry": {"type": "Polygon", "coordinates": [[[97.5, 62.5], [97.5, 65.0], [100.0, 65.0], [100.0, 62.5], [97.5, 62.5]]]}, "properties": {"cell_id": "39_61", "lon": 98.75, "lat": 63.75}}, {"type": "Feature", "geometry": {"type": "Polygon", "coordinates": [[[97.5, 65.0], [97.5, 67.5], [100.0, 67.5], [100.0, 65.0], [97.5, 65.0]]]}, "properties": {"cell_id": "39_62", "lon": 98.75, "lat": 66.25}}, {"type": "Feature", "geometry": {"type": "Polygon", "coordinates": [[[97.5, 67.5], [97.5, 70.0], [100.0, 70.0], [100.0, 67.5], [97.5, 67.5]]]}, "properties": {"cell_id": "39_63", "lon": 98.75, "lat": 68.75}}]}