{"type": "FeatureCollection", "features": [{"type": "Feature", "geometry": {"type": "Polygon", "coordinates": [[[90.75, -90.0], [90.75, -88.5], [92.25, -88.5], [92.25, -90.0], [90.75, -90.0]]]}, "properties": {"cell_id": "61_0", "lon": 91.5, "lat": -89.25}}, {"type": "Feature", "geometry": {"type": "Polygon", "coordinates": [[[90.75, -88.5], [90.75, -87.0], [92.25, -87.0], [92.25, -88.5], [90.75, -88.5]]]}, "properties": {"cell_id": "61_1", "lon": 91.5, "lat": -87.75}}, {"type": "Feature", "geometry": {"type": "Polygon", "coordinates": [[[90.75, -87.0], [90.75, -85.5], [92.25, -85.5], [92.25, -87.0], [90.75, -87.0]]]}, "properties": {"cell_id": "61_2", "lon": 91.5, "lat": -86.25}}, {"type": "Feature", "geometry": {"type": "Polygon", "coordinates": [[[90.75, -85.5], [90.75, -84.0], [92.25, -84.0], [92.25, -85.5], [90.75, -85.5]]]}, "properties": {"cell_id": "61_3", "lon": 91.5, "lat": -84.75}}, {"type": "Feature", "geometry": {"type": "Polygon", "coordinates": [[[90.75, -84.0], [90.75, -82.5], [92.25, -82.5], [92.25, -84.0], [90.75, -84.0]]]}, "properties": {"cell_id": "61_4", "lon": 91.5, "lat": -83.25}}, {"type": "Feature", "geometry": {"type": "Polygon", "coordinates": [[[90.75, -82.5], [90.75, -81.0], [92.25, -81.0], [92.25, -82.5], [90.75, -82.5]]]}, "properties": {"cell_id": "61_5", "lon": 91.5, "lat": -81.75}}, {"type": "Feature", "geometry": {"type": "Polygon", "coordinates": [[[90.75, -81.0], [90.75, -79.5], [92.25, -79.5], [92.25, -81.0], [90.75, -81.0]]]}, "properties": {"cell_id": "61_6", "lon": 91.5, "lat": -80.25}}, {"type": "Feature", "geometry": {"type": "Polygon", "coordinates": [[[92.25, -90.0], [92.25, -88.5], [93.75, -88.5], [93.75, -90.0], [92.25, -90.0]]]}, "properties": {"cell_id": "62_0", "lon": 93.0, "lat": -89.25}}, {"type": "Feature", "geometry": {"type": "Polygon", "coordinates": [[[92.25, -88.5], [92.25, -87.0], [93.75, -87.0], [93.75, -88.5], [92.25, -88.5]]]}, "properties": {"cell_id": "62_1", "lon": 93.0, "lat": -87.75}}, {"type": "Feature", "geometry": {"type": "Polygon", "coordinates": [[[92.25, -87.0], [92.25, -85.5], [93.75, -85.5], [93.75, -87.0], [92.25, -87.0]]]}, "properties": {"cell_id": "62_2", "lon": 93.0, "lat": -86.25}}, {"type": "Feature", "geometry": {"type": "Polygon", "coordinates": [[[92.25, -85.5], [92.25, -84.0], [93.75, -84.0], [93.75, -85.5], [92.25, -85.5]]]}, "properties": {"cell_id": "62_3", "lon": 93.0, "lat": -84.75}}, {"type": "Feature", "geometry": {"type": "Polygon", "coordinates": [[[92.25, -84.0], [92.25, -82.5], [93.75, -82.5], [93.75, -84.0], [92.25, -84.0]]]}, "properties": {"cell_id": "62_4", "lon": 93.0, "lat": -83.25}}, {"type": "Feature", "geometry": {"type": "Polygon", "coordinates": [[[92.25, -82.5], [92.25, -81.0], [93.75, -81.0], [93.75, -82.5], [92.25, -82.5]]]}, "properties": {"cell_id": "62_5", "lon": 93.0, "lat": -81.75}}, {"type": "Feature", "geometry": {"type": "Polygon", "coordinates": [[[92.25, -81.0], [92.25, -79.5], [93.75, -79.5], [93.75, -81.0], [92.25, -81.0]]]}, "properties": {"cell_id": "62_6", "lon": 93.0, "lat": -80.25}}, {"type": "Feature", "geometry": {"type": "Polygon", "coordinates": [[[93.75, -90.0], [93.75, -88.5], [95.25, -88.5], [95.25, -90.0], [93.75, -90.0]]]}, "properties": {"cell_id": "63_0", "lon": 94.5, "lat": -89.25}}, {"type": "Feature", "geometry": {"type": "Polygon", "coordinates": [[[93.75, -88.5], [93.75, -87.0], [95.25, -87.0], [95.25, -88.5], [93.75, -88.5]]]}, "properties": {"cell_id": "63_1", "lon": 94.5, "lat": -87.75}}, {"type": "Feature", "geometry": {"type": "Polygon", "coordinates": [[[93.75, -87.0], [93.75, -85.5], [95.25, -85.5], [95.25, -87.0], [93.75, -87.0]]]}, "properties": {"cell_id": "63_2", "lon": 94.5, "lat": -86.25}}, {"type": "Feature", "geometry": {"type": "Polygon", "coordinates": [[[93.75, -85.5], [93.75, -84.0], [95.25, -84.0], [95.25, -85.5], [93.75, -85.5]]]}, "properties": {"cell_id": "63_3", "lon": 94.5, "lat": -84.75}}, {"type": "Feature", "geometry": {"type": "Polygon", "coordinates": [[[93.75, -84.0], [93.75, -82.5], [95.25, -82.5], [95.25, -84.0], [93.75, -84.0]]]}, "properties": {"cell_id": "63_4", "lon": 94.5, "lat": -83.25}}, {"type": "Feature", "geometry": {"type": "Polygon", "coordinates": [[[93.75, -82.5], [93.75, -81.0], [95.25, -81.0], [95.25, -82.5], [93.75, -82.5]]]}, "properties": {"cell_id": "63_5", "lon": 94.5, "lat": -81.75}}, {"type": "Feature", "geometry": {"type": "Polygon", "coordinates": [[[93.75, -81.0], [93.75, -79.5], [95.25, -79.5], [95.25, -81.0], [93.75, -81.0]]]}, "properties": {"cell_id": "63_6", "lon": 94.5, "lat": -80.25}}, {"type": "Feature", "geometry": {"type": "Polygon", "coordinates": [[[95.25, -90.0], [95.25, -88.5], [96.75, -88.5], [96.75, -90.0], [95.25, -90.0]]]}, "properties": {"cell_id": "64_0", "lon": 96.0, "lat": -89.25}}, {"type": "Feature", "geometry": {"type": "Polygon", "coordinates": [[[95.25, -88.5], [95.25, -87.0], [96.75, -87.0], [96.75, -88.5], [95.25, -88.5]]]}, "properties": {"cell_id": "64_1", "lon": 96.0, "lat": -87.75}}, {"type": "Feature", "geometry": {"type": "Polygon", "coordinates": [[[95.25, -87.0], [95.25, -85.5], [96.75, -85.5], [96.75, -87.0], [95.25, -87.0]]]}, "properties": {"cell_id": "64_2", "lon": 96.0, "lat": -86.25}}, {"type": "Feature", "geometry": {"type": "Polygon", "coordinates": [[[95.25, -85.5], [95.25, -84.0], [96.75, -84.0], [96.75, -85.5], [95.25, -85.5]]]}, "properties": {"cell_id": "64_3", "lon": 96.0, "lat": -84.75}}, {"type": "Feature", "geometry": {"type": "Polygon", "coordinates": [[[95.25, -84.0], [95.25, -82.5], [96.75, -82.5], [96.75, -84.0], [95.25, -84.0]]]}, "properties": {"cell_id": "64_4", "lon": 96.0, "lat": -83.25}}, {"type": "Feature", "geometry": {"type": "Polygon", "coordinates": [[[95.25, -82.5], [95.25, -81.0], [96.75, -81.0], [96.75, -82.5], [95.25, -82.5]]]}, "properties": {"cell_id": "64_5", "lon": 96.0, "lat": -81.75}}, {"type": "Feature", "geometry": {"type": "Polygon", "coordinates": [[[95.25, -81.0], [95.25, -79.5], [96.75, -79.5], [96.75, -81.0], [95.25, -81.0]]]}, "properties": {"cell_id": "64_6", "lon": 96.0, "lat": -80.25}}, {"type": "Feature", "geometry": {"type": "Polygon", "coordinates": [[[96.75, -90.0], [96.75, -88.5], [98.25, -88.5], [98.25, -90.0], [96.75, -90.0]]]}, "properties": {"cell_id": "65_0", "lon": 97.5, "lat": -89.25}}, {"type": "Feature", "geometry": {"type": "Polygon", "coordinates": [[[96.75, -88.5], [96.75, -87.0], [98.25, -87.0], [98.25, -88.5], [96.75, -88.5]]]}, "properties": {"cell_id": "65_1", "lon": 97.5, "lat": -87.75}}, {"type": "Feature", "geometry": {"type": "Polygon", "coordinates": [[[96.75, -87.0], [96.75, -85.5], [98.25, -85.5], [98.25, -87.0], [96.75, -87.0]]]}, "properties": {"cell_id": "65_2", "lon": 97.5, "lat": -86.25}}, {"type": "Feature", "geometry": {"type": "Polygon", "coordinates": [[[96.75, -85.5], [96.75, -84.0], [98.25, -84.0], [98.25, -85.5], [96.75, -85.5]]]}, "properties": {"cell_id": "65_3", "lon": 97.5, "lat": -84.75}}, {"type": "Feature", "geometry": {"type": "Polygon", "coordinates": [[[96.75, -84.0], [96.75, -82.5], [98.25, -82.5], [98.25, -84.0], [96.75, -84.0]]]}, "properties": {"cell_id": "65_4", "lon": 97.5, "lat": -83.25}}, {"type": "Feature", "geometry": {"type": "Polygon", "coordinates": [[[96.75, -82.5], [96.75, -81.0], [98.25, -81.0], [98.25, -82.5], [96.75, -82.5]]]}, "properties": {"cell_id": "65_5", "lon": 97.5, "lat": -81.75}}, {"type": "Feature", "geometry": {"type": "Polygon", "coordinates": [[[96.75, -81.0], [96.75, -79.5], [98.25, -79.5], [98.25, -81.0], [96.75, -81.0]]]}, "properties": {"cell_id": "65_6", "lon": 97.5, "lat": -80.25}}, {"type": "Feature", "geometry": {"type": "Polygon", "coordinates": [[[98.25, -90.0], [98.25, -88.5], [99.75, -88.5], [99.75, -90.0], [98.25, -90.0]]]}, "properties": {"cell_id": "66_0", "lon": 99.0, "lat": -89.25}}, {"type": "Feature", "geometry": {"type": "Polygon", "coordinates": [[[98.25, -88.5], [98.25, -87.0], [99.75, -87.0], [99.75, -88.5], [98.25, -88.5]]]}, "properties": {"cell_id": "66_1", "lon": 99.0, "lat": -87.75}}, {"type": "Feature", "geometry": {"type": "Polygon", "coordinates": [[[98.25, -87.0], [98.25, -85.5], [99.75, -85.5], [99.75, -87.0], [98.25, -87.0]]]}, "properties": {"cell_id": "66_2", "lon": 99.0, "lat": -86.25}}, {"type": "Feature", "geometry": {"type": "Polygon", "coordinates": [[[98.25, -85.5], [98.25, -84.0], [99.75, -84.0], [99.75, -85.5], [98.25, -85.5]]]}, "properties": {"cell_id": "66_3", "lon": 99.0, "lat": -84.75}}, {"type": "Feature", "geometry": {"type": "Polygon", "coordinates": [[[98.25, -84.0], [98.25, -82.5], [99.75, -82.5], [99.75, -84.0], [98.25, -84.0]]]}, "properties": {"cell_id": "66_4", "lon": 99.0, "lat": -83.25}}, {"type": "Feature", "geometry": {"type": "Polygon", "coordinates": [[[98.25, -82.5], [98.25, -81.0], [99.75, -81.0], [99.75, -82.5], [98.25, -82.5]]]}, "properties": {"cell_id": "66_5", "lon": 99.0, "lat": -81.75}}, {"type": "Feature", "geometry": {"type": "Polygon", "coordinates": [[[98.25, -81.0], [98.25, -79.5], [99.75, -79.5], [99.75, -81.0], [98.25, -81.0]]]}, "properties": {"cell_id": "66_6", "lon": 99.0, "lat": -80.25}}, {"type": "Feature", "geometry": {"type": "Polygon", "coordinates": [[[99.75, -90.0], [99.75, -88.5], [101.25, -88.5], [101.25, -90.0], [99.75, -90.0]]]}, "properties": {"cell_id": "67_0", "lon": 100.5, "lat": -89.25}}, {"type": "Feature", "geometry": {"type": "Polygon", "coordinates": [[[99.75, -88.5], [99.75, -87.0], [101.25, -87.0], [101.25, -88.5], [99.75, -88.5]]]}, "properties": {"cell_id": "67_1", "lon": 100.5, "lat": -87.75}}, {"type": "Feature", "geometry": {"type": "Polygon", "coordinates": [[[99.75, -87.0], [99.75, -85.5], [101.25, -85.5], [101.25, -87.0], [99.75, -87.0]]]}, "properties": {"cell_id": "67_2", "lon": 100.5, "lat": -86.25}}, {"type": "Feature", "geometry": {"type": "Polygon", "coordinates": [[[99.75, -85.5], [99.75, -84.0], [101.25, -84.0], [101.25, -85.5], [99.75, -85.5]]]}, "properties": {"cell_id": "67_3", "lon": 100.5, "lat": -84.75}}, {"type": "Feature", "geometry": {"type": "Polygon", "coordinates": [[[99.75, -84.0], [99.75, -82.5], [101.25, -82.5], [101.25, -84.0], [99.75, -84.0]]]}, "properties": {"cell_id": "67_4", "lon": 100.5, "lat": -83.25}}, {"type": "Feature", "geometry": {"type": "Polygon", "coordinates": [[[99.75, -82.5], [99.75, -81.0], [101.25, -81.0], [101.25, -82.5], [99.75, -82.5]]]}, "properties": {"cell_id": "67_5", "lon": 100.5, "lat": -81.75}}, {"type": "Feature", "geometry": {"type": "Polygon", "coordinates": [[[99.75, -81.0], [99.75, -79.5], [101.25, -79.5], [101.25, -81.0], [99.75, -81.0]]]}, "properties": {"cell_id": "67_6", "lon": 100.5, "lat": -80.25}}]}