{"type": "FeatureCollection", "features": [{"type": "Feature", "geometry": {"type": "Polygon", "coordinates": [[[-110.0, 25.0], [-110.0, 27.5], [-107.5, 27.5], [-107.5, 25.0], [-110.0, 25.0]]]}, "properties": {"cell_id": "100_46", "lon": -108.75, "lat": 26.25}}, {"type": "Feature", "geometry": {"type": "Polygon", "coordinates": [[[-110.0, 27.5], [-110.0, 30.0], [-107.5, 30.0], [-107.5, 27.5], [-110.0, 27.5]]]}, "properties": {"cell_id": "100_47", "lon": -108.75, "lat": 28.75}}, {"type": "Feature", "geometry": {"type": "Polygon", "coordinates": [[[-107.5, 22.5], [-107.5, 25.0], [-105.0, 25.0], [-105.0, 22.5], [-107.5, 22.5]]]}, "properties": {"cell_id": "101_45", "lon": -106.25, "lat": 23.75}}, {"type": "Feature", "geometry": {"type": "Polygon", "coordinates": [[[-107.5, 25.0], [-107.5, 27.5], [-105.0, 27.5], [-105.0, 25.0], [-107.5, 25.0]]]}, "properties": {"cell_id": "101_46", "lon": -106.25, "lat": 26.25}}, {"type": "Feature", "geometry": {"type": "Polygon", "coordinates": [[[-107.5, 27.5], [-107.5, 30.0], [-105.0, 30.0], [-105.0, 27.5], [-107.5, 27.5]]]}, "properties": {"cell_id": "101_47", "lon": -106.25, "lat": 28.75}}, {"type": "Feature", "geometry": {"type": "Polygon", "coordinates": [[[-105.0, 20.0], [-105.0, 22.5], [-102.5, 22.5], [-102.5, 20.0], [-105.0, 20.0]]]}, "properties": {"cell_id": "102_44", "lon": -103.75, "lat": 21.25}}, {"type": "Feature", "geometry": {"type": "Polygon", "coordinates": [[[-105.0, 22.5], [-105.0, 25.0], [-102.5, 25.0], [-102.5, 22.5], [-105.0, 22.5]]]}, "properties": {"cell_id": "102_45", "lon": -103.75, "lat": 23.75}}, {"type": "Feature", "geometry": {"type": "Polygon", "coordinates": [[[-105.0, 25.0], [-105.0, 27.5], [-102.5, 27.5], [-102.5, 25.0], [-105.0, 25.0]]]}, "properties": {"cell_id": "102_46", "lon": -103.75, "lat": 26.25}}, {"type": "Feature", "geometry": {"type": "Polygon", "coordinates": [[[-105.0, 27.5], [-105.0, 30.0], [-102.5, 30.0], [-102.5, 27.5], [-105.0, 27.5]]]}, "properties": {"cell_id": "102_47", "lon": -103.75, "lat": 28.75}}, {"type": "Feature", "geometry": {"type": "Polygon", "coordinates": [[[-102.5, 20.0], [-102.5, 22.5], [-100.0, 22.5], [-100.0, 20.0], [-102.5, 20.0]]]}, "properties": {"cell_id": "103_44", "lon": -101.25, "lat": 21.25}}, {"type": "Feature", "geometry": {"type": "Polygon", "coordinates": [[[-102.5, 22.5], [-102.5, 25.0], [-100.0, 25.0], [-100.0, 22.5], [-102.5, 22.5]]]}, "properties": {"cell_id": "103_45", "lon": -101.25, "lat": 23.75}}, {"type": "Feature", "geometry": {"type": "Polygon", "coordinates": [[[-102.5, 25.0], [-102.5, 27.5], [-100.0, 27.5], [-100.0, 25.0], [-102.5, 25.0]]]}, "properties": {"cell_id": "103_46", "lon": -101.25, "lat": 26.25}}, {"type": "Feature", "geometry": {"type": "Polygon", "coordinates": [[[-102.5, 27.5], [-102.5, 30.0], [-100.0, 30.0], [-100.0, 27.5], [-102.5, 27.5]]]}, "properties": {"cell_id": "103_47", "lon": -101.25, "lat": 28.75}}]}