{"type": "FeatureCollection", "features": [{"type": "Feature", "geometry": {"type": "Polygon", "coordinates": [[[-72.75, -30.0], [-72.75, -28.5], [-71.25, -28.5], [-71.25, -30.0], [-72.75, -30.0]]]}, "properties": {"cell_id": "192_40", "lon": -72.0, "lat": -29.25}}, {"type": "Feature", "geometry": {"type": "Polygon", "coordinates": [[[-72.75, -28.5], [-72.75, -27.0], [-71.25, -27.0], [-71.25, -28.5], [-72.75, -28.5]]]}, "properties": {"cell_id": "192_41", "lon": -72.0, "lat": -27.75}}, {"type": "Feature", "geometry": {"type": "Polygon", "coordinates": [[[-72.75, -27.0], [-72.75, -25.5], [-71.25, -25.5], [-71.25, -27.0], [-72.75, -27.0]]]}, "properties": {"cell_id": "192_42", "lon": -72.0, "lat": -26.25}}, {"type": "Feature", "geometry": {"type": "Polygon", "coordinates": [[[-72.75, -25.5], [-72.75, -24.0], [-71.25, -24.0], [-71.25, -25.5], [-72.75, -25.5]]]}, "properties": {"cell_id": "192_43", "lon": -72.0, "lat": -24.75}}, {"type": "Feature", "geometry": {"type": "Polygon", "coordinates": [[[-72.75, -21.0], [-72.75, -19.5], [-71.25, -19.5], [-71.25, -21.0], [-72.75, -21.0]]]}, "properties": {"cell_id": "192_46", "lon": -72.0, "lat": -20.25}}, {"type": "Feature", "geometry": {"type": "Polygon", "coordinates": [[[-71.25, -30.0], [-71.25, -28.5], [-69.75, -28.5], [-69.75, -30.0], [-71.25, -30.0]]]}, "properties": {"cell_id": "193_40", "lon": -70.5, "lat": -29.25}}, {"type": "Feature", "geometry": {"type": "Polygon", "coordinates": [[[-71.25, -28.5], [-71.25, -27.0], [-69.75, -27.0], [-69.75, -28.5], [-71.25, -28.5]]]}, "properties": {"cell_id": "193_41", "lon": -70.5, "lat": -27.75}}, {"type": "Feature", "geometry": {"type": "Polygon", "coordinates": [[[-71.25, -27.0], [-71.25, -25.5], [-69.75, -25.5], [-69.75, -27.0], [-71.25, -27.0]]]}, "properties": {"cell_id": "193_42", "lon": -70.5, "lat": -26.25}}, {"type": "Feature", "geometry": {"type": "Polygon", "coordinates": [[[-71.25, -25.5], [-71.25, -24.0], [-69.75, -24.0], [-69.75, -25.5], [-71.25, -25.5]]]}, "properties": {"cell_id": "193_43", "lon": -70.5, "lat": -24.75}}, {"type": "Feature", "geometry": {"type": "Polygon", "coordinates": [[[-71.25, -21.0], [-71.25, -19.5], [-69.75, -19.5], [-69.75, -21.0], [-71.25, -21.0]]]}, "properties": {"cell_id": "193_46", "lon": -70.5, "lat": -20.25}}]}