{"type": "FeatureCollection", "features": [{"type": "Feature", "geometry": {"type": "Polygon", "coordinates": [[[80.25, -79.5], [80.25, -78.0], [81.75, -78.0], [81.75, -79.5], [80.25, -79.5]]]}, "properties": {"cell_id": "54_7", "lon": 81.0, "lat": -78.75}}, {"type": "Feature", "geometry": {"type": "Polygon", "coordinates": [[[80.25, -78.0], [80.25, -76.5], [81.75, -76.5], [81.75, -78.0], [80.25, -78.0]]]}, "properties": {"cell_id": "54_8", "lon": 81.0, "lat": -77.25}}, {"type": "Feature", "geometry": {"type": "Polygon", "coordinates": [[[80.25, -76.5], [80.25, -75.0], [81.75, -75.0], [81.75, -76.5], [80.25, -76.5]]]}, "properties": {"cell_id": "54_9", "lon": 81.0, "lat": -75.75}}, {"type": "Feature", "geometry": {"type": "Polygon", "coordinates": [[[80.25, -75.0], [80.25, -73.5], [81.75, -73.5], [81.75, -75.0], [80.25, -75.0]]]}, "properties": {"cell_id": "54_10", "lon": 81.0, "lat": -74.25}}, {"type": "Feature", "geometry": {"type": "Polygon", "coordinates": [[[80.25, -73.5], [80.25, -72.0], [81.75, -72.0], [81.75, -73.5], [80.25, -73.5]]]}, "properties": {"cell_id": "54_11", "lon": 81.0, "lat": -72.75}}, {"type": "Feature", "geometry": {"type": "Polygon", "coordinates": [[[80.25, -72.0], [80.25, -70.5], [81.75, -70.5], [81.75, -72.0], [80.25, -72.0]]]}, "properties": {"cell_id": "54_12", "lon": 81.0, "lat": -71.25}}, {"type": "Feature", "geometry": {"type": "Polygon", "coordinates": [[[80.25, -70.5], [80.25, -69.0], [81.75, -69.0], [81.75, -70.5], [80.25, -70.5]]]}, "properties": {"cell_id": "54_13", "lon": 81.0, "lat": -69.75}}, {"type": "Feature", "geometry": {"type": "Polygon", "coordinates": [[[81.75, -79.5], [81.75, -78.0], [83.25, -78.0], [83.25, -79.5], [81.75, -79.5]]]}, "properties": {"cell_id": "55_7", "lon": 82.5, "lat": -78.75}}, {"type": "Feature", "geometry": {"type": "Polygon", "coordinates": [[[81.75, -78.0], [81.75, -76.5], [83.25, -76.5], [83.25, -78.0], [81.75, -78.0]]]}, "properties": {"cell_id": "55_8", "lon": 82.5, "lat": -77.25}}, {"type": "Feature", "geometry": {"type": "Polygon", "coordinates": [[[81.75, -76.5], [81.75, -75.0], [83.25, -75.0], [83.25, -76.5], [81.75, -76.5]]]}, "properties": {"cell_id": "55_9", "lon": 82.5, "lat": -75.75}}, {"type": "Feature", "geometry": {"type": "Polygon", "coordinates": [[[81.75, -75.0], [81.75, -73.5], [83.25, -73.5], [83.25, -75.0], [81.75, -75.0]]]}, "properties": {"cell_id": "55_10", "lon": 82.5, "lat": -74.25}}, {"type": "Feature", "geometry": {"type": "Polygon", "coordinates": [[[81.75, -73.5], [81.75, -72.0], [83.25, -72.0], [83.25, -73.5], [81.75, -73.5]]]}, "properties": {"cell_id": "55_11", "lon": 82.5, "lat": -72.75}}, {"type": "Feature", "geometry": {"type": "Polygon", "coordinates": [[[81.75, -72.0], [81.75, -70.5], [83.25, -70.5], [83.25, -72.0], [81.75, -72.0]]]}, "properties": {"cell_id": "55_12", "lon": 82.5, "lat": -71.25}}, {"type": "Feature", "geometry": {"type": "Polygon", "coordinates": [[[81.75, -70.5], [81.75, -69.0], [83.25, -69.0], [83.25, -70.5], [81.75, -70.5]]]}, "properties": {"cell_id": "55_13", "lon": 82.5, "lat": -69.75}}, {"type": "Feature", "geometry": {"type": "Polygon", "coordinates": [[[83.25, -79.5], [83.25, -78.0], [84.75, -78.0], [84.75, -79.5], [83.25, -79.5]]]}, "properties": {"cell_id": "56_7", "lon": 84.0, "lat": -78.75}}, {"type": "Feature", "geometry": {"type": "Polygon", "coordinates": [[[83.25, -78.0], [83.25, -76.5], [84.75, -76.5], [84.75, -78.0], [83.25, -78.0]]]}, "properties": {"cell_id": "56_8", "lon": 84.0, "lat": -77.25}}, {"type": "Feature", "geometry": {"type": "Polygon", "coordinates": [[[83.25, -76.5], [83.25, -75.0], [84.75, -75.0], [84.75, -76.5], [83.25, -76.5]]]}, "properties": {"cell_id": "56_9", "lon": 84.0, "lat": -75.75}}, {"type": "Feature", "geometry": {"type": "Polygon", "coordinates": [[[83.25, -75.0], [83.25, -73.5], [84.75, -73.5], [84.75, -75.0], [83.25, -75.0]]]}, "properties": {"cell_id": "56_10", "lon": 84.0, "lat": -74.25}}, {"type": "Feature", "geometry": {"type": "Polygon", "coordinates": [[[83.25, -73.5], [83.25, -72.0], [84.75, -72.0], [84.75, -73.5], [83.25, -73.5]]]}, "properties": {"cell_id": "56_11", "lon": 84.0, "lat": -72.75}}, {"type": "Feature", "geometry": {"type": "Polygon", "coordinates": [[[83.25, -72.0], [83.25, -70.5], [84.75, -70.5], [84.75, -72.0], [83.25, -72.0]]]}, "properties": {"cell_id": "56_12", "lon": 84.0, "lat": -71.25}}, {"type": "Feature", "geometry": {"type": "Polygon", "coordinates": [[[83.25, -70.5], [83.25, -69.0], [84.75, -69.0], [84.75, -70.5], [83.25, -70.5]]]}, "properties": {"cell_id": "56_13", "lon": 84.0, "lat": -69.75}}, {"type": "Feature", "geometry": {"type": "Polygon", "coordinates": [[[84.75, -79.5], [84.75, -78.0], [86.25, -78.0], [86.25, -79.5], [84.75, -79.5]]]}, "properties": {"cell_id": "57_7", "lon": 85.5, "lat": -78.75}}, {"type": "Feature", "geometry": {"type": "Polygon", "coordinates": [[[84.75, -78.0], [84.75, -76.5], [86.25, -76.5], [86.25, -78.0], [84.75, -78.0]]]}, "properties": {"cell_id": "57_8", "lon": 85.5, "lat": -77.25}}, {"type": "Feature", "geometry": {"type": "Polygon", "coordinates": [[[84.75, -76.5], [84.75, -75.0], [86.25, -75.0], [86.25, -76.5], [84.75, -76.5]]]}, "properties": {"cell_id": "57_9", "lon": 85.5, "lat": -75.75}}, {"type": "Feature", "geometry": {"type": "Polygon", "coordinates": [[[84.75, -75.0], [84.75, -73.5], [86.25, -73.5], [86.25, -75.0], [84.75, -75.0]]]}, "properties": {"cell_id": "57_10", "lon": 85.5, "lat": -74.25}}, {"type": "Feature", "geometry": {"type": "Polygon", "coordinates": [[[84.75, -73.5], [84.75, -72.0], [86.25, -72.0], [86.25, -73.5], [84.75, -73.5]]]}, "properties": {"cell_id": "57_11", "lon": 85.5, "lat": -72.75}}, {"type": "Feature", "geometry": {"type": "Polygon", "coordinates": [[[84.75, -72.0], [84.75, -70.5], [86.25, -70.5], [86.25, -72.0], [84.75, -72.0]]]}, "properties": {"cell_id": "57_12", "lon": 85.5, "lat": -71.25}}, {"type": "Feature", "geometry": {"type": "Polygon", "coordinates": [[[84.75, -70.5], [84.75, -69.0], [86.25, -69.0], [86.25, -70.5], [84.75, -70.5]]]}, "properties": {"cell_id": "57_13", "lon": 85.5, "lat": -69.75}}, {"type": "Feature", "geometry": {"type": "Polygon", "coordinates": [[[86.25, -79.5], [86.25, -78.0], [87.75, -78.0], [87.75, -79.5], [86.25, -79.5]]]}, "properties": {"cell_id": "58_7", "lon": 87.0, "lat": -78.75}}, {"type": "Feature", "geometry": {"type": "Polygon", "coordinates": [[[86.25, -78.0], [86.25, -76.5], [87.75, -76.5], [87.75, -78.0], [86.25, -78.0]]]}, "properties": {"cell_id": "58_8", "lon": 87.0, "lat": -77.25}}, {"type": "Feature", "geometry": {"type": "Polygon", "coordinates": [[[86.25, -76.5], [86.25, -75.0], [87.75, -75.0], [87.75, -76.5], [86.25, -76.5]]]}, "properties": {"cell_id": "58_9", "lon": 87.0, "lat": -75.75}}, {"type": "Feature", "geometry": {"type": "Polygon", "coordinates": [[[86.25, -75.0], [86.25, -73.5], [87.75, -73.5], [87.75, -75.0], [86.25, -75.0]]]}, "properties": {"cell_id": "58_10", "lon": 87.0, "lat": -74.25}}, {"type": "Feature", "geometry": {"type": "Polygon", "coordinates": [[[86.25, -73.5], [86.25, -72.0], [87.75, -72.0], [87.75, -73.5], [86.25, -73.5]]]}, "properties": {"cell_id": "58_11", "lon": 87.0, "lat": -72.75}}, {"type": "Feature", "geometry": {"type": "Polygon", "coordinates": [[[86.25, -72.0], [86.25, -70.5], [87.75, -70.5], [87.75, -72.0], [86.25, -72.0]]]}, "properties": {"cell_id": "58_12", "lon": 87.0, "lat": -71.25}}, {"type": "Feature", "geometry": {"type": "Polygon", "coordinates": [[[86.25, -70.5], [86.25, -69.0], [87.75, -69.0], [87.75, -70.5], [86.25, -70.5]]]}, "properties": {"cell_id": "58_13", "lon": 87.0, "lat": -69.75}}, {"type": "Feature", "geometry": {"type": "Polygon", "coordinates": [[[87.75, -79.5], [87.75, -78.0], [89.25, -78.0], [89.25, -79.5], [87.75, -79.5]]]}, "properties": {"cell_id": "59_7", "lon": 88.5, "lat": -78.75}}, {"type": "Feature", "geometry": {"type": "Polygon", "coordinates": [[[87.75, -78.0], [87.75, -76.5], [89.25, -76.5], [89.25, -78.0], [87.75, -78.0]]]}, "properties": {"cell_id": "59_8", "lon": 88.5, "lat": -77.25}}, {"type": "Feature", "geometry": {"type": "Polygon", "coordinates": [[[87.75, -76.5], [87.75, -75.0], [89.25, -75.0], [89.25, -76.5], [87.75, -76.5]]]}, "properties": {"cell_id": "59_9", "lon": 88.5, "lat": -75.75}}, {"type": "Feature", "geometry": {"type": "Polygon", "coordinates": [[[87.75, -75.0], [87.75, -73.5], [89.25, -73.5], [89.25, -75.0], [87.75, -75.0]]]}, "properties": {"cell_id": "59_10", "lon": 88.5, "lat": -74.25}}, {"type": "Feature", "geometry": {"type": "Polygon", "coordinates": [[[87.75, -73.5], [87.75, -72.0], [89.25, -72.0], [89.25, -73.5], [87.75, -73.5]]]}, "properties": {"cell_id": "59_11", "lon": 88.5, "lat": -72.75}}, {"type": "Feature", "geometry": {"type": "Polygon", "coordinates": [[[87.75, -72.0], [87.75, -70.5], [89.25, -70.5], [89.25, -72.0], [87.75, -72.0]]]}, "properties": {"cell_id": "59_12", "lon": 88.5, "lat": -71.25}}, {"type": "Feature", "geometry": {"type": "Polygon", "coordinates": [[[87.75, -70.5], [87.75, -69.0], [89.25, -69.0], [89.25, -70.5], [87.75, -70.5]]]}, "properties": {"cell_id": "59_13", "lon": 88.5, "lat": -69.75}}, {"type": "Feature", "geometry": {"type": "Polygon", "coordinates": [[[89.25, -79.5], [89.25, -78.0], [90.75, -78.0], [90.75, -79.5], [89.25, -79.5]]]}, "properties": {"cell_id": "60_7", "lon": 90.0, "lat": -78.75}}, {"type": "Feature", "geometry": {"type": "Polygon", "coordinates": [[[89.25, -78.0], [89.25, -76.5], [90.75, -76.5], [90.75, -78.0], [89.25, -78.0]]]}, "properties": {"cell_id": "60_8", "lon": 90.0, "lat": -77.25}}, {"type": "Feature", "geometry": {"type": "Polygon", "coordinates": [[[89.25, -76.5], [89.25, -75.0], [90.75, -75.0], [90.75, -76.5], [89.25, -76.5]]]}, "properties": {"cell_id": "60_9", "lon": 90.0, "lat": -75.75}}, {"type": "Feature", "geometry": {"type": "Polygon", "coordinates": [[[89.25, -75.0], [89.25, -73.5], [90.75, -73.5], [90.75, -75.0], [89.25, -75.0]]]}, "properties": {"cell_id": "60_10", "lon": 90.0, "lat": -74.25}}, {"type": "Feature", "geometry": {"type": "Polygon", "coordinates": [[[89.25, -73.5], [89.25, -72.0], [90.75, -72.0], [90.75, -73.5], [89.25, -73.5]]]}, "properties": {"cell_id": "60_11", "lon": 90.0, "lat": -72.75}}, {"type": "Feature", "geometry": {"type": "Polygon", "coordinates": [[[89.25, -72.0], [89.25, -70.5], [90.75, -70.5], [90.75, -72.0], [89.25, -72.0]]]}, "properties": {"cell_id": "60_12", "lon": 90.0, "lat": -71.25}}, {"type": "Feature", "geometry": {"type": "Polygon", "coordinates": [[[89.25, -70.5], [89.25, -69.0], [90.75, -69.0], [90.75, -70.5], [89.25, -70.5]]]}, "properties": {"cell_id": "60_13", "lon": 90.0, "lat": -69.75}}]}