{"type": "FeatureCollection", "features": [{"type": "Feature", "geometry": {"type": "Polygon", "coordinates": [[[115.0, -35.0], [115.0, -32.5], [117.5, -32.5], [117.5, -35.0], [115.0, -35.0]]]}, "properties": {"cell_id": "46_22", "lon": 116.25, "lat": -33.75}}, {"type": "Feature", "geometry": {"type": "Polygon", "coordinates": [[[115.0, -32.5], [115.0, -30.0], [117.5, -30.0], [117.5, -32.5], [115.0, -32.5]]]}, "properties": {"cell_id": "46_23", "lon": 116.25, "lat": -31.25}}, {"type": "Feature", "geometry": {"type": "Polygon", "coordinates": [[[117.5, -35.0], [117.5, -32.5], [120.0, -32.5], [120.0, -35.0], [117.5, -35.0]]]}, "properties": {"cell_id": "47_22", "lon": 118.75, "lat": -33.75}}, {"type": "Feature", "geometry": {"type": "Polygon", "coordinates": [[[117.5, -32.5], [117.5, -30.0], [120.0, -30.0], [120.0, -32.5], [117.5, -32.5]]]}, "properties": {"cell_id": "47_23", "lon": 118.75, "lat": -31.25}}]}