{"type": "FeatureCollection", "features": [{"type": "Feature", "geometry": {"type": "Polygon", "coordinates": [[[60.75, 75.0], [60.75, 76.5], [62.25, 76.5], [62.25, 75.0], [60.75, 75.0]]]}, "properties": {"cell_id": "41_110", "lon": 61.5, "lat": 75.75}}, {"type": "Feature", "geometry": {"type": "Polygon", "coordinates": [[[66.75, 70.5], [66.75, 72.0], [68.25, 72.0], [68.25, 70.5], [66.75, 70.5]]]}, "properties": {"cell_id": "45_107", "lon": 67.5, "lat": 71.25}}, {"type": "Feature", "geometry": {"type": "Polygon", "coordinates": [[[68.25, 70.5], [68.25, 72.0], [69.75, 72.0], [69.75, 70.5], [68.25, 70.5]]]}, "properties": {"cell_id": "46_107", "lon": 69.0, "lat": 71.25}}, {"type": "Feature", "geometry": {"type": "Polygon", "coordinates": [[[68.25, 72.0], [68.25, 73.5], [69.75, 73.5], [69.75, 72.0], [68.25, 72.0]]]}, "properties": {"cell_id": "46_108", "lon": 69.0, "lat": 72.75}}, {"type": "Feature", "geometry": {"type": "Polygon", "coordinates": [[[69.75, 70.5], [69.75, 72.0], [71.25, 72.0], [71.25, 70.5], [69.75, 70.5]]]}, "properties": {"cell_id": "47_107", "lon": 70.5, "lat": 71.25}}, {"type": "Feature", "geometry": {"type": "Polygon", "coordinates": [[[69.75, 72.0], [69.75, 73.5], [71.25, 73.5], [71.25, 72.0], [69.75, 72.0]]]}, "properties": {"cell_id": "47_108", "lon": 70.5, "lat": 72.75}}]}