{"type": "FeatureCollection", "features": [{"type": "Feature", "geometry": {"type": "Polygon", "coordinates": [[[-60.0, -20.0], [-60.0, -17.5], [-57.5, -17.5], [-57.5, -20.0], [-60.0, -20.0]]]}, "properties": {"cell_id": "120_28", "lon": -58.75, "lat": -18.75}}, {"type": "Feature", "geometry": {"type": "Polygon", "coordinates": [[[-60.0, -17.5], [-60.0, -15.0], [-57.5, -15.0], [-57.5, -17.5], [-60.0, -17.5]]]}, "properties": {"cell_id": "120_29", "lon": -58.75, "lat": -16.25}}, {"type": "Feature", "geometry": {"type": "Polygon", "coordinates": [[[-60.0, -15.0], [-60.0, -12.5], [-57.5, -12.5], [-57.5, -15.0], [-60.0, -15.0]]]}, "properties": {"cell_id": "120_30", "lon": -58.75, "lat": -13.75}}, {"type": "Feature", "geometry": {"type": "Polygon", "coordinates": [[[-60.0, -12.5], [-60.0, -10.0], [-57.5, -10.0], [-57.5, -12.5], [-60.0, -12.5]]]}, "properties": {"cell_id": "120_31", "lon": -58.75, "lat": -11.25}}, {"type": "Feature", "geometry": {"type": "Polygon", "coordinates": [[[-57.5, -20.0], [-57.5, -17.5], [-55.0, -17.5], [-55.0, -20.0], [-57.5, -20.0]]]}, "properties": {"cell_id": "121_28", "lon": -56.25, "lat": -18.75}}, {"type": "Feature", "geometry": {"type": "Polygon", "coordinates": [[[-57.5, -17.5], [-57.5, -15.0], [-55.0, -15.0], [-55.0, -17.5], [-57.5, -17.5]]]}, "properties": {"cell_id": "121_29", "lon": -56.25, "lat": -16.25}}, {"type": "Feature", "geometry": {"type": "Polygon", "coordinates": [[[-57.5, -15.0], [-57.5, -12.5], [-55.0, -12.5], [-55.0, -15.0], [-57.5, -15.0]]]}, "properties": {"cell_id": "121_30", "lon": -56.25, "lat": -13.75}}, {"type": "Feature", "geometry": {"type": "Polygon", "coordinates": [[[-57.5, -12.5], [-57.5, -10.0], [-55.0, -10.0], [-55.0, -12.5], [-57.5, -12.5]]]}, "properties": {"cell_id": "121_31", "lon": -56.25, "lat": -11.25}}, {"type": "Feature", "geometry": {"type": "Polygon", "coordinates": [[[-55.0, -20.0], [-55.0, -17.5], [-52.5, -17.5], [-52.5, -20.0], [-55.0, -20.0]]]}, "properties": {"cell_id": "122_28", "lon": -53.75, "lat": -18.75}}, {"type": "Feature", "geometry": {"type": "Polygon", "coordinates": [[[-55.0, -17.5], [-55.0, -15.0], [-52.5, -15.0], [-52.5, -17.5], [-55.0, -17.5]]]}, "properties": {"cell_id": "122_29", "lon": -53.75, "lat": -16.25}}, {"type": "Feature", "geometry": {"type": "Polygon", "coordinates": [[[-55.0, -15.0], [-55.0, -12.5], [-52.5, -12.5], [-52.5, -15.0], [-55.0, -15.0]]]}, "properties": {"cell_id": "122_30", "lon": -53.75, "lat": -13.75}}, {"type": "Feature", "geometry": {"type": "Polygon", "coordinates": [[[-55.0, -12.5], [-55.0, -10.0], [-52.5, -10.0], [-52.5, -12.5], [-55.0, -12.5]]]}, "properties": {"cell_id": "122_31", "lon": -53.75, "lat": -11.25}}, {"type": "Feature", "geometry": {"type": "Polygon", "coordinates": [[[-52.5, -20.0], [-52.5, -17.5], [-50.0, -17.5], [-50.0, -20.0], [-52.5, -20.0]]]}, "properties": {"cell_id": "123_28", "lon": -51.25, "lat": -18.75}}, {"type": "Feature", "geometry": {"type": "Polygon", "coordinates": [[[-52.5, -17.5], [-52.5, -15.0], [-50.0, -15.0], [-50.0, -17.5], [-52.5, -17.5]]]}, "properties": {"cell_id": "123_29", "lon": -51.25, "lat": -16.25}}, {"type": "Feature", "geometry": {"type": "Polygon", "coordinates": [[[-52.5, -15.0], [-52.5, -12.5], [-50.0, -12.5], [-50.0, -15.0], [-52.5, -15.0]]]}, "properties": {"cell_id": "123_30", "lon": -51.25, "lat": -13.75}}, {"type": "Feature", "geometry": {"type": "Polygon", "coordinates": [[[-52.5, -12.5], [-52.5, -10.0], [-50.0, -10.0], [-50.0, -12.5], [-52.5, -12.5]]]}, "properties": {"cell_id": "123_31", "lon": -51.25, "lat": -11.25}}]}