{"type": "FeatureCollection", "features": [{"type": "Feature", "geometry": {"type": "Polygon", "coordinates": [[[-60.0, 0.0], [-60.0, 2.5], [-57.5, 2.5], [-57.5, 0.0], [-60.0, 0.0]]]}, "properties": {"cell_id": "120_36", "lon": -58.75, "lat": 1.25}}, {"type": "Feature", "geometry": {"type": "Polygon", "coordinates": [[[-60.0, 2.5], [-60.0, 5.0], [-57.5, 5.0], [-57.5, 2.5], [-60.0, 2.5]]]}, "properties": {"cell_id": "120_37", "lon": -58.75, "lat": 3.75}}, {"type": "Feature", "geometry": {"type": "Polygon", "coordinates": [[[-60.0, 5.0], [-60.0, 7.5], [-57.5, 7.5], [-57.5, 5.0], [-60.0, 5.0]]]}, "properties": {"cell_id": "120_38", "lon": -58.75, "lat": 6.25}}, {"type": "Feature", "geometry": {"type": "Polygon", "coordinates": [[[-57.5, 0.0], [-57.5, 2.5], [-55.0, 2.5], [-55.0, 0.0], [-57.5, 0.0]]]}, "properties": {"cell_id": "121_36", "lon": -56.25, "lat": 1.25}}, {"type": "Feature", "geometry": {"type": "Polygon", "coordinates": [[[-57.5, 2.5], [-57.5, 5.0], [-55.0, 5.0], [-55.0, 2.5], [-57.5, 2.5]]]}, "properties": {"cell_id": "121_37", "lon": -56.25, "lat": 3.75}}, {"type": "Feature", "geometry": {"type": "Polygon", "coordinates": [[[-55.0, 0.0], [-55.0, 2.5], [-52.5, 2.5], [-52.5, 0.0], [-55.0, 0.0]]]}, "properties": {"cell_id": "122_36", "lon": -53.75, "lat": 1.25}}, {"type": "Feature", "geometry": {"type": "Polygon", "coordinates": [[[-55.0, 2.5], [-55.0, 5.0], [-52.5, 5.0], [-52.5, 2.5], [-55.0, 2.5]]]}, "properties": {"cell_id": "122_37", "lon": -53.75, "lat": 3.75}}, {"type": "Feature", "geometry": {"type": "Polygon", "coordinates": [[[-52.5, 0.0], [-52.5, 2.5], [-50.0, 2.5], [-50.0, 0.0], [-52.5, 0.0]]]}, "properties": {"cell_id": "123_36", "lon": -51.25, "lat": 1.25}}, {"type": "Feature", "geometry": {"type": "Polygon", "coordinates": [[[-52.5, 2.5], [-52.5, 5.0], [-50.0, 5.0], [-50.0, 2.5], [-52.5, 2.5]]]}, "properties": {"cell_id": "123_37", "lon": -51.25, "lat": 3.75}}]}