{"type": "FeatureCollection", "features": [{"type": "Feature", "geometry": {"type": "Polygon", "coordinates": [[[41.25, 60.0], [41.25, 61.5], [42.75, 61.5], [42.75, 60.0], [41.25, 60.0]]]}, "properties": {"cell_id": "28_100", "lon": 42.0, "lat": 60.75}}, {"type": "Feature", "geometry": {"type": "Polygon", "coordinates": [[[41.25, 61.5], [41.25, 63.0], [42.75, 63.0], [42.75, 61.5], [41.25, 61.5]]]}, "properties": {"cell_id": "28_101", "lon": 42.0, "lat": 62.25}}, {"type": "Feature", "geometry": {"type": "Polygon", "coordinates": [[[41.25, 63.0], [41.25, 64.5], [42.75, 64.5], [42.75, 63.0], [41.25, 63.0]]]}, "properties": {"cell_id": "28_102", "lon": 42.0, "lat": 63.75}}, {"type": "Feature", "geometry": {"type": "Polygon", "coordinates": [[[41.25, 64.5], [41.25, 66.0], [42.75, 66.0], [42.75, 64.5], [41.25, 64.5]]]}, "properties": {"cell_id": "28_103", "lon": 42.0, "lat": 65.25}}, {"type": "Feature", "geometry": {"type": "Polygon", "coordinates": [[[41.25, 66.0], [41.25, 67.5], [42.75, 67.5], [42.75, 66.0], [41.25, 66.0]]]}, "properties": {"cell_id": "28_104", "lon": 42.0, "lat": 66.75}}, {"type": "Feature", "geometry": {"type": "Polygon", "coordinates": [[[42.75, 60.0], [42.75, 61.5], [44.25, 61.5], [44.25, 60.0], [42.75, 60.0]]]}, "properties": {"cell_id": "29_100", "lon": 43.5, "lat": 60.75}}, {"type": "Feature", "geometry": {"type": "Polygon", "coordinates": [[[42.75, 61.5], [42.75, 63.0], [44.25, 63.0], [44.25, 61.5], [42.75, 61.5]]]}, "properties": {"cell_id": "29_101", "lon": 43.5, "lat": 62.25}}, {"type": "Feature", "geometry": {"type": "Polygon", "coordinates": [[[42.75, 63.0], [42.75, 64.5], [44.25, 64.5], [44.25, 63.0], [42.75, 63.0]]]}, "properties": {"cell_id": "29_102", "lon": 43.5, "lat": 63.75}}, {"type": "Feature", "geometry": {"type": "Polygon", "coordinates": [[[42.75, 64.5], [42.75, 66.0], [44.25, 66.0], [44.25, 64.5], [42.75, 64.5]]]}, "properties": {"cell_id": "29_103", "lon": 43.5, "lat": 65.25}}, {"type": "Feature", "geometry": {"type": "Polygon", "coordinates": [[[42.75, 66.0], [42.75, 67.5], [44.25, 67.5], [44.25, 66.0], [42.75, 66.0]]]}, "properties": {"cell_id": "29_104", "lon": 43.5, "lat": 66.75}}, {"type": "Feature", "geometry": {"type": "Polygon", "coordinates": [[[44.25, 60.0], [44.25, 61.5], [45.75, 61.5], [45.75, 60.0], [44.25, 60.0]]]}, "properties": {"cell_id": "30_100", "lon": 45.0, "lat": 60.75}}, {"type": "Feature", "geometry": {"type": "Polygon", "coordinates": [[[44.25, 61.5], [44.25, 63.0], [45.75, 63.0], [45.75, 61.5], [44.25, 61.5]]]}, "properties": {"cell_id": "30_101", "lon": 45.0, "lat": 62.25}}, {"type": "Feature", "geometry": {"type": "Polygon", "coordinates": [[[44.25, 63.0], [44.25, 64.5], [45.75, 64.5], [45.75, 63.0], [44.25, 63.0]]]}, "properties": {"cell_id": "30_102", "lon": 45.0, "lat": 63.75}}, {"type": "Feature", "geometry": {"type": "Polygon", "coordinates": [[[44.25, 64.5], [44.25, 66.0], [45.75, 66.0], [45.75, 64.5], [44.25, 64.5]]]}, "properties": {"cell_id": "30_103", "lon": 45.0, "lat": 65.25}}, {"type": "Feature", "geometry": {"type": "Polygon", "coordinates": [[[44.25, 66.0], [44.25, 67.5], [45.75, 67.5], [45.75, 66.0], [44.25, 66.0]]]}, "properties": {"cell_id": "30_104", "lon": 45.0, "lat": 66.75}}, {"type": "Feature", "geometry": {"type": "Polygon", "coordinates": [[[44.25, 67.5], [44.25, 69.0], [45.75, 69.0], [45.75, 67.5], [44.25, 67.5]]]}, "properties": {"cell_id": "30_105", "lon": 45.0, "lat": 68.25}}, {"type": "Feature", "geometry": {"type": "Polygon", "coordinates": [[[45.75, 60.0], [45.75, 61.5], [47.25, 61.5], [47.25, 60.0], [45.75, 60.0]]]}, "properties": {"cell_id": "31_100", "lon": 46.5, "lat": 60.75}}, {"type": "Feature", "geometry": {"type": "Polygon", "coordinates": [[[45.75, 61.5], [45.75, 63.0], [47.25, 63.0], [47.25, 61.5], [45.75, 61.5]]]}, "properties": {"cell_id": "31_101", "lon": 46.5, "lat": 62.25}}, {"type": "Feature", "geometry": {"type": "Polygon", "coordinates": [[[45.75, 63.0], [45.75, 64.5], [47.25, 64.5], [47.25, 63.0], [45.75, 63.0]]]}, "properties": {"cell_id": "31_102", "lon": 46.5, "lat": 63.75}}, {"type": "Feature", "geometry": {"type": "Polygon", "coordinates": [[[45.75, 64.5], [45.75, 66.0], [47.25, 66.0], [47.25, 64.5], [45.75, 64.5]]]}, "properties": {"cell_id": "31_103", "lon": 46.5, "lat": 65.25}}, {"type": "Feature", "geometry": {"type": "Polygon", "coordinates": [[[45.75, 66.0], [45.75, 67.5], [47.25, 67.5], [47.25, 66.0], [45.75, 66.0]]]}, "properties": {"cell_id": "31_104", "lon": 46.5, "lat": 66.75}}, {"type": "Feature", "geometry": {"type": "Polygon", "coordinates": [[[47.25, 60.0], [47.25, 61.5], [48.75, 61.5], [48.75, 60.0], [47.25, 60.0]]]}, "properties": {"cell_id": "32_100", "lon": 48.0, "lat": 60.75}}, {"type": "Feature", "geometry": {"type": "Polygon", "coordinates": [[[47.25, 61.5], [47.25, 63.0], [48.75, 63.0], [48.75, 61.5], [47.25, 61.5]]]}, "properties": {"cell_id": "32_101", "lon": 48.0, "lat": 62.25}}, {"type": "Feature", "geometry": {"type": "Polygon", "coordinates": [[[47.25, 63.0], [47.25, 64.5], [48.75, 64.5], [48.75, 63.0], [47.25, 63.0]]]}, "properties": {"cell_id": "32_102", "lon": 48.0, "lat": 63.75}}, {"type": "Feature", "geometry": {"type": "Polygon", "coordinates": [[[47.25, 64.5], [47.25, 66.0], [48.75, 66.0], [48.75, 64.5], [47.25, 64.5]]]}, "properties": {"cell_id": "32_103", "lon": 48.0, "lat": 65.25}}, {"type": "Feature", "geometry": {"type": "Polygon", "coordinates": [[[47.25, 66.0], [47.25, 67.5], [48.75, 67.5], [48.75, 66.0], [47.25, 66.0]]]}, "properties": {"cell_id": "32_104", "lon": 48.0, "lat": 66.75}}, {"type": "Feature", "geometry": {"type": "Polygon", "coordinates": [[[48.75, 60.0], [48.75, 61.5], [50.25, 61.5], [50.25, 60.0], [48.75, 60.0]]]}, "properties": {"cell_id": "33_100", "lon": 49.5, "lat": 60.75}}, {"type": "Feature", "geometry": {"type": "Polygon", "coordinates": [[[48.75, 61.5], [48.75, 63.0], [50.25, 63.0], [50.25, 61.5], [48.75, 61.5]]]}, "properties": {"cell_id": "33_101", "lon": 49.5, "lat": 62.25}}, {"type": "Feature", "geometry": {"type": "Polygon", "coordinates": [[[48.75, 63.0], [48.75, 64.5], [50.25, 64.5], [50.25, 63.0], [48.75, 63.0]]]}, "properties": {"cell_id": "33_102", "lon": 49.5, "lat": 63.75}}, {"type": "Feature", "geometry": {"type": "Polygon", "coordinates": [[[48.75, 64.5], [48.75, 66.0], [50.25, 66.0], [50.25, 64.5], [48.75, 64.5]]]}, "properties": {"cell_id": "33_103", "lon": 49.5, "lat": 65.25}}, {"type": "Feature", "geometry": {"type": "Polygon", "coordinates": [[[48.75, 66.0], [48.75, 67.5], [50.25, 67.5], [50.25, 66.0], [48.75, 66.0]]]}, "properties": {"cell_id": "33_104", "lon": 49.5, "lat": 66.75}}, {"type": "Feature", "geometry": {"type": "Polygon", "coordinates": [[[48.75, 67.5], [48.75, 69.0], [50.25, 69.0], [50.25, 67.5], [48.75, 67.5]]]}, "properties": {"cell_id": "33_105", "lon": 49.5, "lat": 68.25}}]}