{"type": "FeatureCollection", "features": [{"type": "Feature", "geometry": {"type": "Polygon", "coordinates": [[[30.0, -30.0], [30.0, -27.5], [32.5, -27.5], [32.5, -30.0], [30.0, -30.0]]]}, "properties": {"cell_id": "12_24", "lon": 31.25, "lat": -28.75}}, {"type": "Feature", "geometry": {"type": "Polygon", "coordinates": [[[30.0, -27.5], [30.0, -25.0], [32.5, -25.0], [32.5, -27.5], [30.0, -27.5]]]}, "properties": {"cell_id": "12_25", "lon": 31.25, "lat": -26.25}}, {"type": "Feature", "geometry": {"type": "Polygon", "coordinates": [[[30.0, -25.0], [30.0, -22.5], [32.5, -22.5], [32.5, -25.0], [30.0, -25.0]]]}, "properties": {"cell_id": "12_26", "lon": 31.25, "lat": -23.75}}, {"type": "Feature", "geometry": {"type": "Polygon", "coordinates": [[[30.0, -22.5], [30.0, -20.0], [32.5, -20.0], [32.5, -22.5], [30.0, -22.5]]]}, "properties": {"cell_id": "12_27", "lon": 31.25, "lat": -21.25}}, {"type": "Feature", "geometry": {"type": "Polygon", "coordinates": [[[32.5, -25.0], [32.5, -22.5], [35.0, -22.5], [35.0, -25.0], [32.5, -25.0]]]}, "properties": {"cell_id": "13_26", "lon": 33.75, "lat": -23.75}}, {"type": "Feature", "geometry": {"type": "Polygon", "coordinates": [[[32.5, -22.5], [32.5, -20.0], [35.0, -20.0], [35.0, -22.5], [32.5, -22.5]]]}, "properties": {"cell_id": "13_27", "lon": 33.75, "lat": -21.25}}]}