{"type": "FeatureCollection", "features": [{"type": "Feature", "geometry": {"type": "Polygon", "coordinates": [[[-69.75, -39.0], [-69.75, -37.5], [-68.25, -37.5], [-68.25, -39.0], [-69.75, -39.0]]]}, "properties": {"cell_id": "194_34", "lon": -69.0, "lat": -38.25}}, {"type": "Feature", "geometry": {"type": "Polygon", "coordinates": [[[-69.75, -37.5], [-69.75, -36.0], [-68.25, -36.0], [-68.25, -37.5], [-69.75, -37.5]]]}, "properties": {"cell_id": "194_35", "lon": -69.0, "lat": -36.75}}, {"type": "Feature", "geometry": {"type": "Polygon", "coordinates": [[[-69.75, -36.0], [-69.75, -34.5], [-68.25, -34.5], [-68.25, -36.0], [-69.75, -36.0]]]}, "properties": {"cell_id": "194_36", "lon": -69.0, "lat": -35.25}}, {"type": "Feature", "geometry": {"type": "Polygon", "coordinates": [[[-69.75, -34.5], [-69.75, -33.0], [-68.25, -33.0], [-68.25, -34.5], [-69.75, -34.5]]]}, "properties": {"cell_id": "194_37", "lon": -69.0, "lat": -33.75}}, {"type": "Feature", "geometry": {"type": "Polygon", "coordinates": [[[-69.75, -33.0], [-69.75, -31.5], [-68.25, -31.5], [-68.25, -33.0], [-69.75, -33.0]]]}, "properties": {"cell_id": "194_38", "lon": -69.0, "lat": -32.25}}, {"type": "Feature", "geometry": {"type": "Polygon", "coordinates": [[[-69.75, -31.5], [-69.75, -30.0], [-68.25, -30.0], [-68.25, -31.5], [-69.75, -31.5]]]}, "properties": {"cell_id": "194_39", "lon": -69.0, "lat": -30.75}}, {"type": "Feature", "geometry": {"type": "Polygon", "coordinates": [[[-68.25, -39.0], [-68.25, -37.5], [-66.75, -37.5], [-66.75, -39.0], [-68.25, -39.0]]]}, "properties": {"cell_id": "195_34", "lon": -67.5, "lat": -38.25}}, {"type": "Feature", "geometry": {"type": "Polygon", "coordinates": [[[-68.25, -37.5], [-68.25, -36.0], [-66.75, -36.0], [-66.75, -37.5], [-68.25, -37.5]]]}, "properties": {"cell_id": "195_35", "lon": -67.5, "lat": -36.75}}, {"type": "Feature", "geometry": {"type": "Polygon", "coordinates": [[[-68.25, -36.0], [-68.25, -34.5], [-66.75, -34.5], [-66.75, -36.0], [-68.25, -36.0]]]}, "properties": {"cell_id": "195_36", "lon": -67.5, "lat": -35.25}}, {"type": "Feature", "geometry": {"type": "Polygon", "coordinates": [[[-68.25, -34.5], [-68.25, -33.0], [-66.75, -33.0], [-66.75, -34.5], [-68.25, -34.5]]]}, "properties": {"cell_id": "195_37", "lon": -67.5, "lat": -33.75}}, {"type": "Feature", "geometry": {"type": "Polygon", "coordinates": [[[-68.25, -33.0], [-68.25, -31.5], [-66.75, -31.5], [-66.75, -33.0], [-68.25, -33.0]]]}, "properties": {"cell_id": "195_38", "lon": -67.5, "lat": -32.25}}, {"type": "Feature", "geometry": {"type": "Polygon", "coordinates": [[[-68.25, -31.5], [-68.25, -30.0], [-66.75, -30.0], [-66.75, -31.5], [-68.25, -31.5]]]}, "properties": {"cell_id": "195_39", "lon": -67.5, "lat": -30.75}}, {"type": "Feature", "geometry": {"type": "Polygon", "coordinates": [[[-66.75, -39.0], [-66.75, -37.5], [-65.25, -37.5], [-65.25, -39.0], [-66.75, -39.0]]]}, "properties": {"cell_id": "196_34", "lon": -66.0, "lat": -38.25}}, {"type": "Feature", "geometry": {"type": "Polygon", "coordinates": [[[-66.75, -37.5], [-66.75, -36.0], [-65.25, -36.0], [-65.25, -37.5], [-66.75, -37.5]]]}, "properties": {"cell_id": "196_35", "lon": -66.0, "lat": -36.75}}, {"type": "Feature", "geometry": {"type": "Polygon", "coordinates": [[[-66.75, -36.0], [-66.75, -34.5], [-65.25, -34.5], [-65.25, -36.0], [-66.75, -36.0]]]}, "properties": {"cell_id": "196_36", "lon": -66.0, "lat": -35.25}}, {"type": "Feature", "geometry": {"type": "Polygon", "coordinates": [[[-66.75, -34.5], [-66.75, -33.0], [-65.25, -33.0], [-65.25, -34.5], [-66.75, -34.5]]]}, "properties": {"cell_id": "196_37", "lon": -66.0, "lat": -33.75}}, {"type": "Feature", "geometry": {"type": "Polygon", "coordinates": [[[-66.75, -33.0], [-66.75, -31.5], [-65.25, -31.5], [-65.25, -33.0], [-66.75, -33.0]]]}, "properties": {"cell_id": "196_38", "lon": -66.0, "lat": -32.25}}, {"type": "Feature", "geometry": {"type": "Polygon", "coordinates": [[[-66.75, -31.5], [-66.75, -30.0], [-65.25, -30.0], [-65.25, -31.5], [-66.75, -31.5]]]}, "properties": {"cell_id": "196_39", "lon": -66.0, "lat": -30.75}}, {"type": "Feature", "geometry": {"type": "Polygon", "coordinates": [[[-65.25, -39.0], [-65.25, -37.5], [-63.75, -37.5], [-63.75, -39.0], [-65.25, -39.0]]]}, "properties": {"cell_id": "197_34", "lon": -64.5, "lat": -38.25}}, {"type": "Feature", "geometry": {"type": "Polygon", "coordinates": [[[-65.25, -37.5], [-65.25, -36.0], [-63.75, -36.0], [-63.75, -37.5], [-65.25, -37.5]]]}, "properties": {"cell_id": "197_35", "lon": -64.5, "lat": -36.75}}, {"type": "Feature", "geometry": {"type": "Polygon", "coordinates": [[[-65.25, -36.0], [-65.25, -34.5], [-63.75, -34.5], [-63.75, -36.0], [-65.25, -36.0]]]}, "properties": {"cell_id": "197_36", "lon": -64.5, "lat": -35.25}}, {"type": "Feature", "geometry": {"type": "Polygon", "coordinates": [[[-65.25, -34.5], [-65.25, -33.0], [-63.75, -33.0], [-63.75, -34.5], [-65.25, -34.5]]]}, "properties": {"cell_id": "197_37", "lon": -64.5, "lat": -33.75}}, {"type": "Feature", "geometry": {"type": "Polygon", "coordinates": [[[-65.25, -33.0], [-65.25, -31.5], [-63.75, -31.5], [-63.75, -33.0], [-65.25, -33.0]]]}, "properties": {"cell_id": "197_38", "lon": -64.5, "lat": -32.25}}, {"type": "Feature", "geometry": {"type": "Polygon", "coordinates": [[[-65.25, -31.5], [-65.25, -30.0], [-63.75, -30.0], [-63.75, -31.5], [-65.25, -31.5]]]}, "properties": {"cell_id": "197_39", "lon": -64.5, "lat": -30.75}}, {"type": "Feature", "geometry": {"type": "Polygon", "coordinates": [[[-63.75, -39.0], [-63.75, -37.5], [-62.25, -37.5], [-62.25, -39.0], [-63.75, -39.0]]]}, "properties": {"cell_id": "198_34", "lon": -63.0, "lat": -38.25}}, {"type": "Feature", "geometry": {"type": "Polygon", "coordinates": [[[-63.75, -37.5], [-63.75, -36.0], [-62.25, -36.0], [-62.25, -37.5], [-63.75, -37.5]]]}, "properties": {"cell_id": "198_35", "lon": -63.0, "lat": -36.75}}, {"type": "Feature", "geometry": {"type": "Polygon", "coordinates": [[[-63.75, -36.0], [-63.75, -34.5], [-62.25, -34.5], [-62.25, -36.0], [-63.75, -36.0]]]}, "properties": {"cell_id": "198_36", "lon": -63.0, "lat": -35.25}}, {"type": "Feature", "geometry": {"type": "Polygon", "coordinates": [[[-63.75, -34.5], [-63.75, -33.0], [-62.25, -33.0], [-62.25, -34.5], [-63.75, -34.5]]]}, "properties": {"cell_id": "198_37", "lon": -63.0, "lat": -33.75}}, {"type": "Feature", "geometry": {"type": "Polygon", "coordinates": [[[-63.75, -33.0], [-63.75, -31.5], [-62.25, -31.5], [-62.25, -33.0], [-63.75, -33.0]]]}, "properties": {"cell_id": "198_38", "lon": -63.0, "lat": -32.25}}, {"type": "Feature", "geometry": {"type": "Polygon", "coordinates": [[[-63.75, -31.5], [-63.75, -30.0], [-62.25, -30.0], [-62.25, -31.5], [-63.75, -31.5]]]}, "properties": {"cell_id": "198_39", "lon": -63.0, "lat": -30.75}}, {"type": "Feature", "geometry": {"type": "Polygon", "coordinates": [[[-62.25, -39.0], [-62.25, -37.5], [-60.75, -37.5], [-60.75, -39.0], [-62.25, -39.0]]]}, "properties": {"cell_id": "199_34", "lon": -61.5, "lat": -38.25}}, {"type": "Feature", "geometry": {"type": "Polygon", "coordinates": [[[-62.25, -37.5], [-62.25, -36.0], [-60.75, -36.0], [-60.75, -37.5], [-62.25, -37.5]]]}, "properties": {"cell_id": "199_35", "lon": -61.5, "lat": -36.75}}, {"type": "Feature", "geometry": {"type": "Polygon", "coordinates": [[[-62.25, -36.0], [-62.25, -34.5], [-60.75, -34.5], [-60.75, -36.0], [-62.25, -36.0]]]}, "properties": {"cell_id": "199_36", "lon": -61.5, "lat": -35.25}}, {"type": "Feature", "geometry": {"type": "Polygon", "coordinates": [[[-62.25, -34.5], [-62.25, -33.0], [-60.75, -33.0], [-60.75, -34.5], [-62.25, -34.5]]]}, "properties": {"cell_id": "199_37", "lon": -61.5, "lat": -33.75}}, {"type": "Feature", "geometry": {"type": "Polygon", "coordinates": [[[-62.25, -33.0], [-62.25, -31.5], [-60.75, -31.5], [-60.75, -33.0], [-62.25, -33.0]]]}, "properties": {"cell_id": "199_38", "lon": -61.5, "lat": -32.25}}, {"type": "Feature", "geometry": {"type": "Polygon", "coordinates": [[[-62.25, -31.5], [-62.25, -30.0], [-60.75, -30.0], [-60.75, -31.5], [-62.25, -31.5]]]}, "properties": {"cell_id": "199_39", "lon": -61.5, "lat": -30.75}}, {"type": "Feature", "geometry": {"type": "Polygon", "coordinates": [[[-60.75, -39.0], [-60.75, -37.5], [-59.25, -37.5], [-59.25, -39.0], [-60.75, -39.0]]]}, "properties": {"cell_id": "200_34", "lon": -60.0, "lat": -38.25}}, {"type": "Feature", "geometry": {"type": "Polygon", "coordinates": [[[-60.75, -37.5], [-60.75, -36.0], [-59.25, -36.0], [-59.25, -37.5], [-60.75, -37.5]]]}, "properties": {"cell_id": "200_35", "lon": -60.0, "lat": -36.75}}, {"type": "Feature", "geometry": {"type": "Polygon", "coordinates": [[[-60.75, -36.0], [-60.75, -34.5], [-59.25, -34.5], [-59.25, -36.0], [-60.75, -36.0]]]}, "properties": {"cell_id": "200_36", "lon": -60.0, "lat": -35.25}}, {"type": "Feature", "geometry": {"type": "Polygon", "coordinates": [[[-60.75, -34.5], [-60.75, -33.0], [-59.25, -33.0], [-59.25, -34.5], [-60.75, -34.5]]]}, "properties": {"cell_id": "200_37", "lon": -60.0, "lat": -33.75}}, {"type": "Feature", "geometry": {"type": "Polygon", "coordinates": [[[-60.75, -33.0], [-60.75, -31.5], [-59.25, -31.5], [-59.25, -33.0], [-60.75, -33.0]]]}, "properties": {"cell_id": "200_38", "lon": -60.0, "lat": -32.25}}, {"type": "Feature", "geometry": {"type": "Polygon", "coordinates": [[[-60.75, -31.5], [-60.75, -30.0], [-59.25, -30.0], [-59.25, -31.5], [-60.75, -31.5]]]}, "properties": {"cell_id": "200_39", "lon": -60.0, "lat": -30.75}}]}