{"type": "FeatureCollection", "features": [{"type": "Feature", "geometry": {"type": "Polygon", "coordinates": [[[-116.25, 28.5], [-116.25, 30.0], [-114.75, 30.0], [-114.75, 28.5], [-116.25, 28.5]]]}, "properties": {"cell_id": "163_79", "lon": -115.5, "lat": 29.25}}, {"type": "Feature", "geometry": {"type": "Polygon", "coordinates": [[[-114.75, 27.0], [-114.75, 28.5], [-113.25, 28.5], [-113.25, 27.0], [-114.75, 27.0]]]}, "properties": {"cell_id": "164_78", "lon": -114.0, "lat": 27.75}}, {"type": "Feature", "geometry": {"type": "Polygon", "coordinates": [[[-114.75, 28.5], [-114.75, 30.0], [-113.25, 30.0], [-113.25, 28.5], [-114.75, 28.5]]]}, "properties": {"cell_id": "164_79", "lon": -114.0, "lat": 29.25}}, {"type": "Feature", "geometry": {"type": "Polygon", "coordinates": [[[-113.25, 24.0], [-113.25, 25.5], [-111.75, 25.5], [-111.75, 24.0], [-113.25, 24.0]]]}, "properties": {"cell_id": "165_76", "lon": -112.5, "lat": 24.75}}, {"type": "Feature", "geometry": {"type": "Polygon", "coordinates": [[[-113.25, 25.5], [-113.25, 27.0], [-111.75, 27.0], [-111.75, 25.5], [-113.25, 25.5]]]}, "properties": {"cell_id": "165_77", "lon": -112.5, "lat": 26.25}}, {"type": "Feature", "geometry": {"type": "Polygon", "coordinates": [[[-113.25, 27.0], [-113.25, 28.5], [-111.75, 28.5], [-111.75, 27.0], [-113.25, 27.0]]]}, "properties": {"cell_id": "165_78", "lon": -112.5, "lat": 27.75}}, {"type": "Feature", "geometry": {"type": "Polygon", "coordinates": [[[-113.25, 28.5], [-113.25, 30.0], [-111.75, 30.0], [-111.75, 28.5], [-113.25, 28.5]]]}, "properties": {"cell_id": "165_79", "lon": -112.5, "lat": 29.25}}, {"type": "Feature", "geometry": {"type": "Polygon", "coordinates": [[[-111.75, 24.0], [-111.75, 25.5], [-110.25, 25.5], [-110.25, 24.0], [-111.75, 24.0]]]}, "properties": {"cell_id": "166_76", "lon": -111.0, "lat": 24.75}}, {"type": "Feature", "geometry": {"type": "Polygon", "coordinates": [[[-111.75, 25.5], [-111.75, 27.0], [-110.25, 27.0], [-110.25, 25.5], [-111.75, 25.5]]]}, "properties": {"cell_id": "166_77", "lon": -111.0, "lat": 26.25}}, {"type": "Feature", "geometry": {"type": "Polygon", "coordinates": [[[-111.75, 27.0], [-111.75, 28.5], [-110.25, 28.5], [-110.25, 27.0], [-111.75, 27.0]]]}, "properties": {"cell_id": "166_78", "lon": -111.0, "lat": 27.75}}, {"type": "Feature", "geometry": {"type": "Polygon", "coordinates": [[[-111.75, 28.5], [-111.75, 30.0], [-110.25, 30.0], [-110.25, 28.5], [-111.75, 28.5]]]}, "properties": {"cell_id": "166_79", "lon": -111.0, "lat": 29.25}}, {"type": "Feature", "geometry": {"type": "Polygon", "coordinates": [[[-110.25, 25.5], [-110.25, 27.0], [-108.75, 27.0], [-108.75, 25.5], [-110.25, 25.5]]]}, "properties": {"cell_id": "167_77", "lon": -109.5, "lat": 26.25}}, {"type": "Feature", "geometry": {"type": "Polygon", "coordinates": [[[-110.25, 27.0], [-110.25, 28.5], [-108.75, 28.5], [-108.75, 27.0], [-110.25, 27.0]]]}, "properties": {"cell_id": "167_78", "lon": -109.5, "lat": 27.75}}, {"type": "Feature", "geometry": {"type": "Polygon", "coordinates": [[[-110.25, 28.5], [-110.25, 30.0], [-108.75, 30.0], [-108.75, 28.5], [-110.25, 28.5]]]}, "properties": {"cell_id": "167_79", "lon": -109.5, "lat": 29.25}}]}