{"type": "FeatureCollection", "features": [{"type": "Feature", "geometry": {"type": "Polygon", "coordinates": [[[5.25, 60.0], [5.25, 61.5], [6.75, 61.5], [6.75, 60.0], [5.25, 60.0]]]}, "properties": {"cell_id": "4_100", "lon": 6.0, "lat": 60.75}}, {"type": "Feature", "geometry": {"type": "Polygon", "coordinates": [[[5.25, 61.5], [5.25, 63.0], [6.75, 63.0], [6.75, 61.5], [5.25, 61.5]]]}, "properties": {"cell_id": "4_101", "lon": 6.0, "lat": 62.25}}, {"type": "Feature", "geometry": {"type": "Polygon", "coordinates": [[[6.75, 60.0], [6.75, 61.5], [8.25, 61.5], [8.25, 60.0], [6.75, 60.0]]]}, "properties": {"cell_id": "5_100", "lon": 7.5, "lat": 60.75}}, {"type": "Feature", "geometry": {"type": "Polygon", "coordinates": [[[6.75, 61.5], [6.75, 63.0], [8.25, 63.0], [8.25, 61.5], [6.75, 61.5]]]}, "properties": {"cell_id": "5_101", "lon": 7.5, "lat": 62.25}}, {"type": "Feature", "geometry": {"type": "Polygon", "coordinates": [[[8.25, 60.0], [8.25, 61.5], [9.75, 61.5], [9.75, 60.0], [8.25, 60.0]]]}, "properties": {"cell_id": "6_100", "lon": 9.0, "lat": 60.75}}, {"type": "Feature", "geometry": {"type": "Polygon", "coordinates": [[[8.25, 61.5], [8.25, 63.0], [9.75, 63.0], [9.75, 61.5], [8.25, 61.5]]]}, "properties": {"cell_id": "6_101", "lon": 9.0, "lat": 62.25}}, {"type": "Feature", "geometry": {"type": "Polygon", "coordinates": [[[8.25, 63.0], [8.25, 64.5], [9.75, 64.5], [9.75, 63.0], [8.25, 63.0]]]}, "properties": {"cell_id": "6_102", "lon": 9.0, "lat": 63.75}}, {"type": "Feature", "geometry": {"type": "Polygon", "coordinates": [[[9.75, 60.0], [9.75, 61.5], [11.25, 61.5], [11.25, 60.0], [9.75, 60.0]]]}, "properties": {"cell_id": "7_100", "lon": 10.5, "lat": 60.75}}, {"type": "Feature", "geometry": {"type": "Polygon", "coordinates": [[[9.75, 61.5], [9.75, 63.0], [11.25, 63.0], [11.25, 61.5], [9.75, 61.5]]]}, "properties": {"cell_id": "7_101", "lon": 10.5, "lat": 62.25}}, {"type": "Feature", "geometry": {"type": "Polygon", "coordinates": [[[9.75, 63.0], [9.75, 64.5], [11.25, 64.5], [11.25, 63.0], [9.75, 63.0]]]}, "properties": {"cell_id": "7_102", "lon": 10.5, "lat": 63.75}}]}