{"type": "FeatureCollection", "features": [{"type": "Feature", "geometry": {"type": "Polygon", "coordinates": [[[140.25, 70.5], [140.25, 72.0], [141.75, 72.0], [141.75, 70.5], [140.25, 70.5]]]}, "properties": {"cell_id": "94_107", "lon": 141.0, "lat": 71.25}}, {"type": "Feature", "geometry": {"type": "Polygon", "coordinates": [[[140.25, 72.0], [140.25, 73.5], [141.75, 73.5], [141.75, 72.0], [140.25, 72.0]]]}, "properties": {"cell_id": "94_108", "lon": 141.0, "lat": 72.75}}, {"type": "Feature", "geometry": {"type": "Polygon", "coordinates": [[[140.25, 75.0], [140.25, 76.5], [141.75, 76.5], [141.75, 75.0], [140.25, 75.0]]]}, "properties": {"cell_id": "94_110", "lon": 141.0, "lat": 75.75}}, {"type": "Feature", "geometry": {"type": "Polygon", "coordinates": [[[141.75, 70.5], [141.75, 72.0], [143.25, 72.0], [143.25, 70.5], [141.75, 70.5]]]}, "properties": {"cell_id": "95_107", "lon": 142.5, "lat": 71.25}}, {"type": "Feature", "geometry": {"type": "Polygon", "coordinates": [[[141.75, 72.0], [141.75, 73.5], [143.25, 73.5], [143.25, 72.0], [141.75, 72.0]]]}, "properties": {"cell_id": "95_108", "lon": 142.5, "lat": 72.75}}, {"type": "Feature", "geometry": {"type": "Polygon", "coordinates": [[[141.75, 75.0], [141.75, 76.5], [143.25, 76.5], [143.25, 75.0], [141.75, 75.0]]]}, "properties": {"cell_id": "95_110", "lon": 142.5, "lat": 75.75}}, {"type": "Feature", "geometry": {"type": "Polygon", "coordinates": [[[143.25, 70.5], [143.25, 72.0], [144.75, 72.0], [144.75, 70.5], [143.25, 70.5]]]}, "properties": {"cell_id": "96_107", "lon": 144.0, "lat": 71.25}}, {"type": "Feature", "geometry": {"type": "Polygon", "coordinates": [[[143.25, 72.0], [143.25, 73.5], [144.75, 73.5], [144.75, 72.0], [143.25, 72.0]]]}, "properties": {"cell_id": "96_108", "lon": 144.0, "lat": 72.75}}, {"type": "Feature", "geometry": {"type": "Polygon", "coordinates": [[[144.75, 70.5], [144.75, 72.0], [146.25, 72.0], [146.25, 70.5], [144.75, 70.5]]]}, "properties": {"cell_id": "97_107", "lon": 145.5, "lat": 71.25}}, {"type": "Feature", "geometry": {"type": "Polygon", "coordinates": [[[144.75, 72.0], [144.75, 73.5], [146.25, 73.5], [146.25, 72.0], [144.75, 72.0]]]}, "properties": {"cell_id": "97_108", "lon": 145.5, "lat": 72.75}}, {"type": "Feature", "geometry": {"type": "Polygon", "coordinates": [[[146.25, 70.5], [146.25, 72.0], [147.75, 72.0], [147.75, 70.5], [146.25, 70.5]]]}, "properties": {"cell_id": "98_107", "lon": 147.0, "lat": 71.25}}, {"type": "Feature", "geometry": {"type": "Polygon", "coordinates": [[[146.25, 72.0], [146.25, 73.5], [147.75, 73.5], [147.75, 72.0], [146.25, 72.0]]]}, "properties": {"cell_id": "98_108", "lon": 147.0, "lat": 72.75}}, {"type": "Feature", "geometry": {"type": "Polygon", "coordinates": [[[147.75, 70.5], [147.75, 72.0], [149.25, 72.0], [149.25, 70.5], [147.75, 70.5]]]}, "properties": {"cell_id": "99_107", "lon": 148.5, "lat": 71.25}}, {"type": "Feature", "geometry": {"type": "Polygon", "coordinates": [[[147.75, 72.0], [147.75, 73.5], [149.25, 73.5], [149.25, 72.0], [147.75, 72.0]]]}, "properties": {"cell_id": "99_108", "lon": 148.5, "lat": 72.75}}, {"type": "Feature", "geometry": {"type": "Polygon", "coordinates": [[[149.25, 70.5], [149.25, 72.0], [150.75, 72.0], [150.75, 70.5], [149.25, 70.5]]]}, "properties": {"cell_id": "100_107", "lon": 150.0, "lat": 71.25}}]}