{"type": "FeatureCollection", "features": [{"type": "Feature", "geometry": {"type": "Polygon", "coordinates": [[[95.25, 3.0], [95.25, 4.5], [96.75, 4.5], [96.75, 3.0], [95.25, 3.0]]]}, "properties": {"cell_id": "64_62", "lon": 96.0, "lat": 3.75}}, {"type": "Feature", "geometry": {"type": "Polygon", "coordinates": [[[95.25, 4.5], [95.25, 6.0], [96.75, 6.0], [96.75, 4.5], [95.25, 4.5]]]}, "properties": {"cell_id": "64_63", "lon": 96.0, "lat": 5.25}}, {"type": "Feature", "geometry": {"type": "Polygon", "coordinates": [[[96.75, 1.5], [96.75, 3.0], [98.25, 3.0], [98.25, 1.5], [96.75, 1.5]]]}, "properties": {"cell_id": "65_61", "lon": 97.5, "lat": 2.25}}, {"type": "Feature", "geometry": {"type": "Polygon", "coordinates": [[[96.75, 3.0], [96.75, 4.5], [98.25, 4.5], [98.25, 3.0], [96.75, 3.0]]]}, "properties": {"cell_id": "65_62", "lon": 97.5, "lat": 3.75}}, {"type": "Feature", "geometry": {"type": "Polygon", "coordinates": [[[96.75, 4.5], [96.75, 6.0], [98.25, 6.0], [98.25, 4.5], [96.75, 4.5]]]}, "properties": {"cell_id": "65_63", "lon": 97.5, "lat": 5.25}}, {"type": "Feature", "geometry": {"type": "Polygon", "coordinates": [[[98.25, 0.0], [98.25, 1.5], [99.75, 1.5], [99.75, 0.0], [98.25, 0.0]]]}, "properties": {"cell_id": "66_60", "lon": 99.0, "lat": 0.75}}, {"type": "Feature", "geometry": {"type": "Polygon", "coordinates": [[[98.25, 1.5], [98.25, 3.0], [99.75, 3.0], [99.75, 1.5], [98.25, 1.5]]]}, "properties": {"cell_id": "66_61", "lon": 99.0, "lat": 2.25}}, {"type": "Feature", "geometry": {"type": "Polygon", "coordinates": [[[98.25, 3.0], [98.25, 4.5], [99.75, 4.5], [99.75, 3.0], [98.25, 3.0]]]}, "properties": {"cell_id": "66_62", "lon": 99.0, "lat": 3.75}}, {"type": "Feature", "geometry": {"type": "Polygon", "coordinates": [[[98.25, 6.0], [98.25, 7.5], [99.75, 7.5], [99.75, 6.0], [98.25, 6.0]]]}, "properties": {"cell_id": "66_64", "lon": 99.0, "lat": 6.75}}, {"type": "Feature", "geometry": {"type": "Polygon", "coordinates": [[[98.25, 7.5], [98.25, 9.0], [99.75, 9.0], [99.75, 7.5], [98.25, 7.5]]]}, "properties": {"cell_id": "66_65", "lon": 99.0, "lat": 8.25}}, {"type": "Feature", "geometry": {"type": "Polygon", "coordinates": [[[98.25, 9.0], [98.25, 10.5], [99.75, 10.5], [99.75, 9.0], [98.25, 9.0]]]}, "properties": {"cell_id": "66_66", "lon": 99.0, "lat": 9.75}}, {"type": "Feature", "geometry": {"type": "Polygon", "coordinates": [[[99.75, 0.0], [99.75, 1.5], [101.25, 1.5], [101.25, 0.0], [99.75, 0.0]]]}, "properties": {"cell_id": "67_60", "lon": 100.5, "lat": 0.75}}, {"type": "Feature", "geometry": {"type": "Polygon", "coordinates": [[[99.75, 1.5], [99.75, 3.0], [101.25, 3.0], [101.25, 1.5], [99.75, 1.5]]]}, "properties": {"cell_id": "67_61", "lon": 100.5, "lat": 2.25}}, {"type": "Feature", "geometry": {"type": "Polygon", "coordinates": [[[99.75, 3.0], [99.75, 4.5], [101.25, 4.5], [101.25, 3.0], [99.75, 3.0]]]}, "properties": {"cell_id": "67_62", "lon": 100.5, "lat": 3.75}}, {"type": "Feature", "geometry": {"type": "Polygon", "coordinates": [[[99.75, 4.5], [99.75, 6.0], [101.25, 6.0], [101.25, 4.5], [99.75, 4.5]]]}, "properties": {"cell_id": "67_63", "lon": 100.5, "lat": 5.25}}, {"type": "Feature", "geometry": {"type": "Polygon", "coordinates": [[[99.75, 6.0], [99.75, 7.5], [101.25, 7.5], [101.25, 6.0], [99.75, 6.0]]]}, "properties": {"cell_id": "67_64", "lon": 100.5, "lat": 6.75}}, {"type": "Feature", "geometry": {"type": "Polygon", "coordinates": [[[99.75, 7.5], [99.75, 9.0], [101.25, 9.0], [101.25, 7.5], [99.75, 7.5]]]}, "properties": {"cell_id": "67_65", "lon": 100.5, "lat": 8.25}}]}