{"type": "FeatureCollection", "features": [{"type": "Feature", "geometry": {"type": "Polygon", "coordinates": [[[90.75, -69.0], [90.75, -67.5], [92.25, -67.5], [92.25, -69.0], [90.75, -69.0]]]}, "properties": {"cell_id": "61_14", "lon": 91.5, "lat": -68.25}}, {"type": "Feature", "geometry": {"type": "Polygon", "coordinates": [[[90.75, -67.5], [90.75, -66.0], [92.25, -66.0], [92.25, -67.5], [90.75, -67.5]]]}, "properties": {"cell_id": "61_15", "lon": 91.5, "lat": -66.75}}, {"type": "Feature", "geometry": {"type": "Polygon", "coordinates": [[[92.25, -69.0], [92.25, -67.5], [93.75, -67.5], [93.75, -69.0], [92.25, -69.0]]]}, "properties": {"cell_id": "62_14", "lon": 93.0, "lat": -68.25}}, {"type": "Feature", "geometry": {"type": "Polygon", "coordinates": [[[92.25, -67.5], [92.25, -66.0], [93.75, -66.0], [93.75, -67.5], [92.25, -67.5]]]}, "properties": {"cell_id": "62_15", "lon": 93.0, "lat": -66.75}}, {"type": "Feature", "geometry": {"type": "Polygon", "coordinates": [[[93.75, -69.0], [93.75, -67.5], [95.25, -67.5], [95.25, -69.0], [93.75, -69.0]]]}, "properties": {"cell_id": "63_14", "lon": 94.5, "lat": -68.25}}, {"type": "Feature", "geometry": {"type": "Polygon", "coordinates": [[[93.75, -67.5], [93.75, -66.0], [95.25, -66.0], [95.25, -67.5], [93.75, -67.5]]]}, "properties": {"cell_id": "63_15", "lon": 94.5, "lat": -66.75}}, {"type": "Feature", "geometry": {"type": "Polygon", "coordinates": [[[95.25, -69.0], [95.25, -67.5], [96.75, -67.5], [96.75, -69.0], [95.25, -69.0]]]}, "properties": {"cell_id": "64_14", "lon": 96.0, "lat": -68.25}}, {"type": "Feature", "geometry": {"type": "Polygon", "coordinates": [[[95.25, -67.5], [95.25, -66.0], [96.75, -66.0], [96.75, -67.5], [95.25, -67.5]]]}, "properties": {"cell_id": "64_15", "lon": 96.0, "lat": -66.75}}, {"type": "Feature", "geometry": {"type": "Polygon", "coordinates": [[[95.25, -66.0], [95.25, -64.5], [96.75, -64.5], [96.75, -66.0], [95.25, -66.0]]]}, "properties": {"cell_id": "64_16", "lon": 96.0, "lat": -65.25}}, {"type": "Feature", "geometry": {"type": "Polygon", "coordinates": [[[96.75, -69.0], [96.75, -67.5], [98.25, -67.5], [98.25, -69.0], [96.75, -69.0]]]}, "properties": {"cell_id": "65_14", "lon": 97.5, "lat": -68.25}}, {"type": "Feature", "geometry": {"type": "Polygon", "coordinates": [[[96.75, -67.5], [96.75, -66.0], [98.25, -66.0], [98.25, -67.5], [96.75, -67.5]]]}, "properties": {"cell_id": "65_15", "lon": 97.5, "lat": -66.75}}, {"type": "Feature", "geometry": {"type": "Polygon", "coordinates": [[[96.75, -66.0], [96.75, -64.5], [98.25, -64.5], [98.25, -66.0], [96.75, -66.0]]]}, "properties": {"cell_id": "65_16", "lon": 97.5, "lat": -65.25}}, {"type": "Feature", "geometry": {"type": "Polygon", "coordinates": [[[98.25, -69.0], [98.25, -67.5], [99.75, -67.5], [99.75, -69.0], [98.25, -69.0]]]}, "properties": {"cell_id": "66_14", "lon": 99.0, "lat": -68.25}}, {"type": "Feature", "geometry": {"type": "Polygon", "coordinates": [[[98.25, -67.5], [98.25, -66.0], [99.75, -66.0], [99.75, -67.5], [98.25, -67.5]]]}, "properties": {"cell_id": "66_15", "lon": 99.0, "lat": -66.75}}, {"type": "Feature", "geometry": {"type": "Polygon", "coordinates": [[[98.25, -66.0], [98.25, -64.5], [99.75, -64.5], [99.75, -66.0], [98.25, -66.0]]]}, "properties": {"cell_id": "66_16", "lon": 99.0, "lat": -65.25}}, {"type": "Feature", "geometry": {"type": "Polygon", "coordinates": [[[99.75, -69.0], [99.75, -67.5], [101.25, -67.5], [101.25, -69.0], [99.75, -69.0]]]}, "properties": {"cell_id": "67_14", "lon": 100.5, "lat": -68.25}}, {"type": "Feature", "geometry": {"type": "Polygon", "coordinates": [[[99.75, -67.5], [99.75, -66.0], [101.25, -66.0], [101.25, -67.5], [99.75, -67.5]]]}, "properties": {"cell_id": "67_15", "lon": 100.5, "lat": -66.75}}, {"type": "Feature", "geometry": {"type": "Polygon", "coordinates": [[[99.75, -66.0], [99.75, -64.5], [101.25, -64.5], [101.25, -66.0], [99.75, -66.0]]]}, "properties": {"cell_id": "67_16", "lon": 100.5, "lat": -65.25}}]}