{"type": "FeatureCollection", "features": [{"type": "Feature", "geometry": {"type": "Polygon", "coordinates": [[[50.0, 30.0], [50.0, 32.5], [52.5, 32.5], [52.5, 30.0], [50.0, 30.0]]]}, "properties": {"cell_id": "20_48", "lon": 51.25, "lat": 31.25}}, {"type": "Feature", "geometry": {"type": "Polygon", "coordinates": [[[50.0, 32.5], [50.0, 35.0], [52.5, 35.0], [52.5, 32.5], [50.0, 32.5]]]}, "properties": {"cell_id": "20_49", "lon": 51.25, "lat": 33.75}}, {"type": "Feature", "geometry": {"type": "Polygon", "coordinates": [[[50.0, 35.0], [50.0, 37.5], [52.5, 37.5], [52.5, 35.0], [50.0, 35.0]]]}, "properties": {"cell_id": "20_50", "lon": 51.25, "lat": 36.25}}, {"type": "Feature", "geometry": {"type": "Polygon", "coordinates": [[[50.0, 37.5], [50.0, 40.0], [52.5, 40.0], [52.5, 37.5], [50.0, 37.5]]]}, "properties": {"cell_id": "20_51", "lon": 51.25, "lat": 38.75}}, {"type": "Feature", "geometry": {"type": "Polygon", "coordinates": [[[52.5, 30.0], [52.5, 32.5], [55.0, 32.5], [55.0, 30.0], [52.5, 30.0]]]}, "properties": {"cell_id": "21_48", "lon": 53.75, "lat": 31.25}}, {"type": "Feature", "geometry": {"type": "Polygon", "coordinates": [[[52.5, 32.5], [52.5, 35.0], [55.0, 35.0], [55.0, 32.5], [52.5, 32.5]]]}, "properties": {"cell_id": "21_49", "lon": 53.75, "lat": 33.75}}, {"type": "Feature", "geometry": {"type": "Polygon", "coordinates": [[[52.5, 35.0], [52.5, 37.5], [55.0, 37.5], [55.0, 35.0], [52.5, 35.0]]]}, "properties": {"cell_id": "21_50", "lon": 53.75, "lat": 36.25}}, {"type": "Feature", "geometry": {"type": "Polygon", "coordinates": [[[52.5, 37.5], [52.5, 40.0], [55.0, 40.0], [55.0, 37.5], [52.5, 37.5]]]}, "properties": {"cell_id": "21_51", "lon": 53.75, "lat": 38.75}}, {"type": "Feature", "geometry": {"type": "Polygon", "coordinates": [[[55.0, 30.0], [55.0, 32.5], [57.5, 32.5], [57.5, 30.0], [55.0, 30.0]]]}, "properties": {"cell_id": "22_48", "lon": 56.25, "lat": 31.25}}, {"type": "Feature", "geometry": {"type": "Polygon", "coordinates": [[[55.0, 32.5], [55.0, 35.0], [57.5, 35.0], [57.5, 32.5], [55.0, 32.5]]]}, "properties": {"cell_id": "22_49", "lon": 56.25, "lat": 33.75}}, {"type": "Feature", "geometry": {"type": "Polygon", "coordinates": [[[55.0, 35.0], [55.0, 37.5], [57.5, 37.5], [57.5, 35.0], [55.0, 35.0]]]}, "properties": {"cell_id": "22_50", "lon": 56.25, "lat": 36.25}}, {"type": "Feature", "geometry": {"type": "Polygon", "coordinates": [[[55.0, 37.5], [55.0, 40.0], [57.5, 40.0], [57.5, 37.5], [55.0, 37.5]]]}, "properties": {"cell_id": "22_51", "lon": 56.25, "lat": 38.75}}, {"type": "Feature", "geometry": {"type": "Polygon", "coordinates": [[[57.5, 30.0], [57.5, 32.5], [60.0, 32.5], [60.0, 30.0], [57.5, 30.0]]]}, "properties": {"cell_id": "23_48", "lon": 58.75, "lat": 31.25}}, {"type": "Feature", "geometry": {"type": "Polygon", "coordinates": [[[57.5, 32.5], [57.5, 35.0], [60.0, 35.0], [60.0, 32.5], [57.5, 32.5]]]}, "properties": {"cell_id": "23_49", "lon": 58.75, "lat": 33.75}}, {"type": "Feature", "geometry": {"type": "Polygon", "coordinates": [[[57.5, 35.0], [57.5, 37.5], [60.0, 37.5], [60.0, 35.0], [57.5, 35.0]]]}, "properties": {"cell_id": "23_50", "lon": 58.75, "lat": 36.25}}, {"type": "Feature", "geometry": {"type": "Polygon", "coordinates": [[[57.5, 37.5], [57.5, 40.0], [60.0, 40.0], [60.0, 37.5], [57.5, 37.5]]]}, "properties": {"cell_id": "23_51", "lon": 58.75, "lat": 38.75}}]}