{"type": "FeatureCollection", "features": [{"type": "Feature", "geometry": {"type": "Polygon", "coordinates": [[[-119.25, 40.5], [-119.25, 42.0], [-117.75, 42.0], [-117.75, 40.5], [-119.25, 40.5]]]}, "properties": {"cell_id": "161_87", "lon": -118.5, "lat": 41.25}}, {"type": "Feature", "geometry": {"type": "Polygon", "coordinates": [[[-119.25, 42.0], [-119.25, 43.5], [-117.75, 43.5], [-117.75, 42.0], [-119.25, 42.0]]]}, "properties": {"cell_id": "161_88", "lon": -118.5, "lat": 42.75}}, {"type": "Feature", "geometry": {"type": "Polygon", "coordinates": [[[-119.25, 43.5], [-119.25, 45.0], [-117.75, 45.0], [-117.75, 43.5], [-119.25, 43.5]]]}, "properties": {"cell_id": "161_89", "lon": -118.5, "lat": 44.25}}, {"type": "Feature", "geometry": {"type": "Polygon", "coordinates": [[[-119.25, 45.0], [-119.25, 46.5], [-117.75, 46.5], [-117.75, 45.0], [-119.25, 45.0]]]}, "properties": {"cell_id": "161_90", "lon": -118.5, "lat": 45.75}}, {"type": "Feature", "geometry": {"type": "Polygon", "coordinates": [[[-119.25, 46.5], [-119.25, 48.0], [-117.75, 48.0], [-117.75, 46.5], [-119.25, 46.5]]]}, "properties": {"cell_id": "161_91", "lon": -118.5, "lat": 47.25}}, {"type": "Feature", "geometry": {"type": "Polygon", "coordinates": [[[-119.25, 48.0], [-119.25, 49.5], [-117.75, 49.5], [-117.75, 48.0], [-119.25, 48.0]]]}, "properties": {"cell_id": "161_92", "lon": -118.5, "lat": 48.75}}, {"type": "Feature", "geometry": {"type": "Polygon", "coordinates": [[[-119.25, 49.5], [-119.25, 51.0], [-117.75, 51.0], [-117.75, 49.5], [-119.25, 49.5]]]}, "properties": {"cell_id": "161_93", "lon": -118.5, "lat": 50.25}}, {"type": "Feature", "geometry": {"type": "Polygon", "coordinates": [[[-117.75, 40.5], [-117.75, 42.0], [-116.25, 42.0], [-116.25, 40.5], [-117.75, 40.5]]]}, "properties": {"cell_id": "162_87", "lon": -117.0, "lat": 41.25}}, {"type": "Feature", "geometry": {"type": "Polygon", "coordinates": [[[-117.75, 42.0], [-117.75, 43.5], [-116.25, 43.5], [-116.25, 42.0], [-117.75, 42.0]]]}, "properties": {"cell_id": "162_88", "lon": -117.0, "lat": 42.75}}, {"type": "Feature", "geometry": {"type": "Polygon", "coordinates": [[[-117.75, 43.5], [-117.75, 45.0], [-116.25, 45.0], [-116.25, 43.5], [-117.75, 43.5]]]}, "properties": {"cell_id": "162_89", "lon": -117.0, "lat": 44.25}}, {"type": "Feature", "geometry": {"type": "Polygon", "coordinates": [[[-117.75, 45.0], [-117.75, 46.5], [-116.25, 46.5], [-116.25, 45.0], [-117.75, 45.0]]]}, "properties": {"cell_id": "162_90", "lon": -117.0, "lat": 45.75}}, {"type": "Feature", "geometry": {"type": "Polygon", "coordinates": [[[-117.75, 46.5], [-117.75, 48.0], [-116.25, 48.0], [-116.25, 46.5], [-117.75, 46.5]]]}, "properties": {"cell_id": "162_91", "lon": -117.0, "lat": 47.25}}, {"type": "Feature", "geometry": {"type": "Polygon", "coordinates": [[[-117.75, 48.0], [-117.75, 49.5], [-116.25, 49.5], [-116.25, 48.0], [-117.75, 48.0]]]}, "properties": {"cell_id": "162_92", "lon": -117.0, "lat": 48.75}}, {"type": "Feature", "geometry": {"type": "Polygon", "coordinates": [[[-117.75, 49.5], [-117.75, 51.0], [-116.25, 51.0], [-116.25, 49.5], [-117.75, 49.5]]]}, "properties": {"cell_id": "162_93", "lon": -117.0, "lat": 50.25}}, {"type": "Feature", "geometry": {"type": "Polygon", "coordinates": [[[-116.25, 40.5], [-116.25, 42.0], [-114.75, 42.0], [-114.75, 40.5], [-116.25, 40.5]]]}, "properties": {"cell_id": "163_87", "lon": -115.5, "lat": 41.25}}, {"type": "Feature", "geometry": {"type": "Polygon", "coordinates": [[[-116.25, 42.0], [-116.25, 43.5], [-114.75, 43.5], [-114.75, 42.0], [-116.25, 42.0]]]}, "properties": {"cell_id": "163_88", "lon": -115.5, "lat": 42.75}}, {"type": "Feature", "geometry": {"type": "Polygon", "coordinates": [[[-116.25, 43.5], [-116.25, 45.0], [-114.75, 45.0], [-114.75, 43.5], [-116.25, 43.5]]]}, "properties": {"cell_id": "163_89", "lon": -115.5, "lat": 44.25}}, {"type": "Feature", "geometry": {"type": "Polygon", "coordinates": [[[-116.25, 45.0], [-116.25, 46.5], [-114.75, 46.5], [-114.75, 45.0], [-116.25, 45.0]]]}, "properties": {"cell_id": "163_90", "lon": -115.5, "lat": 45.75}}, {"type": "Feature", "geometry": {"type": "Polygon", "coordinates": [[[-116.25, 46.5], [-116.25, 48.0], [-114.75, 48.0], [-114.75, 46.5], [-116.25, 46.5]]]}, "properties": {"cell_id": "163_91", "lon": -115.5, "lat": 47.25}}, {"type": "Feature", "geometry": {"type": "Polygon", "coordinates": [[[-116.25, 48.0], [-116.25, 49.5], [-114.75, 49.5], [-114.75, 48.0], [-116.25, 48.0]]]}, "properties": {"cell_id": "163_92", "lon": -115.5, "lat": 48.75}}, {"type": "Feature", "geometry": {"type": "Polygon", "coordinates": [[[-116.25, 49.5], [-116.25, 51.0], [-114.75, 51.0], [-114.75, 49.5], [-116.25, 49.5]]]}, "properties": {"cell_id": "163_93", "lon": -115.5, "lat": 50.25}}, {"type": "Feature", "geometry": {"type": "Polygon", "coordinates": [[[-114.75, 40.5], [-114.75, 42.0], [-113.25, 42.0], [-113.25, 40.5], [-114.75, 40.5]]]}, "properties": {"cell_id": "164_87", "lon": -114.0, "lat": 41.25}}, {"type": "Feature", "geometry": {"type": "Polygon", "coordinates": [[[-114.75, 42.0], [-114.75, 43.5], [-113.25, 43.5], [-113.25, 42.0], [-114.75, 42.0]]]}, "properties": {"cell_id": "164_88", "lon": -114.0, "lat": 42.75}}, {"type": "Feature", "geometry": {"type": "Polygon", "coordinates": [[[-114.75, 43.5], [-114.75, 45.0], [-113.25, 45.0], [-113.25, 43.5], [-114.75, 43.5]]]}, "properties": {"cell_id": "164_89", "lon": -114.0, "lat": 44.25}}, {"type": "Feature", "geometry": {"type": "Polygon", "coordinates": [[[-114.75, 45.0], [-114.75, 46.5], [-113.25, 46.5], [-113.25, 45.0], [-114.75, 45.0]]]}, "properties": {"cell_id": "164_90", "lon": -114.0, "lat": 45.75}}, {"type": "Feature", "geometry": {"type": "Polygon", "coordinates": [[[-114.75, 46.5], [-114.75, 48.0], [-113.25, 48.0], [-113.25, 46.5], [-114.75, 46.5]]]}, "properties": {"cell_id": "164_91", "lon": -114.0, "lat": 47.25}}, {"type": "Feature", "geometry": {"type": "Polygon", "coordinates": [[[-114.75, 48.0], [-114.75, 49.5], [-113.25, 49.5], [-113.25, 48.0], [-114.75, 48.0]]]}, "properties": {"cell_id": "164_92", "lon": -114.0, "lat": 48.75}}, {"type": "Feature", "geometry": {"type": "Polygon", "coordinates": [[[-114.75, 49.5], [-114.75, 51.0], [-113.25, 51.0], [-113.25, 49.5], [-114.75, 49.5]]]}, "properties": {"cell_id": "164_93", "lon": -114.0, "lat": 50.25}}, {"type": "Feature", "geometry": {"type": "Polygon", "coordinates": [[[-113.25, 40.5], [-113.25, 42.0], [-111.75, 42.0], [-111.75, 40.5], [-113.25, 40.5]]]}, "properties": {"cell_id": "165_87", "lon": -112.5, "lat": 41.25}}, {"type": "Feature", "geometry": {"type": "Polygon", "coordinates": [[[-113.25, 42.0], [-113.25, 43.5], [-111.75, 43.5], [-111.75, 42.0], [-113.25, 42.0]]]}, "properties": {"cell_id": "165_88", "lon": -112.5, "lat": 42.75}}, {"type": "Feature", "geometry": {"type": "Polygon", "coordinates": [[[-113.25, 43.5], [-113.25, 45.0], [-111.75, 45.0], [-111.75, 43.5], [-113.25, 43.5]]]}, "properties": {"cell_id": "165_89", "lon": -112.5, "lat": 44.25}}, {"type": "Feature", "geometry": {"type": "Polygon", "coordinates": [[[-113.25, 45.0], [-113.25, 46.5], [-111.75, 46.5], [-111.75, 45.0], [-113.25, 45.0]]]}, "properties": {"cell_id": "165_90", "lon": -112.5, "lat": 45.75}}, {"type": "Feature", "geometry": {"type": "Polygon", "coordinates": [[[-113.25, 46.5], [-113.25, 48.0], [-111.75, 48.0], [-111.75, 46.5], [-113.25, 46.5]]]}, "properties": {"cell_id": "165_91", "lon": -112.5, "lat": 47.25}}, {"type": "Feature", "geometry": {"type": "Polygon", "coordinates": [[[-113.25, 48.0], [-113.25, 49.5], [-111.75, 49.5], [-111.75, 48.0], [-113.25, 48.0]]]}, "properties": {"cell_id": "165_92", "lon": -112.5, "lat": 48.75}}, {"type": "Feature", "geometry": {"type": "Polygon", "coordinates": [[[-113.25, 49.5], [-113.25, 51.0], [-111.75, 51.0], [-111.75, 49.5], [-113.25, 49.5]]]}, "properties": {"cell_id": "165_93", "lon": -112.5, "lat": 50.25}}, {"type": "Feature", "geometry": {"type": "Polygon", "coordinates": [[[-111.75, 40.5], [-111.75, 42.0], [-110.25, 42.0], [-110.25, 40.5], [-111.75, 40.5]]]}, "properties": {"cell_id": "166_87", "lon": -111.0, "lat": 41.25}}, {"type": "Feature", "geometry": {"type": "Polygon", "coordinates": [[[-111.75, 42.0], [-111.75, 43.5], [-110.25, 43.5], [-110.25, 42.0], [-111.75, 42.0]]]}, "properties": {"cell_id": "166_88", "lon": -111.0, "lat": 42.75}}, {"type": "Feature", "geometry": {"type": "Polygon", "coordinates": [[[-111.75, 43.5], [-111.75, 45.0], [-110.25, 45.0], [-110.25, 43.5], [-111.75, 43.5]]]}, "properties": {"cell_id": "166_89", "lon": -111.0, "lat": 44.25}}, {"type": "Feature", "geometry": {"type": "Polygon", "coordinates": [[[-111.75, 45.0], [-111.75, 46.5], [-110.25, 46.5], [-110.25, 45.0], [-111.75, 45.0]]]}, "properties": {"cell_id": "166_90", "lon": -111.0, "lat": 45.75}}, {"type": "Feature", "geometry": {"type": "Polygon", "coordinates": [[[-111.75, 46.5], [-111.75, 48.0], [-110.25, 48.0], [-110.25, 46.5], [-111.75, 46.5]]]}, "properties": {"cell_id": "166_91", "lon": -111.0, "lat": 47.25}}, {"type": "Feature", "geometry": {"type": "Polygon", "coordinates": [[[-111.75, 48.0], [-111.75, 49.5], [-110.25, 49.5], [-110.25, 48.0], [-111.75, 48.0]]]}, "properties": {"cell_id": "166_92", "lon": -111.0, "lat": 48.75}}, {"type": "Feature", "geometry": {"type": "Polygon", "coordinates": [[[-111.75, 49.5], [-111.75, 51.0], [-110.25, 51.0], [-110.25, 49.5], [-111.75, 49.5]]]}, "properties": {"cell_id": "166_93", "lon": -111.0, "lat": 50.25}}, {"type": "Feature", "geometry": {"type": "Polygon", "coordinates": [[[-110.25, 40.5], [-110.25, 42.0], [-108.75, 42.0], [-108.75, 40.5], [-110.25, 40.5]]]}, "properties": {"cell_id": "167_87", "lon": -109.5, "lat": 41.25}}, {"type": "Feature", "geometry": {"type": "Polygon", "coordinates": [[[-110.25, 42.0], [-110.25, 43.5], [-108.75, 43.5], [-108.75, 42.0], [-110.25, 42.0]]]}, "properties": {"cell_id": "167_88", "lon": -109.5, "lat": 42.75}}, {"type": "Feature", "geometry": {"type": "Polygon", "coordinates": [[[-110.25, 43.5], [-110.25, 45.0], [-108.75, 45.0], [-108.75, 43.5], [-110.25, 43.5]]]}, "properties": {"cell_id": "167_89", "lon": -109.5, "lat": 44.25}}, {"type": "Feature", "geometry": {"type": "Polygon", "coordinates": [[[-110.25, 45.0], [-110.25, 46.5], [-108.75, 46.5], [-108.75, 45.0], [-110.25, 45.0]]]}, "properties": {"cell_id": "167_90", "lon": -109.5, "lat": 45.75}}, {"type": "Feature", "geometry": {"type": "Polygon", "coordinates": [[[-110.25, 46.5], [-110.25, 48.0], [-108.75, 48.0], [-108.75, 46.5], [-110.25, 46.5]]]}, "properties": {"cell_id": "167_91", "lon": -109.5, "lat": 47.25}}, {"type": "Feature", "geometry": {"type": "Polygon", "coordinates": [[[-110.25, 48.0], [-110.25, 49.5], [-108.75, 49.5], [-108.75, 48.0], [-110.25, 48.0]]]}, "properties": {"cell_id": "167_92", "lon": -109.5, "lat": 48.75}}, {"type": "Feature", "geometry": {"type": "Polygon", "coordinates": [[[-110.25, 49.5], [-110.25, 51.0], [-108.75, 51.0], [-108.75, 49.5], [-110.25, 49.5]]]}, "properties": {"cell_id": "167_93", "lon": -109.5, "lat": 50.25}}]}