{"type": "FeatureCollection", "features": [{"type": "Feature", "geometry": {"type": "Polygon", "coordinates": [[[-29.25, 67.5], [-29.25, 69.0], [-27.75, 69.0], [-27.75, 67.5], [-29.25, 67.5]]]}, "properties": {"cell_id": "221_105", "lon": -28.5, "lat": 68.25}}, {"type": "Feature", "geometry": {"type": "Polygon", "coordinates": [[[-29.25, 69.0], [-29.25, 70.5], [-27.75, 70.5], [-27.75, 69.0], [-29.25, 69.0]]]}, "properties": {"cell_id": "221_106", "lon": -28.5, "lat": 69.75}}, {"type": "Feature", "geometry": {"type": "Polygon", "coordinates": [[[-27.75, 67.5], [-27.75, 69.0], [-26.25, 69.0], [-26.25, 67.5], [-27.75, 67.5]]]}, "properties": {"cell_id": "222_105", "lon": -27.0, "lat": 68.25}}, {"type": "Feature", "geometry": {"type": "Polygon", "coordinates": [[[-27.75, 69.0], [-27.75, 70.5], [-26.25, 70.5], [-26.25, 69.0], [-27.75, 69.0]]]}, "properties": {"cell_id": "222_106", "lon": -27.0, "lat": 69.75}}, {"type": "Feature", "geometry": {"type": "Polygon", "coordinates": [[[-26.25, 69.0], [-26.25, 70.5], [-24.75, 70.5], [-24.75, 69.0], [-26.25, 69.0]]]}, "properties": {"cell_id": "223_106", "lon": -25.5, "lat": 69.75}}, {"type": "Feature", "geometry": {"type": "Polygon", "coordinates": [[[-24.75, 69.0], [-24.75, 70.5], [-23.25, 70.5], [-23.25, 69.0], [-24.75, 69.0]]]}, "properties": {"cell_id": "224_106", "lon": -24.0, "lat": 69.75}}, {"type": "Feature", "geometry": {"type": "Polygon", "coordinates": [[[-23.25, 63.0], [-23.25, 64.5], [-21.75, 64.5], [-21.75, 63.0], [-23.25, 63.0]]]}, "properties": {"cell_id": "225_102", "lon": -22.5, "lat": 63.75}}, {"type": "Feature", "geometry": {"type": "Polygon", "coordinates": [[[-23.25, 64.5], [-23.25, 66.0], [-21.75, 66.0], [-21.75, 64.5], [-23.25, 64.5]]]}, "properties": {"cell_id": "225_103", "lon": -22.5, "lat": 65.25}}, {"type": "Feature", "geometry": {"type": "Polygon", "coordinates": [[[-23.25, 69.0], [-23.25, 70.5], [-21.75, 70.5], [-21.75, 69.0], [-23.25, 69.0]]]}, "properties": {"cell_id": "225_106", "lon": -22.5, "lat": 69.75}}, {"type": "Feature", "geometry": {"type": "Polygon", "coordinates": [[[-21.75, 63.0], [-21.75, 64.5], [-20.25, 64.5], [-20.25, 63.0], [-21.75, 63.0]]]}, "properties": {"cell_id": "226_102", "lon": -21.0, "lat": 63.75}}, {"type": "Feature", "geometry": {"type": "Polygon", "coordinates": [[[-21.75, 64.5], [-21.75, 66.0], [-20.25, 66.0], [-20.25, 64.5], [-21.75, 64.5]]]}, "properties": {"cell_id": "226_103", "lon": -21.0, "lat": 65.25}}, {"type": "Feature", "geometry": {"type": "Polygon", "coordinates": [[[-20.25, 63.0], [-20.25, 64.5], [-18.75, 64.5], [-18.75, 63.0], [-20.25, 63.0]]]}, "properties": {"cell_id": "227_102", "lon": -19.5, "lat": 63.75}}, {"type": "Feature", "geometry": {"type": "Polygon", "coordinates": [[[-20.25, 64.5], [-20.25, 66.0], [-18.75, 66.0], [-18.75, 64.5], [-20.25, 64.5]]]}, "properties": {"cell_id": "227_103", "lon": -19.5, "lat": 65.25}}]}