{"type": "FeatureCollection", "features": [{"type": "Feature", "geometry": {"type": "Polygon", "coordinates": [[[0.0, 50.0], [0.0, 52.5], [2.5, 52.5], [2.5, 50.0], [0.0, 50.0]]]}, "properties": {"cell_id": "0_56", "lon": 1.25, "lat": 51.25}}, {"type": "Feature", "geometry": {"type": "Polygon", "coordinates": [[[2.5, 50.0], [2.5, 52.5], [5.0, 52.5], [5.0, 50.0], [2.5, 50.0]]]}, "properties": {"cell_id": "1_56", "lon": 3.75, "lat": 51.25}}, {"type": "Feature", "geometry": {"type": "Polygon", "coordinates": [[[5.0, 50.0], [5.0, 52.5], [7.5, 52.5], [7.5, 50.0], [5.0, 50.0]]]}, "properties": {"cell_id": "2_56", "lon": 6.25, "lat": 51.25}}, {"type": "Feature", "geometry": {"type": "Polygon", "coordinates": [[[5.0, 57.5], [5.0, 60.0], [7.5, 60.0], [7.5, 57.5], [5.0, 57.5]]]}, "properties": {"cell_id": "2_59", "lon": 6.25, "lat": 58.75}}, {"type": "Feature", "geometry": {"type": "Polygon", "coordinates": [[[7.5, 50.0], [7.5, 52.5], [10.0, 52.5], [10.0, 50.0], [7.5, 50.0]]]}, "properties": {"cell_id": "3_56", "lon": 8.75, "lat": 51.25}}, {"type": "Feature", "geometry": {"type": "Polygon", "coordinates": [[[7.5, 52.5], [7.5, 55.0], [10.0, 55.0], [10.0, 52.5], [7.5, 52.5]]]}, "properties": {"cell_id": "3_57", "lon": 8.75, "lat": 53.75}}, {"type": "Feature", "geometry": {"type": "Polygon", "coordinates": [[[7.5, 55.0], [7.5, 57.5], [10.0, 57.5], [10.0, 55.0], [7.5, 55.0]]]}, "properties": {"cell_id": "3_58", "lon": 8.75, "lat": 56.25}}, {"type": "Feature", "geometry": {"type": "Polygon", "coordinates": [[[7.5, 57.5], [7.5, 60.0], [10.0, 60.0], [10.0, 57.5], [7.5, 57.5]]]}, "properties": {"cell_id": "3_59", "lon": 8.75, "lat": 58.75}}]}