{"type": "FeatureCollection", "features": [{"type": "Feature", "geometry": {"type": "Polygon", "coordinates": [[[-129.75, 52.5], [-129.75, 54.0], [-128.25, 54.0], [-128.25, 52.5], [-129.75, 52.5]]]}, "properties": {"cell_id": "154_95", "lon": -129.0, "lat": 53.25}}, {"type": "Feature", "geometry": {"type": "Polygon", "coordinates": [[[-129.75, 54.0], [-129.75, 55.5], [-128.25, 55.5], [-128.25, 54.0], [-129.75, 54.0]]]}, "properties": {"cell_id": "154_96", "lon": -129.0, "lat": 54.75}}, {"type": "Feature", "geometry": {"type": "Polygon", "coordinates": [[[-129.75, 55.5], [-129.75, 57.0], [-128.25, 57.0], [-128.25, 55.5], [-129.75, 55.5]]]}, "properties": {"cell_id": "154_97", "lon": -129.0, "lat": 56.25}}, {"type": "Feature", "geometry": {"type": "Polygon", "coordinates": [[[-129.75, 57.0], [-129.75, 58.5], [-128.25, 58.5], [-128.25, 57.0], [-129.75, 57.0]]]}, "properties": {"cell_id": "154_98", "lon": -129.0, "lat": 57.75}}, {"type": "Feature", "geometry": {"type": "Polygon", "coordinates": [[[-129.75, 58.5], [-129.75, 60.0], [-128.25, 60.0], [-128.25, 58.5], [-129.75, 58.5]]]}, "properties": {"cell_id": "154_99", "lon": -129.0, "lat": 59.25}}, {"type": "Feature", "geometry": {"type": "Polygon", "coordinates": [[[-128.25, 51.0], [-128.25, 52.5], [-126.75, 52.5], [-126.75, 51.0], [-128.25, 51.0]]]}, "properties": {"cell_id": "155_94", "lon": -127.5, "lat": 51.75}}, {"type": "Feature", "geometry": {"type": "Polygon", "coordinates": [[[-128.25, 52.5], [-128.25, 54.0], [-126.75, 54.0], [-126.75, 52.5], [-128.25, 52.5]]]}, "properties": {"cell_id": "155_95", "lon": -127.5, "lat": 53.25}}, {"type": "Feature", "geometry": {"type": "Polygon", "coordinates": [[[-128.25, 54.0], [-128.25, 55.5], [-126.75, 55.5], [-126.75, 54.0], [-128.25, 54.0]]]}, "properties": {"cell_id": "155_96", "lon": -127.5, "lat": 54.75}}, {"type": "Feature", "geometry": {"type": "Polygon", "coordinates": [[[-128.25, 55.5], [-128.25, 57.0], [-126.75, 57.0], [-126.75, 55.5], [-128.25, 55.5]]]}, "properties": {"cell_id": "155_97", "lon": -127.5, "lat": 56.25}}, {"type": "Feature", "geometry": {"type": "Polygon", "coordinates": [[[-128.25, 57.0], [-128.25, 58.5], [-126.75, 58.5], [-126.75, 57.0], [-128.25, 57.0]]]}, "properties": {"cell_id": "155_98", "lon": -127.5, "lat": 57.75}}, {"type": "Feature", "geometry": {"type": "Polygon", "coordinates": [[[-128.25, 58.5], [-128.25, 60.0], [-126.75, 60.0], [-126.75, 58.5], [-128.25, 58.5]]]}, "properties": {"cell_id": "155_99", "lon": -127.5, "lat": 59.25}}, {"type": "Feature", "geometry": {"type": "Polygon", "coordinates": [[[-126.75, 51.0], [-126.75, 52.5], [-125.25, 52.5], [-125.25, 51.0], [-126.75, 51.0]]]}, "properties": {"cell_id": "156_94", "lon": -126.0, "lat": 51.75}}, {"type": "Feature", "geometry": {"type": "Polygon", "coordinates": [[[-126.75, 52.5], [-126.75, 54.0], [-125.25, 54.0], [-125.25, 52.5], [-126.75, 52.5]]]}, "properties": {"cell_id": "156_95", "lon": -126.0, "lat": 53.25}}, {"type": "Feature", "geometry": {"type": "Polygon", "coordinates": [[[-126.75, 54.0], [-126.75, 55.5], [-125.25, 55.5], [-125.25, 54.0], [-126.75, 54.0]]]}, "properties": {"cell_id": "156_96", "lon": -126.0, "lat": 54.75}}, {"type": "Feature", "geometry": {"type": "Polygon", "coordinates": [[[-126.75, 55.5], [-126.75, 57.0], [-125.25, 57.0], [-125.25, 55.5], [-126.75, 55.5]]]}, "properties": {"cell_id": "156_97", "lon": -126.0, "lat": 56.25}}, {"type": "Feature", "geometry": {"type": "Polygon", "coordinates": [[[-126.75, 57.0], [-126.75, 58.5], [-125.25, 58.5], [-125.25, 57.0], [-126.75, 57.0]]]}, "properties": {"cell_id": "156_98", "lon": -126.0, "lat": 57.75}}, {"type": "Feature", "geometry": {"type": "Polygon", "coordinates": [[[-126.75, 58.5], [-126.75, 60.0], [-125.25, 60.0], [-125.25, 58.5], [-126.75, 58.5]]]}, "properties": {"cell_id": "156_99", "lon": -126.0, "lat": 59.25}}, {"type": "Feature", "geometry": {"type": "Polygon", "coordinates": [[[-125.25, 51.0], [-125.25, 52.5], [-123.75, 52.5], [-123.75, 51.0], [-125.25, 51.0]]]}, "properties": {"cell_id": "157_94", "lon": -124.5, "lat": 51.75}}, {"type": "Feature", "geometry": {"type": "Polygon", "coordinates": [[[-125.25, 52.5], [-125.25, 54.0], [-123.75, 54.0], [-123.75, 52.5], [-125.25, 52.5]]]}, "properties": {"cell_id": "157_95", "lon": -124.5, "lat": 53.25}}, {"type": "Feature", "geometry": {"type": "Polygon", "coordinates": [[[-125.25, 54.0], [-125.25, 55.5], [-123.75, 55.5], [-123.75, 54.0], [-125.25, 54.0]]]}, "properties": {"cell_id": "157_96", "lon": -124.5, "lat": 54.75}}, {"type": "Feature", "geometry": {"type": "Polygon", "coordinates": [[[-125.25, 55.5], [-125.25, 57.0], [-123.75, 57.0], [-123.75, 55.5], [-125.25, 55.5]]]}, "properties": {"cell_id": "157_97", "lon": -124.5, "lat": 56.25}}, {"type": "Feature", "geometry": {"type": "Polygon", "coordinates": [[[-125.25, 57.0], [-125.25, 58.5], [-123.75, 58.5], [-123.75, 57.0], [-125.25, 57.0]]]}, "properties": {"cell_id": "157_98", "lon": -124.5, "lat": 57.75}}, {"type": "Feature", "geometry": {"type": "Polygon", "coordinates": [[[-125.25, 58.5], [-125.25, 60.0], [-123.75, 60.0], [-123.75, 58.5], [-125.25, 58.5]]]}, "properties": {"cell_id": "157_99", "lon": -124.5, "lat": 59.25}}, {"type": "Feature", "geometry": {"type": "Polygon", "coordinates": [[[-123.75, 51.0], [-123.75, 52.5], [-122.25, 52.5], [-122.25, 51.0], [-123.75, 51.0]]]}, "properties": {"cell_id": "158_94", "lon": -123.0, "lat": 51.75}}, {"type": "Feature", "geometry": {"type": "Polygon", "coordinates": [[[-123.75, 52.5], [-123.75, 54.0], [-122.25, 54.0], [-122.25, 52.5], [-123.75, 52.5]]]}, "properties": {"cell_id": "158_95", "lon": -123.0, "lat": 53.25}}, {"type": "Feature", "geometry": {"type": "Polygon", "coordinates": [[[-123.75, 54.0], [-123.75, 55.5], [-122.25, 55.5], [-122.25, 54.0], [-123.75, 54.0]]]}, "properties": {"cell_id": "158_96", "lon": -123.0, "lat": 54.75}}, {"type": "Feature", "geometry": {"type": "Polygon", "coordinates": [[[-123.75, 55.5], [-123.75, 57.0], [-122.25, 57.0], [-122.25, 55.5], [-123.75, 55.5]]]}, "properties": {"cell_id": "158_97", "lon": -123.0, "lat": 56.25}}, {"type": "Feature", "geometry": {"type": "Polygon", "coordinates": [[[-123.75, 57.0], [-123.75, 58.5], [-122.25, 58.5], [-122.25, 57.0], [-123.75, 57.0]]]}, "properties": {"cell_id": "158_98", "lon": -123.0, "lat": 57.75}}, {"type": "Feature", "geometry": {"type": "Polygon", "coordinates": [[[-123.75, 58.5], [-123.75, 60.0], [-122.25, 60.0], [-122.25, 58.5], [-123.75, 58.5]]]}, "properties": {"cell_id": "158_99", "lon": -123.0, "lat": 59.25}}, {"type": "Feature", "geometry": {"type": "Polygon", "coordinates": [[[-122.25, 51.0], [-122.25, 52.5], [-120.75, 52.5], [-120.75, 51.0], [-122.25, 51.0]]]}, "properties": {"cell_id": "159_94", "lon": -121.5, "lat": 51.75}}, {"type": "Feature", "geometry": {"type": "Polygon", "coordinates": [[[-122.25, 52.5], [-122.25, 54.0], [-120.75, 54.0], [-120.75, 52.5], [-122.25, 52.5]]]}, "properties": {"cell_id": "159_95", "lon": -121.5, "lat": 53.25}}, {"type": "Feature", "geometry": {"type": "Polygon", "coordinates": [[[-122.25, 54.0], [-122.25, 55.5], [-120.75, 55.5], [-120.75, 54.0], [-122.25, 54.0]]]}, "properties": {"cell_id": "159_96", "lon": -121.5, "lat": 54.75}}, {"type": "Feature", "geometry": {"type": "Polygon", "coordinates": [[[-122.25, 55.5], [-122.25, 57.0], [-120.75, 57.0], [-120.75, 55.5], [-122.25, 55.5]]]}, "properties": {"cell_id": "159_97", "lon": -121.5, "lat": 56.25}}, {"type": "Feature", "geometry": {"type": "Polygon", "coordinates": [[[-122.25, 57.0], [-122.25, 58.5], [-120.75, 58.5], [-120.75, 57.0], [-122.25, 57.0]]]}, "properties": {"cell_id": "159_98", "lon": -121.5, "lat": 57.75}}, {"type": "Feature", "geometry": {"type": "Polygon", "coordinates": [[[-122.25, 58.5], [-122.25, 60.0], [-120.75, 60.0], [-120.75, 58.5], [-122.25, 58.5]]]}, "properties": {"cell_id": "159_99", "lon": -121.5, "lat": 59.25}}, {"type": "Feature", "geometry": {"type": "Polygon", "coordinates": [[[-120.75, 51.0], [-120.75, 52.5], [-119.25, 52.5], [-119.25, 51.0], [-120.75, 51.0]]]}, "properties": {"cell_id": "160_94", "lon": -120.0, "lat": 51.75}}, {"type": "Feature", "geometry": {"type": "Polygon", "coordinates": [[[-120.75, 52.5], [-120.75, 54.0], [-119.25, 54.0], [-119.25, 52.5], [-120.75, 52.5]]]}, "properties": {"cell_id": "160_95", "lon": -120.0, "lat": 53.25}}, {"type": "Feature", "geometry": {"type": "Polygon", "coordinates": [[[-120.75, 54.0], [-120.75, 55.5], [-119.25, 55.5], [-119.25, 54.0], [-120.75, 54.0]]]}, "properties": {"cell_id": "160_96", "lon": -120.0, "lat": 54.75}}, {"type": "Feature", "geometry": {"type": "Polygon", "coordinates": [[[-120.75, 55.5], [-120.75, 57.0], [-119.25, 57.0], [-119.25, 55.5], [-120.75, 55.5]]]}, "properties": {"cell_id": "160_97", "lon": -120.0, "lat": 56.25}}, {"type": "Feature", "geometry": {"type": "Polygon", "coordinates": [[[-120.75, 57.0], [-120.75, 58.5], [-119.25, 58.5], [-119.25, 57.0], [-120.75, 57.0]]]}, "properties": {"cell_id": "160_98", "lon": -120.0, "lat": 57.75}}, {"type": "Feature", "geometry": {"type": "Polygon", "coordinates": [[[-120.75, 58.5], [-120.75, 60.0], [-119.25, 60.0], [-119.25, 58.5], [-120.75, 58.5]]]}, "properties": {"cell_id": "160_99", "lon": -120.0, "lat": 59.25}}]}