{"type": "FeatureCollection", "features": [{"type": "Feature", "geometry": {"type": "Polygon", "coordinates": [[[161.25, 54.0], [161.25, 55.5], [162.75, 55.5], [162.75, 54.0], [161.25, 54.0]]]}, "properties": {"cell_id": "108_96", "lon": 162.0, "lat": 54.75}}, {"type": "Feature", "geometry": {"type": "Polygon", "coordinates": [[[161.25, 55.5], [161.25, 57.0], [162.75, 57.0], [162.75, 55.5], [161.25, 55.5]]]}, "properties": {"cell_id": "108_97", "lon": 162.0, "lat": 56.25}}, {"type": "Feature", "geometry": {"type": "Polygon", "coordinates": [[[161.25, 57.0], [161.25, 58.5], [162.75, 58.5], [162.75, 57.0], [161.25, 57.0]]]}, "properties": {"cell_id": "108_98", "lon": 162.0, "lat": 57.75}}, {"type": "Feature", "geometry": {"type": "Polygon", "coordinates": [[[161.25, 58.5], [161.25, 60.0], [162.75, 60.0], [162.75, 58.5], [161.25, 58.5]]]}, "properties": {"cell_id": "108_99", "lon": 162.0, "lat": 59.25}}, {"type": "Feature", "geometry": {"type": "Polygon", "coordinates": [[[162.75, 58.5], [162.75, 60.0], [164.25, 60.0], [164.25, 58.5], [162.75, 58.5]]]}, "properties": {"cell_id": "109_99", "lon": 163.5, "lat": 59.25}}]}