{"type": "FeatureCollection", "features": [{"type": "Feature", "geometry": {"type": "Polygon", "coordinates": [[[-138.75, -90.0], [-138.75, -88.5], [-137.25, -88.5], [-137.25, -90.0], [-138.75, -90.0]]]}, "properties": {"cell_id": "148_0", "lon": -138.0, "lat": -89.25}}, {"type": "Feature", "geometry": {"type": "Polygon", "coordinates": [[[-138.75, -88.5], [-138.75, -87.0], [-137.25, -87.0], [-137.25, -88.5], [-138.75, -88.5]]]}, "properties": {"cell_id": "148_1", "lon": -138.0, "lat": -87.75}}, {"type": "Feature", "geometry": {"type": "Polygon", "coordinates": [[[-138.75, -87.0], [-138.75, -85.5], [-137.25, -85.5], [-137.25, -87.0], [-138.75, -87.0]]]}, "properties": {"cell_id": "148_2", "lon": -138.0, "lat": -86.25}}, {"type": "Feature", "geometry": {"type": "Polygon", "coordinates": [[[-138.75, -85.5], [-138.75, -84.0], [-137.25, -84.0], [-137.25, -85.5], [-138.75, -85.5]]]}, "properties": {"cell_id": "148_3", "lon": -138.0, "lat": -84.75}}, {"type": "Feature", "geometry": {"type": "Polygon", "coordinates": [[[-138.75, -84.0], [-138.75, -82.5], [-137.25, -82.5], [-137.25, -84.0], [-138.75, -84.0]]]}, "properties": {"cell_id": "148_4", "lon": -138.0, "lat": -83.25}}, {"type": "Feature", "geometry": {"type": "Polygon", "coordinates": [[[-138.75, -82.5], [-138.75, -81.0], [-137.25, -81.0], [-137.25, -82.5], [-138.75, -82.5]]]}, "properties": {"cell_id": "148_5", "lon": -138.0, "lat": -81.75}}, {"type": "Feature", "geometry": {"type": "Polygon", "coordinates": [[[-138.75, -81.0], [-138.75, -79.5], [-137.25, -79.5], [-137.25, -81.0], [-138.75, -81.0]]]}, "properties": {"cell_id": "148_6", "lon": -138.0, "lat": -80.25}}, {"type": "Feature", "geometry": {"type": "Polygon", "coordinates": [[[-137.25, -90.0], [-137.25, -88.5], [-135.75, -88.5], [-135.75, -90.0], [-137.25, -90.0]]]}, "properties": {"cell_id": "149_0", "lon": -136.5, "lat": -89.25}}, {"type": "Feature", "geometry": {"type": "Polygon", "coordinates": [[[-137.25, -88.5], [-137.25, -87.0], [-135.75, -87.0], [-135.75, -88.5], [-137.25, -88.5]]]}, "properties": {"cell_id": "149_1", "lon": -136.5, "lat": -87.75}}, {"type": "Feature", "geometry": {"type": "Polygon", "coordinates": [[[-137.25, -87.0], [-137.25, -85.5], [-135.75, -85.5], [-135.75, -87.0], [-137.25, -87.0]]]}, "properties": {"cell_id": "149_2", "lon": -136.5, "lat": -86.25}}, {"type": "Feature", "geometry": {"type": "Polygon", "coordinates": [[[-137.25, -85.5], [-137.25, -84.0], [-135.75, -84.0], [-135.75, -85.5], [-137.25, -85.5]]]}, "properties": {"cell_id": "149_3", "lon": -136.5, "lat": -84.75}}, {"type": "Feature", "geometry": {"type": "Polygon", "coordinates": [[[-137.25, -84.0], [-137.25, -82.5], [-135.75, -82.5], [-135.75, -84.0], [-137.25, -84.0]]]}, "properties": {"cell_id": "149_4", "lon": -136.5, "lat": -83.25}}, {"type": "Feature", "geometry": {"type": "Polygon", "coordinates": [[[-137.25, -82.5], [-137.25, -81.0], [-135.75, -81.0], [-135.75, -82.5], [-137.25, -82.5]]]}, "properties": {"cell_id": "149_5", "lon": -136.5, "lat": -81.75}}, {"type": "Feature", "geometry": {"type": "Polygon", "coordinates": [[[-137.25, -81.0], [-137.25, -79.5], [-135.75, -79.5], [-135.75, -81.0], [-137.25, -81.0]]]}, "properties": {"cell_id": "149_6", "lon": -136.5, "lat": -80.25}}, {"type": "Feature", "geometry": {"type": "Polygon", "coordinates": [[[-135.75, -90.0], [-135.75, -88.5], [-134.25, -88.5], [-134.25, -90.0], [-135.75, -90.0]]]}, "properties": {"cell_id": "150_0", "lon": -135.0, "lat": -89.25}}, {"type": "Feature", "geometry": {"type": "Polygon", "coordinates": [[[-135.75, -88.5], [-135.75, -87.0], [-134.25, -87.0], [-134.25, -88.5], [-135.75, -88.5]]]}, "properties": {"cell_id": "150_1", "lon": -135.0, "lat": -87.75}}, {"type": "Feature", "geometry": {"type": "Polygon", "coordinates": [[[-135.75, -87.0], [-135.75, -85.5], [-134.25, -85.5], [-134.25, -87.0], [-135.75, -87.0]]]}, "properties": {"cell_id": "150_2", "lon": -135.0, "lat": -86.25}}, {"type": "Feature", "geometry": {"type": "Polygon", "coordinates": [[[-135.75, -85.5], [-135.75, -84.0], [-134.25, -84.0], [-134.25, -85.5], [-135.75, -85.5]]]}, "properties": {"cell_id": "150_3", "lon": -135.0, "lat": -84.75}}, {"type": "Feature", "geometry": {"type": "Polygon", "coordinates": [[[-135.75, -84.0], [-135.75, -82.5], [-134.25, -82.5], [-134.25, -84.0], [-135.75, -84.0]]]}, "properties": {"cell_id": "150_4", "lon": -135.0, "lat": -83.25}}, {"type": "Feature", "geometry": {"type": "Polygon", "coordinates": [[[-135.75, -82.5], [-135.75, -81.0], [-134.25, -81.0], [-134.25, -82.5], [-135.75, -82.5]]]}, "properties": {"cell_id": "150_5", "lon": -135.0, "lat": -81.75}}, {"type": "Feature", "geometry": {"type": "Polygon", "coordinates": [[[-135.75, -81.0], [-135.75, -79.5], [-134.25, -79.5], [-134.25, -81.0], [-135.75, -81.0]]]}, "properties": {"cell_id": "150_6", "lon": -135.0, "lat": -80.25}}, {"type": "Feature", "geometry": {"type": "Polygon", "coordinates": [[[-134.25, -90.0], [-134.25, -88.5], [-132.75, -88.5], [-132.75, -90.0], [-134.25, -90.0]]]}, "properties": {"cell_id": "151_0", "lon": -133.5, "lat": -89.25}}, {"type": "Feature", "geometry": {"type": "Polygon", "coordinates": [[[-134.25, -88.5], [-134.25, -87.0], [-132.75, -87.0], [-132.75, -88.5], [-134.25, -88.5]]]}, "properties": {"cell_id": "151_1", "lon": -133.5, "lat": -87.75}}, {"type": "Feature", "geometry": {"type": "Polygon", "coordinates": [[[-134.25, -87.0], [-134.25, -85.5], [-132.75, -85.5], [-132.75, -87.0], [-134.25, -87.0]]]}, "properties": {"cell_id": "151_2", "lon": -133.5, "lat": -86.25}}, {"type": "Feature", "geometry": {"type": "Polygon", "coordinates": [[[-134.25, -85.5], [-134.25, -84.0], [-132.75, -84.0], [-132.75, -85.5], [-134.25, -85.5]]]}, "properties": {"cell_id": "151_3", "lon": -133.5, "lat": -84.75}}, {"type": "Feature", "geometry": {"type": "Polygon", "coordinates": [[[-134.25, -84.0], [-134.25, -82.5], [-132.75, -82.5], [-132.75, -84.0], [-134.25, -84.0]]]}, "properties": {"cell_id": "151_4", "lon": -133.5, "lat": -83.25}}, {"type": "Feature", "geometry": {"type": "Polygon", "coordinates": [[[-134.25, -82.5], [-134.25, -81.0], [-132.75, -81.0], [-132.75, -82.5], [-134.25, -82.5]]]}, "properties": {"cell_id": "151_5", "lon": -133.5, "lat": -81.75}}, {"type": "Feature", "geometry": {"type": "Polygon", "coordinates": [[[-134.25, -81.0], [-134.25, -79.5], [-132.75, -79.5], [-132.75, -81.0], [-134.25, -81.0]]]}, "properties": {"cell_id": "151_6", "lon": -133.5, "lat": -80.25}}, {"type": "Feature", "geometry": {"type": "Polygon", "coordinates": [[[-132.75, -90.0], [-132.75, -88.5], [-131.25, -88.5], [-131.25, -90.0], [-132.75, -90.0]]]}, "properties": {"cell_id": "152_0", "lon": -132.0, "lat": -89.25}}, {"type": "Feature", "geometry": {"type": "Polygon", "coordinates": [[[-132.75, -88.5], [-132.75, -87.0], [-131.25, -87.0], [-131.25, -88.5], [-132.75, -88.5]]]}, "properties": {"cell_id": "152_1", "lon": -132.0, "lat": -87.75}}, {"type": "Feature", "geometry": {"type": "Polygon", "coordinates": [[[-132.75, -87.0], [-132.75, -85.5], [-131.25, -85.5], [-131.25, -87.0], [-132.75, -87.0]]]}, "properties": {"cell_id": "152_2", "lon": -132.0, "lat": -86.25}}, {"type": "Feature", "geometry": {"type": "Polygon", "coordinates": [[[-132.75, -85.5], [-132.75, -84.0], [-131.25, -84.0], [-131.25, -85.5], [-132.75, -85.5]]]}, "properties": {"cell_id": "152_3", "lon": -132.0, "lat": -84.75}}, {"type": "Feature", "geometry": {"type": "Polygon", "coordinates": [[[-132.75, -84.0], [-132.75, -82.5], [-131.25, -82.5], [-131.25, -84.0], [-132.75, -84.0]]]}, "properties": {"cell_id": "152_4", "lon": -132.0, "lat": -83.25}}, {"type": "Feature", "geometry": {"type": "Polygon", "coordinates": [[[-132.75, -82.5], [-132.75, -81.0], [-131.25, -81.0], [-131.25, -82.5], [-132.75, -82.5]]]}, "properties": {"cell_id": "152_5", "lon": -132.0, "lat": -81.75}}, {"type": "Feature", "geometry": {"type": "Polygon", "coordinates": [[[-132.75, -81.0], [-132.75, -79.5], [-131.25, -79.5], [-131.25, -81.0], [-132.75, -81.0]]]}, "properties": {"cell_id": "152_6", "lon": -132.0, "lat": -80.25}}, {"type": "Feature", "geometry": {"type": "Polygon", "coordinates": [[[-131.25, -90.0], [-131.25, -88.5], [-129.75, -88.5], [-129.75, -90.0], [-131.25, -90.0]]]}, "properties": {"cell_id": "153_0", "lon": -130.5, "lat": -89.25}}, {"type": "Feature", "geometry": {"type": "Polygon", "coordinates": [[[-131.25, -88.5], [-131.25, -87.0], [-129.75, -87.0], [-129.75, -88.5], [-131.25, -88.5]]]}, "properties": {"cell_id": "153_1", "lon": -130.5, "lat": -87.75}}, {"type": "Feature", "geometry": {"type": "Polygon", "coordinates": [[[-131.25, -87.0], [-131.25, -85.5], [-129.75, -85.5], [-129.75, -87.0], [-131.25, -87.0]]]}, "properties": {"cell_id": "153_2", "lon": -130.5, "lat": -86.25}}, {"type": "Feature", "geometry": {"type": "Polygon", "coordinates": [[[-131.25, -85.5], [-131.25, -84.0], [-129.75, -84.0], [-129.75, -85.5], [-131.25, -85.5]]]}, "properties": {"cell_id": "153_3", "lon": -130.5, "lat": -84.75}}, {"type": "Feature", "geometry": {"type": "Polygon", "coordinates": [[[-131.25, -84.0], [-131.25, -82.5], [-129.75, -82.5], [-129.75, -84.0], [-131.25, -84.0]]]}, "properties": {"cell_id": "153_4", "lon": -130.5, "lat": -83.25}}, {"type": "Feature", "geometry": {"type": "Polygon", "coordinates": [[[-131.25, -82.5], [-131.25, -81.0], [-129.75, -81.0], [-129.75, -82.5], [-131.25, -82.5]]]}, "properties": {"cell_id": "153_5", "lon": -130.5, "lat": -81.75}}, {"type": "Feature", "geometry": {"type": "Polygon", "coordinates": [[[-131.25, -81.0], [-131.25, -79.5], [-129.75, -79.5], [-129.75, -81.0], [-131.25, -81.0]]]}, "properties": {"cell_id": "153_6", "lon": -130.5, "lat": -80.25}}]}