{"type": "FeatureCollection", "features": [{"type": "Feature", "geometry": {"type": "Polygon", "coordinates": [[[-100.0, 50.0], [-100.0, 52.5], [-97.5, 52.5], [-97.5, 50.0], [-100.0, 50.0]]]}, "properties": {"cell_id": "104_56", "lon": -98.75, "lat": 51.25}}, {"type": "Feature", "geometry": {"type": "Polygon", "coordinates": [[[-100.0, 52.5], [-100.0, 55.0], [-97.5, 55.0], [-97.5, 52.5], [-100.0, 52.5]]]}, "properties": {"cell_id": "104_57", "lon": -98.75, "lat": 53.75}}, {"type": "Feature", "geometry": {"type": "Polygon", "coordinates": [[[-100.0, 55.0], [-100.0, 57.5], [-97.5, 57.5], [-97.5, 55.0], [-100.0, 55.0]]]}, "properties": {"cell_id": "104_58", "lon": -98.75, "lat": 56.25}}, {"type": "Feature", "geometry": {"type": "Polygon", "coordinates": [[[-100.0, 57.5], [-100.0, 60.0], [-97.5, 60.0], [-97.5, 57.5], [-100.0, 57.5]]]}, "properties": {"cell_id": "104_59", "lon": -98.75, "lat": 58.75}}, {"type": "Feature", "geometry": {"type": "Polygon", "coordinates": [[[-97.5, 50.0], [-97.5, 52.5], [-95.0, 52.5], [-95.0, 50.0], [-97.5, 50.0]]]}, "properties": {"cell_id": "105_56", "lon": -96.25, "lat": 51.25}}, {"type": "Feature", "geometry": {"type": "Polygon", "coordinates": [[[-97.5, 52.5], [-97.5, 55.0], [-95.0, 55.0], [-95.0, 52.5], [-97.5, 52.5]]]}, "properties": {"cell_id": "105_57", "lon": -96.25, "lat": 53.75}}, {"type": "Feature", "geometry": {"type": "Polygon", "coordinates": [[[-97.5, 55.0], [-97.5, 57.5], [-95.0, 57.5], [-95.0, 55.0], [-97.5, 55.0]]]}, "properties": {"cell_id": "105_58", "lon": -96.25, "lat": 56.25}}, {"type": "Feature", "geometry": {"type": "Polygon", "coordinates": [[[-97.5, 57.5], [-97.5, 60.0], [-95.0, 60.0], [-95.0, 57.5], [-97.5, 57.5]]]}, "properties": {"cell_id": "105_59", "lon": -96.25, "lat": 58.75}}, {"type": "Feature", "geometry": {"type": "Polygon", "coordinates": [[[-95.0, 50.0], [-95.0, 52.5], [-92.5, 52.5], [-92.5, 50.0], [-95.0, 50.0]]]}, "properties": {"cell_id": "106_56", "lon": -93.75, "lat": 51.25}}, {"type": "Feature", "geometry": {"type": "Polygon", "coordinates": [[[-95.0, 52.5], [-95.0, 55.0], [-92.5, 55.0], [-92.5, 52.5], [-95.0, 52.5]]]}, "properties": {"cell_id": "106_57", "lon": -93.75, "lat": 53.75}}, {"type": "Feature", "geometry": {"type": "Polygon", "coordinates": [[[-95.0, 55.0], [-95.0, 57.5], [-92.5, 57.5], [-92.5, 55.0], [-95.0, 55.0]]]}, "properties": {"cell_id": "106_58", "lon": -93.75, "lat": 56.25}}, {"type": "Feature", "geometry": {"type": "Polygon", "coordinates": [[[-95.0, 57.5], [-95.0, 60.0], [-92.5, 60.0], [-92.5, 57.5], [-95.0, 57.5]]]}, "properties": {"cell_id": "106_59", "lon": -93.75, "lat": 58.75}}, {"type": "Feature", "geometry": {"type": "Polygon", "coordinates": [[[-92.5, 50.0], [-92.5, 52.5], [-90.0, 52.5], [-90.0, 50.0], [-92.5, 50.0]]]}, "properties": {"cell_id": "107_56", "lon": -91.25, "lat": 51.25}}, {"type": "Feature", "geometry": {"type": "Polygon", "coordinates": [[[-92.5, 52.5], [-92.5, 55.0], [-90.0, 55.0], [-90.0, 52.5], [-92.5, 52.5]]]}, "properties": {"cell_id": "107_57", "lon": -91.25, "lat": 53.75}}, {"type": "Feature", "geometry": {"type": "Polygon", "coordinates": [[[-92.5, 55.0], [-92.5, 57.5], [-90.0, 57.5], [-90.0, 55.0], [-92.5, 55.0]]]}, "properties": {"cell_id": "107_58", "lon": -91.25, "lat": 56.25}}]}