{"type": "FeatureCollection", "features": [{"type": "Feature", "geometry": {"type": "Polygon", "coordinates": [[[-69.75, -19.5], [-69.75, -18.0], [-68.25, -18.0], [-68.25, -19.5], [-69.75, -19.5]]]}, "properties": {"cell_id": "194_47", "lon": -69.0, "lat": -18.75}}, {"type": "Feature", "geometry": {"type": "Polygon", "coordinates": [[[-69.75, -18.0], [-69.75, -16.5], [-68.25, -16.5], [-68.25, -18.0], [-69.75, -18.0]]]}, "properties": {"cell_id": "194_48", "lon": -69.0, "lat": -17.25}}, {"type": "Feature", "geometry": {"type": "Polygon", "coordinates": [[[-69.75, -16.5], [-69.75, -15.0], [-68.25, -15.0], [-68.25, -16.5], [-69.75, -16.5]]]}, "properties": {"cell_id": "194_49", "lon": -69.0, "lat": -15.75}}, {"type": "Feature", "geometry": {"type": "Polygon", "coordinates": [[[-69.75, -15.0], [-69.75, -13.5], [-68.25, -13.5], [-68.25, -15.0], [-69.75, -15.0]]]}, "properties": {"cell_id": "194_50", "lon": -69.0, "lat": -14.25}}, {"type": "Feature", "geometry": {"type": "Polygon", "coordinates": [[[-69.75, -13.5], [-69.75, -12.0], [-68.25, -12.0], [-68.25, -13.5], [-69.75, -13.5]]]}, "properties": {"cell_id": "194_51", "lon": -69.0, "lat": -12.75}}, {"type": "Feature", "geometry": {"type": "Polygon", "coordinates": [[[-69.75, -12.0], [-69.75, -10.5], [-68.25, -10.5], [-68.25, -12.0], [-69.75, -12.0]]]}, "properties": {"cell_id": "194_52", "lon": -69.0, "lat": -11.25}}, {"type": "Feature", "geometry": {"type": "Polygon", "coordinates": [[[-69.75, -10.5], [-69.75, -9.0], [-68.25, -9.0], [-68.25, -10.5], [-69.75, -10.5]]]}, "properties": {"cell_id": "194_53", "lon": -69.0, "lat": -9.75}}, {"type": "Feature", "geometry": {"type": "Polygon", "coordinates": [[[-68.25, -19.5], [-68.25, -18.0], [-66.75, -18.0], [-66.75, -19.5], [-68.25, -19.5]]]}, "properties": {"cell_id": "195_47", "lon": -67.5, "lat": -18.75}}, {"type": "Feature", "geometry": {"type": "Polygon", "coordinates": [[[-68.25, -18.0], [-68.25, -16.5], [-66.75, -16.5], [-66.75, -18.0], [-68.25, -18.0]]]}, "properties": {"cell_id": "195_48", "lon": -67.5, "lat": -17.25}}, {"type": "Feature", "geometry": {"type": "Polygon", "coordinates": [[[-68.25, -16.5], [-68.25, -15.0], [-66.75, -15.0], [-66.75, -16.5], [-68.25, -16.5]]]}, "properties": {"cell_id": "195_49", "lon": -67.5, "lat": -15.75}}, {"type": "Feature", "geometry": {"type": "Polygon", "coordinates": [[[-68.25, -15.0], [-68.25, -13.5], [-66.75, -13.5], [-66.75, -15.0], [-68.25, -15.0]]]}, "properties": {"cell_id": "195_50", "lon": -67.5, "lat": -14.25}}, {"type": "Feature", "geometry": {"type": "Polygon", "coordinates": [[[-68.25, -13.5], [-68.25, -12.0], [-66.75, -12.0], [-66.75, -13.5], [-68.25, -13.5]]]}, "properties": {"cell_id": "195_51", "lon": -67.5, "lat": -12.75}}, {"type": "Feature", "geometry": {"type": "Polygon", "coordinates": [[[-68.25, -12.0], [-68.25, -10.5], [-66.75, -10.5], [-66.75, -12.0], [-68.25, -12.0]]]}, "properties": {"cell_id": "195_52", "lon": -67.5, "lat": -11.25}}, {"type": "Feature", "geometry": {"type": "Polygon", "coordinates": [[[-68.25, -10.5], [-68.25, -9.0], [-66.75, -9.0], [-66.75, -10.5], [-68.25, -10.5]]]}, "properties": {"cell_id": "195_53", "lon": -67.5, "lat": -9.75}}, {"type": "Feature", "geometry": {"type": "Polygon", "coordinates": [[[-66.75, -19.5], [-66.75, -18.0], [-65.25, -18.0], [-65.25, -19.5], [-66.75, -19.5]]]}, "properties": {"cell_id": "196_47", "lon": -66.0, "lat": -18.75}}, {"type": "Feature", "geometry": {"type": "Polygon", "coordinates": [[[-66.75, -18.0], [-66.75, -16.5], [-65.25, -16.5], [-65.25, -18.0], [-66.75, -18.0]]]}, "properties": {"cell_id": "196_48", "lon": -66.0, "lat": -17.25}}, {"type": "Feature", "geometry": {"type": "Polygon", "coordinates": [[[-66.75, -16.5], [-66.75, -15.0], [-65.25, -15.0], [-65.25, -16.5], [-66.75, -16.5]]]}, "properties": {"cell_id": "196_49", "lon": -66.0, "lat": -15.75}}, {"type": "Feature", "geometry": {"type": "Polygon", "coordinates": [[[-66.75, -15.0], [-66.75, -13.5], [-65.25, -13.5], [-65.25, -15.0], [-66.75, -15.0]]]}, "properties": {"cell_id": "196_50", "lon": -66.0, "lat": -14.25}}, {"type": "Feature", "geometry": {"type": "Polygon", "coordinates": [[[-66.75, -13.5], [-66.75, -12.0], [-65.25, -12.0], [-65.25, -13.5], [-66.75, -13.5]]]}, "properties": {"cell_id": "196_51", "lon": -66.0, "lat": -12.75}}, {"type": "Feature", "geometry": {"type": "Polygon", "coordinates": [[[-66.75, -12.0], [-66.75, -10.5], [-65.25, -10.5], [-65.25, -12.0], [-66.75, -12.0]]]}, "properties": {"cell_id": "196_52", "lon": -66.0, "lat": -11.25}}, {"type": "Feature", "geometry": {"type": "Polygon", "coordinates": [[[-66.75, -10.5], [-66.75, -9.0], [-65.25, -9.0], [-65.25, -10.5], [-66.75, -10.5]]]}, "properties": {"cell_id": "196_53", "lon": -66.0, "lat": -9.75}}, {"type": "Feature", "geometry": {"type": "Polygon", "coordinates": [[[-65.25, -19.5], [-65.25, -18.0], [-63.75, -18.0], [-63.75, -19.5], [-65.25, -19.5]]]}, "properties": {"cell_id": "197_47", "lon": -64.5, "lat": -18.75}}, {"type": "Feature", "geometry": {"type": "Polygon", "coordinates": [[[-65.25, -18.0], [-65.25, -16.5], [-63.75, -16.5], [-63.75, -18.0], [-65.25, -18.0]]]}, "properties": {"cell_id": "197_48", "lon": -64.5, "lat": -17.25}}, {"type": "Feature", "geometry": {"type": "Polygon", "coordinates": [[[-65.25, -16.5], [-65.25, -15.0], [-63.75, -15.0], [-63.75, -16.5], [-65.25, -16.5]]]}, "properties": {"cell_id": "197_49", "lon": -64.5, "lat": -15.75}}, {"type": "Feature", "geometry": {"type": "Polygon", "coordinates": [[[-65.25, -15.0], [-65.25, -13.5], [-63.75, -13.5], [-63.75, -15.0], [-65.25, -15.0]]]}, "properties": {"cell_id": "197_50", "lon": -64.5, "lat": -14.25}}, {"type": "Feature", "geometry": {"type": "Polygon", "coordinates": [[[-65.25, -13.5], [-65.25, -12.0], [-63.75, -12.0], [-63.75, -13.5], [-65.25, -13.5]]]}, "properties": {"cell_id": "197_51", "lon": -64.5, "lat": -12.75}}, {"type": "Feature", "geometry": {"type": "Polygon", "coordinates": [[[-65.25, -12.0], [-65.25, -10.5], [-63.75, -10.5], [-63.75, -12.0], [-65.25, -12.0]]]}, "properties": {"cell_id": "197_52", "lon": -64.5, "lat": -11.25}}, {"type": "Feature", "geometry": {"type": "Polygon", "coordinates": [[[-65.25, -10.5], [-65.25, -9.0], [-63.75, -9.0], [-63.75, -10.5], [-65.25, -10.5]]]}, "properties": {"cell_id": "197_53", "lon": -64.5, "lat": -9.75}}, {"type": "Feature", "geometry": {"type": "Polygon", "coordinates": [[[-63.75, -19.5], [-63.75, -18.0], [-62.25, -18.0], [-62.25, -19.5], [-63.75, -19.5]]]}, "properties": {"cell_id": "198_47", "lon": -63.0, "lat": -18.75}}, {"type": "Feature", "geometry": {"type": "Polygon", "coordinates": [[[-63.75, -18.0], [-63.75, -16.5], [-62.25, -16.5], [-62.25, -18.0], [-63.75, -18.0]]]}, "properties": {"cell_id": "198_48", "lon": -63.0, "lat": -17.25}}, {"type": "Feature", "geometry": {"type": "Polygon", "coordinates": [[[-63.75, -16.5], [-63.75, -15.0], [-62.25, -15.0], [-62.25, -16.5], [-63.75, -16.5]]]}, "properties": {"cell_id": "198_49", "lon": -63.0, "lat": -15.75}}, {"type": "Feature", "geometry": {"type": "Polygon", "coordinates": [[[-63.75, -15.0], [-63.75, -13.5], [-62.25, -13.5], [-62.25, -15.0], [-63.75, -15.0]]]}, "properties": {"cell_id": "198_50", "lon": -63.0, "lat": -14.25}}, {"type": "Feature", "geometry": {"type": "Polygon", "coordinates": [[[-63.75, -13.5], [-63.75, -12.0], [-62.25, -12.0], [-62.25, -13.5], [-63.75, -13.5]]]}, "properties": {"cell_id": "198_51", "lon": -63.0, "lat": -12.75}}, {"type": "Feature", "geometry": {"type": "Polygon", "coordinates": [[[-63.75, -12.0], [-63.75, -10.5], [-62.25, -10.5], [-62.25, -12.0], [-63.75, -12.0]]]}, "properties": {"cell_id": "198_52", "lon": -63.0, "lat": -11.25}}, {"type": "Feature", "geometry": {"type": "Polygon", "coordinates": [[[-63.75, -10.5], [-63.75, -9.0], [-62.25, -9.0], [-62.25, -10.5], [-63.75, -10.5]]]}, "properties": {"cell_id": "198_53", "lon": -63.0, "lat": -9.75}}, {"type": "Feature", "geometry": {"type": "Polygon", "coordinates": [[[-62.25, -19.5], [-62.25, -18.0], [-60.75, -18.0], [-60.75, -19.5], [-62.25, -19.5]]]}, "properties": {"cell_id": "199_47", "lon": -61.5, "lat": -18.75}}, {"type": "Feature", "geometry": {"type": "Polygon", "coordinates": [[[-62.25, -18.0], [-62.25, -16.5], [-60.75, -16.5], [-60.75, -18.0], [-62.25, -18.0]]]}, "properties": {"cell_id": "199_48", "lon": -61.5, "lat": -17.25}}, {"type": "Feature", "geometry": {"type": "Polygon", "coordinates": [[[-62.25, -16.5], [-62.25, -15.0], [-60.75, -15.0], [-60.75, -16.5], [-62.25, -16.5]]]}, "properties": {"cell_id": "199_49", "lon": -61.5, "lat": -15.75}}, {"type": "Feature", "geometry": {"type": "Polygon", "coordinates": [[[-62.25, -15.0], [-62.25, -13.5], [-60.75, -13.5], [-60.75, -15.0], [-62.25, -15.0]]]}, "properties": {"cell_id": "199_50", "lon": -61.5, "lat": -14.25}}, {"type": "Feature", "geometry": {"type": "Polygon", "coordinates": [[[-62.25, -13.5], [-62.25, -12.0], [-60.75, -12.0], [-60.75, -13.5], [-62.25, -13.5]]]}, "properties": {"cell_id": "199_51", "lon": -61.5, "lat": -12.75}}, {"type": "Feature", "geometry": {"type": "Polygon", "coordinates": [[[-62.25, -12.0], [-62.25, -10.5], [-60.75, -10.5], [-60.75, -12.0], [-62.25, -12.0]]]}, "properties": {"cell_id": "199_52", "lon": -61.5, "lat": -11.25}}, {"type": "Feature", "geometry": {"type": "Polygon", "coordinates": [[[-62.25, -10.5], [-62.25, -9.0], [-60.75, -9.0], [-60.75, -10.5], [-62.25, -10.5]]]}, "properties": {"cell_id": "199_53", "lon": -61.5, "lat": -9.75}}, {"type": "Feature", "geometry": {"type": "Polygon", "coordinates": [[[-60.75, -19.5], [-60.75, -18.0], [-59.25, -18.0], [-59.25, -19.5], [-60.75, -19.5]]]}, "properties": {"cell_id": "200_47", "lon": -60.0, "lat": -18.75}}, {"type": "Feature", "geometry": {"type": "Polygon", "coordinates": [[[-60.75, -18.0], [-60.75, -16.5], [-59.25, -16.5], [-59.25, -18.0], [-60.75, -18.0]]]}, "properties": {"cell_id": "200_48", "lon": -60.0, "lat": -17.25}}, {"type": "Feature", "geometry": {"type": "Polygon", "coordinates": [[[-60.75, -16.5], [-60.75, -15.0], [-59.25, -15.0], [-59.25, -16.5], [-60.75, -16.5]]]}, "properties": {"cell_id": "200_49", "lon": -60.0, "lat": -15.75}}, {"type": "Feature", "geometry": {"type": "Polygon", "coordinates": [[[-60.75, -15.0], [-60.75, -13.5], [-59.25, -13.5], [-59.25, -15.0], [-60.75, -15.0]]]}, "properties": {"cell_id": "200_50", "lon": -60.0, "lat": -14.25}}, {"type": "Feature", "geometry": {"type": "Polygon", "coordinates": [[[-60.75, -13.5], [-60.75, -12.0], [-59.25, -12.0], [-59.25, -13.5], [-60.75, -13.5]]]}, "properties": {"cell_id": "200_51", "lon": -60.0, "lat": -12.75}}, {"type": "Feature", "geometry": {"type": "Polygon", "coordinates": [[[-60.75, -12.0], [-60.75, -10.5], [-59.25, -10.5], [-59.25, -12.0], [-60.75, -12.0]]]}, "properties": {"cell_id": "200_52", "lon": -60.0, "lat": -11.25}}, {"type": "Feature", "geometry": {"type": "Polygon", "coordinates": [[[-60.75, -10.5], [-60.75, -9.0], [-59.25, -9.0], [-59.25, -10.5], [-60.75, -10.5]]]}, "properties": {"cell_id": "200_53", "lon": -60.0, "lat": -9.75}}]}