{"type": "FeatureCollection", "features": [{"type": "Feature", "geometry": {"type": "Polygon", "coordinates": [[[120.75, -6.0], [120.75, -4.5], [122.25, -4.5], [122.25, -6.0], [120.75, -6.0]]]}, "properties": {"cell_id": "81_56", "lon": 121.5, "lat": -5.25}}, {"type": "Feature", "geometry": {"type": "Polygon", "coordinates": [[[120.75, -4.5], [120.75, -3.0], [122.25, -3.0], [122.25, -4.5], [120.75, -4.5]]]}, "properties": {"cell_id": "81_57", "lon": 121.5, "lat": -3.75}}, {"type": "Feature", "geometry": {"type": "Polygon", "coordinates": [[[120.75, -3.0], [120.75, -1.5], [122.25, -1.5], [122.25, -3.0], [120.75, -3.0]]]}, "properties": {"cell_id": "81_58", "lon": 121.5, "lat": -2.25}}, {"type": "Feature", "geometry": {"type": "Polygon", "coordinates": [[[120.75, -1.5], [120.75, 0.0], [122.25, 0.0], [122.25, -1.5], [120.75, -1.5]]]}, "properties": {"cell_id": "81_59", "lon": 121.5, "lat": -0.75}}, {"type": "Feature", "geometry": {"type": "Polygon", "coordinates": [[[122.25, -6.0], [122.25, -4.5], [123.75, -4.5], [123.75, -6.0], [122.25, -6.0]]]}, "properties": {"cell_id": "82_56", "lon": 123.0, "lat": -5.25}}, {"type": "Feature", "geometry": {"type": "Polygon", "coordinates": [[[122.25, -4.5], [122.25, -3.0], [123.75, -3.0], [123.75, -4.5], [122.25, -4.5]]]}, "properties": {"cell_id": "82_57", "lon": 123.0, "lat": -3.75}}]}