{"type": "FeatureCollection", "features": [{"type": "Feature", "geometry": {"type": "Polygon", "coordinates": [[[110.0, 22.5], [110.0, 25.0], [112.5, 25.0], [112.5, 22.5], [110.0, 22.5]]]}, "properties": {"cell_id": "44_45", "lon": 111.25, "lat": 23.75}}, {"type": "Feature", "geometry": {"type": "Polygon", "coordinates": [[[110.0, 25.0], [110.0, 27.5], [112.5, 27.5], [112.5, 25.0], [110.0, 25.0]]]}, "properties": {"cell_id": "44_46", "lon": 111.25, "lat": 26.25}}, {"type": "Feature", "geometry": {"type": "Polygon", "coordinates": [[[110.0, 27.5], [110.0, 30.0], [112.5, 30.0], [112.5, 27.5], [110.0, 27.5]]]}, "properties": {"cell_id": "44_47", "lon": 111.25, "lat": 28.75}}, {"type": "Feature", "geometry": {"type": "Polygon", "coordinates": [[[112.5, 22.5], [112.5, 25.0], [115.0, 25.0], [115.0, 22.5], [112.5, 22.5]]]}, "properties": {"cell_id": "45_45", "lon": 113.75, "lat": 23.75}}, {"type": "Feature", "geometry": {"type": "Polygon", "coordinates": [[[112.5, 25.0], [112.5, 27.5], [115.0, 27.5], [115.0, 25.0], [112.5, 25.0]]]}, "properties": {"cell_id": "45_46", "lon": 113.75, "lat": 26.25}}, {"type": "Feature", "geometry": {"type": "Polygon", "coordinates": [[[112.5, 27.5], [112.5, 30.0], [115.0, 30.0], [115.0, 27.5], [112.5, 27.5]]]}, "properties": {"cell_id": "45_47", "lon": 113.75, "lat": 28.75}}, {"type": "Feature", "geometry": {"type": "Polygon", "coordinates": [[[115.0, 22.5], [115.0, 25.0], [117.5, 25.0], [117.5, 22.5], [115.0, 22.5]]]}, "properties": {"cell_id": "46_45", "lon": 116.25, "lat": 23.75}}, {"type": "Feature", "geometry": {"type": "Polygon", "coordinates": [[[115.0, 25.0], [115.0, 27.5], [117.5, 27.5], [117.5, 25.0], [115.0, 25.0]]]}, "properties": {"cell_id": "46_46", "lon": 116.25, "lat": 26.25}}, {"type": "Feature", "geometry": {"type": "Polygon", "coordinates": [[[115.0, 27.5], [115.0, 30.0], [117.5, 30.0], [117.5, 27.5], [115.0, 27.5]]]}, "properties": {"cell_id": "46_47", "lon": 116.25, "lat": 28.75}}, {"type": "Feature", "geometry": {"type": "Polygon", "coordinates": [[[117.5, 25.0], [117.5, 27.5], [120.0, 27.5], [120.0, 25.0], [117.5, 25.0]]]}, "properties": {"cell_id": "47_46", "lon": 118.75, "lat": 26.25}}, {"type": "Feature", "geometry": {"type": "Polygon", "coordinates": [[[117.5, 27.5], [117.5, 30.0], [120.0, 30.0], [120.0, 27.5], [117.5, 27.5]]]}, "properties": {"cell_id": "47_47", "lon": 118.75, "lat": 28.75}}]}