{"type": "FeatureCollection", "features": [{"type": "Feature", "geometry": {"type": "Polygon", "coordinates": [[[-70.0, 75.0], [-70.0, 77.5], [-67.5, 77.5], [-67.5, 75.0], [-70.0, 75.0]]]}, "properties": {"cell_id": "116_66", "lon": -68.75, "lat": 76.25}}, {"type": "Feature", "geometry": {"type": "Polygon", "coordinates": [[[-70.0, 77.5], [-70.0, 80.0], [-67.5, 80.0], [-67.5, 77.5], [-70.0, 77.5]]]}, "properties": {"cell_id": "116_67", "lon": -68.75, "lat": 78.75}}, {"type": "Feature", "geometry": {"type": "Polygon", "coordinates": [[[-67.5, 75.0], [-67.5, 77.5], [-65.0, 77.5], [-65.0, 75.0], [-67.5, 75.0]]]}, "properties": {"cell_id": "117_66", "lon": -66.25, "lat": 76.25}}, {"type": "Feature", "geometry": {"type": "Polygon", "coordinates": [[[-67.5, 77.5], [-67.5, 80.0], [-65.0, 80.0], [-65.0, 77.5], [-67.5, 77.5]]]}, "properties": {"cell_id": "117_67", "lon": -66.25, "lat": 78.75}}, {"type": "Feature", "geometry": {"type": "Polygon", "coordinates": [[[-65.0, 75.0], [-65.0, 77.5], [-62.5, 77.5], [-62.5, 75.0], [-65.0, 75.0]]]}, "properties": {"cell_id": "118_66", "lon": -63.75, "lat": 76.25}}, {"type": "Feature", "geometry": {"type": "Polygon", "coordinates": [[[-65.0, 77.5], [-65.0, 80.0], [-62.5, 80.0], [-62.5, 77.5], [-65.0, 77.5]]]}, "properties": {"cell_id": "118_67", "lon": -63.75, "lat": 78.75}}, {"type": "Feature", "geometry": {"type": "Polygon", "coordinates": [[[-62.5, 75.0], [-62.5, 77.5], [-60.0, 77.5], [-60.0, 75.0], [-62.5, 75.0]]]}, "properties": {"cell_id": "119_66", "lon": -61.25, "lat": 76.25}}, {"type": "Feature", "geometry": {"type": "Polygon", "coordinates": [[[-62.5, 77.5], [-62.5, 80.0], [-60.0, 80.0], [-60.0, 77.5], [-62.5, 77.5]]]}, "properties": {"cell_id": "119_67", "lon": -61.25, "lat": 78.75}}]}