{"type": "FeatureCollection", "features": [{"type": "Feature", "geometry": {"type": "Polygon", "coordinates": [[[40.0, 30.0], [40.0, 32.5], [42.5, 32.5], [42.5, 30.0], [40.0, 30.0]]]}, "properties": {"cell_id": "16_48", "lon": 41.25, "lat": 31.25}}, {"type": "Feature", "geometry": {"type": "Polygon", "coordinates": [[[40.0, 32.5], [40.0, 35.0], [42.5, 35.0], [42.5, 32.5], [40.0, 32.5]]]}, "properties": {"cell_id": "16_49", "lon": 41.25, "lat": 33.75}}, {"type": "Feature", "geometry": {"type": "Polygon", "coordinates": [[[40.0, 35.0], [40.0, 37.5], [42.5, 37.5], [42.5, 35.0], [40.0, 35.0]]]}, "properties": {"cell_id": "16_50", "lon": 41.25, "lat": 36.25}}, {"type": "Feature", "geometry": {"type": "Polygon", "coordinates": [[[40.0, 37.5], [40.0, 40.0], [42.5, 40.0], [42.5, 37.5], [40.0, 37.5]]]}, "properties": {"cell_id": "16_51", "lon": 41.25, "lat": 38.75}}, {"type": "Feature", "geometry": {"type": "Polygon", "coordinates": [[[42.5, 30.0], [42.5, 32.5], [45.0, 32.5], [45.0, 30.0], [42.5, 30.0]]]}, "properties": {"cell_id": "17_48", "lon": 43.75, "lat": 31.25}}, {"type": "Feature", "geometry": {"type": "Polygon", "coordinates": [[[42.5, 32.5], [42.5, 35.0], [45.0, 35.0], [45.0, 32.5], [42.5, 32.5]]]}, "properties": {"cell_id": "17_49", "lon": 43.75, "lat": 33.75}}, {"type": "Feature", "geometry": {"type": "Polygon", "coordinates": [[[42.5, 35.0], [42.5, 37.5], [45.0, 37.5], [45.0, 35.0], [42.5, 35.0]]]}, "properties": {"cell_id": "17_50", "lon": 43.75, "lat": 36.25}}, {"type": "Feature", "geometry": {"type": "Polygon", "coordinates": [[[42.5, 37.5], [42.5, 40.0], [45.0, 40.0], [45.0, 37.5], [42.5, 37.5]]]}, "properties": {"cell_id": "17_51", "lon": 43.75, "lat": 38.75}}, {"type": "Feature", "geometry": {"type": "Polygon", "coordinates": [[[45.0, 30.0], [45.0, 32.5], [47.5, 32.5], [47.5, 30.0], [45.0, 30.0]]]}, "properties": {"cell_id": "18_48", "lon": 46.25, "lat": 31.25}}, {"type": "Feature", "geometry": {"type": "Polygon", "coordinates": [[[45.0, 32.5], [45.0, 35.0], [47.5, 35.0], [47.5, 32.5], [45.0, 32.5]]]}, "properties": {"cell_id": "18_49", "lon": 46.25, "lat": 33.75}}, {"type": "Feature", "geometry": {"type": "Polygon", "coordinates": [[[45.0, 35.0], [45.0, 37.5], [47.5, 37.5], [47.5, 35.0], [45.0, 35.0]]]}, "properties": {"cell_id": "18_50", "lon": 46.25, "lat": 36.25}}, {"type": "Feature", "geometry": {"type": "Polygon", "coordinates": [[[45.0, 37.5], [45.0, 40.0], [47.5, 40.0], [47.5, 37.5], [45.0, 37.5]]]}, "properties": {"cell_id": "18_51", "lon": 46.25, "lat": 38.75}}, {"type": "Feature", "geometry": {"type": "Polygon", "coordinates": [[[47.5, 30.0], [47.5, 32.5], [50.0, 32.5], [50.0, 30.0], [47.5, 30.0]]]}, "properties": {"cell_id": "19_48", "lon": 48.75, "lat": 31.25}}, {"type": "Feature", "geometry": {"type": "Polygon", "coordinates": [[[47.5, 32.5], [47.5, 35.0], [50.0, 35.0], [50.0, 32.5], [47.5, 32.5]]]}, "properties": {"cell_id": "19_49", "lon": 48.75, "lat": 33.75}}, {"type": "Feature", "geometry": {"type": "Polygon", "coordinates": [[[47.5, 35.0], [47.5, 37.5], [50.0, 37.5], [50.0, 35.0], [47.5, 35.0]]]}, "properties": {"cell_id": "19_50", "lon": 48.75, "lat": 36.25}}, {"type": "Feature", "geometry": {"type": "Polygon", "coordinates": [[[47.5, 37.5], [47.5, 40.0], [50.0, 40.0], [50.0, 37.5], [47.5, 37.5]]]}, "properties": {"cell_id": "19_51", "lon": 48.75, "lat": 38.75}}]}