{"type": "FeatureCollection", "features": [{"type": "Feature", "geometry": {"type": "Polygon", "coordinates": [[[120.75, 51.0], [120.75, 52.5], [122.25, 52.5], [122.25, 51.0], [120.75, 51.0]]]}, "properties": {"cell_id": "81_94", "lon": 121.5, "lat": 51.75}}, {"type": "Feature", "geometry": {"type": "Polygon", "coordinates": [[[120.75, 52.5], [120.75, 54.0], [122.25, 54.0], [122.25, 52.5], [120.75, 52.5]]]}, "properties": {"cell_id": "81_95", "lon": 121.5, "lat": 53.25}}, {"type": "Feature", "geometry": {"type": "Polygon", "coordinates": [[[120.75, 54.0], [120.75, 55.5], [122.25, 55.5], [122.25, 54.0], [120.75, 54.0]]]}, "properties": {"cell_id": "81_96", "lon": 121.5, "lat": 54.75}}, {"type": "Feature", "geometry": {"type": "Polygon", "coordinates": [[[120.75, 55.5], [120.75, 57.0], [122.25, 57.0], [122.25, 55.5], [120.75, 55.5]]]}, "properties": {"cell_id": "81_97", "lon": 121.5, "lat": 56.25}}, {"type": "Feature", "geometry": {"type": "Polygon", "coordinates": [[[120.75, 57.0], [120.75, 58.5], [122.25, 58.5], [122.25, 57.0], [120.75, 57.0]]]}, "properties": {"cell_id": "81_98", "lon": 121.5, "lat": 57.75}}, {"type": "Feature", "geometry": {"type": "Polygon", "coordinates": [[[120.75, 58.5], [120.75, 60.0], [122.25, 60.0], [122.25, 58.5], [120.75, 58.5]]]}, "properties": {"cell_id": "81_99", "lon": 121.5, "lat": 59.25}}, {"type": "Feature", "geometry": {"type": "Polygon", "coordinates": [[[122.25, 51.0], [122.25, 52.5], [123.75, 52.5], [123.75, 51.0], [122.25, 51.0]]]}, "properties": {"cell_id": "82_94", "lon": 123.0, "lat": 51.75}}, {"type": "Feature", "geometry": {"type": "Polygon", "coordinates": [[[122.25, 52.5], [122.25, 54.0], [123.75, 54.0], [123.75, 52.5], [122.25, 52.5]]]}, "properties": {"cell_id": "82_95", "lon": 123.0, "lat": 53.25}}, {"type": "Feature", "geometry": {"type": "Polygon", "coordinates": [[[122.25, 54.0], [122.25, 55.5], [123.75, 55.5], [123.75, 54.0], [122.25, 54.0]]]}, "properties": {"cell_id": "82_96", "lon": 123.0, "lat": 54.75}}, {"type": "Feature", "geometry": {"type": "Polygon", "coordinates": [[[122.25, 55.5], [122.25, 57.0], [123.75, 57.0], [123.75, 55.5], [122.25, 55.5]]]}, "properties": {"cell_id": "82_97", "lon": 123.0, "lat": 56.25}}, {"type": "Feature", "geometry": {"type": "Polygon", "coordinates": [[[122.25, 57.0], [122.25, 58.5], [123.75, 58.5], [123.75, 57.0], [122.25, 57.0]]]}, "properties": {"cell_id": "82_98", "lon": 123.0, "lat": 57.75}}, {"type": "Feature", "geometry": {"type": "Polygon", "coordinates": [[[122.25, 58.5], [122.25, 60.0], [123.75, 60.0], [123.75, 58.5], [122.25, 58.5]]]}, "properties": {"cell_id": "82_99", "lon": 123.0, "lat": 59.25}}, {"type": "Feature", "geometry": {"type": "Polygon", "coordinates": [[[123.75, 51.0], [123.75, 52.5], [125.25, 52.5], [125.25, 51.0], [123.75, 51.0]]]}, "properties": {"cell_id": "83_94", "lon": 124.5, "lat": 51.75}}, {"type": "Feature", "geometry": {"type": "Polygon", "coordinates": [[[123.75, 52.5], [123.75, 54.0], [125.25, 54.0], [125.25, 52.5], [123.75, 52.5]]]}, "properties": {"cell_id": "83_95", "lon": 124.5, "lat": 53.25}}, {"type": "Feature", "geometry": {"type": "Polygon", "coordinates": [[[123.75, 54.0], [123.75, 55.5], [125.25, 55.5], [125.25, 54.0], [123.75, 54.0]]]}, "properties": {"cell_id": "83_96", "lon": 124.5, "lat": 54.75}}, {"type": "Feature", "geometry": {"type": "Polygon", "coordinates": [[[123.75, 55.5], [123.75, 57.0], [125.25, 57.0], [125.25, 55.5], [123.75, 55.5]]]}, "properties": {"cell_id": "83_97", "lon": 124.5, "lat": 56.25}}, {"type": "Feature", "geometry": {"type": "Polygon", "coordinates": [[[123.75, 57.0], [123.75, 58.5], [125.25, 58.5], [125.25, 57.0], [123.75, 57.0]]]}, "properties": {"cell_id": "83_98", "lon": 124.5, "lat": 57.75}}, {"type": "Feature", "geometry": {"type": "Polygon", "coordinates": [[[123.75, 58.5], [123.75, 60.0], [125.25, 60.0], [125.25, 58.5], [123.75, 58.5]]]}, "properties": {"cell_id": "83_99", "lon": 124.5, "lat": 59.25}}, {"type": "Feature", "geometry": {"type": "Polygon", "coordinates": [[[125.25, 51.0], [125.25, 52.5], [126.75, 52.5], [126.75, 51.0], [125.25, 51.0]]]}, "properties": {"cell_id": "84_94", "lon": 126.0, "lat": 51.75}}, {"type": "Feature", "geometry": {"type": "Polygon", "coordinates": [[[125.25, 52.5], [125.25, 54.0], [126.75, 54.0], [126.75, 52.5], [125.25, 52.5]]]}, "properties": {"cell_id": "84_95", "lon": 126.0, "lat": 53.25}}, {"type": "Feature", "geometry": {"type": "Polygon", "coordinates": [[[125.25, 54.0], [125.25, 55.5], [126.75, 55.5], [126.75, 54.0], [125.25, 54.0]]]}, "properties": {"cell_id": "84_96", "lon": 126.0, "lat": 54.75}}, {"type": "Feature", "geometry": {"type": "Polygon", "coordinates": [[[125.25, 55.5], [125.25, 57.0], [126.75, 57.0], [126.75, 55.5], [125.25, 55.5]]]}, "properties": {"cell_id": "84_97", "lon": 126.0, "lat": 56.25}}, {"type": "Feature", "geometry": {"type": "Polygon", "coordinates": [[[125.25, 57.0], [125.25, 58.5], [126.75, 58.5], [126.75, 57.0], [125.25, 57.0]]]}, "properties": {"cell_id": "84_98", "lon": 126.0, "lat": 57.75}}, {"type": "Feature", "geometry": {"type": "Polygon", "coordinates": [[[125.25, 58.5], [125.25, 60.0], [126.75, 60.0], [126.75, 58.5], [125.25, 58.5]]]}, "properties": {"cell_id": "84_99", "lon": 126.0, "lat": 59.25}}, {"type": "Feature", "geometry": {"type": "Polygon", "coordinates": [[[126.75, 51.0], [126.75, 52.5], [128.25, 52.5], [128.25, 51.0], [126.75, 51.0]]]}, "properties": {"cell_id": "85_94", "lon": 127.5, "lat": 51.75}}, {"type": "Feature", "geometry": {"type": "Polygon", "coordinates": [[[126.75, 52.5], [126.75, 54.0], [128.25, 54.0], [128.25, 52.5], [126.75, 52.5]]]}, "properties": {"cell_id": "85_95", "lon": 127.5, "lat": 53.25}}, {"type": "Feature", "geometry": {"type": "Polygon", "coordinates": [[[126.75, 54.0], [126.75, 55.5], [128.25, 55.5], [128.25, 54.0], [126.75, 54.0]]]}, "properties": {"cell_id": "85_96", "lon": 127.5, "lat": 54.75}}, {"type": "Feature", "geometry": {"type": "Polygon", "coordinates": [[[126.75, 55.5], [126.75, 57.0], [128.25, 57.0], [128.25, 55.5], [126.75, 55.5]]]}, "properties": {"cell_id": "85_97", "lon": 127.5, "lat": 56.25}}, {"type": "Feature", "geometry": {"type": "Polygon", "coordinates": [[[126.75, 57.0], [126.75, 58.5], [128.25, 58.5], [128.25, 57.0], [126.75, 57.0]]]}, "properties": {"cell_id": "85_98", "lon": 127.5, "lat": 57.75}}, {"type": "Feature", "geometry": {"type": "Polygon", "coordinates": [[[126.75, 58.5], [126.75, 60.0], [128.25, 60.0], [128.25, 58.5], [126.75, 58.5]]]}, "properties": {"cell_id": "85_99", "lon": 127.5, "lat": 59.25}}, {"type": "Feature", "geometry": {"type": "Polygon", "coordinates": [[[128.25, 51.0], [128.25, 52.5], [129.75, 52.5], [129.75, 51.0], [128.25, 51.0]]]}, "properties": {"cell_id": "86_94", "lon": 129.0, "lat": 51.75}}, {"type": "Feature", "geometry": {"type": "Polygon", "coordinates": [[[128.25, 52.5], [128.25, 54.0], [129.75, 54.0], [129.75, 52.5], [128.25, 52.5]]]}, "properties": {"cell_id": "86_95", "lon": 129.0, "lat": 53.25}}, {"type": "Feature", "geometry": {"type": "Polygon", "coordinates": [[[128.25, 54.0], [128.25, 55.5], [129.75, 55.5], [129.75, 54.0], [128.25, 54.0]]]}, "properties": {"cell_id": "86_96", "lon": 129.0, "lat": 54.75}}, {"type": "Feature", "geometry": {"type": "Polygon", "coordinates": [[[128.25, 55.5], [128.25, 57.0], [129.75, 57.0], [129.75, 55.5], [128.25, 55.5]]]}, "properties": {"cell_id": "86_97", "lon": 129.0, "lat": 56.25}}, {"type": "Feature", "geometry": {"type": "Polygon", "coordinates": [[[128.25, 57.0], [128.25, 58.5], [129.75, 58.5], [129.75, 57.0], [128.25, 57.0]]]}, "properties": {"cell_id": "86_98", "lon": 129.0, "lat": 57.75}}, {"type": "Feature", "geometry": {"type": "Polygon", "coordinates": [[[128.25, 58.5], [128.25, 60.0], [129.75, 60.0], [129.75, 58.5], [128.25, 58.5]]]}, "properties": {"cell_id": "86_99", "lon": 129.0, "lat": 59.25}}, {"type": "Feature", "geometry": {"type": "Polygon", "coordinates": [[[129.75, 51.0], [129.75, 52.5], [131.25, 52.5], [131.25, 51.0], [129.75, 51.0]]]}, "properties": {"cell_id": "87_94", "lon": 130.5, "lat": 51.75}}, {"type": "Feature", "geometry": {"type": "Polygon", "coordinates": [[[129.75, 52.5], [129.75, 54.0], [131.25, 54.0], [131.25, 52.5], [129.75, 52.5]]]}, "properties": {"cell_id": "87_95", "lon": 130.5, "lat": 53.25}}, {"type": "Feature", "geometry": {"type": "Polygon", "coordinates": [[[129.75, 54.0], [129.75, 55.5], [131.25, 55.5], [131.25, 54.0], [129.75, 54.0]]]}, "properties": {"cell_id": "87_96", "lon": 130.5, "lat": 54.75}}, {"type": "Feature", "geometry": {"type": "Polygon", "coordinates": [[[129.75, 55.5], [129.75, 57.0], [131.25, 57.0], [131.25, 55.5], [129.75, 55.5]]]}, "properties": {"cell_id": "87_97", "lon": 130.5, "lat": 56.25}}, {"type": "Feature", "geometry": {"type": "Polygon", "coordinates": [[[129.75, 57.0], [129.75, 58.5], [131.25, 58.5], [131.25, 57.0], [129.75, 57.0]]]}, "properties": {"cell_id": "87_98", "lon": 130.5, "lat": 57.75}}, {"type": "Feature", "geometry": {"type": "Polygon", "coordinates": [[[129.75, 58.5], [129.75, 60.0], [131.25, 60.0], [131.25, 58.5], [129.75, 58.5]]]}, "properties": {"cell_id": "87_99", "lon": 130.5, "lat": 59.25}}]}