{"type": "FeatureCollection", "features": [{"type": "Feature", "geometry": {"type": "Polygon", "coordinates": [[[-179.25, -90.0], [-179.25, -88.5], [-177.75, -88.5], [-177.75, -90.0], [-179.25, -90.0]]]}, "properties": {"cell_id": "121_0", "lon": -178.5, "lat": -89.25}}, {"type": "Feature", "geometry": {"type": "Polygon", "coordinates": [[[-179.25, -88.5], [-179.25, -87.0], [-177.75, -87.0], [-177.75, -88.5], [-179.25, -88.5]]]}, "properties": {"cell_id": "121_1", "lon": -178.5, "lat": -87.75}}, {"type": "Feature", "geometry": {"type": "Polygon", "coordinates": [[[-179.25, -87.0], [-179.25, -85.5], [-177.75, -85.5], [-177.75, -87.0], [-179.25, -87.0]]]}, "properties": {"cell_id": "121_2", "lon": -178.5, "lat": -86.25}}, {"type": "Feature", "geometry": {"type": "Polygon", "coordinates": [[[-179.25, -85.5], [-179.25, -84.0], [-177.75, -84.0], [-177.75, -85.5], [-179.25, -85.5]]]}, "properties": {"cell_id": "121_3", "lon": -178.5, "lat": -84.75}}, {"type": "Feature", "geometry": {"type": "Polygon", "coordinates": [[[-179.25, -84.0], [-179.25, -82.5], [-177.75, -82.5], [-177.75, -84.0], [-179.25, -84.0]]]}, "properties": {"cell_id": "121_4", "lon": -178.5, "lat": -83.25}}, {"type": "Feature", "geometry": {"type": "Polygon", "coordinates": [[[-179.25, -82.5], [-179.25, -81.0], [-177.75, -81.0], [-177.75, -82.5], [-179.25, -82.5]]]}, "properties": {"cell_id": "121_5", "lon": -178.5, "lat": -81.75}}, {"type": "Feature", "geometry": {"type": "Polygon", "coordinates": [[[-179.25, -81.0], [-179.25, -79.5], [-177.75, -79.5], [-177.75, -81.0], [-179.25, -81.0]]]}, "properties": {"cell_id": "121_6", "lon": -178.5, "lat": -80.25}}, {"type": "Feature", "geometry": {"type": "Polygon", "coordinates": [[[-177.75, -90.0], [-177.75, -88.5], [-176.25, -88.5], [-176.25, -90.0], [-177.75, -90.0]]]}, "properties": {"cell_id": "122_0", "lon": -177.0, "lat": -89.25}}, {"type": "Feature", "geometry": {"type": "Polygon", "coordinates": [[[-177.75, -88.5], [-177.75, -87.0], [-176.25, -87.0], [-176.25, -88.5], [-177.75, -88.5]]]}, "properties": {"cell_id": "122_1", "lon": -177.0, "lat": -87.75}}, {"type": "Feature", "geometry": {"type": "Polygon", "coordinates": [[[-177.75, -87.0], [-177.75, -85.5], [-176.25, -85.5], [-176.25, -87.0], [-177.75, -87.0]]]}, "properties": {"cell_id": "122_2", "lon": -177.0, "lat": -86.25}}, {"type": "Feature", "geometry": {"type": "Polygon", "coordinates": [[[-177.75, -85.5], [-177.75, -84.0], [-176.25, -84.0], [-176.25, -85.5], [-177.75, -85.5]]]}, "properties": {"cell_id": "122_3", "lon": -177.0, "lat": -84.75}}, {"type": "Feature", "geometry": {"type": "Polygon", "coordinates": [[[-177.75, -84.0], [-177.75, -82.5], [-176.25, -82.5], [-176.25, -84.0], [-177.75, -84.0]]]}, "properties": {"cell_id": "122_4", "lon": -177.0, "lat": -83.25}}, {"type": "Feature", "geometry": {"type": "Polygon", "coordinates": [[[-177.75, -82.5], [-177.75, -81.0], [-176.25, -81.0], [-176.25, -82.5], [-177.75, -82.5]]]}, "properties": {"cell_id": "122_5", "lon": -177.0, "lat": -81.75}}, {"type": "Feature", "geometry": {"type": "Polygon", "coordinates": [[[-177.75, -81.0], [-177.75, -79.5], [-176.25, -79.5], [-176.25, -81.0], [-177.75, -81.0]]]}, "properties": {"cell_id": "122_6", "lon": -177.0, "lat": -80.25}}, {"type": "Feature", "geometry": {"type": "Polygon", "coordinates": [[[-176.25, -90.0], [-176.25, -88.5], [-174.75, -88.5], [-174.75, -90.0], [-176.25, -90.0]]]}, "properties": {"cell_id": "123_0", "lon": -175.5, "lat": -89.25}}, {"type": "Feature", "geometry": {"type": "Polygon", "coordinates": [[[-176.25, -88.5], [-176.25, -87.0], [-174.75, -87.0], [-174.75, -88.5], [-176.25, -88.5]]]}, "properties": {"cell_id": "123_1", "lon": -175.5, "lat": -87.75}}, {"type": "Feature", "geometry": {"type": "Polygon", "coordinates": [[[-176.25, -87.0], [-176.25, -85.5], [-174.75, -85.5], [-174.75, -87.0], [-176.25, -87.0]]]}, "properties": {"cell_id": "123_2", "lon": -175.5, "lat": -86.25}}, {"type": "Feature", "geometry": {"type": "Polygon", "coordinates": [[[-176.25, -85.5], [-176.25, -84.0], [-174.75, -84.0], [-174.75, -85.5], [-176.25, -85.5]]]}, "properties": {"cell_id": "123_3", "lon": -175.5, "lat": -84.75}}, {"type": "Feature", "geometry": {"type": "Polygon", "coordinates": [[[-176.25, -84.0], [-176.25, -82.5], [-174.75, -82.5], [-174.75, -84.0], [-176.25, -84.0]]]}, "properties": {"cell_id": "123_4", "lon": -175.5, "lat": -83.25}}, {"type": "Feature", "geometry": {"type": "Polygon", "coordinates": [[[-176.25, -82.5], [-176.25, -81.0], [-174.75, -81.0], [-174.75, -82.5], [-176.25, -82.5]]]}, "properties": {"cell_id": "123_5", "lon": -175.5, "lat": -81.75}}, {"type": "Feature", "geometry": {"type": "Polygon", "coordinates": [[[-176.25, -81.0], [-176.25, -79.5], [-174.75, -79.5], [-174.75, -81.0], [-176.25, -81.0]]]}, "properties": {"cell_id": "123_6", "lon": -175.5, "lat": -80.25}}, {"type": "Feature", "geometry": {"type": "Polygon", "coordinates": [[[-174.75, -90.0], [-174.75, -88.5], [-173.25, -88.5], [-173.25, -90.0], [-174.75, -90.0]]]}, "properties": {"cell_id": "124_0", "lon": -174.0, "lat": -89.25}}, {"type": "Feature", "geometry": {"type": "Polygon", "coordinates": [[[-174.75, -88.5], [-174.75, -87.0], [-173.25, -87.0], [-173.25, -88.5], [-174.75, -88.5]]]}, "properties": {"cell_id": "124_1", "lon": -174.0, "lat": -87.75}}, {"type": "Feature", "geometry": {"type": "Polygon", "coordinates": [[[-174.75, -87.0], [-174.75, -85.5], [-173.25, -85.5], [-173.25, -87.0], [-174.75, -87.0]]]}, "properties": {"cell_id": "124_2", "lon": -174.0, "lat": -86.25}}, {"type": "Feature", "geometry": {"type": "Polygon", "coordinates": [[[-174.75, -85.5], [-174.75, -84.0], [-173.25, -84.0], [-173.25, -85.5], [-174.75, -85.5]]]}, "properties": {"cell_id": "124_3", "lon": -174.0, "lat": -84.75}}, {"type": "Feature", "geometry": {"type": "Polygon", "coordinates": [[[-174.75, -84.0], [-174.75, -82.5], [-173.25, -82.5], [-173.25, -84.0], [-174.75, -84.0]]]}, "properties": {"cell_id": "124_4", "lon": -174.0, "lat": -83.25}}, {"type": "Feature", "geometry": {"type": "Polygon", "coordinates": [[[-174.75, -82.5], [-174.75, -81.0], [-173.25, -81.0], [-173.25, -82.5], [-174.75, -82.5]]]}, "properties": {"cell_id": "124_5", "lon": -174.0, "lat": -81.75}}, {"type": "Feature", "geometry": {"type": "Polygon", "coordinates": [[[-174.75, -81.0], [-174.75, -79.5], [-173.25, -79.5], [-173.25, -81.0], [-174.75, -81.0]]]}, "properties": {"cell_id": "124_6", "lon": -174.0, "lat": -80.25}}, {"type": "Feature", "geometry": {"type": "Polygon", "coordinates": [[[-173.25, -90.0], [-173.25, -88.5], [-171.75, -88.5], [-171.75, -90.0], [-173.25, -90.0]]]}, "properties": {"cell_id": "125_0", "lon": -172.5, "lat": -89.25}}, {"type": "Feature", "geometry": {"type": "Polygon", "coordinates": [[[-173.25, -88.5], [-173.25, -87.0], [-171.75, -87.0], [-171.75, -88.5], [-173.25, -88.5]]]}, "properties": {"cell_id": "125_1", "lon": -172.5, "lat": -87.75}}, {"type": "Feature", "geometry": {"type": "Polygon", "coordinates": [[[-173.25, -87.0], [-173.25, -85.5], [-171.75, -85.5], [-171.75, -87.0], [-173.25, -87.0]]]}, "properties": {"cell_id": "125_2", "lon": -172.5, "lat": -86.25}}, {"type": "Feature", "geometry": {"type": "Polygon", "coordinates": [[[-173.25, -85.5], [-173.25, -84.0], [-171.75, -84.0], [-171.75, -85.5], [-173.25, -85.5]]]}, "properties": {"cell_id": "125_3", "lon": -172.5, "lat": -84.75}}, {"type": "Feature", "geometry": {"type": "Polygon", "coordinates": [[[-173.25, -84.0], [-173.25, -82.5], [-171.75, -82.5], [-171.75, -84.0], [-173.25, -84.0]]]}, "properties": {"cell_id": "125_4", "lon": -172.5, "lat": -83.25}}, {"type": "Feature", "geometry": {"type": "Polygon", "coordinates": [[[-173.25, -82.5], [-173.25, -81.0], [-171.75, -81.0], [-171.75, -82.5], [-173.25, -82.5]]]}, "properties": {"cell_id": "125_5", "lon": -172.5, "lat": -81.75}}, {"type": "Feature", "geometry": {"type": "Polygon", "coordinates": [[[-173.25, -81.0], [-173.25, -79.5], [-171.75, -79.5], [-171.75, -81.0], [-173.25, -81.0]]]}, "properties": {"cell_id": "125_6", "lon": -172.5, "lat": -80.25}}, {"type": "Feature", "geometry": {"type": "Polygon", "coordinates": [[[-171.75, -90.0], [-171.75, -88.5], [-170.25, -88.5], [-170.25, -90.0], [-171.75, -90.0]]]}, "properties": {"cell_id": "126_0", "lon": -171.0, "lat": -89.25}}, {"type": "Feature", "geometry": {"type": "Polygon", "coordinates": [[[-171.75, -88.5], [-171.75, -87.0], [-170.25, -87.0], [-170.25, -88.5], [-171.75, -88.5]]]}, "properties": {"cell_id": "126_1", "lon": -171.0, "lat": -87.75}}, {"type": "Feature", "geometry": {"type": "Polygon", "coordinates": [[[-171.75, -87.0], [-171.75, -85.5], [-170.25, -85.5], [-170.25, -87.0], [-171.75, -87.0]]]}, "properties": {"cell_id": "126_2", "lon": -171.0, "lat": -86.25}}, {"type": "Feature", "geometry": {"type": "Polygon", "coordinates": [[[-171.75, -85.5], [-171.75, -84.0], [-170.25, -84.0], [-170.25, -85.5], [-171.75, -85.5]]]}, "properties": {"cell_id": "126_3", "lon": -171.0, "lat": -84.75}}, {"type": "Feature", "geometry": {"type": "Polygon", "coordinates": [[[-171.75, -84.0], [-171.75, -82.5], [-170.25, -82.5], [-170.25, -84.0], [-171.75, -84.0]]]}, "properties": {"cell_id": "126_4", "lon": -171.0, "lat": -83.25}}, {"type": "Feature", "geometry": {"type": "Polygon", "coordinates": [[[-171.75, -82.5], [-171.75, -81.0], [-170.25, -81.0], [-170.25, -82.5], [-171.75, -82.5]]]}, "properties": {"cell_id": "126_5", "lon": -171.0, "lat": -81.75}}, {"type": "Feature", "geometry": {"type": "Polygon", "coordinates": [[[-171.75, -81.0], [-171.75, -79.5], [-170.25, -79.5], [-170.25, -81.0], [-171.75, -81.0]]]}, "properties": {"cell_id": "126_6", "lon": -171.0, "lat": -80.25}}, {"type": "Feature", "geometry": {"type": "Polygon", "coordinates": [[[-170.25, -90.0], [-170.25, -88.5], [-168.75, -88.5], [-168.75, -90.0], [-170.25, -90.0]]]}, "properties": {"cell_id": "127_0", "lon": -169.5, "lat": -89.25}}, {"type": "Feature", "geometry": {"type": "Polygon", "coordinates": [[[-170.25, -88.5], [-170.25, -87.0], [-168.75, -87.0], [-168.75, -88.5], [-170.25, -88.5]]]}, "properties": {"cell_id": "127_1", "lon": -169.5, "lat": -87.75}}, {"type": "Feature", "geometry": {"type": "Polygon", "coordinates": [[[-170.25, -87.0], [-170.25, -85.5], [-168.75, -85.5], [-168.75, -87.0], [-170.25, -87.0]]]}, "properties": {"cell_id": "127_2", "lon": -169.5, "lat": -86.25}}, {"type": "Feature", "geometry": {"type": "Polygon", "coordinates": [[[-170.25, -85.5], [-170.25, -84.0], [-168.75, -84.0], [-168.75, -85.5], [-170.25, -85.5]]]}, "properties": {"cell_id": "127_3", "lon": -169.5, "lat": -84.75}}, {"type": "Feature", "geometry": {"type": "Polygon", "coordinates": [[[-170.25, -84.0], [-170.25, -82.5], [-168.75, -82.5], [-168.75, -84.0], [-170.25, -84.0]]]}, "properties": {"cell_id": "127_4", "lon": -169.5, "lat": -83.25}}, {"type": "Feature", "geometry": {"type": "Polygon", "coordinates": [[[-170.25, -82.5], [-170.25, -81.0], [-168.75, -81.0], [-168.75, -82.5], [-170.25, -82.5]]]}, "properties": {"cell_id": "127_5", "lon": -169.5, "lat": -81.75}}, {"type": "Feature", "geometry": {"type": "Polygon", "coordinates": [[[-170.25, -81.0], [-170.25, -79.5], [-168.75, -79.5], [-168.75, -81.0], [-170.25, -81.0]]]}, "properties": {"cell_id": "127_6", "lon": -169.5, "lat": -80.25}}]}