{"type": "FeatureCollection", "features": [{"type": "Feature", "geometry": {"type": "Polygon", "coordinates": [[[-149.25, -90.0], [-149.25, -88.5], [-147.75, -88.5], [-147.75, -90.0], [-149.25, -90.0]]]}, "properties": {"cell_id": "141_0", "lon": -148.5, "lat": -89.25}}, {"type": "Feature", "geometry": {"type": "Polygon", "coordinates": [[[-149.25, -88.5], [-149.25, -87.0], [-147.75, -87.0], [-147.75, -88.5], [-149.25, -88.5]]]}, "properties": {"cell_id": "141_1", "lon": -148.5, "lat": -87.75}}, {"type": "Feature", "geometry": {"type": "Polygon", "coordinates": [[[-149.25, -87.0], [-149.25, -85.5], [-147.75, -85.5], [-147.75, -87.0], [-149.25, -87.0]]]}, "properties": {"cell_id": "141_2", "lon": -148.5, "lat": -86.25}}, {"type": "Feature", "geometry": {"type": "Polygon", "coordinates": [[[-149.25, -85.5], [-149.25, -84.0], [-147.75, -84.0], [-147.75, -85.5], [-149.25, -85.5]]]}, "properties": {"cell_id": "141_3", "lon": -148.5, "lat": -84.75}}, {"type": "Feature", "geometry": {"type": "Polygon", "coordinates": [[[-149.25, -84.0], [-149.25, -82.5], [-147.75, -82.5], [-147.75, -84.0], [-149.25, -84.0]]]}, "properties": {"cell_id": "141_4", "lon": -148.5, "lat": -83.25}}, {"type": "Feature", "geometry": {"type": "Polygon", "coordinates": [[[-149.25, -82.5], [-149.25, -81.0], [-147.75, -81.0], [-147.75, -82.5], [-149.25, -82.5]]]}, "properties": {"cell_id": "141_5", "lon": -148.5, "lat": -81.75}}, {"type": "Feature", "geometry": {"type": "Polygon", "coordinates": [[[-149.25, -81.0], [-149.25, -79.5], [-147.75, -79.5], [-147.75, -81.0], [-149.25, -81.0]]]}, "properties": {"cell_id": "141_6", "lon": -148.5, "lat": -80.25}}, {"type": "Feature", "geometry": {"type": "Polygon", "coordinates": [[[-147.75, -90.0], [-147.75, -88.5], [-146.25, -88.5], [-146.25, -90.0], [-147.75, -90.0]]]}, "properties": {"cell_id": "142_0", "lon": -147.0, "lat": -89.25}}, {"type": "Feature", "geometry": {"type": "Polygon", "coordinates": [[[-147.75, -88.5], [-147.75, -87.0], [-146.25, -87.0], [-146.25, -88.5], [-147.75, -88.5]]]}, "properties": {"cell_id": "142_1", "lon": -147.0, "lat": -87.75}}, {"type": "Feature", "geometry": {"type": "Polygon", "coordinates": [[[-147.75, -87.0], [-147.75, -85.5], [-146.25, -85.5], [-146.25, -87.0], [-147.75, -87.0]]]}, "properties": {"cell_id": "142_2", "lon": -147.0, "lat": -86.25}}, {"type": "Feature", "geometry": {"type": "Polygon", "coordinates": [[[-147.75, -85.5], [-147.75, -84.0], [-146.25, -84.0], [-146.25, -85.5], [-147.75, -85.5]]]}, "properties": {"cell_id": "142_3", "lon": -147.0, "lat": -84.75}}, {"type": "Feature", "geometry": {"type": "Polygon", "coordinates": [[[-147.75, -84.0], [-147.75, -82.5], [-146.25, -82.5], [-146.25, -84.0], [-147.75, -84.0]]]}, "properties": {"cell_id": "142_4", "lon": -147.0, "lat": -83.25}}, {"type": "Feature", "geometry": {"type": "Polygon", "coordinates": [[[-147.75, -82.5], [-147.75, -81.0], [-146.25, -81.0], [-146.25, -82.5], [-147.75, -82.5]]]}, "properties": {"cell_id": "142_5", "lon": -147.0, "lat": -81.75}}, {"type": "Feature", "geometry": {"type": "Polygon", "coordinates": [[[-147.75, -81.0], [-147.75, -79.5], [-146.25, -79.5], [-146.25, -81.0], [-147.75, -81.0]]]}, "properties": {"cell_id": "142_6", "lon": -147.0, "lat": -80.25}}, {"type": "Feature", "geometry": {"type": "Polygon", "coordinates": [[[-146.25, -90.0], [-146.25, -88.5], [-144.75, -88.5], [-144.75, -90.0], [-146.25, -90.0]]]}, "properties": {"cell_id": "143_0", "lon": -145.5, "lat": -89.25}}, {"type": "Feature", "geometry": {"type": "Polygon", "coordinates": [[[-146.25, -88.5], [-146.25, -87.0], [-144.75, -87.0], [-144.75, -88.5], [-146.25, -88.5]]]}, "properties": {"cell_id": "143_1", "lon": -145.5, "lat": -87.75}}, {"type": "Feature", "geometry": {"type": "Polygon", "coordinates": [[[-146.25, -87.0], [-146.25, -85.5], [-144.75, -85.5], [-144.75, -87.0], [-146.25, -87.0]]]}, "properties": {"cell_id": "143_2", "lon": -145.5, "lat": -86.25}}, {"type": "Feature", "geometry": {"type": "Polygon", "coordinates": [[[-146.25, -85.5], [-146.25, -84.0], [-144.75, -84.0], [-144.75, -85.5], [-146.25, -85.5]]]}, "properties": {"cell_id": "143_3", "lon": -145.5, "lat": -84.75}}, {"type": "Feature", "geometry": {"type": "Polygon", "coordinates": [[[-146.25, -84.0], [-146.25, -82.5], [-144.75, -82.5], [-144.75, -84.0], [-146.25, -84.0]]]}, "properties": {"cell_id": "143_4", "lon": -145.5, "lat": -83.25}}, {"type": "Feature", "geometry": {"type": "Polygon", "coordinates": [[[-146.25, -82.5], [-146.25, -81.0], [-144.75, -81.0], [-144.75, -82.5], [-146.25, -82.5]]]}, "properties": {"cell_id": "143_5", "lon": -145.5, "lat": -81.75}}, {"type": "Feature", "geometry": {"type": "Polygon", "coordinates": [[[-146.25, -81.0], [-146.25, -79.5], [-144.75, -79.5], [-144.75, -81.0], [-146.25, -81.0]]]}, "properties": {"cell_id": "143_6", "lon": -145.5, "lat": -80.25}}, {"type": "Feature", "geometry": {"type": "Polygon", "coordinates": [[[-144.75, -90.0], [-144.75, -88.5], [-143.25, -88.5], [-143.25, -90.0], [-144.75, -90.0]]]}, "properties": {"cell_id": "144_0", "lon": -144.0, "lat": -89.25}}, {"type": "Feature", "geometry": {"type": "Polygon", "coordinates": [[[-144.75, -88.5], [-144.75, -87.0], [-143.25, -87.0], [-143.25, -88.5], [-144.75, -88.5]]]}, "properties": {"cell_id": "144_1", "lon": -144.0, "lat": -87.75}}, {"type": "Feature", "geometry": {"type": "Polygon", "coordinates": [[[-144.75, -87.0], [-144.75, -85.5], [-143.25, -85.5], [-143.25, -87.0], [-144.75, -87.0]]]}, "properties": {"cell_id": "144_2", "lon": -144.0, "lat": -86.25}}, {"type": "Feature", "geometry": {"type": "Polygon", "coordinates": [[[-144.75, -85.5], [-144.75, -84.0], [-143.25, -84.0], [-143.25, -85.5], [-144.75, -85.5]]]}, "properties": {"cell_id": "144_3", "lon": -144.0, "lat": -84.75}}, {"type": "Feature", "geometry": {"type": "Polygon", "coordinates": [[[-144.75, -84.0], [-144.75, -82.5], [-143.25, -82.5], [-143.25, -84.0], [-144.75, -84.0]]]}, "properties": {"cell_id": "144_4", "lon": -144.0, "lat": -83.25}}, {"type": "Feature", "geometry": {"type": "Polygon", "coordinates": [[[-144.75, -82.5], [-144.75, -81.0], [-143.25, -81.0], [-143.25, -82.5], [-144.75, -82.5]]]}, "properties": {"cell_id": "144_5", "lon": -144.0, "lat": -81.75}}, {"type": "Feature", "geometry": {"type": "Polygon", "coordinates": [[[-144.75, -81.0], [-144.75, -79.5], [-143.25, -79.5], [-143.25, -81.0], [-144.75, -81.0]]]}, "properties": {"cell_id": "144_6", "lon": -144.0, "lat": -80.25}}, {"type": "Feature", "geometry": {"type": "Polygon", "coordinates": [[[-143.25, -90.0], [-143.25, -88.5], [-141.75, -88.5], [-141.75, -90.0], [-143.25, -90.0]]]}, "properties": {"cell_id": "145_0", "lon": -142.5, "lat": -89.25}}, {"type": "Feature", "geometry": {"type": "Polygon", "coordinates": [[[-143.25, -88.5], [-143.25, -87.0], [-141.75, -87.0], [-141.75, -88.5], [-143.25, -88.5]]]}, "properties": {"cell_id": "145_1", "lon": -142.5, "lat": -87.75}}, {"type": "Feature", "geometry": {"type": "Polygon", "coordinates": [[[-143.25, -87.0], [-143.25, -85.5], [-141.75, -85.5], [-141.75, -87.0], [-143.25, -87.0]]]}, "properties": {"cell_id": "145_2", "lon": -142.5, "lat": -86.25}}, {"type": "Feature", "geometry": {"type": "Polygon", "coordinates": [[[-143.25, -85.5], [-143.25, -84.0], [-141.75, -84.0], [-141.75, -85.5], [-143.25, -85.5]]]}, "properties": {"cell_id": "145_3", "lon": -142.5, "lat": -84.75}}, {"type": "Feature", "geometry": {"type": "Polygon", "coordinates": [[[-143.25, -84.0], [-143.25, -82.5], [-141.75, -82.5], [-141.75, -84.0], [-143.25, -84.0]]]}, "properties": {"cell_id": "145_4", "lon": -142.5, "lat": -83.25}}, {"type": "Feature", "geometry": {"type": "Polygon", "coordinates": [[[-143.25, -82.5], [-143.25, -81.0], [-141.75, -81.0], [-141.75, -82.5], [-143.25, -82.5]]]}, "properties": {"cell_id": "145_5", "lon": -142.5, "lat": -81.75}}, {"type": "Feature", "geometry": {"type": "Polygon", "coordinates": [[[-143.25, -81.0], [-143.25, -79.5], [-141.75, -79.5], [-141.75, -81.0], [-143.25, -81.0]]]}, "properties": {"cell_id": "145_6", "lon": -142.5, "lat": -80.25}}, {"type": "Feature", "geometry": {"type": "Polygon", "coordinates": [[[-141.75, -90.0], [-141.75, -88.5], [-140.25, -88.5], [-140.25, -90.0], [-141.75, -90.0]]]}, "properties": {"cell_id": "146_0", "lon": -141.0, "lat": -89.25}}, {"type": "Feature", "geometry": {"type": "Polygon", "coordinates": [[[-141.75, -88.5], [-141.75, -87.0], [-140.25, -87.0], [-140.25, -88.5], [-141.75, -88.5]]]}, "properties": {"cell_id": "146_1", "lon": -141.0, "lat": -87.75}}, {"type": "Feature", "geometry": {"type": "Polygon", "coordinates": [[[-141.75, -87.0], [-141.75, -85.5], [-140.25, -85.5], [-140.25, -87.0], [-141.75, -87.0]]]}, "properties": {"cell_id": "146_2", "lon": -141.0, "lat": -86.25}}, {"type": "Feature", "geometry": {"type": "Polygon", "coordinates": [[[-141.75, -85.5], [-141.75, -84.0], [-140.25, -84.0], [-140.25, -85.5], [-141.75, -85.5]]]}, "properties": {"cell_id": "146_3", "lon": -141.0, "lat": -84.75}}, {"type": "Feature", "geometry": {"type": "Polygon", "coordinates": [[[-141.75, -84.0], [-141.75, -82.5], [-140.25, -82.5], [-140.25, -84.0], [-141.75, -84.0]]]}, "properties": {"cell_id": "146_4", "lon": -141.0, "lat": -83.25}}, {"type": "Feature", "geometry": {"type": "Polygon", "coordinates": [[[-141.75, -82.5], [-141.75, -81.0], [-140.25, -81.0], [-140.25, -82.5], [-141.75, -82.5]]]}, "properties": {"cell_id": "146_5", "lon": -141.0, "lat": -81.75}}, {"type": "Feature", "geometry": {"type": "Polygon", "coordinates": [[[-141.75, -81.0], [-141.75, -79.5], [-140.25, -79.5], [-140.25, -81.0], [-141.75, -81.0]]]}, "properties": {"cell_id": "146_6", "lon": -141.0, "lat": -80.25}}, {"type": "Feature", "geometry": {"type": "Polygon", "coordinates": [[[-140.25, -90.0], [-140.25, -88.5], [-138.75, -88.5], [-138.75, -90.0], [-140.25, -90.0]]]}, "properties": {"cell_id": "147_0", "lon": -139.5, "lat": -89.25}}, {"type": "Feature", "geometry": {"type": "Polygon", "coordinates": [[[-140.25, -88.5], [-140.25, -87.0], [-138.75, -87.0], [-138.75, -88.5], [-140.25, -88.5]]]}, "properties": {"cell_id": "147_1", "lon": -139.5, "lat": -87.75}}, {"type": "Feature", "geometry": {"type": "Polygon", "coordinates": [[[-140.25, -87.0], [-140.25, -85.5], [-138.75, -85.5], [-138.75, -87.0], [-140.25, -87.0]]]}, "properties": {"cell_id": "147_2", "lon": -139.5, "lat": -86.25}}, {"type": "Feature", "geometry": {"type": "Polygon", "coordinates": [[[-140.25, -85.5], [-140.25, -84.0], [-138.75, -84.0], [-138.75, -85.5], [-140.25, -85.5]]]}, "properties": {"cell_id": "147_3", "lon": -139.5, "lat": -84.75}}, {"type": "Feature", "geometry": {"type": "Polygon", "coordinates": [[[-140.25, -84.0], [-140.25, -82.5], [-138.75, -82.5], [-138.75, -84.0], [-140.25, -84.0]]]}, "properties": {"cell_id": "147_4", "lon": -139.5, "lat": -83.25}}, {"type": "Feature", "geometry": {"type": "Polygon", "coordinates": [[[-140.25, -82.5], [-140.25, -81.0], [-138.75, -81.0], [-138.75, -82.5], [-140.25, -82.5]]]}, "properties": {"cell_id": "147_5", "lon": -139.5, "lat": -81.75}}, {"type": "Feature", "geometry": {"type": "Polygon", "coordinates": [[[-140.25, -81.0], [-140.25, -79.5], [-138.75, -79.5], [-138.75, -81.0], [-140.25, -81.0]]]}, "properties": {"cell_id": "147_6", "lon": -139.5, "lat": -80.25}}]}