{"type": "FeatureCollection", "features": [{"type": "Feature", "geometry": {"type": "Polygon", "coordinates": [[[120.75, 60.0], [120.75, 61.5], [122.25, 61.5], [122.25, 60.0], [120.75, 60.0]]]}, "properties": {"cell_id": "81_100", "lon": 121.5, "lat": 60.75}}, {"type": "Feature", "geometry": {"type": "Polygon", "coordinates": [[[120.75, 61.5], [120.75, 63.0], [122.25, 63.0], [122.25, 61.5], [120.75, 61.5]]]}, "properties": {"cell_id": "81_101", "lon": 121.5, "lat": 62.25}}, {"type": "Feature", "geometry": {"type": "Polygon", "coordinates": [[[120.75, 63.0], [120.75, 64.5], [122.25, 64.5], [122.25, 63.0], [120.75, 63.0]]]}, "properties": {"cell_id": "81_102", "lon": 121.5, "lat": 63.75}}, {"type": "Feature", "geometry": {"type": "Polygon", "coordinates": [[[120.75, 64.5], [120.75, 66.0], [122.25, 66.0], [122.25, 64.5], [120.75, 64.5]]]}, "properties": {"cell_id": "81_103", "lon": 121.5, "lat": 65.25}}, {"type": "Feature", "geometry": {"type": "Polygon", "coordinates": [[[120.75, 66.0], [120.75, 67.5], [122.25, 67.5], [122.25, 66.0], [120.75, 66.0]]]}, "properties": {"cell_id": "81_104", "lon": 121.5, "lat": 66.75}}, {"type": "Feature", "geometry": {"type": "Polygon", "coordinates": [[[120.75, 67.5], [120.75, 69.0], [122.25, 69.0], [122.25, 67.5], [120.75, 67.5]]]}, "properties": {"cell_id": "81_105", "lon": 121.5, "lat": 68.25}}, {"type": "Feature", "geometry": {"type": "Polygon", "coordinates": [[[120.75, 69.0], [120.75, 70.5], [122.25, 70.5], [122.25, 69.0], [120.75, 69.0]]]}, "properties": {"cell_id": "81_106", "lon": 121.5, "lat": 69.75}}, {"type": "Feature", "geometry": {"type": "Polygon", "coordinates": [[[122.25, 60.0], [122.25, 61.5], [123.75, 61.5], [123.75, 60.0], [122.25, 60.0]]]}, "properties": {"cell_id": "82_100", "lon": 123.0, "lat": 60.75}}, {"type": "Feature", "geometry": {"type": "Polygon", "coordinates": [[[122.25, 61.5], [122.25, 63.0], [123.75, 63.0], [123.75, 61.5], [122.25, 61.5]]]}, "properties": {"cell_id": "82_101", "lon": 123.0, "lat": 62.25}}, {"type": "Feature", "geometry": {"type": "Polygon", "coordinates": [[[122.25, 63.0], [122.25, 64.5], [123.75, 64.5], [123.75, 63.0], [122.25, 63.0]]]}, "properties": {"cell_id": "82_102", "lon": 123.0, "lat": 63.75}}, {"type": "Feature", "geometry": {"type": "Polygon", "coordinates": [[[122.25, 64.5], [122.25, 66.0], [123.75, 66.0], [123.75, 64.5], [122.25, 64.5]]]}, "properties": {"cell_id": "82_103", "lon": 123.0, "lat": 65.25}}, {"type": "Feature", "geometry": {"type": "Polygon", "coordinates": [[[122.25, 66.0], [122.25, 67.5], [123.75, 67.5], [123.75, 66.0], [122.25, 66.0]]]}, "properties": {"cell_id": "82_104", "lon": 123.0, "lat": 66.75}}, {"type": "Feature", "geometry": {"type": "Polygon", "coordinates": [[[122.25, 67.5], [122.25, 69.0], [123.75, 69.0], [123.75, 67.5], [122.25, 67.5]]]}, "properties": {"cell_id": "82_105", "lon": 123.0, "lat": 68.25}}, {"type": "Feature", "geometry": {"type": "Polygon", "coordinates": [[[122.25, 69.0], [122.25, 70.5], [123.75, 70.5], [123.75, 69.0], [122.25, 69.0]]]}, "properties": {"cell_id": "82_106", "lon": 123.0, "lat": 69.75}}, {"type": "Feature", "geometry": {"type": "Polygon", "coordinates": [[[123.75, 60.0], [123.75, 61.5], [125.25, 61.5], [125.25, 60.0], [123.75, 60.0]]]}, "properties": {"cell_id": "83_100", "lon": 124.5, "lat": 60.75}}, {"type": "Feature", "geometry": {"type": "Polygon", "coordinates": [[[123.75, 61.5], [123.75, 63.0], [125.25, 63.0], [125.25, 61.5], [123.75, 61.5]]]}, "properties": {"cell_id": "83_101", "lon": 124.5, "lat": 62.25}}, {"type": "Feature", "geometry": {"type": "Polygon", "coordinates": [[[123.75, 63.0], [123.75, 64.5], [125.25, 64.5], [125.25, 63.0], [123.75, 63.0]]]}, "properties": {"cell_id": "83_102", "lon": 124.5, "lat": 63.75}}, {"type": "Feature", "geometry": {"type": "Polygon", "coordinates": [[[123.75, 64.5], [123.75, 66.0], [125.25, 66.0], [125.25, 64.5], [123.75, 64.5]]]}, "properties": {"cell_id": "83_103", "lon": 124.5, "lat": 65.25}}, {"type": "Feature", "geometry": {"type": "Polygon", "coordinates": [[[123.75, 66.0], [123.75, 67.5], [125.25, 67.5], [125.25, 66.0], [123.75, 66.0]]]}, "properties": {"cell_id": "83_104", "lon": 124.5, "lat": 66.75}}, {"type": "Feature", "geometry": {"type": "Polygon", "coordinates": [[[123.75, 67.5], [123.75, 69.0], [125.25, 69.0], [125.25, 67.5], [123.75, 67.5]]]}, "properties": {"cell_id": "83_105", "lon": 124.5, "lat": 68.25}}, {"type": "Feature", "geometry": {"type": "Polygon", "coordinates": [[[123.75, 69.0], [123.75, 70.5], [125.25, 70.5], [125.25, 69.0], [123.75, 69.0]]]}, "properties": {"cell_id": "83_106", "lon": 124.5, "lat": 69.75}}, {"type": "Feature", "geometry": {"type": "Polygon", "coordinates": [[[125.25, 60.0], [125.25, 61.5], [126.75, 61.5], [126.75, 60.0], [125.25, 60.0]]]}, "properties": {"cell_id": "84_100", "lon": 126.0, "lat": 60.75}}, {"type": "Feature", "geometry": {"type": "Polygon", "coordinates": [[[125.25, 61.5], [125.25, 63.0], [126.75, 63.0], [126.75, 61.5], [125.25, 61.5]]]}, "properties": {"cell_id": "84_101", "lon": 126.0, "lat": 62.25}}, {"type": "Feature", "geometry": {"type": "Polygon", "coordinates": [[[125.25, 63.0], [125.25, 64.5], [126.75, 64.5], [126.75, 63.0], [125.25, 63.0]]]}, "properties": {"cell_id": "84_102", "lon": 126.0, "lat": 63.75}}, {"type": "Feature", "geometry": {"type": "Polygon", "coordinates": [[[125.25, 64.5], [125.25, 66.0], [126.75, 66.0], [126.75, 64.5], [125.25, 64.5]]]}, "properties": {"cell_id": "84_103", "lon": 126.0, "lat": 65.25}}, {"type": "Feature", "geometry": {"type": "Polygon", "coordinates": [[[125.25, 66.0], [125.25, 67.5], [126.75, 67.5], [126.75, 66.0], [125.25, 66.0]]]}, "properties": {"cell_id": "84_104", "lon": 126.0, "lat": 66.75}}, {"type": "Feature", "geometry": {"type": "Polygon", "coordinates": [[[125.25, 67.5], [125.25, 69.0], [126.75, 69.0], [126.75, 67.5], [125.25, 67.5]]]}, "properties": {"cell_id": "84_105", "lon": 126.0, "lat": 68.25}}, {"type": "Feature", "geometry": {"type": "Polygon", "coordinates": [[[125.25, 69.0], [125.25, 70.5], [126.75, 70.5], [126.75, 69.0], [125.25, 69.0]]]}, "properties": {"cell_id": "84_106", "lon": 126.0, "lat": 69.75}}, {"type": "Feature", "geometry": {"type": "Polygon", "coordinates": [[[126.75, 60.0], [126.75, 61.5], [128.25, 61.5], [128.25, 60.0], [126.75, 60.0]]]}, "properties": {"cell_id": "85_100", "lon": 127.5, "lat": 60.75}}, {"type": "Feature", "geometry": {"type": "Polygon", "coordinates": [[[126.75, 61.5], [126.75, 63.0], [128.25, 63.0], [128.25, 61.5], [126.75, 61.5]]]}, "properties": {"cell_id": "85_101", "lon": 127.5, "lat": 62.25}}, {"type": "Feature", "geometry": {"type": "Polygon", "coordinates": [[[126.75, 63.0], [126.75, 64.5], [128.25, 64.5], [128.25, 63.0], [126.75, 63.0]]]}, "properties": {"cell_id": "85_102", "lon": 127.5, "lat": 63.75}}, {"type": "Feature", "geometry": {"type": "Polygon", "coordinates": [[[126.75, 64.5], [126.75, 66.0], [128.25, 66.0], [128.25, 64.5], [126.75, 64.5]]]}, "properties": {"cell_id": "85_103", "lon": 127.5, "lat": 65.25}}, {"type": "Feature", "geometry": {"type": "Polygon", "coordinates": [[[126.75, 66.0], [126.75, 67.5], [128.25, 67.5], [128.25, 66.0], [126.75, 66.0]]]}, "properties": {"cell_id": "85_104", "lon": 127.5, "lat": 66.75}}, {"type": "Feature", "geometry": {"type": "Polygon", "coordinates": [[[126.75, 67.5], [126.75, 69.0], [128.25, 69.0], [128.25, 67.5], [126.75, 67.5]]]}, "properties": {"cell_id": "85_105", "lon": 127.5, "lat": 68.25}}, {"type": "Feature", "geometry": {"type": "Polygon", "coordinates": [[[126.75, 69.0], [126.75, 70.5], [128.25, 70.5], [128.25, 69.0], [126.75, 69.0]]]}, "properties": {"cell_id": "85_106", "lon": 127.5, "lat": 69.75}}, {"type": "Feature", "geometry": {"type": "Polygon", "coordinates": [[[128.25, 60.0], [128.25, 61.5], [129.75, 61.5], [129.75, 60.0], [128.25, 60.0]]]}, "properties": {"cell_id": "86_100", "lon": 129.0, "lat": 60.75}}, {"type": "Feature", "geometry": {"type": "Polygon", "coordinates": [[[128.25, 61.5], [128.25, 63.0], [129.75, 63.0], [129.75, 61.5], [128.25, 61.5]]]}, "properties": {"cell_id": "86_101", "lon": 129.0, "lat": 62.25}}, {"type": "Feature", "geometry": {"type": "Polygon", "coordinates": [[[128.25, 63.0], [128.25, 64.5], [129.75, 64.5], [129.75, 63.0], [128.25, 63.0]]]}, "properties": {"cell_id": "86_102", "lon": 129.0, "lat": 63.75}}, {"type": "Feature", "geometry": {"type": "Polygon", "coordinates": [[[128.25, 64.5], [128.25, 66.0], [129.75, 66.0], [129.75, 64.5], [128.25, 64.5]]]}, "properties": {"cell_id": "86_103", "lon": 129.0, "lat": 65.25}}, {"type": "Feature", "geometry": {"type": "Polygon", "coordinates": [[[128.25, 66.0], [128.25, 67.5], [129.75, 67.5], [129.75, 66.0], [128.25, 66.0]]]}, "properties": {"cell_id": "86_104", "lon": 129.0, "lat": 66.75}}, {"type": "Feature", "geometry": {"type": "Polygon", "coordinates": [[[128.25, 67.5], [128.25, 69.0], [129.75, 69.0], [129.75, 67.5], [128.25, 67.5]]]}, "properties": {"cell_id": "86_105", "lon": 129.0, "lat": 68.25}}, {"type": "Feature", "geometry": {"type": "Polygon", "coordinates": [[[128.25, 69.0], [128.25, 70.5], [129.75, 70.5], [129.75, 69.0], [128.25, 69.0]]]}, "properties": {"cell_id": "86_106", "lon": 129.0, "lat": 69.75}}, {"type": "Feature", "geometry": {"type": "Polygon", "coordinates": [[[129.75, 60.0], [129.75, 61.5], [131.25, 61.5], [131.25, 60.0], [129.75, 60.0]]]}, "properties": {"cell_id": "87_100", "lon": 130.5, "lat": 60.75}}, {"type": "Feature", "geometry": {"type": "Polygon", "coordinates": [[[129.75, 61.5], [129.75, 63.0], [131.25, 63.0], [131.25, 61.5], [129.75, 61.5]]]}, "properties": {"cell_id": "87_101", "lon": 130.5, "lat": 62.25}}, {"type": "Feature", "geometry": {"type": "Polygon", "coordinates": [[[129.75, 63.0], [129.75, 64.5], [131.25, 64.5], [131.25, 63.0], [129.75, 63.0]]]}, "properties": {"cell_id": "87_102", "lon": 130.5, "lat": 63.75}}, {"type": "Feature", "geometry": {"type": "Polygon", "coordinates": [[[129.75, 64.5], [129.75, 66.0], [131.25, 66.0], [131.25, 64.5], [129.75, 64.5]]]}, "properties": {"cell_id": "87_103", "lon": 130.5, "lat": 65.25}}, {"type": "Feature", "geometry": {"type": "Polygon", "coordinates": [[[129.75, 66.0], [129.75, 67.5], [131.25, 67.5], [131.25, 66.0], [129.75, 66.0]]]}, "properties": {"cell_id": "87_104", "lon": 130.5, "lat": 66.75}}, {"type": "Feature", "geometry": {"type": "Polygon", "coordinates": [[[129.75, 67.5], [129.75, 69.0], [131.25, 69.0], [131.25, 67.5], [129.75, 67.5]]]}, "properties": {"cell_id": "87_105", "lon": 130.5, "lat": 68.25}}, {"type": "Feature", "geometry": {"type": "Polygon", "coordinates": [[[129.75, 69.0], [129.75, 70.5], [131.25, 70.5], [131.25, 69.0], [129.75, 69.0]]]}, "properties": {"cell_id": "87_106", "lon": 130.5, "lat": 69.75}}]}