{"type": "FeatureCollection", "features": [{"type": "Feature", "geometry": {"type": "Polygon", "coordinates": [[[-59.25, -9.0], [-59.25, -7.5], [-57.75, -7.5], [-57.75, -9.0], [-59.25, -9.0]]]}, "properties": {"cell_id": "201_54", "lon": -58.5, "lat": -8.25}}, {"type": "Feature", "geometry": {"type": "Polygon", "coordinates": [[[-59.25, -7.5], [-59.25, -6.0], [-57.75, -6.0], [-57.75, -7.5], [-59.25, -7.5]]]}, "properties": {"cell_id": "201_55", "lon": -58.5, "lat": -6.75}}, {"type": "Feature", "geometry": {"type": "Polygon", "coordinates": [[[-59.25, -6.0], [-59.25, -4.5], [-57.75, -4.5], [-57.75, -6.0], [-59.25, -6.0]]]}, "properties": {"cell_id": "201_56", "lon": -58.5, "lat": -5.25}}, {"type": "Feature", "geometry": {"type": "Polygon", "coordinates": [[[-59.25, -4.5], [-59.25, -3.0], [-57.75, -3.0], [-57.75, -4.5], [-59.25, -4.5]]]}, "properties": {"cell_id": "201_57", "lon": -58.5, "lat": -3.75}}, {"type": "Feature", "geometry": {"type": "Polygon", "coordinates": [[[-59.25, -3.0], [-59.25, -1.5], [-57.75, -1.5], [-57.75, -3.0], [-59.25, -3.0]]]}, "properties": {"cell_id": "201_58", "lon": -58.5, "lat": -2.25}}, {"type": "Feature", "geometry": {"type": "Polygon", "coordinates": [[[-59.25, -1.5], [-59.25, 0.0], [-57.75, 0.0], [-57.75, -1.5], [-59.25, -1.5]]]}, "properties": {"cell_id": "201_59", "lon": -58.5, "lat": -0.75}}, {"type": "Feature", "geometry": {"type": "Polygon", "coordinates": [[[-57.75, -9.0], [-57.75, -7.5], [-56.25, -7.5], [-56.25, -9.0], [-57.75, -9.0]]]}, "properties": {"cell_id": "202_54", "lon": -57.0, "lat": -8.25}}, {"type": "Feature", "geometry": {"type": "Polygon", "coordinates": [[[-57.75, -7.5], [-57.75, -6.0], [-56.25, -6.0], [-56.25, -7.5], [-57.75, -7.5]]]}, "properties": {"cell_id": "202_55", "lon": -57.0, "lat": -6.75}}, {"type": "Feature", "geometry": {"type": "Polygon", "coordinates": [[[-57.75, -6.0], [-57.75, -4.5], [-56.25, -4.5], [-56.25, -6.0], [-57.75, -6.0]]]}, "properties": {"cell_id": "202_56", "lon": -57.0, "lat": -5.25}}, {"type": "Feature", "geometry": {"type": "Polygon", "coordinates": [[[-57.75, -4.5], [-57.75, -3.0], [-56.25, -3.0], [-56.25, -4.5], [-57.75, -4.5]]]}, "properties": {"cell_id": "202_57", "lon": -57.0, "lat": -3.75}}, {"type": "Feature", "geometry": {"type": "Polygon", "coordinates": [[[-57.75, -3.0], [-57.75, -1.5], [-56.25, -1.5], [-56.25, -3.0], [-57.75, -3.0]]]}, "properties": {"cell_id": "202_58", "lon": -57.0, "lat": -2.25}}, {"type": "Feature", "geometry": {"type": "Polygon", "coordinates": [[[-57.75, -1.5], [-57.75, 0.0], [-56.25, 0.0], [-56.25, -1.5], [-57.75, -1.5]]]}, "properties": {"cell_id": "202_59", "lon": -57.0, "lat": -0.75}}, {"type": "Feature", "geometry": {"type": "Polygon", "coordinates": [[[-56.25, -9.0], [-56.25, -7.5], [-54.75, -7.5], [-54.75, -9.0], [-56.25, -9.0]]]}, "properties": {"cell_id": "203_54", "lon": -55.5, "lat": -8.25}}, {"type": "Feature", "geometry": {"type": "Polygon", "coordinates": [[[-56.25, -7.5], [-56.25, -6.0], [-54.75, -6.0], [-54.75, -7.5], [-56.25, -7.5]]]}, "properties": {"cell_id": "203_55", "lon": -55.5, "lat": -6.75}}, {"type": "Feature", "geometry": {"type": "Polygon", "coordinates": [[[-56.25, -6.0], [-56.25, -4.5], [-54.75, -4.5], [-54.75, -6.0], [-56.25, -6.0]]]}, "properties": {"cell_id": "203_56", "lon": -55.5, "lat": -5.25}}, {"type": "Feature", "geometry": {"type": "Polygon", "coordinates": [[[-56.25, -4.5], [-56.25, -3.0], [-54.75, -3.0], [-54.75, -4.5], [-56.25, -4.5]]]}, "properties": {"cell_id": "203_57", "lon": -55.5, "lat": -3.75}}, {"type": "Feature", "geometry": {"type": "Polygon", "coordinates": [[[-56.25, -3.0], [-56.25, -1.5], [-54.75, -1.5], [-54.75, -3.0], [-56.25, -3.0]]]}, "properties": {"cell_id": "203_58", "lon": -55.5, "lat": -2.25}}, {"type": "Feature", "geometry": {"type": "Polygon", "coordinates": [[[-56.25, -1.5], [-56.25, 0.0], [-54.75, 0.0], [-54.75, -1.5], [-56.25, -1.5]]]}, "properties": {"cell_id": "203_59", "lon": -55.5, "lat": -0.75}}, {"type": "Feature", "geometry": {"type": "Polygon", "coordinates": [[[-54.75, -9.0], [-54.75, -7.5], [-53.25, -7.5], [-53.25, -9.0], [-54.75, -9.0]]]}, "properties": {"cell_id": "204_54", "lon": -54.0, "lat": -8.25}}, {"type": "Feature", "geometry": {"type": "Polygon", "coordinates": [[[-54.75, -7.5], [-54.75, -6.0], [-53.25, -6.0], [-53.25, -7.5], [-54.75, -7.5]]]}, "properties": {"cell_id": "204_55", "lon": -54.0, "lat": -6.75}}, {"type": "Feature", "geometry": {"type": "Polygon", "coordinates": [[[-54.75, -6.0], [-54.75, -4.5], [-53.25, -4.5], [-53.25, -6.0], [-54.75, -6.0]]]}, "properties": {"cell_id": "204_56", "lon": -54.0, "lat": -5.25}}, {"type": "Feature", "geometry": {"type": "Polygon", "coordinates": [[[-54.75, -4.5], [-54.75, -3.0], [-53.25, -3.0], [-53.25, -4.5], [-54.75, -4.5]]]}, "properties": {"cell_id": "204_57", "lon": -54.0, "lat": -3.75}}, {"type": "Feature", "geometry": {"type": "Polygon", "coordinates": [[[-54.75, -3.0], [-54.75, -1.5], [-53.25, -1.5], [-53.25, -3.0], [-54.75, -3.0]]]}, "properties": {"cell_id": "204_58", "lon": -54.0, "lat": -2.25}}, {"type": "Feature", "geometry": {"type": "Polygon", "coordinates": [[[-54.75, -1.5], [-54.75, 0.0], [-53.25, 0.0], [-53.25, -1.5], [-54.75, -1.5]]]}, "properties": {"cell_id": "204_59", "lon": -54.0, "lat": -0.75}}, {"type": "Feature", "geometry": {"type": "Polygon", "coordinates": [[[-53.25, -9.0], [-53.25, -7.5], [-51.75, -7.5], [-51.75, -9.0], [-53.25, -9.0]]]}, "properties": {"cell_id": "205_54", "lon": -52.5, "lat": -8.25}}, {"type": "Feature", "geometry": {"type": "Polygon", "coordinates": [[[-53.25, -7.5], [-53.25, -6.0], [-51.75, -6.0], [-51.75, -7.5], [-53.25, -7.5]]]}, "properties": {"cell_id": "205_55", "lon": -52.5, "lat": -6.75}}, {"type": "Feature", "geometry": {"type": "Polygon", "coordinates": [[[-53.25, -6.0], [-53.25, -4.5], [-51.75, -4.5], [-51.75, -6.0], [-53.25, -6.0]]]}, "properties": {"cell_id": "205_56", "lon": -52.5, "lat": -5.25}}, {"type": "Feature", "geometry": {"type": "Polygon", "coordinates": [[[-53.25, -4.5], [-53.25, -3.0], [-51.75, -3.0], [-51.75, -4.5], [-53.25, -4.5]]]}, "properties": {"cell_id": "205_57", "lon": -52.5, "lat": -3.75}}, {"type": "Feature", "geometry": {"type": "Polygon", "coordinates": [[[-53.25, -3.0], [-53.25, -1.5], [-51.75, -1.5], [-51.75, -3.0], [-53.25, -3.0]]]}, "properties": {"cell_id": "205_58", "lon": -52.5, "lat": -2.25}}, {"type": "Feature", "geometry": {"type": "Polygon", "coordinates": [[[-53.25, -1.5], [-53.25, 0.0], [-51.75, 0.0], [-51.75, -1.5], [-53.25, -1.5]]]}, "properties": {"cell_id": "205_59", "lon": -52.5, "lat": -0.75}}, {"type": "Feature", "geometry": {"type": "Polygon", "coordinates": [[[-51.75, -9.0], [-51.75, -7.5], [-50.25, -7.5], [-50.25, -9.0], [-51.75, -9.0]]]}, "properties": {"cell_id": "206_54", "lon": -51.0, "lat": -8.25}}, {"type": "Feature", "geometry": {"type": "Polygon", "coordinates": [[[-51.75, -7.5], [-51.75, -6.0], [-50.25, -6.0], [-50.25, -7.5], [-51.75, -7.5]]]}, "properties": {"cell_id": "206_55", "lon": -51.0, "lat": -6.75}}, {"type": "Feature", "geometry": {"type": "Polygon", "coordinates": [[[-51.75, -6.0], [-51.75, -4.5], [-50.25, -4.5], [-50.25, -6.0], [-51.75, -6.0]]]}, "properties": {"cell_id": "206_56", "lon": -51.0, "lat": -5.25}}, {"type": "Feature", "geometry": {"type": "Polygon", "coordinates": [[[-51.75, -4.5], [-51.75, -3.0], [-50.25, -3.0], [-50.25, -4.5], [-51.75, -4.5]]]}, "properties": {"cell_id": "206_57", "lon": -51.0, "lat": -3.75}}, {"type": "Feature", "geometry": {"type": "Polygon", "coordinates": [[[-51.75, -3.0], [-51.75, -1.5], [-50.25, -1.5], [-50.25, -3.0], [-51.75, -3.0]]]}, "properties": {"cell_id": "206_58", "lon": -51.0, "lat": -2.25}}, {"type": "Feature", "geometry": {"type": "Polygon", "coordinates": [[[-51.75, -1.5], [-51.75, 0.0], [-50.25, 0.0], [-50.25, -1.5], [-51.75, -1.5]]]}, "properties": {"cell_id": "206_59", "lon": -51.0, "lat": -0.75}}, {"type": "Feature", "geometry": {"type": "Polygon", "coordinates": [[[-50.25, -9.0], [-50.25, -7.5], [-48.75, -7.5], [-48.75, -9.0], [-50.25, -9.0]]]}, "properties": {"cell_id": "207_54", "lon": -49.5, "lat": -8.25}}, {"type": "Feature", "geometry": {"type": "Polygon", "coordinates": [[[-50.25, -7.5], [-50.25, -6.0], [-48.75, -6.0], [-48.75, -7.5], [-50.25, -7.5]]]}, "properties": {"cell_id": "207_55", "lon": -49.5, "lat": -6.75}}, {"type": "Feature", "geometry": {"type": "Polygon", "coordinates": [[[-50.25, -6.0], [-50.25, -4.5], [-48.75, -4.5], [-48.75, -6.0], [-50.25, -6.0]]]}, "properties": {"cell_id": "207_56", "lon": -49.5, "lat": -5.25}}, {"type": "Feature", "geometry": {"type": "Polygon", "coordinates": [[[-50.25, -4.5], [-50.25, -3.0], [-48.75, -3.0], [-48.75, -4.5], [-50.25, -4.5]]]}, "properties": {"cell_id": "207_57", "lon": -49.5, "lat": -3.75}}, {"type": "Feature", "geometry": {"type": "Polygon", "coordinates": [[[-50.25, -3.0], [-50.25, -1.5], [-48.75, -1.5], [-48.75, -3.0], [-50.25, -3.0]]]}, "properties": {"cell_id": "207_58", "lon": -49.5, "lat": -2.25}}, {"type": "Feature", "geometry": {"type": "Polygon", "coordinates": [[[-50.25, -1.5], [-50.25, 0.0], [-48.75, 0.0], [-48.75, -1.5], [-50.25, -1.5]]]}, "properties": {"cell_id": "207_59", "lon": -49.5, "lat": -0.75}}]}