{"type": "FeatureCollection", "features": [{"type": "Feature", "geometry": {"type": "Polygon", "coordinates": [[[131.25, 31.5], [131.25, 33.0], [132.75, 33.0], [132.75, 31.5], [131.25, 31.5]]]}, "properties": {"cell_id": "88_81", "lon": 132.0, "lat": 32.25}}, {"type": "Feature", "geometry": {"type": "Polygon", "coordinates": [[[131.25, 33.0], [131.25, 34.5], [132.75, 34.5], [132.75, 33.0], [131.25, 33.0]]]}, "properties": {"cell_id": "88_82", "lon": 132.0, "lat": 33.75}}, {"type": "Feature", "geometry": {"type": "Polygon", "coordinates": [[[131.25, 34.5], [131.25, 36.0], [132.75, 36.0], [132.75, 34.5], [131.25, 34.5]]]}, "properties": {"cell_id": "88_83", "lon": 132.0, "lat": 35.25}}, {"type": "Feature", "geometry": {"type": "Polygon", "coordinates": [[[132.75, 33.0], [132.75, 34.5], [134.25, 34.5], [134.25, 33.0], [132.75, 33.0]]]}, "properties": {"cell_id": "89_82", "lon": 133.5, "lat": 33.75}}, {"type": "Feature", "geometry": {"type": "Polygon", "coordinates": [[[132.75, 34.5], [132.75, 36.0], [134.25, 36.0], [134.25, 34.5], [132.75, 34.5]]]}, "properties": {"cell_id": "89_83", "lon": 133.5, "lat": 35.25}}, {"type": "Feature", "geometry": {"type": "Polygon", "coordinates": [[[134.25, 33.0], [134.25, 34.5], [135.75, 34.5], [135.75, 33.0], [134.25, 33.0]]]}, "properties": {"cell_id": "90_82", "lon": 135.0, "lat": 33.75}}, {"type": "Feature", "geometry": {"type": "Polygon", "coordinates": [[[134.25, 34.5], [134.25, 36.0], [135.75, 36.0], [135.75, 34.5], [134.25, 34.5]]]}, "properties": {"cell_id": "90_83", "lon": 135.0, "lat": 35.25}}, {"type": "Feature", "geometry": {"type": "Polygon", "coordinates": [[[135.75, 33.0], [135.75, 34.5], [137.25, 34.5], [137.25, 33.0], [135.75, 33.0]]]}, "properties": {"cell_id": "91_82", "lon": 136.5, "lat": 33.75}}, {"type": "Feature", "geometry": {"type": "Polygon", "coordinates": [[[135.75, 34.5], [135.75, 36.0], [137.25, 36.0], [137.25, 34.5], [135.75, 34.5]]]}, "properties": {"cell_id": "91_83", "lon": 136.5, "lat": 35.25}}, {"type": "Feature", "geometry": {"type": "Polygon", "coordinates": [[[135.75, 36.0], [135.75, 37.5], [137.25, 37.5], [137.25, 36.0], [135.75, 36.0]]]}, "properties": {"cell_id": "91_84", "lon": 136.5, "lat": 36.75}}, {"type": "Feature", "geometry": {"type": "Polygon", "coordinates": [[[137.25, 34.5], [137.25, 36.0], [138.75, 36.0], [138.75, 34.5], [137.25, 34.5]]]}, "properties": {"cell_id": "92_83", "lon": 138.0, "lat": 35.25}}, {"type": "Feature", "geometry": {"type": "Polygon", "coordinates": [[[137.25, 36.0], [137.25, 37.5], [138.75, 37.5], [138.75, 36.0], [137.25, 36.0]]]}, "properties": {"cell_id": "92_84", "lon": 138.0, "lat": 36.75}}, {"type": "Feature", "geometry": {"type": "Polygon", "coordinates": [[[138.75, 34.5], [138.75, 36.0], [140.25, 36.0], [140.25, 34.5], [138.75, 34.5]]]}, "properties": {"cell_id": "93_83", "lon": 139.5, "lat": 35.25}}, {"type": "Feature", "geometry": {"type": "Polygon", "coordinates": [[[138.75, 36.0], [138.75, 37.5], [140.25, 37.5], [140.25, 36.0], [138.75, 36.0]]]}, "properties": {"cell_id": "93_84", "lon": 139.5, "lat": 36.75}}, {"type": "Feature", "geometry": {"type": "Polygon", "coordinates": [[[138.75, 37.5], [138.75, 39.0], [140.25, 39.0], [140.25, 37.5], [138.75, 37.5]]]}, "properties": {"cell_id": "93_85", "lon": 139.5, "lat": 38.25}}, {"type": "Feature", "geometry": {"type": "Polygon", "coordinates": [[[138.75, 39.0], [138.75, 40.5], [140.25, 40.5], [140.25, 39.0], [138.75, 39.0]]]}, "properties": {"cell_id": "93_86", "lon": 139.5, "lat": 39.75}}]}