{"type": "FeatureCollection", "features": [{"type": "Feature", "geometry": {"type": "Polygon", "coordinates": [[[45.0, -20.0], [45.0, -17.5], [47.5, -17.5], [47.5, -20.0], [45.0, -20.0]]]}, "properties": {"cell_id": "18_28", "lon": 46.25, "lat": -18.75}}, {"type": "Feature", "geometry": {"type": "Polygon", "coordinates": [[[45.0, -17.5], [45.0, -15.0], [47.5, -15.0], [47.5, -17.5], [45.0, -17.5]]]}, "properties": {"cell_id": "18_29", "lon": 46.25, "lat": -16.25}}, {"type": "Feature", "geometry": {"type": "Polygon", "coordinates": [[[47.5, -20.0], [47.5, -17.5], [50.0, -17.5], [50.0, -20.0], [47.5, -20.0]]]}, "properties": {"cell_id": "19_28", "lon": 48.75, "lat": -18.75}}, {"type": "Feature", "geometry": {"type": "Polygon", "coordinates": [[[47.5, -17.5], [47.5, -15.0], [50.0, -15.0], [50.0, -17.5], [47.5, -17.5]]]}, "properties": {"cell_id": "19_29", "lon": 48.75, "lat": -16.25}}, {"type": "Feature", "geometry": {"type": "Polygon", "coordinates": [[[47.5, -15.0], [47.5, -12.5], [50.0, -12.5], [50.0, -15.0], [47.5, -15.0]]]}, "properties": {"cell_id": "19_30", "lon": 48.75, "lat": -13.75}}]}