{"type": "FeatureCollection", "features": [{"type": "Feature", "geometry": {"type": "Polygon", "coordinates": [[[10.0, 30.0], [10.0, 32.5], [12.5, 32.5], [12.5, 30.0], [10.0, 30.0]]]}, "properties": {"cell_id": "4_48", "lon": 11.25, "lat": 31.25}}, {"type": "Feature", "geometry": {"type": "Polygon", "coordinates": [[[12.5, 30.0], [12.5, 32.5], [15.0, 32.5], [15.0, 30.0], [12.5, 30.0]]]}, "properties": {"cell_id": "5_48", "lon": 13.75, "lat": 31.25}}, {"type": "Feature", "geometry": {"type": "Polygon", "coordinates": [[[15.0, 30.0], [15.0, 32.5], [17.5, 32.5], [17.5, 30.0], [15.0, 30.0]]]}, "properties": {"cell_id": "6_48", "lon": 16.25, "lat": 31.25}}, {"type": "Feature", "geometry": {"type": "Polygon", "coordinates": [[[15.0, 37.5], [15.0, 40.0], [17.5, 40.0], [17.5, 37.5], [15.0, 37.5]]]}, "properties": {"cell_id": "6_51", "lon": 16.25, "lat": 38.75}}]}