{"type": "FeatureCollection", "features": [{"type": "Feature", "geometry": {"type": "Polygon", "coordinates": [[[80.0, 60.0], [80.0, 62.5], [82.5, 62.5], [82.5, 60.0], [80.0, 60.0]]]}, "properties": {"cell_id": "32_60", "lon": 81.25, "lat": 61.25}}, {"type": "Feature", "geometry": {"type": "Polygon", "coordinates": [[[80.0, 62.5], [80.0, 65.0], [82.5, 65.0], [82.5, 62.5], [80.0, 62.5]]]}, "properties": {"cell_id": "32_61", "lon": 81.25, "lat": 63.75}}, {"type": "Feature", "geometry": {"type": "Polygon", "coordinates": [[[80.0, 65.0], [80.0, 67.5], [82.5, 67.5], [82.5, 65.0], [80.0, 65.0]]]}, "properties": {"cell_id": "32_62", "lon": 81.25, "lat": 66.25}}, {"type": "Feature", "geometry": {"type": "Polygon", "coordinates": [[[80.0, 67.5], [80.0, 70.0], [82.5, 70.0], [82.5, 67.5], [80.0, 67.5]]]}, "properties": {"cell_id": "32_63", "lon": 81.25, "lat": 68.75}}, {"type": "Feature", "geometry": {"type": "Polygon", "coordinates": [[[82.5, 60.0], [82.5, 62.5], [85.0, 62.5], [85.0, 60.0], [82.5, 60.0]]]}, "properties": {"cell_id": "33_60", "lon": 83.75, "lat": 61.25}}, {"type": "Feature", "geometry": {"type": "Polygon", "coordinates": [[[82.5, 62.5], [82.5, 65.0], [85.0, 65.0], [85.0, 62.5], [82.5, 62.5]]]}, "properties": {"cell_id": "33_61", "lon": 83.75, "lat": 63.75}}, {"type": "Feature", "geometry": {"type": "Polygon", "coordinates": [[[82.5, 65.0], [82.5, 67.5], [85.0, 67.5], [85.0, 65.0], [82.5, 65.0]]]}, "properties": {"cell_id": "33_62", "lon": 83.75, "lat": 66.25}}, {"type": "Feature", "geometry": {"type": "Polygon", "coordinates": [[[82.5, 67.5], [82.5, 70.0], [85.0, 70.0], [85.0, 67.5], [82.5, 67.5]]]}, "properties": {"cell_id": "33_63", "lon": 83.75, "lat": 68.75}}, {"type": "Feature", "geometry": {"type": "Polygon", "coordinates": [[[85.0, 60.0], [85.0, 62.5], [87.5, 62.5], [87.5, 60.0], [85.0, 60.0]]]}, "properties": {"cell_id": "34_60", "lon": 86.25, "lat": 61.25}}, {"type": "Feature", "geometry": {"type": "Polygon", "coordinates": [[[85.0, 62.5], [85.0, 65.0], [87.5, 65.0], [87.5, 62.5], [85.0, 62.5]]]}, "properties": {"cell_id": "34_61", "lon": 86.25, "lat": 63.75}}, {"type": "Feature", "geometry": {"type": "Polygon", "coordinates": [[[85.0, 65.0], [85.0, 67.5], [87.5, 67.5], [87.5, 65.0], [85.0, 65.0]]]}, "properties": {"cell_id": "34_62", "lon": 86.25, "lat": 66.25}}, {"type": "Feature", "geometry": {"type": "Polygon", "coordinates": [[[85.0, 67.5], [85.0, 70.0], [87.5, 70.0], [87.5, 67.5], [85.0, 67.5]]]}, "properties": {"cell_id": "34_63", "lon": 86.25, "lat": 68.75}}, {"type": "Feature", "geometry": {"type": "Polygon", "coordinates": [[[87.5, 60.0], [87.5, 62.5], [90.0, 62.5], [90.0, 60.0], [87.5, 60.0]]]}, "properties": {"cell_id": "35_60", "lon": 88.75, "lat": 61.25}}, {"type": "Feature", "geometry": {"type": "Polygon", "coordinates": [[[87.5, 62.5], [87.5, 65.0], [90.0, 65.0], [90.0, 62.5], [87.5, 62.5]]]}, "properties": {"cell_id": "35_61", "lon": 88.75, "lat": 63.75}}, {"type": "Feature", "geometry": {"type": "Polygon", "coordinates": [[[87.5, 65.0], [87.5, 67.5], [90.0, 67.5], [90.0, 65.0], [87.5, 65.0]]]}, "properties": {"cell_id": "35_62", "lon": 88.75, "lat": 66.25}}, {"type": "Feature", "geometry": {"type": "Polygon", "coordinates": [[[87.5, 67.5], [87.5, 70.0], [90.0, 70.0], [90.0, 67.5], [87.5, 67.5]]]}, "properties": {"cell_id": "35_63", "lon": 88.75, "lat": 68.75}}]}