{"type": "FeatureCollection", "features": [{"type": "Feature", "geometry": {"type": "Polygon", "coordinates": [[[30.0, 30.0], [30.0, 32.5], [32.5, 32.5], [32.5, 30.0], [30.0, 30.0]]]}, "properties": {"cell_id": "12_48", "lon": 31.25, "lat": 31.25}}, {"type": "Feature", "geometry": {"type": "Polygon", "coordinates": [[[30.0, 37.5], [30.0, 40.0], [32.5, 40.0], [32.5, 37.5], [30.0, 37.5]]]}, "properties": {"cell_id": "12_51", "lon": 31.25, "lat": 38.75}}, {"type": "Feature", "geometry": {"type": "Polygon", "coordinates": [[[32.5, 35.0], [32.5, 37.5], [35.0, 37.5], [35.0, 35.0], [32.5, 35.0]]]}, "properties": {"cell_id": "13_50", "lon": 33.75, "lat": 36.25}}, {"type": "Feature", "geometry": {"type": "Polygon", "coordinates": [[[32.5, 37.5], [32.5, 40.0], [35.0, 40.0], [35.0, 37.5], [32.5, 37.5]]]}, "properties": {"cell_id": "13_51", "lon": 33.75, "lat": 38.75}}, {"type": "Feature", "geometry": {"type": "Polygon", "coordinates": [[[35.0, 30.0], [35.0, 32.5], [37.5, 32.5], [37.5, 30.0], [35.0, 30.0]]]}, "properties": {"cell_id": "14_48", "lon": 36.25, "lat": 31.25}}, {"type": "Feature", "geometry": {"type": "Polygon", "coordinates": [[[35.0, 32.5], [35.0, 35.0], [37.5, 35.0], [37.5, 32.5], [35.0, 32.5]]]}, "properties": {"cell_id": "14_49", "lon": 36.25, "lat": 33.75}}, {"type": "Feature", "geometry": {"type": "Polygon", "coordinates": [[[35.0, 35.0], [35.0, 37.5], [37.5, 37.5], [37.5, 35.0], [35.0, 35.0]]]}, "properties": {"cell_id": "14_50", "lon": 36.25, "lat": 36.25}}, {"type": "Feature", "geometry": {"type": "Polygon", "coordinates": [[[35.0, 37.5], [35.0, 40.0], [37.5, 40.0], [37.5, 37.5], [35.0, 37.5]]]}, "properties": {"cell_id": "14_51", "lon": 36.25, "lat": 38.75}}, {"type": "Feature", "geometry": {"type": "Polygon", "coordinates": [[[37.5, 30.0], [37.5, 32.5], [40.0, 32.5], [40.0, 30.0], [37.5, 30.0]]]}, "properties": {"cell_id": "15_48", "lon": 38.75, "lat": 31.25}}, {"type": "Feature", "geometry": {"type": "Polygon", "coordinates": [[[37.5, 32.5], [37.5, 35.0], [40.0, 35.0], [40.0, 32.5], [37.5, 32.5]]]}, "properties": {"cell_id": "15_49", "lon": 38.75, "lat": 33.75}}, {"type": "Feature", "geometry": {"type": "Polygon", "coordinates": [[[37.5, 35.0], [37.5, 37.5], [40.0, 37.5], [40.0, 35.0], [37.5, 35.0]]]}, "properties": {"cell_id": "15_50", "lon": 38.75, "lat": 36.25}}, {"type": "Feature", "geometry": {"type": "Polygon", "coordinates": [[[37.5, 37.5], [37.5, 40.0], [40.0, 40.0], [40.0, 37.5], [37.5, 37.5]]]}, "properties": {"cell_id": "15_51", "lon": 38.75, "lat": 38.75}}]}