{"type": "FeatureCollection", "features": [{"type": "Feature", "geometry": {"type": "Polygon", "coordinates": [[[20.0, 50.0], [20.0, 52.5], [22.5, 52.5], [22.5, 50.0], [20.0, 50.0]]]}, "properties": {"cell_id": "8_56", "lon": 21.25, "lat": 51.25}}, {"type": "Feature", "geometry": {"type": "Polygon", "coordinates": [[[20.0, 52.5], [20.0, 55.0], [22.5, 55.0], [22.5, 52.5], [20.0, 52.5]]]}, "properties": {"cell_id": "8_57", "lon": 21.25, "lat": 53.75}}, {"type": "Feature", "geometry": {"type": "Polygon", "coordinates": [[[20.0, 55.0], [20.0, 57.5], [22.5, 57.5], [22.5, 55.0], [20.0, 55.0]]]}, "properties": {"cell_id": "8_58", "lon": 21.25, "lat": 56.25}}, {"type": "Feature", "geometry": {"type": "Polygon", "coordinates": [[[22.5, 50.0], [22.5, 52.5], [25.0, 52.5], [25.0, 50.0], [22.5, 50.0]]]}, "properties": {"cell_id": "9_56", "lon": 23.75, "lat": 51.25}}, {"type": "Feature", "geometry": {"type": "Polygon", "coordinates": [[[22.5, 52.5], [22.5, 55.0], [25.0, 55.0], [25.0, 52.5], [22.5, 52.5]]]}, "properties": {"cell_id": "9_57", "lon": 23.75, "lat": 53.75}}, {"type": "Feature", "geometry": {"type": "Polygon", "coordinates": [[[22.5, 55.0], [22.5, 57.5], [25.0, 57.5], [25.0, 55.0], [22.5, 55.0]]]}, "properties": {"cell_id": "9_58", "lon": 23.75, "lat": 56.25}}, {"type": "Feature", "geometry": {"type": "Polygon", "coordinates": [[[22.5, 57.5], [22.5, 60.0], [25.0, 60.0], [25.0, 57.5], [22.5, 57.5]]]}, "properties": {"cell_id": "9_59", "lon": 23.75, "lat": 58.75}}, {"type": "Feature", "geometry": {"type": "Polygon", "coordinates": [[[25.0, 50.0], [25.0, 52.5], [27.5, 52.5], [27.5, 50.0], [25.0, 50.0]]]}, "properties": {"cell_id": "10_56", "lon": 26.25, "lat": 51.25}}, {"type": "Feature", "geometry": {"type": "Polygon", "coordinates": [[[25.0, 52.5], [25.0, 55.0], [27.5, 55.0], [27.5, 52.5], [25.0, 52.5]]]}, "properties": {"cell_id": "10_57", "lon": 26.25, "lat": 53.75}}, {"type": "Feature", "geometry": {"type": "Polygon", "coordinates": [[[25.0, 55.0], [25.0, 57.5], [27.5, 57.5], [27.5, 55.0], [25.0, 55.0]]]}, "properties": {"cell_id": "10_58", "lon": 26.25, "lat": 56.25}}, {"type": "Feature", "geometry": {"type": "Polygon", "coordinates": [[[25.0, 57.5], [25.0, 60.0], [27.5, 60.0], [27.5, 57.5], [25.0, 57.5]]]}, "properties": {"cell_id": "10_59", "lon": 26.25, "lat": 58.75}}, {"type": "Feature", "geometry": {"type": "Polygon", "coordinates": [[[27.5, 50.0], [27.5, 52.5], [30.0, 52.5], [30.0, 50.0], [27.5, 50.0]]]}, "properties": {"cell_id": "11_56", "lon": 28.75, "lat": 51.25}}, {"type": "Feature", "geometry": {"type": "Polygon", "coordinates": [[[27.5, 52.5], [27.5, 55.0], [30.0, 55.0], [30.0, 52.5], [27.5, 52.5]]]}, "properties": {"cell_id": "11_57", "lon": 28.75, "lat": 53.75}}, {"type": "Feature", "geometry": {"type": "Polygon", "coordinates": [[[27.5, 55.0], [27.5, 57.5], [30.0, 57.5], [30.0, 55.0], [27.5, 55.0]]]}, "properties": {"cell_id": "11_58", "lon": 28.75, "lat": 56.25}}, {"type": "Feature", "geometry": {"type": "Polygon", "coordinates": [[[27.5, 57.5], [27.5, 60.0], [30.0, 60.0], [30.0, 57.5], [27.5, 57.5]]]}, "properties": {"cell_id": "11_59", "lon": 28.75, "lat": 58.75}}]}