{"type": "FeatureCollection", "features": [{"type": "Feature", "geometry": {"type": "Polygon", "coordinates": [[[50.25, 60.0], [50.25, 61.5], [51.75, 61.5], [51.75, 60.0], [50.25, 60.0]]]}, "properties": {"cell_id": "34_100", "lon": 51.0, "lat": 60.75}}, {"type": "Feature", "geometry": {"type": "Polygon", "coordinates": [[[50.25, 61.5], [50.25, 63.0], [51.75, 63.0], [51.75, 61.5], [50.25, 61.5]]]}, "properties": {"cell_id": "34_101", "lon": 51.0, "lat": 62.25}}, {"type": "Feature", "geometry": {"type": "Polygon", "coordinates": [[[50.25, 63.0], [50.25, 64.5], [51.75, 64.5], [51.75, 63.0], [50.25, 63.0]]]}, "properties": {"cell_id": "34_102", "lon": 51.0, "lat": 63.75}}, {"type": "Feature", "geometry": {"type": "Polygon", "coordinates": [[[50.25, 64.5], [50.25, 66.0], [51.75, 66.0], [51.75, 64.5], [50.25, 64.5]]]}, "properties": {"cell_id": "34_103", "lon": 51.0, "lat": 65.25}}, {"type": "Feature", "geometry": {"type": "Polygon", "coordinates": [[[50.25, 66.0], [50.25, 67.5], [51.75, 67.5], [51.75, 66.0], [50.25, 66.0]]]}, "properties": {"cell_id": "34_104", "lon": 51.0, "lat": 66.75}}, {"type": "Feature", "geometry": {"type": "Polygon", "coordinates": [[[50.25, 67.5], [50.25, 69.0], [51.75, 69.0], [51.75, 67.5], [50.25, 67.5]]]}, "properties": {"cell_id": "34_105", "lon": 51.0, "lat": 68.25}}, {"type": "Feature", "geometry": {"type": "Polygon", "coordinates": [[[51.75, 60.0], [51.75, 61.5], [53.25, 61.5], [53.25, 60.0], [51.75, 60.0]]]}, "properties": {"cell_id": "35_100", "lon": 52.5, "lat": 60.75}}, {"type": "Feature", "geometry": {"type": "Polygon", "coordinates": [[[51.75, 61.5], [51.75, 63.0], [53.25, 63.0], [53.25, 61.5], [51.75, 61.5]]]}, "properties": {"cell_id": "35_101", "lon": 52.5, "lat": 62.25}}, {"type": "Feature", "geometry": {"type": "Polygon", "coordinates": [[[51.75, 63.0], [51.75, 64.5], [53.25, 64.5], [53.25, 63.0], [51.75, 63.0]]]}, "properties": {"cell_id": "35_102", "lon": 52.5, "lat": 63.75}}, {"type": "Feature", "geometry": {"type": "Polygon", "coordinates": [[[51.75, 64.5], [51.75, 66.0], [53.25, 66.0], [53.25, 64.5], [51.75, 64.5]]]}, "properties": {"cell_id": "35_103", "lon": 52.5, "lat": 65.25}}, {"type": "Feature", "geometry": {"type": "Polygon", "coordinates": [[[51.75, 66.0], [51.75, 67.5], [53.25, 67.5], [53.25, 66.0], [51.75, 66.0]]]}, "properties": {"cell_id": "35_104", "lon": 52.5, "lat": 66.75}}, {"type": "Feature", "geometry": {"type": "Polygon", "coordinates": [[[51.75, 67.5], [51.75, 69.0], [53.25, 69.0], [53.25, 67.5], [51.75, 67.5]]]}, "properties": {"cell_id": "35_105", "lon": 52.5, "lat": 68.25}}, {"type": "Feature", "geometry": {"type": "Polygon", "coordinates": [[[53.25, 60.0], [53.25, 61.5], [54.75, 61.5], [54.75, 60.0], [53.25, 60.0]]]}, "properties": {"cell_id": "36_100", "lon": 54.0, "lat": 60.75}}, {"type": "Feature", "geometry": {"type": "Polygon", "coordinates": [[[53.25, 61.5], [53.25, 63.0], [54.75, 63.0], [54.75, 61.5], [53.25, 61.5]]]}, "properties": {"cell_id": "36_101", "lon": 54.0, "lat": 62.25}}, {"type": "Feature", "geometry": {"type": "Polygon", "coordinates": [[[53.25, 63.0], [53.25, 64.5], [54.75, 64.5], [54.75, 63.0], [53.25, 63.0]]]}, "properties": {"cell_id": "36_102", "lon": 54.0, "lat": 63.75}}, {"type": "Feature", "geometry": {"type": "Polygon", "coordinates": [[[53.25, 64.5], [53.25, 66.0], [54.75, 66.0], [54.75, 64.5], [53.25, 64.5]]]}, "properties": {"cell_id": "36_103", "lon": 54.0, "lat": 65.25}}, {"type": "Feature", "geometry": {"type": "Polygon", "coordinates": [[[53.25, 66.0], [53.25, 67.5], [54.75, 67.5], [54.75, 66.0], [53.25, 66.0]]]}, "properties": {"cell_id": "36_104", "lon": 54.0, "lat": 66.75}}, {"type": "Feature", "geometry": {"type": "Polygon", "coordinates": [[[53.25, 67.5], [53.25, 69.0], [54.75, 69.0], [54.75, 67.5], [53.25, 67.5]]]}, "properties": {"cell_id": "36_105", "lon": 54.0, "lat": 68.25}}, {"type": "Feature", "geometry": {"type": "Polygon", "coordinates": [[[54.75, 60.0], [54.75, 61.5], [56.25, 61.5], [56.25, 60.0], [54.75, 60.0]]]}, "properties": {"cell_id": "37_100", "lon": 55.5, "lat": 60.75}}, {"type": "Feature", "geometry": {"type": "Polygon", "coordinates": [[[54.75, 61.5], [54.75, 63.0], [56.25, 63.0], [56.25, 61.5], [54.75, 61.5]]]}, "properties": {"cell_id": "37_101", "lon": 55.5, "lat": 62.25}}, {"type": "Feature", "geometry": {"type": "Polygon", "coordinates": [[[54.75, 63.0], [54.75, 64.5], [56.25, 64.5], [56.25, 63.0], [54.75, 63.0]]]}, "properties": {"cell_id": "37_102", "lon": 55.5, "lat": 63.75}}, {"type": "Feature", "geometry": {"type": "Polygon", "coordinates": [[[54.75, 64.5], [54.75, 66.0], [56.25, 66.0], [56.25, 64.5], [54.75, 64.5]]]}, "properties": {"cell_id": "37_103", "lon": 55.5, "lat": 65.25}}, {"type": "Feature", "geometry": {"type": "Polygon", "coordinates": [[[54.75, 66.0], [54.75, 67.5], [56.25, 67.5], [56.25, 66.0], [54.75, 66.0]]]}, "properties": {"cell_id": "37_104", "lon": 55.5, "lat": 66.75}}, {"type": "Feature", "geometry": {"type": "Polygon", "coordinates": [[[54.75, 67.5], [54.75, 69.0], [56.25, 69.0], [56.25, 67.5], [54.75, 67.5]]]}, "properties": {"cell_id": "37_105", "lon": 55.5, "lat": 68.25}}, {"type": "Feature", "geometry": {"type": "Polygon", "coordinates": [[[56.25, 60.0], [56.25, 61.5], [57.75, 61.5], [57.75, 60.0], [56.25, 60.0]]]}, "properties": {"cell_id": "38_100", "lon": 57.0, "lat": 60.75}}, {"type": "Feature", "geometry": {"type": "Polygon", "coordinates": [[[56.25, 61.5], [56.25, 63.0], [57.75, 63.0], [57.75, 61.5], [56.25, 61.5]]]}, "properties": {"cell_id": "38_101", "lon": 57.0, "lat": 62.25}}, {"type": "Feature", "geometry": {"type": "Polygon", "coordinates": [[[56.25, 63.0], [56.25, 64.5], [57.75, 64.5], [57.75, 63.0], [56.25, 63.0]]]}, "properties": {"cell_id": "38_102", "lon": 57.0, "lat": 63.75}}, {"type": "Feature", "geometry": {"type": "Polygon", "coordinates": [[[56.25, 64.5], [56.25, 66.0], [57.75, 66.0], [57.75, 64.5], [56.25, 64.5]]]}, "properties": {"cell_id": "38_103", "lon": 57.0, "lat": 65.25}}, {"type": "Feature", "geometry": {"type": "Polygon", "coordinates": [[[56.25, 66.0], [56.25, 67.5], [57.75, 67.5], [57.75, 66.0], [56.25, 66.0]]]}, "properties": {"cell_id": "38_104", "lon": 57.0, "lat": 66.75}}, {"type": "Feature", "geometry": {"type": "Polygon", "coordinates": [[[56.25, 67.5], [56.25, 69.0], [57.75, 69.0], [57.75, 67.5], [56.25, 67.5]]]}, "properties": {"cell_id": "38_105", "lon": 57.0, "lat": 68.25}}, {"type": "Feature", "geometry": {"type": "Polygon", "coordinates": [[[57.75, 60.0], [57.75, 61.5], [59.25, 61.5], [59.25, 60.0], [57.75, 60.0]]]}, "properties": {"cell_id": "39_100", "lon": 58.5, "lat": 60.75}}, {"type": "Feature", "geometry": {"type": "Polygon", "coordinates": [[[57.75, 61.5], [57.75, 63.0], [59.25, 63.0], [59.25, 61.5], [57.75, 61.5]]]}, "properties": {"cell_id": "39_101", "lon": 58.5, "lat": 62.25}}, {"type": "Feature", "geometry": {"type": "Polygon", "coordinates": [[[57.75, 63.0], [57.75, 64.5], [59.25, 64.5], [59.25, 63.0], [57.75, 63.0]]]}, "properties": {"cell_id": "39_102", "lon": 58.5, "lat": 63.75}}, {"type": "Feature", "geometry": {"type": "Polygon", "coordinates": [[[57.75, 64.5], [57.75, 66.0], [59.25, 66.0], [59.25, 64.5], [57.75, 64.5]]]}, "properties": {"cell_id": "39_103", "lon": 58.5, "lat": 65.25}}, {"type": "Feature", "geometry": {"type": "Polygon", "coordinates": [[[57.75, 66.0], [57.75, 67.5], [59.25, 67.5], [59.25, 66.0], [57.75, 66.0]]]}, "properties": {"cell_id": "39_104", "lon": 58.5, "lat": 66.75}}, {"type": "Feature", "geometry": {"type": "Polygon", "coordinates": [[[57.75, 67.5], [57.75, 69.0], [59.25, 69.0], [59.25, 67.5], [57.75, 67.5]]]}, "properties": {"cell_id": "39_105", "lon": 58.5, "lat": 68.25}}, {"type": "Feature", "geometry": {"type": "Polygon", "coordinates": [[[59.25, 60.0], [59.25, 61.5], [60.75, 61.5], [60.75, 60.0], [59.25, 60.0]]]}, "properties": {"cell_id": "40_100", "lon": 60.0, "lat": 60.75}}, {"type": "Feature", "geometry": {"type": "Polygon", "coordinates": [[[59.25, 61.5], [59.25, 63.0], [60.75, 63.0], [60.75, 61.5], [59.25, 61.5]]]}, "properties": {"cell_id": "40_101", "lon": 60.0, "lat": 62.25}}, {"type": "Feature", "geometry": {"type": "Polygon", "coordinates": [[[59.25, 63.0], [59.25, 64.5], [60.75, 64.5], [60.75, 63.0], [59.25, 63.0]]]}, "properties": {"cell_id": "40_102", "lon": 60.0, "lat": 63.75}}, {"type": "Feature", "geometry": {"type": "Polygon", "coordinates": [[[59.25, 64.5], [59.25, 66.0], [60.75, 66.0], [60.75, 64.5], [59.25, 64.5]]]}, "properties": {"cell_id": "40_103", "lon": 60.0, "lat": 65.25}}, {"type": "Feature", "geometry": {"type": "Polygon", "coordinates": [[[59.25, 66.0], [59.25, 67.5], [60.75, 67.5], [60.75, 66.0], [59.25, 66.0]]]}, "properties": {"cell_id": "40_104", "lon": 60.0, "lat": 66.75}}, {"type": "Feature", "geometry": {"type": "Polygon", "coordinates": [[[59.25, 67.5], [59.25, 69.0], [60.75, 69.0], [60.75, 67.5], [59.25, 67.5]]]}, "properties": {"cell_id": "40_105", "lon": 60.0, "lat": 68.25}}, {"type": "Feature", "geometry": {"type": "Polygon", "coordinates": [[[59.25, 69.0], [59.25, 70.5], [60.75, 70.5], [60.75, 69.0], [59.25, 69.0]]]}, "properties": {"cell_id": "40_106", "lon": 60.0, "lat": 69.75}}]}