{"type": "FeatureCollection", "features": [{"type": "Feature", "geometry": {"type": "Polygon", "coordinates": [[[90.0, 50.0], [90.0, 52.5], [92.5, 52.5], [92.5, 50.0], [90.0, 50.0]]]}, "properties": {"cell_id": "36_56", "lon": 91.25, "lat": 51.25}}, {"type": "Feature", "geometry": {"type": "Polygon", "coordinates": [[[90.0, 52.5], [90.0, 55.0], [92.5, 55.0], [92.5, 52.5], [90.0, 52.5]]]}, "properties": {"cell_id": "36_57", "lon": 91.25, "lat": 53.75}}, {"type": "Feature", "geometry": {"type": "Polygon", "coordinates": [[[90.0, 55.0], [90.0, 57.5], [92.5, 57.5], [92.5, 55.0], [90.0, 55.0]]]}, "properties": {"cell_id": "36_58", "lon": 91.25, "lat": 56.25}}, {"type": "Feature", "geometry": {"type": "Polygon", "coordinates": [[[90.0, 57.5], [90.0, 60.0], [92.5, 60.0], [92.5, 57.5], [90.0, 57.5]]]}, "properties": {"cell_id": "36_59", "lon": 91.25, "lat": 58.75}}, {"type": "Feature", "geometry": {"type": "Polygon", "coordinates": [[[92.5, 50.0], [92.5, 52.5], [95.0, 52.5], [95.0, 50.0], [92.5, 50.0]]]}, "properties": {"cell_id": "37_56", "lon": 93.75, "lat": 51.25}}, {"type": "Feature", "geometry": {"type": "Polygon", "coordinates": [[[92.5, 52.5], [92.5, 55.0], [95.0, 55.0], [95.0, 52.5], [92.5, 52.5]]]}, "properties": {"cell_id": "37_57", "lon": 93.75, "lat": 53.75}}, {"type": "Feature", "geometry": {"type": "Polygon", "coordinates": [[[92.5, 55.0], [92.5, 57.5], [95.0, 57.5], [95.0, 55.0], [92.5, 55.0]]]}, "properties": {"cell_id": "37_58", "lon": 93.75, "lat": 56.25}}, {"type": "Feature", "geometry": {"type": "Polygon", "coordinates": [[[92.5, 57.5], [92.5, 60.0], [95.0, 60.0], [95.0, 57.5], [92.5, 57.5]]]}, "properties": {"cell_id": "37_59", "lon": 93.75, "lat": 58.75}}, {"type": "Feature", "geometry": {"type": "Polygon", "coordinates": [[[95.0, 50.0], [95.0, 52.5], [97.5, 52.5], [97.5, 50.0], [95.0, 50.0]]]}, "properties": {"cell_id": "38_56", "lon": 96.25, "lat": 51.25}}, {"type": "Feature", "geometry": {"type": "Polygon", "coordinates": [[[95.0, 52.5], [95.0, 55.0], [97.5, 55.0], [97.5, 52.5], [95.0, 52.5]]]}, "properties": {"cell_id": "38_57", "lon": 96.25, "lat": 53.75}}, {"type": "Feature", "geometry": {"type": "Polygon", "coordinates": [[[95.0, 55.0], [95.0, 57.5], [97.5, 57.5], [97.5, 55.0], [95.0, 55.0]]]}, "properties": {"cell_id": "38_58", "lon": 96.25, "lat": 56.25}}, {"type": "Feature", "geometry": {"type": "Polygon", "coordinates": [[[95.0, 57.5], [95.0, 60.0], [97.5, 60.0], [97.5, 57.5], [95.0, 57.5]]]}, "properties": {"cell_id": "38_59", "lon": 96.25, "lat": 58.75}}, {"type": "Feature", "geometry": {"type": "Polygon", "coordinates": [[[97.5, 50.0], [97.5, 52.5], [100.0, 52.5], [100.0, 50.0], [97.5, 50.0]]]}, "properties": {"cell_id": "39_56", "lon": 98.75, "lat": 51.25}}, {"type": "Feature", "geometry": {"type": "Polygon", "coordinates": [[[97.5, 52.5], [97.5, 55.0], [100.0, 55.0], [100.0, 52.5], [97.5, 52.5]]]}, "properties": {"cell_id": "39_57", "lon": 98.75, "lat": 53.75}}, {"type": "Feature", "geometry": {"type": "Polygon", "coordinates": [[[97.5, 55.0], [97.5, 57.5], [100.0, 57.5], [100.0, 55.0], [97.5, 55.0]]]}, "properties": {"cell_id": "39_58", "lon": 98.75, "lat": 56.25}}, {"type": "Feature", "geometry": {"type": "Polygon", "coordinates": [[[97.5, 57.5], [97.5, 60.0], [100.0, 60.0], [100.0, 57.5], [97.5, 57.5]]]}, "properties": {"cell_id": "39_59", "lon": 98.75, "lat": 58.75}}]}