{"type": "FeatureCollection", "features": [{"type": "Feature", "geometry": {"type": "Polygon", "coordinates": [[[80.25, -69.0], [80.25, -67.5], [81.75, -67.5], [81.75, -69.0], [80.25, -69.0]]]}, "properties": {"cell_id": "54_14", "lon": 81.0, "lat": -68.25}}, {"type": "Feature", "geometry": {"type": "Polygon", "coordinates": [[[81.75, -69.0], [81.75, -67.5], [83.25, -67.5], [83.25, -69.0], [81.75, -69.0]]]}, "properties": {"cell_id": "55_14", "lon": 82.5, "lat": -68.25}}, {"type": "Feature", "geometry": {"type": "Polygon", "coordinates": [[[81.75, -67.5], [81.75, -66.0], [83.25, -66.0], [83.25, -67.5], [81.75, -67.5]]]}, "properties": {"cell_id": "55_15", "lon": 82.5, "lat": -66.75}}, {"type": "Feature", "geometry": {"type": "Polygon", "coordinates": [[[83.25, -69.0], [83.25, -67.5], [84.75, -67.5], [84.75, -69.0], [83.25, -69.0]]]}, "properties": {"cell_id": "56_14", "lon": 84.0, "lat": -68.25}}, {"type": "Feature", "geometry": {"type": "Polygon", "coordinates": [[[83.25, -67.5], [83.25, -66.0], [84.75, -66.0], [84.75, -67.5], [83.25, -67.5]]]}, "properties": {"cell_id": "56_15", "lon": 84.0, "lat": -66.75}}, {"type": "Feature", "geometry": {"type": "Polygon", "coordinates": [[[84.75, -69.0], [84.75, -67.5], [86.25, -67.5], [86.25, -69.0], [84.75, -69.0]]]}, "properties": {"cell_id": "57_14", "lon": 85.5, "lat": -68.25}}, {"type": "Feature", "geometry": {"type": "Polygon", "coordinates": [[[84.75, -67.5], [84.75, -66.0], [86.25, -66.0], [86.25, -67.5], [84.75, -67.5]]]}, "properties": {"cell_id": "57_15", "lon": 85.5, "lat": -66.75}}, {"type": "Feature", "geometry": {"type": "Polygon", "coordinates": [[[86.25, -69.0], [86.25, -67.5], [87.75, -67.5], [87.75, -69.0], [86.25, -69.0]]]}, "properties": {"cell_id": "58_14", "lon": 87.0, "lat": -68.25}}, {"type": "Feature", "geometry": {"type": "Polygon", "coordinates": [[[86.25, -67.5], [86.25, -66.0], [87.75, -66.0], [87.75, -67.5], [86.25, -67.5]]]}, "properties": {"cell_id": "58_15", "lon": 87.0, "lat": -66.75}}, {"type": "Feature", "geometry": {"type": "Polygon", "coordinates": [[[87.75, -69.0], [87.75, -67.5], [89.25, -67.5], [89.25, -69.0], [87.75, -69.0]]]}, "properties": {"cell_id": "59_14", "lon": 88.5, "lat": -68.25}}, {"type": "Feature", "geometry": {"type": "Polygon", "coordinates": [[[87.75, -67.5], [87.75, -66.0], [89.25, -66.0], [89.25, -67.5], [87.75, -67.5]]]}, "properties": {"cell_id": "59_15", "lon": 88.5, "lat": -66.75}}, {"type": "Feature", "geometry": {"type": "Polygon", "coordinates": [[[89.25, -69.0], [89.25, -67.5], [90.75, -67.5], [90.75, -69.0], [89.25, -69.0]]]}, "properties": {"cell_id": "60_14", "lon": 90.0, "lat": -68.25}}, {"type": "Feature", "geometry": {"type": "Polygon", "coordinates": [[[89.25, -67.5], [89.25, -66.0], [90.75, -66.0], [90.75, -67.5], [89.25, -67.5]]]}, "properties": {"cell_id": "60_15", "lon": 90.0, "lat": -66.75}}]}