{"type": "FeatureCollection", "features": [{"type": "Feature", "geometry": {"type": "Polygon", "coordinates": [[[-100.0, 30.0], [-100.0, 32.5], [-97.5, 32.5], [-97.5, 30.0], [-100.0, 30.0]]]}, "properties": {"cell_id": "104_48", "lon": -98.75, "lat": 31.25}}, {"type": "Feature", "geometry": {"type": "Polygon", "coordinates": [[[-100.0, 32.5], [-100.0, 35.0], [-97.5, 35.0], [-97.5, 32.5], [-100.0, 32.5]]]}, "properties": {"cell_id": "104_49", "lon": -98.75, "lat": 33.75}}, {"type": "Feature", "geometry": {"type": "Polygon", "coordinates": [[[-100.0, 35.0], [-100.0, 37.5], [-97.5, 37.5], [-97.5, 35.0], [-100.0, 35.0]]]}, "properties": {"cell_id": "104_50", "lon": -98.75, "lat": 36.25}}, {"type": "Feature", "geometry": {"type": "Polygon", "coordinates": [[[-100.0, 37.5], [-100.0, 40.0], [-97.5, 40.0], [-97.5, 37.5], [-100.0, 37.5]]]}, "properties": {"cell_id": "104_51", "lon": -98.75, "lat": 38.75}}, {"type": "Feature", "geometry": {"type": "Polygon", "coordinates": [[[-97.5, 30.0], [-97.5, 32.5], [-95.0, 32.5], [-95.0, 30.0], [-97.5, 30.0]]]}, "properties": {"cell_id": "105_48", "lon": -96.25, "lat": 31.25}}, {"type": "Feature", "geometry": {"type": "Polygon", "coordinates": [[[-97.5, 32.5], [-97.5, 35.0], [-95.0, 35.0], [-95.0, 32.5], [-97.5, 32.5]]]}, "properties": {"cell_id": "105_49", "lon": -96.25, "lat": 33.75}}, {"type": "Feature", "geometry": {"type": "Polygon", "coordinates": [[[-97.5, 35.0], [-97.5, 37.5], [-95.0, 37.5], [-95.0, 35.0], [-97.5, 35.0]]]}, "properties": {"cell_id": "105_50", "lon": -96.25, "lat": 36.25}}, {"type": "Feature", "geometry": {"type": "Polygon", "coordinates": [[[-97.5, 37.5], [-97.5, 40.0], [-95.0, 40.0], [-95.0, 37.5], [-97.5, 37.5]]]}, "properties": {"cell_id": "105_51", "lon": -96.25, "lat": 38.75}}, {"type": "Feature", "geometry": {"type": "Polygon", "coordinates": [[[-95.0, 30.0], [-95.0, 32.5], [-92.5, 32.5], [-92.5, 30.0], [-95.0, 30.0]]]}, "properties": {"cell_id": "106_48", "lon": -93.75, "lat": 31.25}}, {"type": "Feature", "geometry": {"type": "Polygon", "coordinates": [[[-95.0, 32.5], [-95.0, 35.0], [-92.5, 35.0], [-92.5, 32.5], [-95.0, 32.5]]]}, "properties": {"cell_id": "106_49", "lon": -93.75, "lat": 33.75}}, {"type": "Feature", "geometry": {"type": "Polygon", "coordinates": [[[-95.0, 35.0], [-95.0, 37.5], [-92.5, 37.5], [-92.5, 35.0], [-95.0, 35.0]]]}, "properties": {"cell_id": "106_50", "lon": -93.75, "lat": 36.25}}, {"type": "Feature", "geometry": {"type": "Polygon", "coordinates": [[[-95.0, 37.5], [-95.0, 40.0], [-92.5, 40.0], [-92.5, 37.5], [-95.0, 37.5]]]}, "properties": {"cell_id": "106_51", "lon": -93.75, "lat": 38.75}}, {"type": "Feature", "geometry": {"type": "Polygon", "coordinates": [[[-92.5, 30.0], [-92.5, 32.5], [-90.0, 32.5], [-90.0, 30.0], [-92.5, 30.0]]]}, "properties": {"cell_id": "107_48", "lon": -91.25, "lat": 31.25}}, {"type": "Feature", "geometry": {"type": "Polygon", "coordinates": [[[-92.5, 32.5], [-92.5, 35.0], [-90.0, 35.0], [-90.0, 32.5], [-92.5, 32.5]]]}, "properties": {"cell_id": "107_49", "lon": -91.25, "lat": 33.75}}, {"type": "Feature", "geometry": {"type": "Polygon", "coordinates": [[[-92.5, 35.0], [-92.5, 37.5], [-90.0, 37.5], [-90.0, 35.0], [-92.5, 35.0]]]}, "properties": {"cell_id": "107_50", "lon": -91.25, "lat": 36.25}}, {"type": "Feature", "geometry": {"type": "Polygon", "coordinates": [[[-92.5, 37.5], [-92.5, 40.0], [-90.0, 40.0], [-90.0, 37.5], [-92.5, 37.5]]]}, "properties": {"cell_id": "107_51", "lon": -91.25, "lat": 38.75}}]}