{"type": "FeatureCollection", "features": [{"type": "Feature", "geometry": {"type": "Polygon", "coordinates": [[[140.0, -20.0], [140.0, -17.5], [142.5, -17.5], [142.5, -20.0], [140.0, -20.0]]]}, "properties": {"cell_id": "56_28", "lon": 141.25, "lat": -18.75}}, {"type": "Feature", "geometry": {"type": "Polygon", "coordinates": [[[142.5, -20.0], [142.5, -17.5], [145.0, -17.5], [145.0, -20.0], [142.5, -20.0]]]}, "properties": {"cell_id": "57_28", "lon": 143.75, "lat": -18.75}}, {"type": "Feature", "geometry": {"type": "Polygon", "coordinates": [[[142.5, -17.5], [142.5, -15.0], [145.0, -15.0], [145.0, -17.5], [142.5, -17.5]]]}, "properties": {"cell_id": "57_29", "lon": 143.75, "lat": -16.25}}, {"type": "Feature", "geometry": {"type": "Polygon", "coordinates": [[[145.0, -20.0], [145.0, -17.5], [147.5, -17.5], [147.5, -20.0], [145.0, -20.0]]]}, "properties": {"cell_id": "58_28", "lon": 146.25, "lat": -18.75}}]}