{"type": "FeatureCollection", "features": [{"type": "Feature", "geometry": {"type": "Polygon", "coordinates": [[[30.0, 20.0], [30.0, 22.5], [32.5, 22.5], [32.5, 20.0], [30.0, 20.0]]]}, "properties": {"cell_id": "12_44", "lon": 31.25, "lat": 21.25}}, {"type": "Feature", "geometry": {"type": "Polygon", "coordinates": [[[30.0, 22.5], [30.0, 25.0], [32.5, 25.0], [32.5, 22.5], [30.0, 22.5]]]}, "properties": {"cell_id": "12_45", "lon": 31.25, "lat": 23.75}}, {"type": "Feature", "geometry": {"type": "Polygon", "coordinates": [[[30.0, 25.0], [30.0, 27.5], [32.5, 27.5], [32.5, 25.0], [30.0, 25.0]]]}, "properties": {"cell_id": "12_46", "lon": 31.25, "lat": 26.25}}, {"type": "Feature", "geometry": {"type": "Polygon", "coordinates": [[[30.0, 27.5], [30.0, 30.0], [32.5, 30.0], [32.5, 27.5], [30.0, 27.5]]]}, "properties": {"cell_id": "12_47", "lon": 31.25, "lat": 28.75}}, {"type": "Feature", "geometry": {"type": "Polygon", "coordinates": [[[32.5, 20.0], [32.5, 22.5], [35.0, 22.5], [35.0, 20.0], [32.5, 20.0]]]}, "properties": {"cell_id": "13_44", "lon": 33.75, "lat": 21.25}}, {"type": "Feature", "geometry": {"type": "Polygon", "coordinates": [[[32.5, 22.5], [32.5, 25.0], [35.0, 25.0], [35.0, 22.5], [32.5, 22.5]]]}, "properties": {"cell_id": "13_45", "lon": 33.75, "lat": 23.75}}, {"type": "Feature", "geometry": {"type": "Polygon", "coordinates": [[[32.5, 25.0], [32.5, 27.5], [35.0, 27.5], [35.0, 25.0], [32.5, 25.0]]]}, "properties": {"cell_id": "13_46", "lon": 33.75, "lat": 26.25}}, {"type": "Feature", "geometry": {"type": "Polygon", "coordinates": [[[32.5, 27.5], [32.5, 30.0], [35.0, 30.0], [35.0, 27.5], [32.5, 27.5]]]}, "properties": {"cell_id": "13_47", "lon": 33.75, "lat": 28.75}}, {"type": "Feature", "geometry": {"type": "Polygon", "coordinates": [[[35.0, 20.0], [35.0, 22.5], [37.5, 22.5], [37.5, 20.0], [35.0, 20.0]]]}, "properties": {"cell_id": "14_44", "lon": 36.25, "lat": 21.25}}, {"type": "Feature", "geometry": {"type": "Polygon", "coordinates": [[[35.0, 27.5], [35.0, 30.0], [37.5, 30.0], [37.5, 27.5], [35.0, 27.5]]]}, "properties": {"cell_id": "14_47", "lon": 36.25, "lat": 28.75}}, {"type": "Feature", "geometry": {"type": "Polygon", "coordinates": [[[37.5, 22.5], [37.5, 25.0], [40.0, 25.0], [40.0, 22.5], [37.5, 22.5]]]}, "properties": {"cell_id": "15_45", "lon": 38.75, "lat": 23.75}}, {"type": "Feature", "geometry": {"type": "Polygon", "coordinates": [[[37.5, 25.0], [37.5, 27.5], [40.0, 27.5], [40.0, 25.0], [37.5, 25.0]]]}, "properties": {"cell_id": "15_46", "lon": 38.75, "lat": 26.25}}, {"type": "Feature", "geometry": {"type": "Polygon", "coordinates": [[[37.5, 27.5], [37.5, 30.0], [40.0, 30.0], [40.0, 27.5], [37.5, 27.5]]]}, "properties": {"cell_id": "15_47", "lon": 38.75, "lat": 28.75}}]}