{"type": "FeatureCollection", "features": [{"type": "Feature", "geometry": {"type": "Polygon", "coordinates": [[[75.75, 7.5], [75.75, 9.0], [77.25, 9.0], [77.25, 7.5], [75.75, 7.5]]]}, "properties": {"cell_id": "51_65", "lon": 76.5, "lat": 8.25}}, {"type": "Feature", "geometry": {"type": "Polygon", "coordinates": [[[75.75, 9.0], [75.75, 10.5], [77.25, 10.5], [77.25, 9.0], [75.75, 9.0]]]}, "properties": {"cell_id": "51_66", "lon": 76.5, "lat": 9.75}}, {"type": "Feature", "geometry": {"type": "Polygon", "coordinates": [[[77.25, 7.5], [77.25, 9.0], [78.75, 9.0], [78.75, 7.5], [77.25, 7.5]]]}, "properties": {"cell_id": "52_65", "lon": 78.0, "lat": 8.25}}, {"type": "Feature", "geometry": {"type": "Polygon", "coordinates": [[[77.25, 9.0], [77.25, 10.5], [78.75, 10.5], [78.75, 9.0], [77.25, 9.0]]]}, "properties": {"cell_id": "52_66", "lon": 78.0, "lat": 9.75}}, {"type": "Feature", "geometry": {"type": "Polygon", "coordinates": [[[78.75, 7.5], [78.75, 9.0], [80.25, 9.0], [80.25, 7.5], [78.75, 7.5]]]}, "properties": {"cell_id": "53_65", "lon": 79.5, "lat": 8.25}}, {"type": "Feature", "geometry": {"type": "Polygon", "coordinates": [[[78.75, 9.0], [78.75, 10.5], [80.25, 10.5], [80.25, 9.0], [78.75, 9.0]]]}, "properties": {"cell_id": "53_66", "lon": 79.5, "lat": 9.75}}]}