{"type": "FeatureCollection", "features": [{"type": "Feature", "geometry": {"type": "Polygon", "coordinates": [[[-167.5, 67.5], [-167.5, 70.0], [-165.0, 70.0], [-165.0, 67.5], [-167.5, 67.5]]]}, "properties": {"cell_id": "77_63", "lon": -166.25, "lat": 68.75}}, {"type": "Feature", "geometry": {"type": "Polygon", "coordinates": [[[-165.0, 60.0], [-165.0, 62.5], [-162.5, 62.5], [-162.5, 60.0], [-165.0, 60.0]]]}, "properties": {"cell_id": "78_60", "lon": -163.75, "lat": 61.25}}, {"type": "Feature", "geometry": {"type": "Polygon", "coordinates": [[[-165.0, 65.0], [-165.0, 67.5], [-162.5, 67.5], [-162.5, 65.0], [-165.0, 65.0]]]}, "properties": {"cell_id": "78_62", "lon": -163.75, "lat": 66.25}}, {"type": "Feature", "geometry": {"type": "Polygon", "coordinates": [[[-165.0, 67.5], [-165.0, 70.0], [-162.5, 70.0], [-162.5, 67.5], [-165.0, 67.5]]]}, "properties": {"cell_id": "78_63", "lon": -163.75, "lat": 68.75}}, {"type": "Feature", "geometry": {"type": "Polygon", "coordinates": [[[-162.5, 60.0], [-162.5, 62.5], [-160.0, 62.5], [-160.0, 60.0], [-162.5, 60.0]]]}, "properties": {"cell_id": "79_60", "lon": -161.25, "lat": 61.25}}, {"type": "Feature", "geometry": {"type": "Polygon", "coordinates": [[[-162.5, 65.0], [-162.5, 67.5], [-160.0, 67.5], [-160.0, 65.0], [-162.5, 65.0]]]}, "properties": {"cell_id": "79_62", "lon": -161.25, "lat": 66.25}}, {"type": "Feature", "geometry": {"type": "Polygon", "coordinates": [[[-162.5, 67.5], [-162.5, 70.0], [-160.0, 70.0], [-160.0, 67.5], [-162.5, 67.5]]]}, "properties": {"cell_id": "79_63", "lon": -161.25, "lat": 68.75}}]}