{"type": "FeatureCollection", "features": [{"type": "Feature", "geometry": {"type": "Polygon", "coordinates": [[[-69.75, 43.5], [-69.75, 45.0], [-68.25, 45.0], [-68.25, 43.5], [-69.75, 43.5]]]}, "properties": {"cell_id": "194_89", "lon": -69.0, "lat": 44.25}}, {"type": "Feature", "geometry": {"type": "Polygon", "coordinates": [[[-69.75, 45.0], [-69.75, 46.5], [-68.25, 46.5], [-68.25, 45.0], [-69.75, 45.0]]]}, "properties": {"cell_id": "194_90", "lon": -69.0, "lat": 45.75}}, {"type": "Feature", "geometry": {"type": "Polygon", "coordinates": [[[-69.75, 46.5], [-69.75, 48.0], [-68.25, 48.0], [-68.25, 46.5], [-69.75, 46.5]]]}, "properties": {"cell_id": "194_91", "lon": -69.0, "lat": 47.25}}, {"type": "Feature", "geometry": {"type": "Polygon", "coordinates": [[[-69.75, 48.0], [-69.75, 49.5], [-68.25, 49.5], [-68.25, 48.0], [-69.75, 48.0]]]}, "properties": {"cell_id": "194_92", "lon": -69.0, "lat": 48.75}}, {"type": "Feature", "geometry": {"type": "Polygon", "coordinates": [[[-69.75, 49.5], [-69.75, 51.0], [-68.25, 51.0], [-68.25, 49.5], [-69.75, 49.5]]]}, "properties": {"cell_id": "194_93", "lon": -69.0, "lat": 50.25}}, {"type": "Feature", "geometry": {"type": "Polygon", "coordinates": [[[-68.25, 43.5], [-68.25, 45.0], [-66.75, 45.0], [-66.75, 43.5], [-68.25, 43.5]]]}, "properties": {"cell_id": "195_89", "lon": -67.5, "lat": 44.25}}, {"type": "Feature", "geometry": {"type": "Polygon", "coordinates": [[[-68.25, 45.0], [-68.25, 46.5], [-66.75, 46.5], [-66.75, 45.0], [-68.25, 45.0]]]}, "properties": {"cell_id": "195_90", "lon": -67.5, "lat": 45.75}}, {"type": "Feature", "geometry": {"type": "Polygon", "coordinates": [[[-68.25, 46.5], [-68.25, 48.0], [-66.75, 48.0], [-66.75, 46.5], [-68.25, 46.5]]]}, "properties": {"cell_id": "195_91", "lon": -67.5, "lat": 47.25}}, {"type": "Feature", "geometry": {"type": "Polygon", "coordinates": [[[-68.25, 48.0], [-68.25, 49.5], [-66.75, 49.5], [-66.75, 48.0], [-68.25, 48.0]]]}, "properties": {"cell_id": "195_92", "lon": -67.5, "lat": 48.75}}, {"type": "Feature", "geometry": {"type": "Polygon", "coordinates": [[[-68.25, 49.5], [-68.25, 51.0], [-66.75, 51.0], [-66.75, 49.5], [-68.25, 49.5]]]}, "properties": {"cell_id": "195_93", "lon": -67.5, "lat": 50.25}}, {"type": "Feature", "geometry": {"type": "Polygon", "coordinates": [[[-66.75, 43.5], [-66.75, 45.0], [-65.25, 45.0], [-65.25, 43.5], [-66.75, 43.5]]]}, "properties": {"cell_id": "196_89", "lon": -66.0, "lat": 44.25}}, {"type": "Feature", "geometry": {"type": "Polygon", "coordinates": [[[-66.75, 45.0], [-66.75, 46.5], [-65.25, 46.5], [-65.25, 45.0], [-66.75, 45.0]]]}, "properties": {"cell_id": "196_90", "lon": -66.0, "lat": 45.75}}, {"type": "Feature", "geometry": {"type": "Polygon", "coordinates": [[[-66.75, 46.5], [-66.75, 48.0], [-65.25, 48.0], [-65.25, 46.5], [-66.75, 46.5]]]}, "properties": {"cell_id": "196_91", "lon": -66.0, "lat": 47.25}}, {"type": "Feature", "geometry": {"type": "Polygon", "coordinates": [[[-66.75, 48.0], [-66.75, 49.5], [-65.25, 49.5], [-65.25, 48.0], [-66.75, 48.0]]]}, "properties": {"cell_id": "196_92", "lon": -66.0, "lat": 48.75}}, {"type": "Feature", "geometry": {"type": "Polygon", "coordinates": [[[-66.75, 49.5], [-66.75, 51.0], [-65.25, 51.0], [-65.25, 49.5], [-66.75, 49.5]]]}, "properties": {"cell_id": "196_93", "lon": -66.0, "lat": 50.25}}, {"type": "Feature", "geometry": {"type": "Polygon", "coordinates": [[[-65.25, 43.5], [-65.25, 45.0], [-63.75, 45.0], [-63.75, 43.5], [-65.25, 43.5]]]}, "properties": {"cell_id": "197_89", "lon": -64.5, "lat": 44.25}}, {"type": "Feature", "geometry": {"type": "Polygon", "coordinates": [[[-65.25, 45.0], [-65.25, 46.5], [-63.75, 46.5], [-63.75, 45.0], [-65.25, 45.0]]]}, "properties": {"cell_id": "197_90", "lon": -64.5, "lat": 45.75}}, {"type": "Feature", "geometry": {"type": "Polygon", "coordinates": [[[-65.25, 46.5], [-65.25, 48.0], [-63.75, 48.0], [-63.75, 46.5], [-65.25, 46.5]]]}, "properties": {"cell_id": "197_91", "lon": -64.5, "lat": 47.25}}, {"type": "Feature", "geometry": {"type": "Polygon", "coordinates": [[[-65.25, 48.0], [-65.25, 49.5], [-63.75, 49.5], [-63.75, 48.0], [-65.25, 48.0]]]}, "properties": {"cell_id": "197_92", "lon": -64.5, "lat": 48.75}}, {"type": "Feature", "geometry": {"type": "Polygon", "coordinates": [[[-65.25, 49.5], [-65.25, 51.0], [-63.75, 51.0], [-63.75, 49.5], [-65.25, 49.5]]]}, "properties": {"cell_id": "197_93", "lon": -64.5, "lat": 50.25}}, {"type": "Feature", "geometry": {"type": "Polygon", "coordinates": [[[-63.75, 43.5], [-63.75, 45.0], [-62.25, 45.0], [-62.25, 43.5], [-63.75, 43.5]]]}, "properties": {"cell_id": "198_89", "lon": -63.0, "lat": 44.25}}, {"type": "Feature", "geometry": {"type": "Polygon", "coordinates": [[[-63.75, 45.0], [-63.75, 46.5], [-62.25, 46.5], [-62.25, 45.0], [-63.75, 45.0]]]}, "properties": {"cell_id": "198_90", "lon": -63.0, "lat": 45.75}}, {"type": "Feature", "geometry": {"type": "Polygon", "coordinates": [[[-63.75, 49.5], [-63.75, 51.0], [-62.25, 51.0], [-62.25, 49.5], [-63.75, 49.5]]]}, "properties": {"cell_id": "198_93", "lon": -63.0, "lat": 50.25}}, {"type": "Feature", "geometry": {"type": "Polygon", "coordinates": [[[-62.25, 45.0], [-62.25, 46.5], [-60.75, 46.5], [-60.75, 45.0], [-62.25, 45.0]]]}, "properties": {"cell_id": "199_90", "lon": -61.5, "lat": 45.75}}, {"type": "Feature", "geometry": {"type": "Polygon", "coordinates": [[[-62.25, 49.5], [-62.25, 51.0], [-60.75, 51.0], [-60.75, 49.5], [-62.25, 49.5]]]}, "properties": {"cell_id": "199_93", "lon": -61.5, "lat": 50.25}}, {"type": "Feature", "geometry": {"type": "Polygon", "coordinates": [[[-60.75, 49.5], [-60.75, 51.0], [-59.25, 51.0], [-59.25, 49.5], [-60.75, 49.5]]]}, "properties": {"cell_id": "200_93", "lon": -60.0, "lat": 50.25}}]}