{"type": "FeatureCollection", "features": [{"type": "Feature", "geometry": {"type": "Polygon", "coordinates": [[[-160.0, 60.0], [-160.0, 62.5], [-157.5, 62.5], [-157.5, 60.0], [-160.0, 60.0]]]}, "properties": {"cell_id": "80_60", "lon": -158.75, "lat": 61.25}}, {"type": "Feature", "geometry": {"type": "Polygon", "coordinates": [[[-160.0, 62.5], [-160.0, 65.0], [-157.5, 65.0], [-157.5, 62.5], [-160.0, 62.5]]]}, "properties": {"cell_id": "80_61", "lon": -158.75, "lat": 63.75}}, {"type": "Feature", "geometry": {"type": "Polygon", "coordinates": [[[-160.0, 65.0], [-160.0, 67.5], [-157.5, 67.5], [-157.5, 65.0], [-160.0, 65.0]]]}, "properties": {"cell_id": "80_62", "lon": -158.75, "lat": 66.25}}, {"type": "Feature", "geometry": {"type": "Polygon", "coordinates": [[[-160.0, 67.5], [-160.0, 70.0], [-157.5, 70.0], [-157.5, 67.5], [-160.0, 67.5]]]}, "properties": {"cell_id": "80_63", "lon": -158.75, "lat": 68.75}}, {"type": "Feature", "geometry": {"type": "Polygon", "coordinates": [[[-157.5, 60.0], [-157.5, 62.5], [-155.0, 62.5], [-155.0, 60.0], [-157.5, 60.0]]]}, "properties": {"cell_id": "81_60", "lon": -156.25, "lat": 61.25}}, {"type": "Feature", "geometry": {"type": "Polygon", "coordinates": [[[-157.5, 62.5], [-157.5, 65.0], [-155.0, 65.0], [-155.0, 62.5], [-157.5, 62.5]]]}, "properties": {"cell_id": "81_61", "lon": -156.25, "lat": 63.75}}, {"type": "Feature", "geometry": {"type": "Polygon", "coordinates": [[[-157.5, 65.0], [-157.5, 67.5], [-155.0, 67.5], [-155.0, 65.0], [-157.5, 65.0]]]}, "properties": {"cell_id": "81_62", "lon": -156.25, "lat": 66.25}}, {"type": "Feature", "geometry": {"type": "Polygon", "coordinates": [[[-157.5, 67.5], [-157.5, 70.0], [-155.0, 70.0], [-155.0, 67.5], [-157.5, 67.5]]]}, "properties": {"cell_id": "81_63", "lon": -156.25, "lat": 68.75}}, {"type": "Feature", "geometry": {"type": "Polygon", "coordinates": [[[-155.0, 60.0], [-155.0, 62.5], [-152.5, 62.5], [-152.5, 60.0], [-155.0, 60.0]]]}, "properties": {"cell_id": "82_60", "lon": -153.75, "lat": 61.25}}, {"type": "Feature", "geometry": {"type": "Polygon", "coordinates": [[[-155.0, 62.5], [-155.0, 65.0], [-152.5, 65.0], [-152.5, 62.5], [-155.0, 62.5]]]}, "properties": {"cell_id": "82_61", "lon": -153.75, "lat": 63.75}}, {"type": "Feature", "geometry": {"type": "Polygon", "coordinates": [[[-155.0, 65.0], [-155.0, 67.5], [-152.5, 67.5], [-152.5, 65.0], [-155.0, 65.0]]]}, "properties": {"cell_id": "82_62", "lon": -153.75, "lat": 66.25}}, {"type": "Feature", "geometry": {"type": "Polygon", "coordinates": [[[-155.0, 67.5], [-155.0, 70.0], [-152.5, 70.0], [-152.5, 67.5], [-155.0, 67.5]]]}, "properties": {"cell_id": "82_63", "lon": -153.75, "lat": 68.75}}, {"type": "Feature", "geometry": {"type": "Polygon", "coordinates": [[[-152.5, 60.0], [-152.5, 62.5], [-150.0, 62.5], [-150.0, 60.0], [-152.5, 60.0]]]}, "properties": {"cell_id": "83_60", "lon": -151.25, "lat": 61.25}}, {"type": "Feature", "geometry": {"type": "Polygon", "coordinates": [[[-152.5, 62.5], [-152.5, 65.0], [-150.0, 65.0], [-150.0, 62.5], [-152.5, 62.5]]]}, "properties": {"cell_id": "83_61", "lon": -151.25, "lat": 63.75}}, {"type": "Feature", "geometry": {"type": "Polygon", "coordinates": [[[-152.5, 65.0], [-152.5, 67.5], [-150.0, 67.5], [-150.0, 65.0], [-152.5, 65.0]]]}, "properties": {"cell_id": "83_62", "lon": -151.25, "lat": 66.25}}, {"type": "Feature", "geometry": {"type": "Polygon", "coordinates": [[[-152.5, 67.5], [-152.5, 70.0], [-150.0, 70.0], [-150.0, 67.5], [-152.5, 67.5]]]}, "properties": {"cell_id": "83_63", "lon": -151.25, "lat": 68.75}}]}