{"type": "FeatureCollection", "features": [{"type": "Feature", "geometry": {"type": "Polygon", "coordinates": [[[120.75, 40.5], [120.75, 42.0], [122.25, 42.0], [122.25, 40.5], [120.75, 40.5]]]}, "properties": {"cell_id": "81_87", "lon": 121.5, "lat": 41.25}}, {"type": "Feature", "geometry": {"type": "Polygon", "coordinates": [[[120.75, 42.0], [120.75, 43.5], [122.25, 43.5], [122.25, 42.0], [120.75, 42.0]]]}, "properties": {"cell_id": "81_88", "lon": 121.5, "lat": 42.75}}, {"type": "Feature", "geometry": {"type": "Polygon", "coordinates": [[[120.75, 43.5], [120.75, 45.0], [122.25, 45.0], [122.25, 43.5], [120.75, 43.5]]]}, "properties": {"cell_id": "81_89", "lon": 121.5, "lat": 44.25}}, {"type": "Feature", "geometry": {"type": "Polygon", "coordinates": [[[120.75, 45.0], [120.75, 46.5], [122.25, 46.5], [122.25, 45.0], [120.75, 45.0]]]}, "properties": {"cell_id": "81_90", "lon": 121.5, "lat": 45.75}}, {"type": "Feature", "geometry": {"type": "Polygon", "coordinates": [[[120.75, 46.5], [120.75, 48.0], [122.25, 48.0], [122.25, 46.5], [120.75, 46.5]]]}, "properties": {"cell_id": "81_91", "lon": 121.5, "lat": 47.25}}, {"type": "Feature", "geometry": {"type": "Polygon", "coordinates": [[[120.75, 48.0], [120.75, 49.5], [122.25, 49.5], [122.25, 48.0], [120.75, 48.0]]]}, "properties": {"cell_id": "81_92", "lon": 121.5, "lat": 48.75}}, {"type": "Feature", "geometry": {"type": "Polygon", "coordinates": [[[120.75, 49.5], [120.75, 51.0], [122.25, 51.0], [122.25, 49.5], [120.75, 49.5]]]}, "properties": {"cell_id": "81_93", "lon": 121.5, "lat": 50.25}}, {"type": "Feature", "geometry": {"type": "Polygon", "coordinates": [[[122.25, 40.5], [122.25, 42.0], [123.75, 42.0], [123.75, 40.5], [122.25, 40.5]]]}, "properties": {"cell_id": "82_87", "lon": 123.0, "lat": 41.25}}, {"type": "Feature", "geometry": {"type": "Polygon", "coordinates": [[[122.25, 42.0], [122.25, 43.5], [123.75, 43.5], [123.75, 42.0], [122.25, 42.0]]]}, "properties": {"cell_id": "82_88", "lon": 123.0, "lat": 42.75}}, {"type": "Feature", "geometry": {"type": "Polygon", "coordinates": [[[122.25, 43.5], [122.25, 45.0], [123.75, 45.0], [123.75, 43.5], [122.25, 43.5]]]}, "properties": {"cell_id": "82_89", "lon": 123.0, "lat": 44.25}}, {"type": "Feature", "geometry": {"type": "Polygon", "coordinates": [[[122.25, 45.0], [122.25, 46.5], [123.75, 46.5], [123.75, 45.0], [122.25, 45.0]]]}, "properties": {"cell_id": "82_90", "lon": 123.0, "lat": 45.75}}, {"type": "Feature", "geometry": {"type": "Polygon", "coordinates": [[[122.25, 46.5], [122.25, 48.0], [123.75, 48.0], [123.75, 46.5], [122.25, 46.5]]]}, "properties": {"cell_id": "82_91", "lon": 123.0, "lat": 47.25}}, {"type": "Feature", "geometry": {"type": "Polygon", "coordinates": [[[122.25, 48.0], [122.25, 49.5], [123.75, 49.5], [123.75, 48.0], [122.25, 48.0]]]}, "properties": {"cell_id": "82_92", "lon": 123.0, "lat": 48.75}}, {"type": "Feature", "geometry": {"type": "Polygon", "coordinates": [[[122.25, 49.5], [122.25, 51.0], [123.75, 51.0], [123.75, 49.5], [122.25, 49.5]]]}, "properties": {"cell_id": "82_93", "lon": 123.0, "lat": 50.25}}, {"type": "Feature", "geometry": {"type": "Polygon", "coordinates": [[[123.75, 40.5], [123.75, 42.0], [125.25, 42.0], [125.25, 40.5], [123.75, 40.5]]]}, "properties": {"cell_id": "83_87", "lon": 124.5, "lat": 41.25}}, {"type": "Feature", "geometry": {"type": "Polygon", "coordinates": [[[123.75, 42.0], [123.75, 43.5], [125.25, 43.5], [125.25, 42.0], [123.75, 42.0]]]}, "properties": {"cell_id": "83_88", "lon": 124.5, "lat": 42.75}}, {"type": "Feature", "geometry": {"type": "Polygon", "coordinates": [[[123.75, 43.5], [123.75, 45.0], [125.25, 45.0], [125.25, 43.5], [123.75, 43.5]]]}, "properties": {"cell_id": "83_89", "lon": 124.5, "lat": 44.25}}, {"type": "Feature", "geometry": {"type": "Polygon", "coordinates": [[[123.75, 45.0], [123.75, 46.5], [125.25, 46.5], [125.25, 45.0], [123.75, 45.0]]]}, "properties": {"cell_id": "83_90", "lon": 124.5, "lat": 45.75}}, {"type": "Feature", "geometry": {"type": "Polygon", "coordinates": [[[123.75, 46.5], [123.75, 48.0], [125.25, 48.0], [125.25, 46.5], [123.75, 46.5]]]}, "properties": {"cell_id": "83_91", "lon": 124.5, "lat": 47.25}}, {"type": "Feature", "geometry": {"type": "Polygon", "coordinates": [[[123.75, 48.0], [123.75, 49.5], [125.25, 49.5], [125.25, 48.0], [123.75, 48.0]]]}, "properties": {"cell_id": "83_92", "lon": 124.5, "lat": 48.75}}, {"type": "Feature", "geometry": {"type": "Polygon", "coordinates": [[[123.75, 49.5], [123.75, 51.0], [125.25, 51.0], [125.25, 49.5], [123.75, 49.5]]]}, "properties": {"cell_id": "83_93", "lon": 124.5, "lat": 50.25}}, {"type": "Feature", "geometry": {"type": "Polygon", "coordinates": [[[125.25, 40.5], [125.25, 42.0], [126.75, 42.0], [126.75, 40.5], [125.25, 40.5]]]}, "properties": {"cell_id": "84_87", "lon": 126.0, "lat": 41.25}}, {"type": "Feature", "geometry": {"type": "Polygon", "coordinates": [[[125.25, 42.0], [125.25, 43.5], [126.75, 43.5], [126.75, 42.0], [125.25, 42.0]]]}, "properties": {"cell_id": "84_88", "lon": 126.0, "lat": 42.75}}, {"type": "Feature", "geometry": {"type": "Polygon", "coordinates": [[[125.25, 43.5], [125.25, 45.0], [126.75, 45.0], [126.75, 43.5], [125.25, 43.5]]]}, "properties": {"cell_id": "84_89", "lon": 126.0, "lat": 44.25}}, {"type": "Feature", "geometry": {"type": "Polygon", "coordinates": [[[125.25, 45.0], [125.25, 46.5], [126.75, 46.5], [126.75, 45.0], [125.25, 45.0]]]}, "properties": {"cell_id": "84_90", "lon": 126.0, "lat": 45.75}}, {"type": "Feature", "geometry": {"type": "Polygon", "coordinates": [[[125.25, 46.5], [125.25, 48.0], [126.75, 48.0], [126.75, 46.5], [125.25, 46.5]]]}, "properties": {"cell_id": "84_91", "lon": 126.0, "lat": 47.25}}, {"type": "Feature", "geometry": {"type": "Polygon", "coordinates": [[[125.25, 48.0], [125.25, 49.5], [126.75, 49.5], [126.75, 48.0], [125.25, 48.0]]]}, "properties": {"cell_id": "84_92", "lon": 126.0, "lat": 48.75}}, {"type": "Feature", "geometry": {"type": "Polygon", "coordinates": [[[125.25, 49.5], [125.25, 51.0], [126.75, 51.0], [126.75, 49.5], [125.25, 49.5]]]}, "properties": {"cell_id": "84_93", "lon": 126.0, "lat": 50.25}}, {"type": "Feature", "geometry": {"type": "Polygon", "coordinates": [[[126.75, 40.5], [126.75, 42.0], [128.25, 42.0], [128.25, 40.5], [126.75, 40.5]]]}, "properties": {"cell_id": "85_87", "lon": 127.5, "lat": 41.25}}, {"type": "Feature", "geometry": {"type": "Polygon", "coordinates": [[[126.75, 42.0], [126.75, 43.5], [128.25, 43.5], [128.25, 42.0], [126.75, 42.0]]]}, "properties": {"cell_id": "85_88", "lon": 127.5, "lat": 42.75}}, {"type": "Feature", "geometry": {"type": "Polygon", "coordinates": [[[126.75, 43.5], [126.75, 45.0], [128.25, 45.0], [128.25, 43.5], [126.75, 43.5]]]}, "properties": {"cell_id": "85_89", "lon": 127.5, "lat": 44.25}}, {"type": "Feature", "geometry": {"type": "Polygon", "coordinates": [[[126.75, 45.0], [126.75, 46.5], [128.25, 46.5], [128.25, 45.0], [126.75, 45.0]]]}, "properties": {"cell_id": "85_90", "lon": 127.5, "lat": 45.75}}, {"type": "Feature", "geometry": {"type": "Polygon", "coordinates": [[[126.75, 46.5], [126.75, 48.0], [128.25, 48.0], [128.25, 46.5], [126.75, 46.5]]]}, "properties": {"cell_id": "85_91", "lon": 127.5, "lat": 47.25}}, {"type": "Feature", "geometry": {"type": "Polygon", "coordinates": [[[126.75, 48.0], [126.75, 49.5], [128.25, 49.5], [128.25, 48.0], [126.75, 48.0]]]}, "properties": {"cell_id": "85_92", "lon": 127.5, "lat": 48.75}}, {"type": "Feature", "geometry": {"type": "Polygon", "coordinates": [[[126.75, 49.5], [126.75, 51.0], [128.25, 51.0], [128.25, 49.5], [126.75, 49.5]]]}, "properties": {"cell_id": "85_93", "lon": 127.5, "lat": 50.25}}, {"type": "Feature", "geometry": {"type": "Polygon", "coordinates": [[[128.25, 40.5], [128.25, 42.0], [129.75, 42.0], [129.75, 40.5], [128.25, 40.5]]]}, "properties": {"cell_id": "86_87", "lon": 129.0, "lat": 41.25}}, {"type": "Feature", "geometry": {"type": "Polygon", "coordinates": [[[128.25, 42.0], [128.25, 43.5], [129.75, 43.5], [129.75, 42.0], [128.25, 42.0]]]}, "properties": {"cell_id": "86_88", "lon": 129.0, "lat": 42.75}}, {"type": "Feature", "geometry": {"type": "Polygon", "coordinates": [[[128.25, 43.5], [128.25, 45.0], [129.75, 45.0], [129.75, 43.5], [128.25, 43.5]]]}, "properties": {"cell_id": "86_89", "lon": 129.0, "lat": 44.25}}, {"type": "Feature", "geometry": {"type": "Polygon", "coordinates": [[[128.25, 45.0], [128.25, 46.5], [129.75, 46.5], [129.75, 45.0], [128.25, 45.0]]]}, "properties": {"cell_id": "86_90", "lon": 129.0, "lat": 45.75}}, {"type": "Feature", "geometry": {"type": "Polygon", "coordinates": [[[128.25, 46.5], [128.25, 48.0], [129.75, 48.0], [129.75, 46.5], [128.25, 46.5]]]}, "properties": {"cell_id": "86_91", "lon": 129.0, "lat": 47.25}}, {"type": "Feature", "geometry": {"type": "Polygon", "coordinates": [[[128.25, 48.0], [128.25, 49.5], [129.75, 49.5], [129.75, 48.0], [128.25, 48.0]]]}, "properties": {"cell_id": "86_92", "lon": 129.0, "lat": 48.75}}, {"type": "Feature", "geometry": {"type": "Polygon", "coordinates": [[[128.25, 49.5], [128.25, 51.0], [129.75, 51.0], [129.75, 49.5], [128.25, 49.5]]]}, "properties": {"cell_id": "86_93", "lon": 129.0, "lat": 50.25}}, {"type": "Feature", "geometry": {"type": "Polygon", "coordinates": [[[129.75, 40.5], [129.75, 42.0], [131.25, 42.0], [131.25, 40.5], [129.75, 40.5]]]}, "properties": {"cell_id": "87_87", "lon": 130.5, "lat": 41.25}}, {"type": "Feature", "geometry": {"type": "Polygon", "coordinates": [[[129.75, 42.0], [129.75, 43.5], [131.25, 43.5], [131.25, 42.0], [129.75, 42.0]]]}, "properties": {"cell_id": "87_88", "lon": 130.5, "lat": 42.75}}, {"type": "Feature", "geometry": {"type": "Polygon", "coordinates": [[[129.75, 43.5], [129.75, 45.0], [131.25, 45.0], [131.25, 43.5], [129.75, 43.5]]]}, "properties": {"cell_id": "87_89", "lon": 130.5, "lat": 44.25}}, {"type": "Feature", "geometry": {"type": "Polygon", "coordinates": [[[129.75, 45.0], [129.75, 46.5], [131.25, 46.5], [131.25, 45.0], [129.75, 45.0]]]}, "properties": {"cell_id": "87_90", "lon": 130.5, "lat": 45.75}}, {"type": "Feature", "geometry": {"type": "Polygon", "coordinates": [[[129.75, 46.5], [129.75, 48.0], [131.25, 48.0], [131.25, 46.5], [129.75, 46.5]]]}, "properties": {"cell_id": "87_91", "lon": 130.5, "lat": 47.25}}, {"type": "Feature", "geometry": {"type": "Polygon", "coordinates": [[[129.75, 48.0], [129.75, 49.5], [131.25, 49.5], [131.25, 48.0], [129.75, 48.0]]]}, "properties": {"cell_id": "87_92", "lon": 130.5, "lat": 48.75}}, {"type": "Feature", "geometry": {"type": "Polygon", "coordinates": [[[129.75, 49.5], [129.75, 51.0], [131.25, 51.0], [131.25, 49.5], [129.75, 49.5]]]}, "properties": {"cell_id": "87_93", "lon": 130.5, "lat": 50.25}}]}