{"type": "FeatureCollection", "features": [{"type": "Feature", "geometry": {"type": "Polygon", "coordinates": [[[-54.75, 66.0], [-54.75, 67.5], [-53.25, 67.5], [-53.25, 66.0], [-54.75, 66.0]]]}, "properties": {"cell_id": "204_104", "lon": -54.0, "lat": 66.75}}, {"type": "Feature", "geometry": {"type": "Polygon", "coordinates": [[[-54.75, 67.5], [-54.75, 69.0], [-53.25, 69.0], [-53.25, 67.5], [-54.75, 67.5]]]}, "properties": {"cell_id": "204_105", "lon": -54.0, "lat": 68.25}}, {"type": "Feature", "geometry": {"type": "Polygon", "coordinates": [[[-54.75, 69.0], [-54.75, 70.5], [-53.25, 70.5], [-53.25, 69.0], [-54.75, 69.0]]]}, "properties": {"cell_id": "204_106", "lon": -54.0, "lat": 69.75}}, {"type": "Feature", "geometry": {"type": "Polygon", "coordinates": [[[-53.25, 64.5], [-53.25, 66.0], [-51.75, 66.0], [-51.75, 64.5], [-53.25, 64.5]]]}, "properties": {"cell_id": "205_103", "lon": -52.5, "lat": 65.25}}, {"type": "Feature", "geometry": {"type": "Polygon", "coordinates": [[[-53.25, 66.0], [-53.25, 67.5], [-51.75, 67.5], [-51.75, 66.0], [-53.25, 66.0]]]}, "properties": {"cell_id": "205_104", "lon": -52.5, "lat": 66.75}}, {"type": "Feature", "geometry": {"type": "Polygon", "coordinates": [[[-53.25, 67.5], [-53.25, 69.0], [-51.75, 69.0], [-51.75, 67.5], [-53.25, 67.5]]]}, "properties": {"cell_id": "205_105", "lon": -52.5, "lat": 68.25}}, {"type": "Feature", "geometry": {"type": "Polygon", "coordinates": [[[-53.25, 69.0], [-53.25, 70.5], [-51.75, 70.5], [-51.75, 69.0], [-53.25, 69.0]]]}, "properties": {"cell_id": "205_106", "lon": -52.5, "lat": 69.75}}, {"type": "Feature", "geometry": {"type": "Polygon", "coordinates": [[[-51.75, 63.0], [-51.75, 64.5], [-50.25, 64.5], [-50.25, 63.0], [-51.75, 63.0]]]}, "properties": {"cell_id": "206_102", "lon": -51.0, "lat": 63.75}}, {"type": "Feature", "geometry": {"type": "Polygon", "coordinates": [[[-51.75, 64.5], [-51.75, 66.0], [-50.25, 66.0], [-50.25, 64.5], [-51.75, 64.5]]]}, "properties": {"cell_id": "206_103", "lon": -51.0, "lat": 65.25}}, {"type": "Feature", "geometry": {"type": "Polygon", "coordinates": [[[-51.75, 66.0], [-51.75, 67.5], [-50.25, 67.5], [-50.25, 66.0], [-51.75, 66.0]]]}, "properties": {"cell_id": "206_104", "lon": -51.0, "lat": 66.75}}, {"type": "Feature", "geometry": {"type": "Polygon", "coordinates": [[[-51.75, 67.5], [-51.75, 69.0], [-50.25, 69.0], [-50.25, 67.5], [-51.75, 67.5]]]}, "properties": {"cell_id": "206_105", "lon": -51.0, "lat": 68.25}}, {"type": "Feature", "geometry": {"type": "Polygon", "coordinates": [[[-51.75, 69.0], [-51.75, 70.5], [-50.25, 70.5], [-50.25, 69.0], [-51.75, 69.0]]]}, "properties": {"cell_id": "206_106", "lon": -51.0, "lat": 69.75}}, {"type": "Feature", "geometry": {"type": "Polygon", "coordinates": [[[-50.25, 61.5], [-50.25, 63.0], [-48.75, 63.0], [-48.75, 61.5], [-50.25, 61.5]]]}, "properties": {"cell_id": "207_101", "lon": -49.5, "lat": 62.25}}, {"type": "Feature", "geometry": {"type": "Polygon", "coordinates": [[[-50.25, 63.0], [-50.25, 64.5], [-48.75, 64.5], [-48.75, 63.0], [-50.25, 63.0]]]}, "properties": {"cell_id": "207_102", "lon": -49.5, "lat": 63.75}}, {"type": "Feature", "geometry": {"type": "Polygon", "coordinates": [[[-50.25, 64.5], [-50.25, 66.0], [-48.75, 66.0], [-48.75, 64.5], [-50.25, 64.5]]]}, "properties": {"cell_id": "207_103", "lon": -49.5, "lat": 65.25}}, {"type": "Feature", "geometry": {"type": "Polygon", "coordinates": [[[-50.25, 66.0], [-50.25, 67.5], [-48.75, 67.5], [-48.75, 66.0], [-50.25, 66.0]]]}, "properties": {"cell_id": "207_104", "lon": -49.5, "lat": 66.75}}, {"type": "Feature", "geometry": {"type": "Polygon", "coordinates": [[[-50.25, 67.5], [-50.25, 69.0], [-48.75, 69.0], [-48.75, 67.5], [-50.25, 67.5]]]}, "properties": {"cell_id": "207_105", "lon": -49.5, "lat": 68.25}}, {"type": "Feature", "geometry": {"type": "Polygon", "coordinates": [[[-50.25, 69.0], [-50.25, 70.5], [-48.75, 70.5], [-48.75, 69.0], [-50.25, 69.0]]]}, "properties": {"cell_id": "207_106", "lon": -49.5, "lat": 69.75}}]}