{"type": "FeatureCollection", "features": [{"type": "Feature", "geometry": {"type": "Polygon", "coordinates": [[[80.0, 40.0], [80.0, 42.5], [82.5, 42.5], [82.5, 40.0], [80.0, 40.0]]]}, "properties": {"cell_id": "32_52", "lon": 81.25, "lat": 41.25}}, {"type": "Feature", "geometry": {"type": "Polygon", "coordinates": [[[80.0, 42.5], [80.0, 45.0], [82.5, 45.0], [82.5, 42.5], [80.0, 42.5]]]}, "properties": {"cell_id": "32_53", "lon": 81.25, "lat": 43.75}}, {"type": "Feature", "geometry": {"type": "Polygon", "coordinates": [[[80.0, 45.0], [80.0, 47.5], [82.5, 47.5], [82.5, 45.0], [80.0, 45.0]]]}, "properties": {"cell_id": "32_54", "lon": 81.25, "lat": 46.25}}, {"type": "Feature", "geometry": {"type": "Polygon", "coordinates": [[[80.0, 47.5], [80.0, 50.0], [82.5, 50.0], [82.5, 47.5], [80.0, 47.5]]]}, "properties": {"cell_id": "32_55", "lon": 81.25, "lat": 48.75}}, {"type": "Feature", "geometry": {"type": "Polygon", "coordinates": [[[82.5, 40.0], [82.5, 42.5], [85.0, 42.5], [85.0, 40.0], [82.5, 40.0]]]}, "properties": {"cell_id": "33_52", "lon": 83.75, "lat": 41.25}}, {"type": "Feature", "geometry": {"type": "Polygon", "coordinates": [[[82.5, 42.5], [82.5, 45.0], [85.0, 45.0], [85.0, 42.5], [82.5, 42.5]]]}, "properties": {"cell_id": "33_53", "lon": 83.75, "lat": 43.75}}, {"type": "Feature", "geometry": {"type": "Polygon", "coordinates": [[[82.5, 45.0], [82.5, 47.5], [85.0, 47.5], [85.0, 45.0], [82.5, 45.0]]]}, "properties": {"cell_id": "33_54", "lon": 83.75, "lat": 46.25}}, {"type": "Feature", "geometry": {"type": "Polygon", "coordinates": [[[82.5, 47.5], [82.5, 50.0], [85.0, 50.0], [85.0, 47.5], [82.5, 47.5]]]}, "properties": {"cell_id": "33_55", "lon": 83.75, "lat": 48.75}}, {"type": "Feature", "geometry": {"type": "Polygon", "coordinates": [[[85.0, 40.0], [85.0, 42.5], [87.5, 42.5], [87.5, 40.0], [85.0, 40.0]]]}, "properties": {"cell_id": "34_52", "lon": 86.25, "lat": 41.25}}, {"type": "Feature", "geometry": {"type": "Polygon", "coordinates": [[[85.0, 42.5], [85.0, 45.0], [87.5, 45.0], [87.5, 42.5], [85.0, 42.5]]]}, "properties": {"cell_id": "34_53", "lon": 86.25, "lat": 43.75}}, {"type": "Feature", "geometry": {"type": "Polygon", "coordinates": [[[85.0, 45.0], [85.0, 47.5], [87.5, 47.5], [87.5, 45.0], [85.0, 45.0]]]}, "properties": {"cell_id": "34_54", "lon": 86.25, "lat": 46.25}}, {"type": "Feature", "geometry": {"type": "Polygon", "coordinates": [[[85.0, 47.5], [85.0, 50.0], [87.5, 50.0], [87.5, 47.5], [85.0, 47.5]]]}, "properties": {"cell_id": "34_55", "lon": 86.25, "lat": 48.75}}, {"type": "Feature", "geometry": {"type": "Polygon", "coordinates": [[[87.5, 40.0], [87.5, 42.5], [90.0, 42.5], [90.0, 40.0], [87.5, 40.0]]]}, "properties": {"cell_id": "35_52", "lon": 88.75, "lat": 41.25}}, {"type": "Feature", "geometry": {"type": "Polygon", "coordinates": [[[87.5, 42.5], [87.5, 45.0], [90.0, 45.0], [90.0, 42.5], [87.5, 42.5]]]}, "properties": {"cell_id": "35_53", "lon": 88.75, "lat": 43.75}}, {"type": "Feature", "geometry": {"type": "Polygon", "coordinates": [[[87.5, 45.0], [87.5, 47.5], [90.0, 47.5], [90.0, 45.0], [87.5, 45.0]]]}, "properties": {"cell_id": "35_54", "lon": 88.75, "lat": 46.25}}, {"type": "Feature", "geometry": {"type": "Polygon", "coordinates": [[[87.5, 47.5], [87.5, 50.0], [90.0, 50.0], [90.0, 47.5], [87.5, 47.5]]]}, "properties": {"cell_id": "35_55", "lon": 88.75, "lat": 48.75}}]}