{"type": "FeatureCollection", "features": [{"type": "Feature", "geometry": {"type": "Polygon", "coordinates": [[[100.0, 0.0], [100.0, 2.5], [102.5, 2.5], [102.5, 0.0], [100.0, 0.0]]]}, "properties": {"cell_id": "40_36", "lon": 101.25, "lat": 1.25}}, {"type": "Feature", "geometry": {"type": "Polygon", "coordinates": [[[100.0, 2.5], [100.0, 5.0], [102.5, 5.0], [102.5, 2.5], [100.0, 2.5]]]}, "properties": {"cell_id": "40_37", "lon": 101.25, "lat": 3.75}}, {"type": "Feature", "geometry": {"type": "Polygon", "coordinates": [[[100.0, 5.0], [100.0, 7.5], [102.5, 7.5], [102.5, 5.0], [100.0, 5.0]]]}, "properties": {"cell_id": "40_38", "lon": 101.25, "lat": 6.25}}, {"type": "Feature", "geometry": {"type": "Polygon", "coordinates": [[[102.5, 0.0], [102.5, 2.5], [105.0, 2.5], [105.0, 0.0], [102.5, 0.0]]]}, "properties": {"cell_id": "41_36", "lon": 103.75, "lat": 1.25}}]}