{"type": "FeatureCollection", "features": [{"type": "Feature", "geometry": {"type": "Polygon", "coordinates": [[[110.25, 70.5], [110.25, 72.0], [111.75, 72.0], [111.75, 70.5], [110.25, 70.5]]]}, "properties": {"cell_id": "74_107", "lon": 111.0, "lat": 71.25}}, {"type": "Feature", "geometry": {"type": "Polygon", "coordinates": [[[110.25, 72.0], [110.25, 73.5], [111.75, 73.5], [111.75, 72.0], [110.25, 72.0]]]}, "properties": {"cell_id": "74_108", "lon": 111.0, "lat": 72.75}}, {"type": "Feature", "geometry": {"type": "Polygon", "coordinates": [[[110.25, 73.5], [110.25, 75.0], [111.75, 75.0], [111.75, 73.5], [110.25, 73.5]]]}, "properties": {"cell_id": "74_109", "lon": 111.0, "lat": 74.25}}, {"type": "Feature", "geometry": {"type": "Polygon", "coordinates": [[[110.25, 75.0], [110.25, 76.5], [111.75, 76.5], [111.75, 75.0], [110.25, 75.0]]]}, "properties": {"cell_id": "74_110", "lon": 111.0, "lat": 75.75}}, {"type": "Feature", "geometry": {"type": "Polygon", "coordinates": [[[111.75, 70.5], [111.75, 72.0], [113.25, 72.0], [113.25, 70.5], [111.75, 70.5]]]}, "properties": {"cell_id": "75_107", "lon": 112.5, "lat": 71.25}}, {"type": "Feature", "geometry": {"type": "Polygon", "coordinates": [[[111.75, 72.0], [111.75, 73.5], [113.25, 73.5], [113.25, 72.0], [111.75, 72.0]]]}, "properties": {"cell_id": "75_108", "lon": 112.5, "lat": 72.75}}, {"type": "Feature", "geometry": {"type": "Polygon", "coordinates": [[[111.75, 73.5], [111.75, 75.0], [113.25, 75.0], [113.25, 73.5], [111.75, 73.5]]]}, "properties": {"cell_id": "75_109", "lon": 112.5, "lat": 74.25}}, {"type": "Feature", "geometry": {"type": "Polygon", "coordinates": [[[111.75, 75.0], [111.75, 76.5], [113.25, 76.5], [113.25, 75.0], [111.75, 75.0]]]}, "properties": {"cell_id": "75_110", "lon": 112.5, "lat": 75.75}}, {"type": "Feature", "geometry": {"type": "Polygon", "coordinates": [[[113.25, 70.5], [113.25, 72.0], [114.75, 72.0], [114.75, 70.5], [113.25, 70.5]]]}, "properties": {"cell_id": "76_107", "lon": 114.0, "lat": 71.25}}, {"type": "Feature", "geometry": {"type": "Polygon", "coordinates": [[[113.25, 72.0], [113.25, 73.5], [114.75, 73.5], [114.75, 72.0], [113.25, 72.0]]]}, "properties": {"cell_id": "76_108", "lon": 114.0, "lat": 72.75}}, {"type": "Feature", "geometry": {"type": "Polygon", "coordinates": [[[113.25, 73.5], [113.25, 75.0], [114.75, 75.0], [114.75, 73.5], [113.25, 73.5]]]}, "properties": {"cell_id": "76_109", "lon": 114.0, "lat": 74.25}}, {"type": "Feature", "geometry": {"type": "Polygon", "coordinates": [[[114.75, 70.5], [114.75, 72.0], [116.25, 72.0], [116.25, 70.5], [114.75, 70.5]]]}, "properties": {"cell_id": "77_107", "lon": 115.5, "lat": 71.25}}, {"type": "Feature", "geometry": {"type": "Polygon", "coordinates": [[[114.75, 72.0], [114.75, 73.5], [116.25, 73.5], [116.25, 72.0], [114.75, 72.0]]]}, "properties": {"cell_id": "77_108", "lon": 115.5, "lat": 72.75}}, {"type": "Feature", "geometry": {"type": "Polygon", "coordinates": [[[114.75, 73.5], [114.75, 75.0], [116.25, 75.0], [116.25, 73.5], [114.75, 73.5]]]}, "properties": {"cell_id": "77_109", "lon": 115.5, "lat": 74.25}}, {"type": "Feature", "geometry": {"type": "Polygon", "coordinates": [[[116.25, 70.5], [116.25, 72.0], [117.75, 72.0], [117.75, 70.5], [116.25, 70.5]]]}, "properties": {"cell_id": "78_107", "lon": 117.0, "lat": 71.25}}, {"type": "Feature", "geometry": {"type": "Polygon", "coordinates": [[[116.25, 72.0], [116.25, 73.5], [117.75, 73.5], [117.75, 72.0], [116.25, 72.0]]]}, "properties": {"cell_id": "78_108", "lon": 117.0, "lat": 72.75}}, {"type": "Feature", "geometry": {"type": "Polygon", "coordinates": [[[116.25, 73.5], [116.25, 75.0], [117.75, 75.0], [117.75, 73.5], [116.25, 73.5]]]}, "properties": {"cell_id": "78_109", "lon": 117.0, "lat": 74.25}}, {"type": "Feature", "geometry": {"type": "Polygon", "coordinates": [[[117.75, 70.5], [117.75, 72.0], [119.25, 72.0], [119.25, 70.5], [117.75, 70.5]]]}, "properties": {"cell_id": "79_107", "lon": 118.5, "lat": 71.25}}, {"type": "Feature", "geometry": {"type": "Polygon", "coordinates": [[[117.75, 72.0], [117.75, 73.5], [119.25, 73.5], [119.25, 72.0], [117.75, 72.0]]]}, "properties": {"cell_id": "79_108", "lon": 118.5, "lat": 72.75}}, {"type": "Feature", "geometry": {"type": "Polygon", "coordinates": [[[117.75, 73.5], [117.75, 75.0], [119.25, 75.0], [119.25, 73.5], [117.75, 73.5]]]}, "properties": {"cell_id": "79_109", "lon": 118.5, "lat": 74.25}}, {"type": "Feature", "geometry": {"type": "Polygon", "coordinates": [[[119.25, 70.5], [119.25, 72.0], [120.75, 72.0], [120.75, 70.5], [119.25, 70.5]]]}, "properties": {"cell_id": "80_107", "lon": 120.0, "lat": 71.25}}, {"type": "Feature", "geometry": {"type": "Polygon", "coordinates": [[[119.25, 72.0], [119.25, 73.5], [120.75, 73.5], [120.75, 72.0], [119.25, 72.0]]]}, "properties": {"cell_id": "80_108", "lon": 120.0, "lat": 72.75}}]}