{"type": "FeatureCollection", "features": [{"type": "Feature", "geometry": {"type": "Polygon", "coordinates": [[[20.0, -10.0], [20.0, -7.5], [22.5, -7.5], [22.5, -10.0], [20.0, -10.0]]]}, "properties": {"cell_id": "8_32", "lon": 21.25, "lat": -8.75}}, {"type": "Feature", "geometry": {"type": "Polygon", "coordinates": [[[20.0, -7.5], [20.0, -5.0], [22.5, -5.0], [22.5, -7.5], [20.0, -7.5]]]}, "properties": {"cell_id": "8_33", "lon": 21.25, "lat": -6.25}}, {"type": "Feature", "geometry": {"type": "Polygon", "coordinates": [[[20.0, -5.0], [20.0, -2.5], [22.5, -2.5], [22.5, -5.0], [20.0, -5.0]]]}, "properties": {"cell_id": "8_34", "lon": 21.25, "lat": -3.75}}, {"type": "Feature", "geometry": {"type": "Polygon", "coordinates": [[[20.0, -2.5], [20.0, 0.0], [22.5, 0.0], [22.5, -2.5], [20.0, -2.5]]]}, "properties": {"cell_id": "8_35", "lon": 21.25, "lat": -1.25}}, {"type": "Feature", "geometry": {"type": "Polygon", "coordinates": [[[22.5, -10.0], [22.5, -7.5], [25.0, -7.5], [25.0, -10.0], [22.5, -10.0]]]}, "properties": {"cell_id": "9_32", "lon": 23.75, "lat": -8.75}}, {"type": "Feature", "geometry": {"type": "Polygon", "coordinates": [[[22.5, -7.5], [22.5, -5.0], [25.0, -5.0], [25.0, -7.5], [22.5, -7.5]]]}, "properties": {"cell_id": "9_33", "lon": 23.75, "lat": -6.25}}, {"type": "Feature", "geometry": {"type": "Polygon", "coordinates": [[[22.5, -5.0], [22.5, -2.5], [25.0, -2.5], [25.0, -5.0], [22.5, -5.0]]]}, "properties": {"cell_id": "9_34", "lon": 23.75, "lat": -3.75}}, {"type": "Feature", "geometry": {"type": "Polygon", "coordinates": [[[22.5, -2.5], [22.5, 0.0], [25.0, 0.0], [25.0, -2.5], [22.5, -2.5]]]}, "properties": {"cell_id": "9_35", "lon": 23.75, "lat": -1.25}}, {"type": "Feature", "geometry": {"type": "Polygon", "coordinates": [[[25.0, -10.0], [25.0, -7.5], [27.5, -7.5], [27.5, -10.0], [25.0, -10.0]]]}, "properties": {"cell_id": "10_32", "lon": 26.25, "lat": -8.75}}, {"type": "Feature", "geometry": {"type": "Polygon", "coordinates": [[[25.0, -7.5], [25.0, -5.0], [27.5, -5.0], [27.5, -7.5], [25.0, -7.5]]]}, "properties": {"cell_id": "10_33", "lon": 26.25, "lat": -6.25}}, {"type": "Feature", "geometry": {"type": "Polygon", "coordinates": [[[25.0, -5.0], [25.0, -2.5], [27.5, -2.5], [27.5, -5.0], [25.0, -5.0]]]}, "properties": {"cell_id": "10_34", "lon": 26.25, "lat": -3.75}}, {"type": "Feature", "geometry": {"type": "Polygon", "coordinates": [[[25.0, -2.5], [25.0, 0.0], [27.5, 0.0], [27.5, -2.5], [25.0, -2.5]]]}, "properties": {"cell_id": "10_35", "lon": 26.25, "lat": -1.25}}, {"type": "Feature", "geometry": {"type": "Polygon", "coordinates": [[[27.5, -10.0], [27.5, -7.5], [30.0, -7.5], [30.0, -10.0], [27.5, -10.0]]]}, "properties": {"cell_id": "11_32", "lon": 28.75, "lat": -8.75}}, {"type": "Feature", "geometry": {"type": "Polygon", "coordinates": [[[27.5, -7.5], [27.5, -5.0], [30.0, -5.0], [30.0, -7.5], [27.5, -7.5]]]}, "properties": {"cell_id": "11_33", "lon": 28.75, "lat": -6.25}}, {"type": "Feature", "geometry": {"type": "Polygon", "coordinates": [[[27.5, -5.0], [27.5, -2.5], [30.0, -2.5], [30.0, -5.0], [27.5, -5.0]]]}, "properties": {"cell_id": "11_34", "lon": 28.75, "lat": -3.75}}, {"type": "Feature", "geometry": {"type": "Polygon", "coordinates": [[[27.5, -2.5], [27.5, 0.0], [30.0, 0.0], [30.0, -2.5], [27.5, -2.5]]]}, "properties": {"cell_id": "11_35", "lon": 28.75, "lat": -1.25}}]}