{"type": "FeatureCollection", "features": [{"type": "Feature", "geometry": {"type": "Polygon", "coordinates": [[[-119.25, 60.0], [-119.25, 61.5], [-117.75, 61.5], [-117.75, 60.0], [-119.25, 60.0]]]}, "properties": {"cell_id": "161_100", "lon": -118.5, "lat": 60.75}}, {"type": "Feature", "geometry": {"type": "Polygon", "coordinates": [[[-119.25, 61.5], [-119.25, 63.0], [-117.75, 63.0], [-117.75, 61.5], [-119.25, 61.5]]]}, "properties": {"cell_id": "161_101", "lon": -118.5, "lat": 62.25}}, {"type": "Feature", "geometry": {"type": "Polygon", "coordinates": [[[-119.25, 63.0], [-119.25, 64.5], [-117.75, 64.5], [-117.75, 63.0], [-119.25, 63.0]]]}, "properties": {"cell_id": "161_102", "lon": -118.5, "lat": 63.75}}, {"type": "Feature", "geometry": {"type": "Polygon", "coordinates": [[[-119.25, 64.5], [-119.25, 66.0], [-117.75, 66.0], [-117.75, 64.5], [-119.25, 64.5]]]}, "properties": {"cell_id": "161_103", "lon": -118.5, "lat": 65.25}}, {"type": "Feature", "geometry": {"type": "Polygon", "coordinates": [[[-119.25, 66.0], [-119.25, 67.5], [-117.75, 67.5], [-117.75, 66.0], [-119.25, 66.0]]]}, "properties": {"cell_id": "161_104", "lon": -118.5, "lat": 66.75}}, {"type": "Feature", "geometry": {"type": "Polygon", "coordinates": [[[-119.25, 67.5], [-119.25, 69.0], [-117.75, 69.0], [-117.75, 67.5], [-119.25, 67.5]]]}, "properties": {"cell_id": "161_105", "lon": -118.5, "lat": 68.25}}, {"type": "Feature", "geometry": {"type": "Polygon", "coordinates": [[[-119.25, 69.0], [-119.25, 70.5], [-117.75, 70.5], [-117.75, 69.0], [-119.25, 69.0]]]}, "properties": {"cell_id": "161_106", "lon": -118.5, "lat": 69.75}}, {"type": "Feature", "geometry": {"type": "Polygon", "coordinates": [[[-117.75, 60.0], [-117.75, 61.5], [-116.25, 61.5], [-116.25, 60.0], [-117.75, 60.0]]]}, "properties": {"cell_id": "162_100", "lon": -117.0, "lat": 60.75}}, {"type": "Feature", "geometry": {"type": "Polygon", "coordinates": [[[-117.75, 61.5], [-117.75, 63.0], [-116.25, 63.0], [-116.25, 61.5], [-117.75, 61.5]]]}, "properties": {"cell_id": "162_101", "lon": -117.0, "lat": 62.25}}, {"type": "Feature", "geometry": {"type": "Polygon", "coordinates": [[[-117.75, 63.0], [-117.75, 64.5], [-116.25, 64.5], [-116.25, 63.0], [-117.75, 63.0]]]}, "properties": {"cell_id": "162_102", "lon": -117.0, "lat": 63.75}}, {"type": "Feature", "geometry": {"type": "Polygon", "coordinates": [[[-117.75, 64.5], [-117.75, 66.0], [-116.25, 66.0], [-116.25, 64.5], [-117.75, 64.5]]]}, "properties": {"cell_id": "162_103", "lon": -117.0, "lat": 65.25}}, {"type": "Feature", "geometry": {"type": "Polygon", "coordinates": [[[-117.75, 66.0], [-117.75, 67.5], [-116.25, 67.5], [-116.25, 66.0], [-117.75, 66.0]]]}, "properties": {"cell_id": "162_104", "lon": -117.0, "lat": 66.75}}, {"type": "Feature", "geometry": {"type": "Polygon", "coordinates": [[[-117.75, 67.5], [-117.75, 69.0], [-116.25, 69.0], [-116.25, 67.5], [-117.75, 67.5]]]}, "properties": {"cell_id": "162_105", "lon": -117.0, "lat": 68.25}}, {"type": "Feature", "geometry": {"type": "Polygon", "coordinates": [[[-117.75, 69.0], [-117.75, 70.5], [-116.25, 70.5], [-116.25, 69.0], [-117.75, 69.0]]]}, "properties": {"cell_id": "162_106", "lon": -117.0, "lat": 69.75}}, {"type": "Feature", "geometry": {"type": "Polygon", "coordinates": [[[-116.25, 60.0], [-116.25, 61.5], [-114.75, 61.5], [-114.75, 60.0], [-116.25, 60.0]]]}, "properties": {"cell_id": "163_100", "lon": -115.5, "lat": 60.75}}, {"type": "Feature", "geometry": {"type": "Polygon", "coordinates": [[[-116.25, 61.5], [-116.25, 63.0], [-114.75, 63.0], [-114.75, 61.5], [-116.25, 61.5]]]}, "properties": {"cell_id": "163_101", "lon": -115.5, "lat": 62.25}}, {"type": "Feature", "geometry": {"type": "Polygon", "coordinates": [[[-116.25, 63.0], [-116.25, 64.5], [-114.75, 64.5], [-114.75, 63.0], [-116.25, 63.0]]]}, "properties": {"cell_id": "163_102", "lon": -115.5, "lat": 63.75}}, {"type": "Feature", "geometry": {"type": "Polygon", "coordinates": [[[-116.25, 64.5], [-116.25, 66.0], [-114.75, 66.0], [-114.75, 64.5], [-116.25, 64.5]]]}, "properties": {"cell_id": "163_103", "lon": -115.5, "lat": 65.25}}, {"type": "Feature", "geometry": {"type": "Polygon", "coordinates": [[[-116.25, 66.0], [-116.25, 67.5], [-114.75, 67.5], [-114.75, 66.0], [-116.25, 66.0]]]}, "properties": {"cell_id": "163_104", "lon": -115.5, "lat": 66.75}}, {"type": "Feature", "geometry": {"type": "Polygon", "coordinates": [[[-116.25, 67.5], [-116.25, 69.0], [-114.75, 69.0], [-114.75, 67.5], [-116.25, 67.5]]]}, "properties": {"cell_id": "163_105", "lon": -115.5, "lat": 68.25}}, {"type": "Feature", "geometry": {"type": "Polygon", "coordinates": [[[-116.25, 69.0], [-116.25, 70.5], [-114.75, 70.5], [-114.75, 69.0], [-116.25, 69.0]]]}, "properties": {"cell_id": "163_106", "lon": -115.5, "lat": 69.75}}, {"type": "Feature", "geometry": {"type": "Polygon", "coordinates": [[[-114.75, 60.0], [-114.75, 61.5], [-113.25, 61.5], [-113.25, 60.0], [-114.75, 60.0]]]}, "properties": {"cell_id": "164_100", "lon": -114.0, "lat": 60.75}}, {"type": "Feature", "geometry": {"type": "Polygon", "coordinates": [[[-114.75, 61.5], [-114.75, 63.0], [-113.25, 63.0], [-113.25, 61.5], [-114.75, 61.5]]]}, "properties": {"cell_id": "164_101", "lon": -114.0, "lat": 62.25}}, {"type": "Feature", "geometry": {"type": "Polygon", "coordinates": [[[-114.75, 63.0], [-114.75, 64.5], [-113.25, 64.5], [-113.25, 63.0], [-114.75, 63.0]]]}, "properties": {"cell_id": "164_102", "lon": -114.0, "lat": 63.75}}, {"type": "Feature", "geometry": {"type": "Polygon", "coordinates": [[[-114.75, 64.5], [-114.75, 66.0], [-113.25, 66.0], [-113.25, 64.5], [-114.75, 64.5]]]}, "properties": {"cell_id": "164_103", "lon": -114.0, "lat": 65.25}}, {"type": "Feature", "geometry": {"type": "Polygon", "coordinates": [[[-114.75, 66.0], [-114.75, 67.5], [-113.25, 67.5], [-113.25, 66.0], [-114.75, 66.0]]]}, "properties": {"cell_id": "164_104", "lon": -114.0, "lat": 66.75}}, {"type": "Feature", "geometry": {"type": "Polygon", "coordinates": [[[-114.75, 67.5], [-114.75, 69.0], [-113.25, 69.0], [-113.25, 67.5], [-114.75, 67.5]]]}, "properties": {"cell_id": "164_105", "lon": -114.0, "lat": 68.25}}, {"type": "Feature", "geometry": {"type": "Polygon", "coordinates": [[[-114.75, 69.0], [-114.75, 70.5], [-113.25, 70.5], [-113.25, 69.0], [-114.75, 69.0]]]}, "properties": {"cell_id": "164_106", "lon": -114.0, "lat": 69.75}}, {"type": "Feature", "geometry": {"type": "Polygon", "coordinates": [[[-113.25, 60.0], [-113.25, 61.5], [-111.75, 61.5], [-111.75, 60.0], [-113.25, 60.0]]]}, "properties": {"cell_id": "165_100", "lon": -112.5, "lat": 60.75}}, {"type": "Feature", "geometry": {"type": "Polygon", "coordinates": [[[-113.25, 61.5], [-113.25, 63.0], [-111.75, 63.0], [-111.75, 61.5], [-113.25, 61.5]]]}, "properties": {"cell_id": "165_101", "lon": -112.5, "lat": 62.25}}, {"type": "Feature", "geometry": {"type": "Polygon", "coordinates": [[[-113.25, 63.0], [-113.25, 64.5], [-111.75, 64.5], [-111.75, 63.0], [-113.25, 63.0]]]}, "properties": {"cell_id": "165_102", "lon": -112.5, "lat": 63.75}}, {"type": "Feature", "geometry": {"type": "Polygon", "coordinates": [[[-113.25, 64.5], [-113.25, 66.0], [-111.75, 66.0], [-111.75, 64.5], [-113.25, 64.5]]]}, "properties": {"cell_id": "165_103", "lon": -112.5, "lat": 65.25}}, {"type": "Feature", "geometry": {"type": "Polygon", "coordinates": [[[-113.25, 66.0], [-113.25, 67.5], [-111.75, 67.5], [-111.75, 66.0], [-113.25, 66.0]]]}, "properties": {"cell_id": "165_104", "lon": -112.5, "lat": 66.75}}, {"type": "Feature", "geometry": {"type": "Polygon", "coordinates": [[[-113.25, 67.5], [-113.25, 69.0], [-111.75, 69.0], [-111.75, 67.5], [-113.25, 67.5]]]}, "properties": {"cell_id": "165_105", "lon": -112.5, "lat": 68.25}}, {"type": "Feature", "geometry": {"type": "Polygon", "coordinates": [[[-113.25, 69.0], [-113.25, 70.5], [-111.75, 70.5], [-111.75, 69.0], [-113.25, 69.0]]]}, "properties": {"cell_id": "165_106", "lon": -112.5, "lat": 69.75}}, {"type": "Feature", "geometry": {"type": "Polygon", "coordinates": [[[-111.75, 60.0], [-111.75, 61.5], [-110.25, 61.5], [-110.25, 60.0], [-111.75, 60.0]]]}, "properties": {"cell_id": "166_100", "lon": -111.0, "lat": 60.75}}, {"type": "Feature", "geometry": {"type": "Polygon", "coordinates": [[[-111.75, 61.5], [-111.75, 63.0], [-110.25, 63.0], [-110.25, 61.5], [-111.75, 61.5]]]}, "properties": {"cell_id": "166_101", "lon": -111.0, "lat": 62.25}}, {"type": "Feature", "geometry": {"type": "Polygon", "coordinates": [[[-111.75, 63.0], [-111.75, 64.5], [-110.25, 64.5], [-110.25, 63.0], [-111.75, 63.0]]]}, "properties": {"cell_id": "166_102", "lon": -111.0, "lat": 63.75}}, {"type": "Feature", "geometry": {"type": "Polygon", "coordinates": [[[-111.75, 64.5], [-111.75, 66.0], [-110.25, 66.0], [-110.25, 64.5], [-111.75, 64.5]]]}, "properties": {"cell_id": "166_103", "lon": -111.0, "lat": 65.25}}, {"type": "Feature", "geometry": {"type": "Polygon", "coordinates": [[[-111.75, 66.0], [-111.75, 67.5], [-110.25, 67.5], [-110.25, 66.0], [-111.75, 66.0]]]}, "properties": {"cell_id": "166_104", "lon": -111.0, "lat": 66.75}}, {"type": "Feature", "geometry": {"type": "Polygon", "coordinates": [[[-111.75, 67.5], [-111.75, 69.0], [-110.25, 69.0], [-110.25, 67.5], [-111.75, 67.5]]]}, "properties": {"cell_id": "166_105", "lon": -111.0, "lat": 68.25}}, {"type": "Feature", "geometry": {"type": "Polygon", "coordinates": [[[-111.75, 69.0], [-111.75, 70.5], [-110.25, 70.5], [-110.25, 69.0], [-111.75, 69.0]]]}, "properties": {"cell_id": "166_106", "lon": -111.0, "lat": 69.75}}, {"type": "Feature", "geometry": {"type": "Polygon", "coordinates": [[[-110.25, 60.0], [-110.25, 61.5], [-108.75, 61.5], [-108.75, 60.0], [-110.25, 60.0]]]}, "properties": {"cell_id": "167_100", "lon": -109.5, "lat": 60.75}}, {"type": "Feature", "geometry": {"type": "Polygon", "coordinates": [[[-110.25, 61.5], [-110.25, 63.0], [-108.75, 63.0], [-108.75, 61.5], [-110.25, 61.5]]]}, "properties": {"cell_id": "167_101", "lon": -109.5, "lat": 62.25}}, {"type": "Feature", "geometry": {"type": "Polygon", "coordinates": [[[-110.25, 63.0], [-110.25, 64.5], [-108.75, 64.5], [-108.75, 63.0], [-110.25, 63.0]]]}, "properties": {"cell_id": "167_102", "lon": -109.5, "lat": 63.75}}, {"type": "Feature", "geometry": {"type": "Polygon", "coordinates": [[[-110.25, 64.5], [-110.25, 66.0], [-108.75, 66.0], [-108.75, 64.5], [-110.25, 64.5]]]}, "properties": {"cell_id": "167_103", "lon": -109.5, "lat": 65.25}}, {"type": "Feature", "geometry": {"type": "Polygon", "coordinates": [[[-110.25, 66.0], [-110.25, 67.5], [-108.75, 67.5], [-108.75, 66.0], [-110.25, 66.0]]]}, "properties": {"cell_id": "167_104", "lon": -109.5, "lat": 66.75}}, {"type": "Feature", "geometry": {"type": "Polygon", "coordinates": [[[-110.25, 67.5], [-110.25, 69.0], [-108.75, 69.0], [-108.75, 67.5], [-110.25, 67.5]]]}, "properties": {"cell_id": "167_105", "lon": -109.5, "lat": 68.25}}, {"type": "Feature", "geometry": {"type": "Polygon", "coordinates": [[[-110.25, 69.0], [-110.25, 70.5], [-108.75, 70.5], [-108.75, 69.0], [-110.25, 69.0]]]}, "properties": {"cell_id": "167_106", "lon": -109.5, "lat": 69.75}}]}