{"type": "FeatureCollection", "features": [{"type": "Feature", "geometry": {"type": "Polygon", "coordinates": [[[-89.25, 21.0], [-89.25, 22.5], [-87.75, 22.5], [-87.75, 21.0], [-89.25, 21.0]]]}, "properties": {"cell_id": "181_74", "lon": -88.5, "lat": 21.75}}, {"type": "Feature", "geometry": {"type": "Polygon", "coordinates": [[[-83.25, 25.5], [-83.25, 27.0], [-81.75, 27.0], [-81.75, 25.5], [-83.25, 25.5]]]}, "properties": {"cell_id": "185_77", "lon": -82.5, "lat": 26.25}}, {"type": "Feature", "geometry": {"type": "Polygon", "coordinates": [[[-83.25, 27.0], [-83.25, 28.5], [-81.75, 28.5], [-81.75, 27.0], [-83.25, 27.0]]]}, "properties": {"cell_id": "185_78", "lon": -82.5, "lat": 27.75}}, {"type": "Feature", "geometry": {"type": "Polygon", "coordinates": [[[-83.25, 28.5], [-83.25, 30.0], [-81.75, 30.0], [-81.75, 28.5], [-83.25, 28.5]]]}, "properties": {"cell_id": "185_79", "lon": -82.5, "lat": 29.25}}, {"type": "Feature", "geometry": {"type": "Polygon", "coordinates": [[[-81.75, 21.0], [-81.75, 22.5], [-80.25, 22.5], [-80.25, 21.0], [-81.75, 21.0]]]}, "properties": {"cell_id": "186_74", "lon": -81.0, "lat": 21.75}}, {"type": "Feature", "geometry": {"type": "Polygon", "coordinates": [[[-81.75, 25.5], [-81.75, 27.0], [-80.25, 27.0], [-80.25, 25.5], [-81.75, 25.5]]]}, "properties": {"cell_id": "186_77", "lon": -81.0, "lat": 26.25}}, {"type": "Feature", "geometry": {"type": "Polygon", "coordinates": [[[-81.75, 27.0], [-81.75, 28.5], [-80.25, 28.5], [-80.25, 27.0], [-81.75, 27.0]]]}, "properties": {"cell_id": "186_78", "lon": -81.0, "lat": 27.75}}, {"type": "Feature", "geometry": {"type": "Polygon", "coordinates": [[[-81.75, 28.5], [-81.75, 30.0], [-80.25, 30.0], [-80.25, 28.5], [-81.75, 28.5]]]}, "properties": {"cell_id": "186_79", "lon": -81.0, "lat": 29.25}}, {"type": "Feature", "geometry": {"type": "Polygon", "coordinates": [[[-80.25, 21.0], [-80.25, 22.5], [-78.75, 22.5], [-78.75, 21.0], [-80.25, 21.0]]]}, "properties": {"cell_id": "187_74", "lon": -79.5, "lat": 21.75}}]}