{"type": "FeatureCollection", "features": [{"type": "Feature", "geometry": {"type": "Polygon", "coordinates": [[[80.0, 15.0], [80.0, 17.5], [82.5, 17.5], [82.5, 15.0], [80.0, 15.0]]]}, "properties": {"cell_id": "32_42", "lon": 81.25, "lat": 16.25}}, {"type": "Feature", "geometry": {"type": "Polygon", "coordinates": [[[80.0, 17.5], [80.0, 20.0], [82.5, 20.0], [82.5, 17.5], [80.0, 17.5]]]}, "properties": {"cell_id": "32_43", "lon": 81.25, "lat": 18.75}}, {"type": "Feature", "geometry": {"type": "Polygon", "coordinates": [[[82.5, 17.5], [82.5, 20.0], [85.0, 20.0], [85.0, 17.5], [82.5, 17.5]]]}, "properties": {"cell_id": "33_43", "lon": 83.75, "lat": 18.75}}]}