{"type": "FeatureCollection", "features": [{"type": "Feature", "geometry": {"type": "Polygon", "coordinates": [[[41.25, -90.0], [41.25, -88.5], [42.75, -88.5], [42.75, -90.0], [41.25, -90.0]]]}, "properties": {"cell_id": "28_0", "lon": 42.0, "lat": -89.25}}, {"type": "Feature", "geometry": {"type": "Polygon", "coordinates": [[[41.25, -88.5], [41.25, -87.0], [42.75, -87.0], [42.75, -88.5], [41.25, -88.5]]]}, "properties": {"cell_id": "28_1", "lon": 42.0, "lat": -87.75}}, {"type": "Feature", "geometry": {"type": "Polygon", "coordinates": [[[41.25, -87.0], [41.25, -85.5], [42.75, -85.5], [42.75, -87.0], [41.25, -87.0]]]}, "properties": {"cell_id": "28_2", "lon": 42.0, "lat": -86.25}}, {"type": "Feature", "geometry": {"type": "Polygon", "coordinates": [[[41.25, -85.5], [41.25, -84.0], [42.75, -84.0], [42.75, -85.5], [41.25, -85.5]]]}, "properties": {"cell_id": "28_3", "lon": 42.0, "lat": -84.75}}, {"type": "Feature", "geometry": {"type": "Polygon", "coordinates": [[[41.25, -84.0], [41.25, -82.5], [42.75, -82.5], [42.75, -84.0], [41.25, -84.0]]]}, "properties": {"cell_id": "28_4", "lon": 42.0, "lat": -83.25}}, {"type": "Feature", "geometry": {"type": "Polygon", "coordinates": [[[41.25, -82.5], [41.25, -81.0], [42.75, -81.0], [42.75, -82.5], [41.25, -82.5]]]}, "properties": {"cell_id": "28_5", "lon": 42.0, "lat": -81.75}}, {"type": "Feature", "geometry": {"type": "Polygon", "coordinates": [[[41.25, -81.0], [41.25, -79.5], [42.75, -79.5], [42.75, -81.0], [41.25, -81.0]]]}, "properties": {"cell_id": "28_6", "lon": 42.0, "lat": -80.25}}, {"type": "Feature", "geometry": {"type": "Polygon", "coordinates": [[[42.75, -90.0], [42.75, -88.5], [44.25, -88.5], [44.25, -90.0], [42.75, -90.0]]]}, "properties": {"cell_id": "29_0", "lon": 43.5, "lat": -89.25}}, {"type": "Feature", "geometry": {"type": "Polygon", "coordinates": [[[42.75, -88.5], [42.75, -87.0], [44.25, -87.0], [44.25, -88.5], [42.75, -88.5]]]}, "properties": {"cell_id": "29_1", "lon": 43.5, "lat": -87.75}}, {"type": "Feature", "geometry": {"type": "Polygon", "coordinates": [[[42.75, -87.0], [42.75, -85.5], [44.25, -85.5], [44.25, -87.0], [42.75, -87.0]]]}, "properties": {"cell_id": "29_2", "lon": 43.5, "lat": -86.25}}, {"type": "Feature", "geometry": {"type": "Polygon", "coordinates": [[[42.75, -85.5], [42.75, -84.0], [44.25, -84.0], [44.25, -85.5], [42.75, -85.5]]]}, "properties": {"cell_id": "29_3", "lon": 43.5, "lat": -84.75}}, {"type": "Feature", "geometry": {"type": "Polygon", "coordinates": [[[42.75, -84.0], [42.75, -82.5], [44.25, -82.5], [44.25, -84.0], [42.75, -84.0]]]}, "properties": {"cell_id": "29_4", "lon": 43.5, "lat": -83.25}}, {"type": "Feature", "geometry": {"type": "Polygon", "coordinates": [[[42.75, -82.5], [42.75, -81.0], [44.25, -81.0], [44.25, -82.5], [42.75, -82.5]]]}, "properties": {"cell_id": "29_5", "lon": 43.5, "lat": -81.75}}, {"type": "Feature", "geometry": {"type": "Polygon", "coordinates": [[[42.75, -81.0], [42.75, -79.5], [44.25, -79.5], [44.25, -81.0], [42.75, -81.0]]]}, "properties": {"cell_id": "29_6", "lon": 43.5, "lat": -80.25}}, {"type": "Feature", "geometry": {"type": "Polygon", "coordinates": [[[44.25, -90.0], [44.25, -88.5], [45.75, -88.5], [45.75, -90.0], [44.25, -90.0]]]}, "properties": {"cell_id": "30_0", "lon": 45.0, "lat": -89.25}}, {"type": "Feature", "geometry": {"type": "Polygon", "coordinates": [[[44.25, -88.5], [44.25, -87.0], [45.75, -87.0], [45.75, -88.5], [44.25, -88.5]]]}, "properties": {"cell_id": "30_1", "lon": 45.0, "lat": -87.75}}, {"type": "Feature", "geometry": {"type": "Polygon", "coordinates": [[[44.25, -87.0], [44.25, -85.5], [45.75, -85.5], [45.75, -87.0], [44.25, -87.0]]]}, "properties": {"cell_id": "30_2", "lon": 45.0, "lat": -86.25}}, {"type": "Feature", "geometry": {"type": "Polygon", "coordinates": [[[44.25, -85.5], [44.25, -84.0], [45.75, -84.0], [45.75, -85.5], [44.25, -85.5]]]}, "properties": {"cell_id": "30_3", "lon": 45.0, "lat": -84.75}}, {"type": "Feature", "geometry": {"type": "Polygon", "coordinates": [[[44.25, -84.0], [44.25, -82.5], [45.75, -82.5], [45.75, -84.0], [44.25, -84.0]]]}, "properties": {"cell_id": "30_4", "lon": 45.0, "lat": -83.25}}, {"type": "Feature", "geometry": {"type": "Polygon", "coordinates": [[[44.25, -82.5], [44.25, -81.0], [45.75, -81.0], [45.75, -82.5], [44.25, -82.5]]]}, "properties": {"cell_id": "30_5", "lon": 45.0, "lat": -81.75}}, {"type": "Feature", "geometry": {"type": "Polygon", "coordinates": [[[44.25, -81.0], [44.25, -79.5], [45.75, -79.5], [45.75, -81.0], [44.25, -81.0]]]}, "properties": {"cell_id": "30_6", "lon": 45.0, "lat": -80.25}}, {"type": "Feature", "geometry": {"type": "Polygon", "coordinates": [[[45.75, -90.0], [45.75, -88.5], [47.25, -88.5], [47.25, -90.0], [45.75, -90.0]]]}, "properties": {"cell_id": "31_0", "lon": 46.5, "lat": -89.25}}, {"type": "Feature", "geometry": {"type": "Polygon", "coordinates": [[[45.75, -88.5], [45.75, -87.0], [47.25, -87.0], [47.25, -88.5], [45.75, -88.5]]]}, "properties": {"cell_id": "31_1", "lon": 46.5, "lat": -87.75}}, {"type": "Feature", "geometry": {"type": "Polygon", "coordinates": [[[45.75, -87.0], [45.75, -85.5], [47.25, -85.5], [47.25, -87.0], [45.75, -87.0]]]}, "properties": {"cell_id": "31_2", "lon": 46.5, "lat": -86.25}}, {"type": "Feature", "geometry": {"type": "Polygon", "coordinates": [[[45.75, -85.5], [45.75, -84.0], [47.25, -84.0], [47.25, -85.5], [45.75, -85.5]]]}, "properties": {"cell_id": "31_3", "lon": 46.5, "lat": -84.75}}, {"type": "Feature", "geometry": {"type": "Polygon", "coordinates": [[[45.75, -84.0], [45.75, -82.5], [47.25, -82.5], [47.25, -84.0], [45.75, -84.0]]]}, "properties": {"cell_id": "31_4", "lon": 46.5, "lat": -83.25}}, {"type": "Feature", "geometry": {"type": "Polygon", "coordinates": [[[45.75, -82.5], [45.75, -81.0], [47.25, -81.0], [47.25, -82.5], [45.75, -82.5]]]}, "properties": {"cell_id": "31_5", "lon": 46.5, "lat": -81.75}}, {"type": "Feature", "geometry": {"type": "Polygon", "coordinates": [[[45.75, -81.0], [45.75, -79.5], [47.25, -79.5], [47.25, -81.0], [45.75, -81.0]]]}, "properties": {"cell_id": "31_6", "lon": 46.5, "lat": -80.25}}, {"type": "Feature", "geometry": {"type": "Polygon", "coordinates": [[[47.25, -90.0], [47.25, -88.5], [48.75, -88.5], [48.75, -90.0], [47.25, -90.0]]]}, "properties": {"cell_id": "32_0", "lon": 48.0, "lat": -89.25}}, {"type": "Feature", "geometry": {"type": "Polygon", "coordinates": [[[47.25, -88.5], [47.25, -87.0], [48.75, -87.0], [48.75, -88.5], [47.25, -88.5]]]}, "properties": {"cell_id": "32_1", "lon": 48.0, "lat": -87.75}}, {"type": "Feature", "geometry": {"type": "Polygon", "coordinates": [[[47.25, -87.0], [47.25, -85.5], [48.75, -85.5], [48.75, -87.0], [47.25, -87.0]]]}, "properties": {"cell_id": "32_2", "lon": 48.0, "lat": -86.25}}, {"type": "Feature", "geometry": {"type": "Polygon", "coordinates": [[[47.25, -85.5], [47.25, -84.0], [48.75, -84.0], [48.75, -85.5], [47.25, -85.5]]]}, "properties": {"cell_id": "32_3", "lon": 48.0, "lat": -84.75}}, {"type": "Feature", "geometry": {"type": "Polygon", "coordinates": [[[47.25, -84.0], [47.25, -82.5], [48.75, -82.5], [48.75, -84.0], [47.25, -84.0]]]}, "properties": {"cell_id": "32_4", "lon": 48.0, "lat": -83.25}}, {"type": "Feature", "geometry": {"type": "Polygon", "coordinates": [[[47.25, -82.5], [47.25, -81.0], [48.75, -81.0], [48.75, -82.5], [47.25, -82.5]]]}, "properties": {"cell_id": "32_5", "lon": 48.0, "lat": -81.75}}, {"type": "Feature", "geometry": {"type": "Polygon", "coordinates": [[[47.25, -81.0], [47.25, -79.5], [48.75, -79.5], [48.75, -81.0], [47.25, -81.0]]]}, "properties": {"cell_id": "32_6", "lon": 48.0, "lat": -80.25}}, {"type": "Feature", "geometry": {"type": "Polygon", "coordinates": [[[48.75, -90.0], [48.75, -88.5], [50.25, -88.5], [50.25, -90.0], [48.75, -90.0]]]}, "properties": {"cell_id": "33_0", "lon": 49.5, "lat": -89.25}}, {"type": "Feature", "geometry": {"type": "Polygon", "coordinates": [[[48.75, -88.5], [48.75, -87.0], [50.25, -87.0], [50.25, -88.5], [48.75, -88.5]]]}, "properties": {"cell_id": "33_1", "lon": 49.5, "lat": -87.75}}, {"type": "Feature", "geometry": {"type": "Polygon", "coordinates": [[[48.75, -87.0], [48.75, -85.5], [50.25, -85.5], [50.25, -87.0], [48.75, -87.0]]]}, "properties": {"cell_id": "33_2", "lon": 49.5, "lat": -86.25}}, {"type": "Feature", "geometry": {"type": "Polygon", "coordinates": [[[48.75, -85.5], [48.75, -84.0], [50.25, -84.0], [50.25, -85.5], [48.75, -85.5]]]}, "properties": {"cell_id": "33_3", "lon": 49.5, "lat": -84.75}}, {"type": "Feature", "geometry": {"type": "Polygon", "coordinates": [[[48.75, -84.0], [48.75, -82.5], [50.25, -82.5], [50.25, -84.0], [48.75, -84.0]]]}, "properties": {"cell_id": "33_4", "lon": 49.5, "lat": -83.25}}, {"type": "Feature", "geometry": {"type": "Polygon", "coordinates": [[[48.75, -82.5], [48.75, -81.0], [50.25, -81.0], [50.25, -82.5], [48.75, -82.5]]]}, "properties": {"cell_id": "33_5", "lon": 49.5, "lat": -81.75}}, {"type": "Feature", "geometry": {"type": "Polygon", "coordinates": [[[48.75, -81.0], [48.75, -79.5], [50.25, -79.5], [50.25, -81.0], [48.75, -81.0]]]}, "properties": {"cell_id": "33_6", "lon": 49.5, "lat": -80.25}}]}