{"type": "FeatureCollection", "features": [{"type": "Feature", "geometry": {"type": "Polygon", "coordinates": [[[-15.75, 9.0], [-15.75, 10.5], [-14.25, 10.5], [-14.25, 9.0], [-15.75, 9.0]]]}, "properties": {"cell_id": "230_66", "lon": -15.0, "lat": 9.75}}, {"type": "Feature", "geometry": {"type": "Polygon", "coordinates": [[[-14.25, 7.5], [-14.25, 9.0], [-12.75, 9.0], [-12.75, 7.5], [-14.25, 7.5]]]}, "properties": {"cell_id": "231_65", "lon": -13.5, "lat": 8.25}}, {"type": "Feature", "geometry": {"type": "Polygon", "coordinates": [[[-14.25, 9.0], [-14.25, 10.5], [-12.75, 10.5], [-12.75, 9.0], [-14.25, 9.0]]]}, "properties": {"cell_id": "231_66", "lon": -13.5, "lat": 9.75}}, {"type": "Feature", "geometry": {"type": "Polygon", "coordinates": [[[-12.75, 6.0], [-12.75, 7.5], [-11.25, 7.5], [-11.25, 6.0], [-12.75, 6.0]]]}, "properties": {"cell_id": "232_64", "lon": -12.0, "lat": 6.75}}, {"type": "Feature", "geometry": {"type": "Polygon", "coordinates": [[[-12.75, 7.5], [-12.75, 9.0], [-11.25, 9.0], [-11.25, 7.5], [-12.75, 7.5]]]}, "properties": {"cell_id": "232_65", "lon": -12.0, "lat": 8.25}}, {"type": "Feature", "geometry": {"type": "Polygon", "coordinates": [[[-12.75, 9.0], [-12.75, 10.5], [-11.25, 10.5], [-11.25, 9.0], [-12.75, 9.0]]]}, "properties": {"cell_id": "232_66", "lon": -12.0, "lat": 9.75}}, {"type": "Feature", "geometry": {"type": "Polygon", "coordinates": [[[-11.25, 4.5], [-11.25, 6.0], [-9.75, 6.0], [-9.75, 4.5], [-11.25, 4.5]]]}, "properties": {"cell_id": "233_63", "lon": -10.5, "lat": 5.25}}, {"type": "Feature", "geometry": {"type": "Polygon", "coordinates": [[[-11.25, 6.0], [-11.25, 7.5], [-9.75, 7.5], [-9.75, 6.0], [-11.25, 6.0]]]}, "properties": {"cell_id": "233_64", "lon": -10.5, "lat": 6.75}}, {"type": "Feature", "geometry": {"type": "Polygon", "coordinates": [[[-11.25, 7.5], [-11.25, 9.0], [-9.75, 9.0], [-9.75, 7.5], [-11.25, 7.5]]]}, "properties": {"cell_id": "233_65", "lon": -10.5, "lat": 8.25}}, {"type": "Feature", "geometry": {"type": "Polygon", "coordinates": [[[-11.25, 9.0], [-11.25, 10.5], [-9.75, 10.5], [-9.75, 9.0], [-11.25, 9.0]]]}, "properties": {"cell_id": "233_66", "lon": -10.5, "lat": 9.75}}]}