{"type": "FeatureCollection", "features": [{"type": "Feature", "geometry": {"type": "Polygon", "coordinates": [[[-90.0, 50.0], [-90.0, 52.5], [-87.5, 52.5], [-87.5, 50.0], [-90.0, 50.0]]]}, "properties": {"cell_id": "108_56", "lon": -88.75, "lat": 51.25}}, {"type": "Feature", "geometry": {"type": "Polygon", "coordinates": [[[-90.0, 52.5], [-90.0, 55.0], [-87.5, 55.0], [-87.5, 52.5], [-90.0, 52.5]]]}, "properties": {"cell_id": "108_57", "lon": -88.75, "lat": 53.75}}, {"type": "Feature", "geometry": {"type": "Polygon", "coordinates": [[[-90.0, 55.0], [-90.0, 57.5], [-87.5, 57.5], [-87.5, 55.0], [-90.0, 55.0]]]}, "properties": {"cell_id": "108_58", "lon": -88.75, "lat": 56.25}}, {"type": "Feature", "geometry": {"type": "Polygon", "coordinates": [[[-87.5, 50.0], [-87.5, 52.5], [-85.0, 52.5], [-85.0, 50.0], [-87.5, 50.0]]]}, "properties": {"cell_id": "109_56", "lon": -86.25, "lat": 51.25}}, {"type": "Feature", "geometry": {"type": "Polygon", "coordinates": [[[-87.5, 52.5], [-87.5, 55.0], [-85.0, 55.0], [-85.0, 52.5], [-87.5, 52.5]]]}, "properties": {"cell_id": "109_57", "lon": -86.25, "lat": 53.75}}, {"type": "Feature", "geometry": {"type": "Polygon", "coordinates": [[[-85.0, 50.0], [-85.0, 52.5], [-82.5, 52.5], [-82.5, 50.0], [-85.0, 50.0]]]}, "properties": {"cell_id": "110_56", "lon": -83.75, "lat": 51.25}}, {"type": "Feature", "geometry": {"type": "Polygon", "coordinates": [[[-85.0, 52.5], [-85.0, 55.0], [-82.5, 55.0], [-82.5, 52.5], [-85.0, 52.5]]]}, "properties": {"cell_id": "110_57", "lon": -83.75, "lat": 53.75}}, {"type": "Feature", "geometry": {"type": "Polygon", "coordinates": [[[-82.5, 50.0], [-82.5, 52.5], [-80.0, 52.5], [-80.0, 50.0], [-82.5, 50.0]]]}, "properties": {"cell_id": "111_56", "lon": -81.25, "lat": 51.25}}]}