{"type": "FeatureCollection", "features": [{"type": "Feature", "geometry": {"type": "Polygon", "coordinates": [[[-50.0, 60.0], [-50.0, 62.5], [-47.5, 62.5], [-47.5, 60.0], [-50.0, 60.0]]]}, "properties": {"cell_id": "124_60", "lon": -48.75, "lat": 61.25}}, {"type": "Feature", "geometry": {"type": "Polygon", "coordinates": [[[-50.0, 62.5], [-50.0, 65.0], [-47.5, 65.0], [-47.5, 62.5], [-50.0, 62.5]]]}, "properties": {"cell_id": "124_61", "lon": -48.75, "lat": 63.75}}, {"type": "Feature", "geometry": {"type": "Polygon", "coordinates": [[[-50.0, 65.0], [-50.0, 67.5], [-47.5, 67.5], [-47.5, 65.0], [-50.0, 65.0]]]}, "properties": {"cell_id": "124_62", "lon": -48.75, "lat": 66.25}}, {"type": "Feature", "geometry": {"type": "Polygon", "coordinates": [[[-50.0, 67.5], [-50.0, 70.0], [-47.5, 70.0], [-47.5, 67.5], [-50.0, 67.5]]]}, "properties": {"cell_id": "124_63", "lon": -48.75, "lat": 68.75}}, {"type": "Feature", "geometry": {"type": "Polygon", "coordinates": [[[-47.5, 60.0], [-47.5, 62.5], [-45.0, 62.5], [-45.0, 60.0], [-47.5, 60.0]]]}, "properties": {"cell_id": "125_60", "lon": -46.25, "lat": 61.25}}, {"type": "Feature", "geometry": {"type": "Polygon", "coordinates": [[[-47.5, 62.5], [-47.5, 65.0], [-45.0, 65.0], [-45.0, 62.5], [-47.5, 62.5]]]}, "properties": {"cell_id": "125_61", "lon": -46.25, "lat": 63.75}}, {"type": "Feature", "geometry": {"type": "Polygon", "coordinates": [[[-47.5, 65.0], [-47.5, 67.5], [-45.0, 67.5], [-45.0, 65.0], [-47.5, 65.0]]]}, "properties": {"cell_id": "125_62", "lon": -46.25, "lat": 66.25}}, {"type": "Feature", "geometry": {"type": "Polygon", "coordinates": [[[-47.5, 67.5], [-47.5, 70.0], [-45.0, 70.0], [-45.0, 67.5], [-47.5, 67.5]]]}, "properties": {"cell_id": "125_63", "lon": -46.25, "lat": 68.75}}, {"type": "Feature", "geometry": {"type": "Polygon", "coordinates": [[[-45.0, 60.0], [-45.0, 62.5], [-42.5, 62.5], [-42.5, 60.0], [-45.0, 60.0]]]}, "properties": {"cell_id": "126_60", "lon": -43.75, "lat": 61.25}}, {"type": "Feature", "geometry": {"type": "Polygon", "coordinates": [[[-45.0, 62.5], [-45.0, 65.0], [-42.5, 65.0], [-42.5, 62.5], [-45.0, 62.5]]]}, "properties": {"cell_id": "126_61", "lon": -43.75, "lat": 63.75}}, {"type": "Feature", "geometry": {"type": "Polygon", "coordinates": [[[-45.0, 65.0], [-45.0, 67.5], [-42.5, 67.5], [-42.5, 65.0], [-45.0, 65.0]]]}, "properties": {"cell_id": "126_62", "lon": -43.75, "lat": 66.25}}, {"type": "Feature", "geometry": {"type": "Polygon", "coordinates": [[[-45.0, 67.5], [-45.0, 70.0], [-42.5, 70.0], [-42.5, 67.5], [-45.0, 67.5]]]}, "properties": {"cell_id": "126_63", "lon": -43.75, "lat": 68.75}}, {"type": "Feature", "geometry": {"type": "Polygon", "coordinates": [[[-42.5, 62.5], [-42.5, 65.0], [-40.0, 65.0], [-40.0, 62.5], [-42.5, 62.5]]]}, "properties": {"cell_id": "127_61", "lon": -41.25, "lat": 63.75}}, {"type": "Feature", "geometry": {"type": "Polygon", "coordinates": [[[-42.5, 65.0], [-42.5, 67.5], [-40.0, 67.5], [-40.0, 65.0], [-42.5, 65.0]]]}, "properties": {"cell_id": "127_62", "lon": -41.25, "lat": 66.25}}, {"type": "Feature", "geometry": {"type": "Polygon", "coordinates": [[[-42.5, 67.5], [-42.5, 70.0], [-40.0, 70.0], [-40.0, 67.5], [-42.5, 67.5]]]}, "properties": {"cell_id": "127_63", "lon": -41.25, "lat": 68.75}}]}