{"type": "FeatureCollection", "features": [{"type": "Feature", "geometry": {"type": "Polygon", "coordinates": [[[140.0, -37.5], [140.0, -35.0], [142.5, -35.0], [142.5, -37.5], [140.0, -37.5]]]}, "properties": {"cell_id": "56_21", "lon": 141.25, "lat": -36.25}}, {"type": "Feature", "geometry": {"type": "Polygon", "coordinates": [[[140.0, -35.0], [140.0, -32.5], [142.5, -32.5], [142.5, -35.0], [140.0, -35.0]]]}, "properties": {"cell_id": "56_22", "lon": 141.25, "lat": -33.75}}, {"type": "Feature", "geometry": {"type": "Polygon", "coordinates": [[[140.0, -32.5], [140.0, -30.0], [142.5, -30.0], [142.5, -32.5], [140.0, -32.5]]]}, "properties": {"cell_id": "56_23", "lon": 141.25, "lat": -31.25}}, {"type": "Feature", "geometry": {"type": "Polygon", "coordinates": [[[142.5, -37.5], [142.5, -35.0], [145.0, -35.0], [145.0, -37.5], [142.5, -37.5]]]}, "properties": {"cell_id": "57_21", "lon": 143.75, "lat": -36.25}}, {"type": "Feature", "geometry": {"type": "Polygon", "coordinates": [[[142.5, -35.0], [142.5, -32.5], [145.0, -32.5], [145.0, -35.0], [142.5, -35.0]]]}, "properties": {"cell_id": "57_22", "lon": 143.75, "lat": -33.75}}, {"type": "Feature", "geometry": {"type": "Polygon", "coordinates": [[[142.5, -32.5], [142.5, -30.0], [145.0, -30.0], [145.0, -32.5], [142.5, -32.5]]]}, "properties": {"cell_id": "57_23", "lon": 143.75, "lat": -31.25}}, {"type": "Feature", "geometry": {"type": "Polygon", "coordinates": [[[145.0, -40.0], [145.0, -37.5], [147.5, -37.5], [147.5, -40.0], [145.0, -40.0]]]}, "properties": {"cell_id": "58_20", "lon": 146.25, "lat": -38.75}}, {"type": "Feature", "geometry": {"type": "Polygon", "coordinates": [[[145.0, -37.5], [145.0, -35.0], [147.5, -35.0], [147.5, -37.5], [145.0, -37.5]]]}, "properties": {"cell_id": "58_21", "lon": 146.25, "lat": -36.25}}, {"type": "Feature", "geometry": {"type": "Polygon", "coordinates": [[[145.0, -35.0], [145.0, -32.5], [147.5, -32.5], [147.5, -35.0], [145.0, -35.0]]]}, "properties": {"cell_id": "58_22", "lon": 146.25, "lat": -33.75}}, {"type": "Feature", "geometry": {"type": "Polygon", "coordinates": [[[145.0, -32.5], [145.0, -30.0], [147.5, -30.0], [147.5, -32.5], [145.0, -32.5]]]}, "properties": {"cell_id": "58_23", "lon": 146.25, "lat": -31.25}}, {"type": "Feature", "geometry": {"type": "Polygon", "coordinates": [[[147.5, -37.5], [147.5, -35.0], [150.0, -35.0], [150.0, -37.5], [147.5, -37.5]]]}, "properties": {"cell_id": "59_21", "lon": 148.75, "lat": -36.25}}, {"type": "Feature", "geometry": {"type": "Polygon", "coordinates": [[[147.5, -35.0], [147.5, -32.5], [150.0, -32.5], [150.0, -35.0], [147.5, -35.0]]]}, "properties": {"cell_id": "59_22", "lon": 148.75, "lat": -33.75}}, {"type": "Feature", "geometry": {"type": "Polygon", "coordinates": [[[147.5, -32.5], [147.5, -30.0], [150.0, -30.0], [150.0, -32.5], [147.5, -32.5]]]}, "properties": {"cell_id": "59_23", "lon": 148.75, "lat": -31.25}}]}