{"type": "FeatureCollection", "features": [{"type": "Feature", "geometry": {"type": "Polygon", "coordinates": [[[-78.75, 60.0], [-78.75, 61.5], [-77.25, 61.5], [-77.25, 60.0], [-78.75, 60.0]]]}, "properties": {"cell_id": "188_100", "lon": -78.0, "lat": 60.75}}, {"type": "Feature", "geometry": {"type": "Polygon", "coordinates": [[[-78.75, 61.5], [-78.75, 63.0], [-77.25, 63.0], [-77.25, 61.5], [-78.75, 61.5]]]}, "properties": {"cell_id": "188_101", "lon": -78.0, "lat": 62.25}}, {"type": "Feature", "geometry": {"type": "Polygon", "coordinates": [[[-78.75, 69.0], [-78.75, 70.5], [-77.25, 70.5], [-77.25, 69.0], [-78.75, 69.0]]]}, "properties": {"cell_id": "188_106", "lon": -78.0, "lat": 69.75}}, {"type": "Feature", "geometry": {"type": "Polygon", "coordinates": [[[-77.25, 60.0], [-77.25, 61.5], [-75.75, 61.5], [-75.75, 60.0], [-77.25, 60.0]]]}, "properties": {"cell_id": "189_100", "lon": -76.5, "lat": 60.75}}, {"type": "Feature", "geometry": {"type": "Polygon", "coordinates": [[[-77.25, 61.5], [-77.25, 63.0], [-75.75, 63.0], [-75.75, 61.5], [-77.25, 61.5]]]}, "properties": {"cell_id": "189_101", "lon": -76.5, "lat": 62.25}}, {"type": "Feature", "geometry": {"type": "Polygon", "coordinates": [[[-77.25, 63.0], [-77.25, 64.5], [-75.75, 64.5], [-75.75, 63.0], [-77.25, 63.0]]]}, "properties": {"cell_id": "189_102", "lon": -76.5, "lat": 63.75}}, {"type": "Feature", "geometry": {"type": "Polygon", "coordinates": [[[-77.25, 64.5], [-77.25, 66.0], [-75.75, 66.0], [-75.75, 64.5], [-77.25, 64.5]]]}, "properties": {"cell_id": "189_103", "lon": -76.5, "lat": 65.25}}, {"type": "Feature", "geometry": {"type": "Polygon", "coordinates": [[[-77.25, 67.5], [-77.25, 69.0], [-75.75, 69.0], [-75.75, 67.5], [-77.25, 67.5]]]}, "properties": {"cell_id": "189_105", "lon": -76.5, "lat": 68.25}}, {"type": "Feature", "geometry": {"type": "Polygon", "coordinates": [[[-77.25, 69.0], [-77.25, 70.5], [-75.75, 70.5], [-75.75, 69.0], [-77.25, 69.0]]]}, "properties": {"cell_id": "189_106", "lon": -76.5, "lat": 69.75}}, {"type": "Feature", "geometry": {"type": "Polygon", "coordinates": [[[-75.75, 60.0], [-75.75, 61.5], [-74.25, 61.5], [-74.25, 60.0], [-75.75, 60.0]]]}, "properties": {"cell_id": "190_100", "lon": -75.0, "lat": 60.75}}, {"type": "Feature", "geometry": {"type": "Polygon", "coordinates": [[[-75.75, 61.5], [-75.75, 63.0], [-74.25, 63.0], [-74.25, 61.5], [-75.75, 61.5]]]}, "properties": {"cell_id": "190_101", "lon": -75.0, "lat": 62.25}}, {"type": "Feature", "geometry": {"type": "Polygon", "coordinates": [[[-75.75, 63.0], [-75.75, 64.5], [-74.25, 64.5], [-74.25, 63.0], [-75.75, 63.0]]]}, "properties": {"cell_id": "190_102", "lon": -75.0, "lat": 63.75}}, {"type": "Feature", "geometry": {"type": "Polygon", "coordinates": [[[-75.75, 64.5], [-75.75, 66.0], [-74.25, 66.0], [-74.25, 64.5], [-75.75, 64.5]]]}, "properties": {"cell_id": "190_103", "lon": -75.0, "lat": 65.25}}, {"type": "Feature", "geometry": {"type": "Polygon", "coordinates": [[[-75.75, 66.0], [-75.75, 67.5], [-74.25, 67.5], [-74.25, 66.0], [-75.75, 66.0]]]}, "properties": {"cell_id": "190_104", "lon": -75.0, "lat": 66.75}}, {"type": "Feature", "geometry": {"type": "Polygon", "coordinates": [[[-75.75, 67.5], [-75.75, 69.0], [-74.25, 69.0], [-74.25, 67.5], [-75.75, 67.5]]]}, "properties": {"cell_id": "190_105", "lon": -75.0, "lat": 68.25}}, {"type": "Feature", "geometry": {"type": "Polygon", "coordinates": [[[-75.75, 69.0], [-75.75, 70.5], [-74.25, 70.5], [-74.25, 69.0], [-75.75, 69.0]]]}, "properties": {"cell_id": "190_106", "lon": -75.0, "lat": 69.75}}, {"type": "Feature", "geometry": {"type": "Polygon", "coordinates": [[[-74.25, 60.0], [-74.25, 61.5], [-72.75, 61.5], [-72.75, 60.0], [-74.25, 60.0]]]}, "properties": {"cell_id": "191_100", "lon": -73.5, "lat": 60.75}}, {"type": "Feature", "geometry": {"type": "Polygon", "coordinates": [[[-74.25, 61.5], [-74.25, 63.0], [-72.75, 63.0], [-72.75, 61.5], [-74.25, 61.5]]]}, "properties": {"cell_id": "191_101", "lon": -73.5, "lat": 62.25}}, {"type": "Feature", "geometry": {"type": "Polygon", "coordinates": [[[-74.25, 63.0], [-74.25, 64.5], [-72.75, 64.5], [-72.75, 63.0], [-74.25, 63.0]]]}, "properties": {"cell_id": "191_102", "lon": -73.5, "lat": 63.75}}, {"type": "Feature", "geometry": {"type": "Polygon", "coordinates": [[[-74.25, 64.5], [-74.25, 66.0], [-72.75, 66.0], [-72.75, 64.5], [-74.25, 64.5]]]}, "properties": {"cell_id": "191_103", "lon": -73.5, "lat": 65.25}}, {"type": "Feature", "geometry": {"type": "Polygon", "coordinates": [[[-74.25, 66.0], [-74.25, 67.5], [-72.75, 67.5], [-72.75, 66.0], [-74.25, 66.0]]]}, "properties": {"cell_id": "191_104", "lon": -73.5, "lat": 66.75}}, {"type": "Feature", "geometry": {"type": "Polygon", "coordinates": [[[-74.25, 67.5], [-74.25, 69.0], [-72.75, 69.0], [-72.75, 67.5], [-74.25, 67.5]]]}, "properties": {"cell_id": "191_105", "lon": -73.5, "lat": 68.25}}, {"type": "Feature", "geometry": {"type": "Polygon", "coordinates": [[[-74.25, 69.0], [-74.25, 70.5], [-72.75, 70.5], [-72.75, 69.0], [-74.25, 69.0]]]}, "properties": {"cell_id": "191_106", "lon": -73.5, "lat": 69.75}}, {"type": "Feature", "geometry": {"type": "Polygon", "coordinates": [[[-72.75, 60.0], [-72.75, 61.5], [-71.25, 61.5], [-71.25, 60.0], [-72.75, 60.0]]]}, "properties": {"cell_id": "192_100", "lon": -72.0, "lat": 60.75}}, {"type": "Feature", "geometry": {"type": "Polygon", "coordinates": [[[-72.75, 61.5], [-72.75, 63.0], [-71.25, 63.0], [-71.25, 61.5], [-72.75, 61.5]]]}, "properties": {"cell_id": "192_101", "lon": -72.0, "lat": 62.25}}, {"type": "Feature", "geometry": {"type": "Polygon", "coordinates": [[[-72.75, 63.0], [-72.75, 64.5], [-71.25, 64.5], [-71.25, 63.0], [-72.75, 63.0]]]}, "properties": {"cell_id": "192_102", "lon": -72.0, "lat": 63.75}}, {"type": "Feature", "geometry": {"type": "Polygon", "coordinates": [[[-72.75, 64.5], [-72.75, 66.0], [-71.25, 66.0], [-71.25, 64.5], [-72.75, 64.5]]]}, "properties": {"cell_id": "192_103", "lon": -72.0, "lat": 65.25}}, {"type": "Feature", "geometry": {"type": "Polygon", "coordinates": [[[-72.75, 66.0], [-72.75, 67.5], [-71.25, 67.5], [-71.25, 66.0], [-72.75, 66.0]]]}, "properties": {"cell_id": "192_104", "lon": -72.0, "lat": 66.75}}, {"type": "Feature", "geometry": {"type": "Polygon", "coordinates": [[[-72.75, 67.5], [-72.75, 69.0], [-71.25, 69.0], [-71.25, 67.5], [-72.75, 67.5]]]}, "properties": {"cell_id": "192_105", "lon": -72.0, "lat": 68.25}}, {"type": "Feature", "geometry": {"type": "Polygon", "coordinates": [[[-72.75, 69.0], [-72.75, 70.5], [-71.25, 70.5], [-71.25, 69.0], [-72.75, 69.0]]]}, "properties": {"cell_id": "192_106", "lon": -72.0, "lat": 69.75}}, {"type": "Feature", "geometry": {"type": "Polygon", "coordinates": [[[-71.25, 60.0], [-71.25, 61.5], [-69.75, 61.5], [-69.75, 60.0], [-71.25, 60.0]]]}, "properties": {"cell_id": "193_100", "lon": -70.5, "lat": 60.75}}, {"type": "Feature", "geometry": {"type": "Polygon", "coordinates": [[[-71.25, 61.5], [-71.25, 63.0], [-69.75, 63.0], [-69.75, 61.5], [-71.25, 61.5]]]}, "properties": {"cell_id": "193_101", "lon": -70.5, "lat": 62.25}}, {"type": "Feature", "geometry": {"type": "Polygon", "coordinates": [[[-71.25, 63.0], [-71.25, 64.5], [-69.75, 64.5], [-69.75, 63.0], [-71.25, 63.0]]]}, "properties": {"cell_id": "193_102", "lon": -70.5, "lat": 63.75}}, {"type": "Feature", "geometry": {"type": "Polygon", "coordinates": [[[-71.25, 64.5], [-71.25, 66.0], [-69.75, 66.0], [-69.75, 64.5], [-71.25, 64.5]]]}, "properties": {"cell_id": "193_103", "lon": -70.5, "lat": 65.25}}, {"type": "Feature", "geometry": {"type": "Polygon", "coordinates": [[[-71.25, 66.0], [-71.25, 67.5], [-69.75, 67.5], [-69.75, 66.0], [-71.25, 66.0]]]}, "properties": {"cell_id": "193_104", "lon": -70.5, "lat": 66.75}}, {"type": "Feature", "geometry": {"type": "Polygon", "coordinates": [[[-71.25, 67.5], [-71.25, 69.0], [-69.75, 69.0], [-69.75, 67.5], [-71.25, 67.5]]]}, "properties": {"cell_id": "193_105", "lon": -70.5, "lat": 68.25}}, {"type": "Feature", "geometry": {"type": "Polygon", "coordinates": [[[-71.25, 69.0], [-71.25, 70.5], [-69.75, 70.5], [-69.75, 69.0], [-71.25, 69.0]]]}, "properties": {"cell_id": "193_106", "lon": -70.5, "lat": 69.75}}]}