{"type": "FeatureCollection", "features": [{"type": "Feature", "geometry": {"type": "Polygon", "coordinates": [[[130.0, -20.0], [130.0, -17.5], [132.5, -17.5], [132.5, -20.0], [130.0, -20.0]]]}, "properties": {"cell_id": "52_28", "lon": 131.25, "lat": -18.75}}, {"type": "Feature", "geometry": {"type": "Polygon", "coordinates": [[[130.0, -17.5], [130.0, -15.0], [132.5, -15.0], [132.5, -17.5], [130.0, -17.5]]]}, "properties": {"cell_id": "52_29", "lon": 131.25, "lat": -16.25}}, {"type": "Feature", "geometry": {"type": "Polygon", "coordinates": [[[130.0, -15.0], [130.0, -12.5], [132.5, -12.5], [132.5, -15.0], [130.0, -15.0]]]}, "properties": {"cell_id": "52_30", "lon": 131.25, "lat": -13.75}}, {"type": "Feature", "geometry": {"type": "Polygon", "coordinates": [[[132.5, -20.0], [132.5, -17.5], [135.0, -17.5], [135.0, -20.0], [132.5, -20.0]]]}, "properties": {"cell_id": "53_28", "lon": 133.75, "lat": -18.75}}, {"type": "Feature", "geometry": {"type": "Polygon", "coordinates": [[[132.5, -17.5], [132.5, -15.0], [135.0, -15.0], [135.0, -17.5], [132.5, -17.5]]]}, "properties": {"cell_id": "53_29", "lon": 133.75, "lat": -16.25}}, {"type": "Feature", "geometry": {"type": "Polygon", "coordinates": [[[132.5, -15.0], [132.5, -12.5], [135.0, -12.5], [135.0, -15.0], [132.5, -15.0]]]}, "properties": {"cell_id": "53_30", "lon": 133.75, "lat": -13.75}}, {"type": "Feature", "geometry": {"type": "Polygon", "coordinates": [[[135.0, -20.0], [135.0, -17.5], [137.5, -17.5], [137.5, -20.0], [135.0, -20.0]]]}, "properties": {"cell_id": "54_28", "lon": 136.25, "lat": -18.75}}, {"type": "Feature", "geometry": {"type": "Polygon", "coordinates": [[[135.0, -17.5], [135.0, -15.0], [137.5, -15.0], [137.5, -17.5], [135.0, -17.5]]]}, "properties": {"cell_id": "54_29", "lon": 136.25, "lat": -16.25}}, {"type": "Feature", "geometry": {"type": "Polygon", "coordinates": [[[137.5, -20.0], [137.5, -17.5], [140.0, -17.5], [140.0, -20.0], [137.5, -20.0]]]}, "properties": {"cell_id": "55_28", "lon": 138.75, "lat": -18.75}}]}