{"type": "FeatureCollection", "features": [{"type": "Feature", "geometry": {"type": "Polygon", "coordinates": [[[10.0, 0.0], [10.0, 2.5], [12.5, 2.5], [12.5, 0.0], [10.0, 0.0]]]}, "properties": {"cell_id": "4_36", "lon": 11.25, "lat": 1.25}}, {"type": "Feature", "geometry": {"type": "Polygon", "coordinates": [[[10.0, 2.5], [10.0, 5.0], [12.5, 5.0], [12.5, 2.5], [10.0, 2.5]]]}, "properties": {"cell_id": "4_37", "lon": 11.25, "lat": 3.75}}, {"type": "Feature", "geometry": {"type": "Polygon", "coordinates": [[[10.0, 5.0], [10.0, 7.5], [12.5, 7.5], [12.5, 5.0], [10.0, 5.0]]]}, "properties": {"cell_id": "4_38", "lon": 11.25, "lat": 6.25}}, {"type": "Feature", "geometry": {"type": "Polygon", "coordinates": [[[10.0, 7.5], [10.0, 10.0], [12.5, 10.0], [12.5, 7.5], [10.0, 7.5]]]}, "properties": {"cell_id": "4_39", "lon": 11.25, "lat": 8.75}}, {"type": "Feature", "geometry": {"type": "Polygon", "coordinates": [[[12.5, 0.0], [12.5, 2.5], [15.0, 2.5], [15.0, 0.0], [12.5, 0.0]]]}, "properties": {"cell_id": "5_36", "lon": 13.75, "lat": 1.25}}, {"type": "Feature", "geometry": {"type": "Polygon", "coordinates": [[[12.5, 2.5], [12.5, 5.0], [15.0, 5.0], [15.0, 2.5], [12.5, 2.5]]]}, "properties": {"cell_id": "5_37", "lon": 13.75, "lat": 3.75}}, {"type": "Feature", "geometry": {"type": "Polygon", "coordinates": [[[12.5, 5.0], [12.5, 7.5], [15.0, 7.5], [15.0, 5.0], [12.5, 5.0]]]}, "properties": {"cell_id": "5_38", "lon": 13.75, "lat": 6.25}}, {"type": "Feature", "geometry": {"type": "Polygon", "coordinates": [[[12.5, 7.5], [12.5, 10.0], [15.0, 10.0], [15.0, 7.5], [12.5, 7.5]]]}, "properties": {"cell_id": "5_39", "lon": 13.75, "lat": 8.75}}, {"type": "Feature", "geometry": {"type": "Polygon", "coordinates": [[[15.0, 0.0], [15.0, 2.5], [17.5, 2.5], [17.5, 0.0], [15.0, 0.0]]]}, "properties": {"cell_id": "6_36", "lon": 16.25, "lat": 1.25}}, {"type": "Feature", "geometry": {"type": "Polygon", "coordinates": [[[15.0, 2.5], [15.0, 5.0], [17.5, 5.0], [17.5, 2.5], [15.0, 2.5]]]}, "properties": {"cell_id": "6_37", "lon": 16.25, "lat": 3.75}}, {"type": "Feature", "geometry": {"type": "Polygon", "coordinates": [[[15.0, 5.0], [15.0, 7.5], [17.5, 7.5], [17.5, 5.0], [15.0, 5.0]]]}, "properties": {"cell_id": "6_38", "lon": 16.25, "lat": 6.25}}, {"type": "Feature", "geometry": {"type": "Polygon", "coordinates": [[[15.0, 7.5], [15.0, 10.0], [17.5, 10.0], [17.5, 7.5], [15.0, 7.5]]]}, "properties": {"cell_id": "6_39", "lon": 16.25, "lat": 8.75}}, {"type": "Feature", "geometry": {"type": "Polygon", "coordinates": [[[17.5, 0.0], [17.5, 2.5], [20.0, 2.5], [20.0, 0.0], [17.5, 0.0]]]}, "properties": {"cell_id": "7_36", "lon": 18.75, "lat": 1.25}}, {"type": "Feature", "geometry": {"type": "Polygon", "coordinates": [[[17.5, 2.5], [17.5, 5.0], [20.0, 5.0], [20.0, 2.5], [17.5, 2.5]]]}, "properties": {"cell_id": "7_37", "lon": 18.75, "lat": 3.75}}, {"type": "Feature", "geometry": {"type": "Polygon", "coordinates": [[[17.5, 5.0], [17.5, 7.5], [20.0, 7.5], [20.0, 5.0], [17.5, 5.0]]]}, "properties": {"cell_id": "7_38", "lon": 18.75, "lat": 6.25}}, {"type": "Feature", "geometry": {"type": "Polygon", "coordinates": [[[17.5, 7.5], [17.5, 10.0], [20.0, 10.0], [20.0, 7.5], [17.5, 7.5]]]}, "properties": {"cell_id": "7_39", "lon": 18.75, "lat": 8.75}}]}