{"type": "FeatureCollection", "features": [{"type": "Feature", "geometry": {"type": "Polygon", "coordinates": [[[-130.0, 60.0], [-130.0, 62.5], [-127.5, 62.5], [-127.5, 60.0], [-130.0, 60.0]]]}, "properties": {"cell_id": "92_60", "lon": -128.75, "lat": 61.25}}, {"type": "Feature", "geometry": {"type": "Polygon", "coordinates": [[[-130.0, 62.5], [-130.0, 65.0], [-127.5, 65.0], [-127.5, 62.5], [-130.0, 62.5]]]}, "properties": {"cell_id": "92_61", "lon": -128.75, "lat": 63.75}}, {"type": "Feature", "geometry": {"type": "Polygon", "coordinates": [[[-130.0, 65.0], [-130.0, 67.5], [-127.5, 67.5], [-127.5, 65.0], [-130.0, 65.0]]]}, "properties": {"cell_id": "92_62", "lon": -128.75, "lat": 66.25}}, {"type": "Feature", "geometry": {"type": "Polygon", "coordinates": [[[-130.0, 67.5], [-130.0, 70.0], [-127.5, 70.0], [-127.5, 67.5], [-130.0, 67.5]]]}, "properties": {"cell_id": "92_63", "lon": -128.75, "lat": 68.75}}, {"type": "Feature", "geometry": {"type": "Polygon", "coordinates": [[[-127.5, 60.0], [-127.5, 62.5], [-125.0, 62.5], [-125.0, 60.0], [-127.5, 60.0]]]}, "properties": {"cell_id": "93_60", "lon": -126.25, "lat": 61.25}}, {"type": "Feature", "geometry": {"type": "Polygon", "coordinates": [[[-127.5, 62.5], [-127.5, 65.0], [-125.0, 65.0], [-125.0, 62.5], [-127.5, 62.5]]]}, "properties": {"cell_id": "93_61", "lon": -126.25, "lat": 63.75}}, {"type": "Feature", "geometry": {"type": "Polygon", "coordinates": [[[-127.5, 65.0], [-127.5, 67.5], [-125.0, 67.5], [-125.0, 65.0], [-127.5, 65.0]]]}, "properties": {"cell_id": "93_62", "lon": -126.25, "lat": 66.25}}, {"type": "Feature", "geometry": {"type": "Polygon", "coordinates": [[[-127.5, 67.5], [-127.5, 70.0], [-125.0, 70.0], [-125.0, 67.5], [-127.5, 67.5]]]}, "properties": {"cell_id": "93_63", "lon": -126.25, "lat": 68.75}}, {"type": "Feature", "geometry": {"type": "Polygon", "coordinates": [[[-125.0, 60.0], [-125.0, 62.5], [-122.5, 62.5], [-122.5, 60.0], [-125.0, 60.0]]]}, "properties": {"cell_id": "94_60", "lon": -123.75, "lat": 61.25}}, {"type": "Feature", "geometry": {"type": "Polygon", "coordinates": [[[-125.0, 62.5], [-125.0, 65.0], [-122.5, 65.0], [-122.5, 62.5], [-125.0, 62.5]]]}, "properties": {"cell_id": "94_61", "lon": -123.75, "lat": 63.75}}, {"type": "Feature", "geometry": {"type": "Polygon", "coordinates": [[[-125.0, 65.0], [-125.0, 67.5], [-122.5, 67.5], [-122.5, 65.0], [-125.0, 65.0]]]}, "properties": {"cell_id": "94_62", "lon": -123.75, "lat": 66.25}}, {"type": "Feature", "geometry": {"type": "Polygon", "coordinates": [[[-125.0, 67.5], [-125.0, 70.0], [-122.5, 70.0], [-122.5, 67.5], [-125.0, 67.5]]]}, "properties": {"cell_id": "94_63", "lon": -123.75, "lat": 68.75}}, {"type": "Feature", "geometry": {"type": "Polygon", "coordinates": [[[-122.5, 60.0], [-122.5, 62.5], [-120.0, 62.5], [-120.0, 60.0], [-122.5, 60.0]]]}, "properties": {"cell_id": "95_60", "lon": -121.25, "lat": 61.25}}, {"type": "Feature", "geometry": {"type": "Polygon", "coordinates": [[[-122.5, 62.5], [-122.5, 65.0], [-120.0, 65.0], [-120.0, 62.5], [-122.5, 62.5]]]}, "properties": {"cell_id": "95_61", "lon": -121.25, "lat": 63.75}}, {"type": "Feature", "geometry": {"type": "Polygon", "coordinates": [[[-122.5, 65.0], [-122.5, 67.5], [-120.0, 67.5], [-120.0, 65.0], [-122.5, 65.0]]]}, "properties": {"cell_id": "95_62", "lon": -121.25, "lat": 66.25}}, {"type": "Feature", "geometry": {"type": "Polygon", "coordinates": [[[-122.5, 67.5], [-122.5, 70.0], [-120.0, 70.0], [-120.0, 67.5], [-122.5, 67.5]]]}, "properties": {"cell_id": "95_63", "lon": -121.25, "lat": 68.75}}]}