{"type": "FeatureCollection", "features": [{"type": "Feature", "geometry": {"type": "Polygon", "coordinates": [[[30.75, -9.0], [30.75, -7.5], [32.25, -7.5], [32.25, -9.0], [30.75, -9.0]]]}, "properties": {"cell_id": "21_54", "lon": 31.5, "lat": -8.25}}, {"type": "Feature", "geometry": {"type": "Polygon", "coordinates": [[[30.75, -7.5], [30.75, -6.0], [32.25, -6.0], [32.25, -7.5], [30.75, -7.5]]]}, "properties": {"cell_id": "21_55", "lon": 31.5, "lat": -6.75}}, {"type": "Feature", "geometry": {"type": "Polygon", "coordinates": [[[30.75, -6.0], [30.75, -4.5], [32.25, -4.5], [32.25, -6.0], [30.75, -6.0]]]}, "properties": {"cell_id": "21_56", "lon": 31.5, "lat": -5.25}}, {"type": "Feature", "geometry": {"type": "Polygon", "coordinates": [[[30.75, -4.5], [30.75, -3.0], [32.25, -3.0], [32.25, -4.5], [30.75, -4.5]]]}, "properties": {"cell_id": "21_57", "lon": 31.5, "lat": -3.75}}, {"type": "Feature", "geometry": {"type": "Polygon", "coordinates": [[[30.75, -3.0], [30.75, -1.5], [32.25, -1.5], [32.25, -3.0], [30.75, -3.0]]]}, "properties": {"cell_id": "21_58", "lon": 31.5, "lat": -2.25}}, {"type": "Feature", "geometry": {"type": "Polygon", "coordinates": [[[30.75, -1.5], [30.75, 0.0], [32.25, 0.0], [32.25, -1.5], [30.75, -1.5]]]}, "properties": {"cell_id": "21_59", "lon": 31.5, "lat": -0.75}}, {"type": "Feature", "geometry": {"type": "Polygon", "coordinates": [[[32.25, -9.0], [32.25, -7.5], [33.75, -7.5], [33.75, -9.0], [32.25, -9.0]]]}, "properties": {"cell_id": "22_54", "lon": 33.0, "lat": -8.25}}, {"type": "Feature", "geometry": {"type": "Polygon", "coordinates": [[[32.25, -7.5], [32.25, -6.0], [33.75, -6.0], [33.75, -7.5], [32.25, -7.5]]]}, "properties": {"cell_id": "22_55", "lon": 33.0, "lat": -6.75}}, {"type": "Feature", "geometry": {"type": "Polygon", "coordinates": [[[32.25, -6.0], [32.25, -4.5], [33.75, -4.5], [33.75, -6.0], [32.25, -6.0]]]}, "properties": {"cell_id": "22_56", "lon": 33.0, "lat": -5.25}}, {"type": "Feature", "geometry": {"type": "Polygon", "coordinates": [[[32.25, -4.5], [32.25, -3.0], [33.75, -3.0], [33.75, -4.5], [32.25, -4.5]]]}, "properties": {"cell_id": "22_57", "lon": 33.0, "lat": -3.75}}, {"type": "Feature", "geometry": {"type": "Polygon", "coordinates": [[[32.25, -3.0], [32.25, -1.5], [33.75, -1.5], [33.75, -3.0], [32.25, -3.0]]]}, "properties": {"cell_id": "22_58", "lon": 33.0, "lat": -2.25}}, {"type": "Feature", "geometry": {"type": "Polygon", "coordinates": [[[33.75, -9.0], [33.75, -7.5], [35.25, -7.5], [35.25, -9.0], [33.75, -9.0]]]}, "properties": {"cell_id": "23_54", "lon": 34.5, "lat": -8.25}}, {"type": "Feature", "geometry": {"type": "Polygon", "coordinates": [[[33.75, -7.5], [33.75, -6.0], [35.25, -6.0], [35.25, -7.5], [33.75, -7.5]]]}, "properties": {"cell_id": "23_55", "lon": 34.5, "lat": -6.75}}, {"type": "Feature", "geometry": {"type": "Polygon", "coordinates": [[[33.75, -6.0], [33.75, -4.5], [35.25, -4.5], [35.25, -6.0], [33.75, -6.0]]]}, "properties": {"cell_id": "23_56", "lon": 34.5, "lat": -5.25}}, {"type": "Feature", "geometry": {"type": "Polygon", "coordinates": [[[33.75, -4.5], [33.75, -3.0], [35.25, -3.0], [35.25, -4.5], [33.75, -4.5]]]}, "properties": {"cell_id": "23_57", "lon": 34.5, "lat": -3.75}}, {"type": "Feature", "geometry": {"type": "Polygon", "coordinates": [[[33.75, -3.0], [33.75, -1.5], [35.25, -1.5], [35.25, -3.0], [33.75, -3.0]]]}, "properties": {"cell_id": "23_58", "lon": 34.5, "lat": -2.25}}, {"type": "Feature", "geometry": {"type": "Polygon", "coordinates": [[[33.75, -1.5], [33.75, 0.0], [35.25, 0.0], [35.25, -1.5], [33.75, -1.5]]]}, "properties": {"cell_id": "23_59", "lon": 34.5, "lat": -0.75}}, {"type": "Feature", "geometry": {"type": "Polygon", "coordinates": [[[35.25, -9.0], [35.25, -7.5], [36.75, -7.5], [36.75, -9.0], [35.25, -9.0]]]}, "properties": {"cell_id": "24_54", "lon": 36.0, "lat": -8.25}}, {"type": "Feature", "geometry": {"type": "Polygon", "coordinates": [[[35.25, -7.5], [35.25, -6.0], [36.75, -6.0], [36.75, -7.5], [35.25, -7.5]]]}, "properties": {"cell_id": "24_55", "lon": 36.0, "lat": -6.75}}, {"type": "Feature", "geometry": {"type": "Polygon", "coordinates": [[[35.25, -6.0], [35.25, -4.5], [36.75, -4.5], [36.75, -6.0], [35.25, -6.0]]]}, "properties": {"cell_id": "24_56", "lon": 36.0, "lat": -5.25}}, {"type": "Feature", "geometry": {"type": "Polygon", "coordinates": [[[35.25, -4.5], [35.25, -3.0], [36.75, -3.0], [36.75, -4.5], [35.25, -4.5]]]}, "properties": {"cell_id": "24_57", "lon": 36.0, "lat": -3.75}}, {"type": "Feature", "geometry": {"type": "Polygon", "coordinates": [[[35.25, -3.0], [35.25, -1.5], [36.75, -1.5], [36.75, -3.0], [35.25, -3.0]]]}, "properties": {"cell_id": "24_58", "lon": 36.0, "lat": -2.25}}, {"type": "Feature", "geometry": {"type": "Polygon", "coordinates": [[[35.25, -1.5], [35.25, 0.0], [36.75, 0.0], [36.75, -1.5], [35.25, -1.5]]]}, "properties": {"cell_id": "24_59", "lon": 36.0, "lat": -0.75}}, {"type": "Feature", "geometry": {"type": "Polygon", "coordinates": [[[36.75, -9.0], [36.75, -7.5], [38.25, -7.5], [38.25, -9.0], [36.75, -9.0]]]}, "properties": {"cell_id": "25_54", "lon": 37.5, "lat": -8.25}}, {"type": "Feature", "geometry": {"type": "Polygon", "coordinates": [[[36.75, -7.5], [36.75, -6.0], [38.25, -6.0], [38.25, -7.5], [36.75, -7.5]]]}, "properties": {"cell_id": "25_55", "lon": 37.5, "lat": -6.75}}, {"type": "Feature", "geometry": {"type": "Polygon", "coordinates": [[[36.75, -6.0], [36.75, -4.5], [38.25, -4.5], [38.25, -6.0], [36.75, -6.0]]]}, "properties": {"cell_id": "25_56", "lon": 37.5, "lat": -5.25}}, {"type": "Feature", "geometry": {"type": "Polygon", "coordinates": [[[36.75, -4.5], [36.75, -3.0], [38.25, -3.0], [38.25, -4.5], [36.75, -4.5]]]}, "properties": {"cell_id": "25_57", "lon": 37.5, "lat": -3.75}}, {"type": "Feature", "geometry": {"type": "Polygon", "coordinates": [[[36.75, -3.0], [36.75, -1.5], [38.25, -1.5], [38.25, -3.0], [36.75, -3.0]]]}, "properties": {"cell_id": "25_58", "lon": 37.5, "lat": -2.25}}, {"type": "Feature", "geometry": {"type": "Polygon", "coordinates": [[[36.75, -1.5], [36.75, 0.0], [38.25, 0.0], [38.25, -1.5], [36.75, -1.5]]]}, "properties": {"cell_id": "25_59", "lon": 37.5, "lat": -0.75}}, {"type": "Feature", "geometry": {"type": "Polygon", "coordinates": [[[38.25, -9.0], [38.25, -7.5], [39.75, -7.5], [39.75, -9.0], [38.25, -9.0]]]}, "properties": {"cell_id": "26_54", "lon": 39.0, "lat": -8.25}}, {"type": "Feature", "geometry": {"type": "Polygon", "coordinates": [[[38.25, -7.5], [38.25, -6.0], [39.75, -6.0], [39.75, -7.5], [38.25, -7.5]]]}, "properties": {"cell_id": "26_55", "lon": 39.0, "lat": -6.75}}, {"type": "Feature", "geometry": {"type": "Polygon", "coordinates": [[[38.25, -6.0], [38.25, -4.5], [39.75, -4.5], [39.75, -6.0], [38.25, -6.0]]]}, "properties": {"cell_id": "26_56", "lon": 39.0, "lat": -5.25}}, {"type": "Feature", "geometry": {"type": "Polygon", "coordinates": [[[38.25, -4.5], [38.25, -3.0], [39.75, -3.0], [39.75, -4.5], [38.25, -4.5]]]}, "properties": {"cell_id": "26_57", "lon": 39.0, "lat": -3.75}}, {"type": "Feature", "geometry": {"type": "Polygon", "coordinates": [[[38.25, -3.0], [38.25, -1.5], [39.75, -1.5], [39.75, -3.0], [38.25, -3.0]]]}, "properties": {"cell_id": "26_58", "lon": 39.0, "lat": -2.25}}, {"type": "Feature", "geometry": {"type": "Polygon", "coordinates": [[[38.25, -1.5], [38.25, 0.0], [39.75, 0.0], [39.75, -1.5], [38.25, -1.5]]]}, "properties": {"cell_id": "26_59", "lon": 39.0, "lat": -0.75}}, {"type": "Feature", "geometry": {"type": "Polygon", "coordinates": [[[39.75, -4.5], [39.75, -3.0], [41.25, -3.0], [41.25, -4.5], [39.75, -4.5]]]}, "properties": {"cell_id": "27_57", "lon": 40.5, "lat": -3.75}}, {"type": "Feature", "geometry": {"type": "Polygon", "coordinates": [[[39.75, -3.0], [39.75, -1.5], [41.25, -1.5], [41.25, -3.0], [39.75, -3.0]]]}, "properties": {"cell_id": "27_58", "lon": 40.5, "lat": -2.25}}, {"type": "Feature", "geometry": {"type": "Polygon", "coordinates": [[[39.75, -1.5], [39.75, 0.0], [41.25, 0.0], [41.25, -1.5], [39.75, -1.5]]]}, "properties": {"cell_id": "27_59", "lon": 40.5, "lat": -0.75}}]}