{"type": "FeatureCollection", "features": [{"type": "Feature", "geometry": {"type": "Polygon", "coordinates": [[[-40.0, 65.0], [-40.0, 67.5], [-37.5, 67.5], [-37.5, 65.0], [-40.0, 65.0]]]}, "properties": {"cell_id": "128_62", "lon": -38.75, "lat": 66.25}}, {"type": "Feature", "geometry": {"type": "Polygon", "coordinates": [[[-40.0, 67.5], [-40.0, 70.0], [-37.5, 70.0], [-37.5, 67.5], [-40.0, 67.5]]]}, "properties": {"cell_id": "128_63", "lon": -38.75, "lat": 68.75}}, {"type": "Feature", "geometry": {"type": "Polygon", "coordinates": [[[-37.5, 65.0], [-37.5, 67.5], [-35.0, 67.5], [-35.0, 65.0], [-37.5, 65.0]]]}, "properties": {"cell_id": "129_62", "lon": -36.25, "lat": 66.25}}, {"type": "Feature", "geometry": {"type": "Polygon", "coordinates": [[[-37.5, 67.5], [-37.5, 70.0], [-35.0, 70.0], [-35.0, 67.5], [-37.5, 67.5]]]}, "properties": {"cell_id": "129_63", "lon": -36.25, "lat": 68.75}}, {"type": "Feature", "geometry": {"type": "Polygon", "coordinates": [[[-35.0, 67.5], [-35.0, 70.0], [-32.5, 70.0], [-32.5, 67.5], [-35.0, 67.5]]]}, "properties": {"cell_id": "130_63", "lon": -33.75, "lat": 68.75}}, {"type": "Feature", "geometry": {"type": "Polygon", "coordinates": [[[-32.5, 67.5], [-32.5, 70.0], [-30.0, 70.0], [-30.0, 67.5], [-32.5, 67.5]]]}, "properties": {"cell_id": "131_63", "lon": -31.25, "lat": 68.75}}]}