{"type": "FeatureCollection", "features": [{"type": "Feature", "geometry": {"type": "Polygon", "coordinates": [[[30.0, 0.0], [30.0, 2.5], [32.5, 2.5], [32.5, 0.0], [30.0, 0.0]]]}, "properties": {"cell_id": "12_36", "lon": 31.25, "lat": 1.25}}, {"type": "Feature", "geometry": {"type": "Polygon", "coordinates": [[[30.0, 2.5], [30.0, 5.0], [32.5, 5.0], [32.5, 2.5], [30.0, 2.5]]]}, "properties": {"cell_id": "12_37", "lon": 31.25, "lat": 3.75}}, {"type": "Feature", "geometry": {"type": "Polygon", "coordinates": [[[30.0, 5.0], [30.0, 7.5], [32.5, 7.5], [32.5, 5.0], [30.0, 5.0]]]}, "properties": {"cell_id": "12_38", "lon": 31.25, "lat": 6.25}}, {"type": "Feature", "geometry": {"type": "Polygon", "coordinates": [[[30.0, 7.5], [30.0, 10.0], [32.5, 10.0], [32.5, 7.5], [30.0, 7.5]]]}, "properties": {"cell_id": "12_39", "lon": 31.25, "lat": 8.75}}, {"type": "Feature", "geometry": {"type": "Polygon", "coordinates": [[[32.5, 0.0], [32.5, 2.5], [35.0, 2.5], [35.0, 0.0], [32.5, 0.0]]]}, "properties": {"cell_id": "13_36", "lon": 33.75, "lat": 1.25}}, {"type": "Feature", "geometry": {"type": "Polygon", "coordinates": [[[32.5, 2.5], [32.5, 5.0], [35.0, 5.0], [35.0, 2.5], [32.5, 2.5]]]}, "properties": {"cell_id": "13_37", "lon": 33.75, "lat": 3.75}}, {"type": "Feature", "geometry": {"type": "Polygon", "coordinates": [[[32.5, 5.0], [32.5, 7.5], [35.0, 7.5], [35.0, 5.0], [32.5, 5.0]]]}, "properties": {"cell_id": "13_38", "lon": 33.75, "lat": 6.25}}, {"type": "Feature", "geometry": {"type": "Polygon", "coordinates": [[[32.5, 7.5], [32.5, 10.0], [35.0, 10.0], [35.0, 7.5], [32.5, 7.5]]]}, "properties": {"cell_id": "13_39", "lon": 33.75, "lat": 8.75}}, {"type": "Feature", "geometry": {"type": "Polygon", "coordinates": [[[35.0, 0.0], [35.0, 2.5], [37.5, 2.5], [37.5, 0.0], [35.0, 0.0]]]}, "properties": {"cell_id": "14_36", "lon": 36.25, "lat": 1.25}}, {"type": "Feature", "geometry": {"type": "Polygon", "coordinates": [[[35.0, 2.5], [35.0, 5.0], [37.5, 5.0], [37.5, 2.5], [35.0, 2.5]]]}, "properties": {"cell_id": "14_37", "lon": 36.25, "lat": 3.75}}, {"type": "Feature", "geometry": {"type": "Polygon", "coordinates": [[[35.0, 5.0], [35.0, 7.5], [37.5, 7.5], [37.5, 5.0], [35.0, 5.0]]]}, "properties": {"cell_id": "14_38", "lon": 36.25, "lat": 6.25}}, {"type": "Feature", "geometry": {"type": "Polygon", "coordinates": [[[35.0, 7.5], [35.0, 10.0], [37.5, 10.0], [37.5, 7.5], [35.0, 7.5]]]}, "properties": {"cell_id": "14_39", "lon": 36.25, "lat": 8.75}}, {"type": "Feature", "geometry": {"type": "Polygon", "coordinates": [[[37.5, 0.0], [37.5, 2.5], [40.0, 2.5], [40.0, 0.0], [37.5, 0.0]]]}, "properties": {"cell_id": "15_36", "lon": 38.75, "lat": 1.25}}, {"type": "Feature", "geometry": {"type": "Polygon", "coordinates": [[[37.5, 2.5], [37.5, 5.0], [40.0, 5.0], [40.0, 2.5], [37.5, 2.5]]]}, "properties": {"cell_id": "15_37", "lon": 38.75, "lat": 3.75}}, {"type": "Feature", "geometry": {"type": "Polygon", "coordinates": [[[37.5, 5.0], [37.5, 7.5], [40.0, 7.5], [40.0, 5.0], [37.5, 5.0]]]}, "properties": {"cell_id": "15_38", "lon": 38.75, "lat": 6.25}}, {"type": "Feature", "geometry": {"type": "Polygon", "coordinates": [[[37.5, 7.5], [37.5, 10.0], [40.0, 10.0], [40.0, 7.5], [37.5, 7.5]]]}, "properties": {"cell_id": "15_39", "lon": 38.75, "lat": 8.75}}]}