{"type": "FeatureCollection", "features": [{"type": "Feature", "geometry": {"type": "Polygon", "coordinates": [[[20.25, -34.5], [20.25, -33.0], [21.75, -33.0], [21.75, -34.5], [20.25, -34.5]]]}, "properties": {"cell_id": "14_37", "lon": 21.0, "lat": -33.75}}, {"type": "Feature", "geometry": {"type": "Polygon", "coordinates": [[[20.25, -33.0], [20.25, -31.5], [21.75, -31.5], [21.75, -33.0], [20.25, -33.0]]]}, "properties": {"cell_id": "14_38", "lon": 21.0, "lat": -32.25}}, {"type": "Feature", "geometry": {"type": "Polygon", "coordinates": [[[20.25, -31.5], [20.25, -30.0], [21.75, -30.0], [21.75, -31.5], [20.25, -31.5]]]}, "properties": {"cell_id": "14_39", "lon": 21.0, "lat": -30.75}}, {"type": "Feature", "geometry": {"type": "Polygon", "coordinates": [[[21.75, -34.5], [21.75, -33.0], [23.25, -33.0], [23.25, -34.5], [21.75, -34.5]]]}, "properties": {"cell_id": "15_37", "lon": 22.5, "lat": -33.75}}, {"type": "Feature", "geometry": {"type": "Polygon", "coordinates": [[[21.75, -33.0], [21.75, -31.5], [23.25, -31.5], [23.25, -33.0], [21.75, -33.0]]]}, "properties": {"cell_id": "15_38", "lon": 22.5, "lat": -32.25}}, {"type": "Feature", "geometry": {"type": "Polygon", "coordinates": [[[21.75, -31.5], [21.75, -30.0], [23.25, -30.0], [23.25, -31.5], [21.75, -31.5]]]}, "properties": {"cell_id": "15_39", "lon": 22.5, "lat": -30.75}}, {"type": "Feature", "geometry": {"type": "Polygon", "coordinates": [[[23.25, -34.5], [23.25, -33.0], [24.75, -33.0], [24.75, -34.5], [23.25, -34.5]]]}, "properties": {"cell_id": "16_37", "lon": 24.0, "lat": -33.75}}, {"type": "Feature", "geometry": {"type": "Polygon", "coordinates": [[[23.25, -33.0], [23.25, -31.5], [24.75, -31.5], [24.75, -33.0], [23.25, -33.0]]]}, "properties": {"cell_id": "16_38", "lon": 24.0, "lat": -32.25}}, {"type": "Feature", "geometry": {"type": "Polygon", "coordinates": [[[23.25, -31.5], [23.25, -30.0], [24.75, -30.0], [24.75, -31.5], [23.25, -31.5]]]}, "properties": {"cell_id": "16_39", "lon": 24.0, "lat": -30.75}}, {"type": "Feature", "geometry": {"type": "Polygon", "coordinates": [[[24.75, -34.5], [24.75, -33.0], [26.25, -33.0], [26.25, -34.5], [24.75, -34.5]]]}, "properties": {"cell_id": "17_37", "lon": 25.5, "lat": -33.75}}, {"type": "Feature", "geometry": {"type": "Polygon", "coordinates": [[[24.75, -33.0], [24.75, -31.5], [26.25, -31.5], [26.25, -33.0], [24.75, -33.0]]]}, "properties": {"cell_id": "17_38", "lon": 25.5, "lat": -32.25}}, {"type": "Feature", "geometry": {"type": "Polygon", "coordinates": [[[24.75, -31.5], [24.75, -30.0], [26.25, -30.0], [26.25, -31.5], [24.75, -31.5]]]}, "properties": {"cell_id": "17_39", "lon": 25.5, "lat": -30.75}}, {"type": "Feature", "geometry": {"type": "Polygon", "coordinates": [[[26.25, -34.5], [26.25, -33.0], [27.75, -33.0], [27.75, -34.5], [26.25, -34.5]]]}, "properties": {"cell_id": "18_37", "lon": 27.0, "lat": -33.75}}, {"type": "Feature", "geometry": {"type": "Polygon", "coordinates": [[[26.25, -33.0], [26.25, -31.5], [27.75, -31.5], [27.75, -33.0], [26.25, -33.0]]]}, "properties": {"cell_id": "18_38", "lon": 27.0, "lat": -32.25}}, {"type": "Feature", "geometry": {"type": "Polygon", "coordinates": [[[26.25, -31.5], [26.25, -30.0], [27.75, -30.0], [27.75, -31.5], [26.25, -31.5]]]}, "properties": {"cell_id": "18_39", "lon": 27.0, "lat": -30.75}}, {"type": "Feature", "geometry": {"type": "Polygon", "coordinates": [[[27.75, -33.0], [27.75, -31.5], [29.25, -31.5], [29.25, -33.0], [27.75, -33.0]]]}, "properties": {"cell_id": "19_38", "lon": 28.5, "lat": -32.25}}, {"type": "Feature", "geometry": {"type": "Polygon", "coordinates": [[[27.75, -31.5], [27.75, -30.0], [29.25, -30.0], [29.25, -31.5], [27.75, -31.5]]]}, "properties": {"cell_id": "19_39", "lon": 28.5, "lat": -30.75}}, {"type": "Feature", "geometry": {"type": "Polygon", "coordinates": [[[29.25, -33.0], [29.25, -31.5], [30.75, -31.5], [30.75, -33.0], [29.25, -33.0]]]}, "properties": {"cell_id": "20_38", "lon": 30.0, "lat": -32.25}}, {"type": "Feature", "geometry": {"type": "Polygon", "coordinates": [[[29.25, -31.5], [29.25, -30.0], [30.75, -30.0], [30.75, -31.5], [29.25, -31.5]]]}, "properties": {"cell_id": "20_39", "lon": 30.0, "lat": -30.75}}]}