{"type": "FeatureCollection", "features": [{"type": "Feature", "geometry": {"type": "Polygon", "coordinates": [[[-59.25, -79.5], [-59.25, -78.0], [-57.75, -78.0], [-57.75, -79.5], [-59.25, -79.5]]]}, "properties": {"cell_id": "201_7", "lon": -58.5, "lat": -78.75}}, {"type": "Feature", "geometry": {"type": "Polygon", "coordinates": [[[-59.25, -78.0], [-59.25, -76.5], [-57.75, -76.5], [-57.75, -78.0], [-59.25, -78.0]]]}, "properties": {"cell_id": "201_8", "lon": -58.5, "lat": -77.25}}, {"type": "Feature", "geometry": {"type": "Polygon", "coordinates": [[[-59.25, -76.5], [-59.25, -75.0], [-57.75, -75.0], [-57.75, -76.5], [-59.25, -76.5]]]}, "properties": {"cell_id": "201_9", "lon": -58.5, "lat": -75.75}}, {"type": "Feature", "geometry": {"type": "Polygon", "coordinates": [[[-57.75, -79.5], [-57.75, -78.0], [-56.25, -78.0], [-56.25, -79.5], [-57.75, -79.5]]]}, "properties": {"cell_id": "202_7", "lon": -57.0, "lat": -78.75}}, {"type": "Feature", "geometry": {"type": "Polygon", "coordinates": [[[-57.75, -78.0], [-57.75, -76.5], [-56.25, -76.5], [-56.25, -78.0], [-57.75, -78.0]]]}, "properties": {"cell_id": "202_8", "lon": -57.0, "lat": -77.25}}, {"type": "Feature", "geometry": {"type": "Polygon", "coordinates": [[[-57.75, -76.5], [-57.75, -75.0], [-56.25, -75.0], [-56.25, -76.5], [-57.75, -76.5]]]}, "properties": {"cell_id": "202_9", "lon": -57.0, "lat": -75.75}}, {"type": "Feature", "geometry": {"type": "Polygon", "coordinates": [[[-56.25, -79.5], [-56.25, -78.0], [-54.75, -78.0], [-54.75, -79.5], [-56.25, -79.5]]]}, "properties": {"cell_id": "203_7", "lon": -55.5, "lat": -78.75}}, {"type": "Feature", "geometry": {"type": "Polygon", "coordinates": [[[-56.25, -78.0], [-56.25, -76.5], [-54.75, -76.5], [-54.75, -78.0], [-56.25, -78.0]]]}, "properties": {"cell_id": "203_8", "lon": -55.5, "lat": -77.25}}, {"type": "Feature", "geometry": {"type": "Polygon", "coordinates": [[[-54.75, -79.5], [-54.75, -78.0], [-53.25, -78.0], [-53.25, -79.5], [-54.75, -79.5]]]}, "properties": {"cell_id": "204_7", "lon": -54.0, "lat": -78.75}}, {"type": "Feature", "geometry": {"type": "Polygon", "coordinates": [[[-54.75, -78.0], [-54.75, -76.5], [-53.25, -76.5], [-53.25, -78.0], [-54.75, -78.0]]]}, "properties": {"cell_id": "204_8", "lon": -54.0, "lat": -77.25}}, {"type": "Feature", "geometry": {"type": "Polygon", "coordinates": [[[-53.25, -79.5], [-53.25, -78.0], [-51.75, -78.0], [-51.75, -79.5], [-53.25, -79.5]]]}, "properties": {"cell_id": "205_7", "lon": -52.5, "lat": -78.75}}, {"type": "Feature", "geometry": {"type": "Polygon", "coordinates": [[[-53.25, -78.0], [-53.25, -76.5], [-51.75, -76.5], [-51.75, -78.0], [-53.25, -78.0]]]}, "properties": {"cell_id": "205_8", "lon": -52.5, "lat": -77.25}}, {"type": "Feature", "geometry": {"type": "Polygon", "coordinates": [[[-51.75, -79.5], [-51.75, -78.0], [-50.25, -78.0], [-50.25, -79.5], [-51.75, -79.5]]]}, "properties": {"cell_id": "206_7", "lon": -51.0, "lat": -78.75}}, {"type": "Feature", "geometry": {"type": "Polygon", "coordinates": [[[-51.75, -78.0], [-51.75, -76.5], [-50.25, -76.5], [-50.25, -78.0], [-51.75, -78.0]]]}, "properties": {"cell_id": "206_8", "lon": -51.0, "lat": -77.25}}, {"type": "Feature", "geometry": {"type": "Polygon", "coordinates": [[[-50.25, -79.5], [-50.25, -78.0], [-48.75, -78.0], [-48.75, -79.5], [-50.25, -79.5]]]}, "properties": {"cell_id": "207_7", "lon": -49.5, "lat": -78.75}}]}