{"type": "FeatureCollection", "features": [{"type": "Feature", "geometry": {"type": "Polygon", "coordinates": [[[-40.0, 70.0], [-40.0, 72.5], [-37.5, 72.5], [-37.5, 70.0], [-40.0, 70.0]]]}, "properties": {"cell_id": "128_64", "lon": -38.75, "lat": 71.25}}, {"type": "Feature", "geometry": {"type": "Polygon", "coordinates": [[[-40.0, 72.5], [-40.0, 75.0], [-37.5, 75.0], [-37.5, 72.5], [-40.0, 72.5]]]}, "properties": {"cell_id": "128_65", "lon": -38.75, "lat": 73.75}}, {"type": "Feature", "geometry": {"type": "Polygon", "coordinates": [[[-40.0, 75.0], [-40.0, 77.5], [-37.5, 77.5], [-37.5, 75.0], [-40.0, 75.0]]]}, "properties": {"cell_id": "128_66", "lon": -38.75, "lat": 76.25}}, {"type": "Feature", "geometry": {"type": "Polygon", "coordinates": [[[-40.0, 77.5], [-40.0, 80.0], [-37.5, 80.0], [-37.5, 77.5], [-40.0, 77.5]]]}, "properties": {"cell_id": "128_67", "lon": -38.75, "lat": 78.75}}, {"type": "Feature", "geometry": {"type": "Polygon", "coordinates": [[[-37.5, 70.0], [-37.5, 72.5], [-35.0, 72.5], [-35.0, 70.0], [-37.5, 70.0]]]}, "properties": {"cell_id": "129_64", "lon": -36.25, "lat": 71.25}}, {"type": "Feature", "geometry": {"type": "Polygon", "coordinates": [[[-37.5, 72.5], [-37.5, 75.0], [-35.0, 75.0], [-35.0, 72.5], [-37.5, 72.5]]]}, "properties": {"cell_id": "129_65", "lon": -36.25, "lat": 73.75}}, {"type": "Feature", "geometry": {"type": "Polygon", "coordinates": [[[-37.5, 75.0], [-37.5, 77.5], [-35.0, 77.5], [-35.0, 75.0], [-37.5, 75.0]]]}, "properties": {"cell_id": "129_66", "lon": -36.25, "lat": 76.25}}, {"type": "Feature", "geometry": {"type": "Polygon", "coordinates": [[[-37.5, 77.5], [-37.5, 80.0], [-35.0, 80.0], [-35.0, 77.5], [-37.5, 77.5]]]}, "properties": {"cell_id": "129_67", "lon": -36.25, "lat": 78.75}}, {"type": "Feature", "geometry": {"type": "Polygon", "coordinates": [[[-35.0, 70.0], [-35.0, 72.5], [-32.5, 72.5], [-32.5, 70.0], [-35.0, 70.0]]]}, "properties": {"cell_id": "130_64", "lon": -33.75, "lat": 71.25}}, {"type": "Feature", "geometry": {"type": "Polygon", "coordinates": [[[-35.0, 72.5], [-35.0, 75.0], [-32.5, 75.0], [-32.5, 72.5], [-35.0, 72.5]]]}, "properties": {"cell_id": "130_65", "lon": -33.75, "lat": 73.75}}, {"type": "Feature", "geometry": {"type": "Polygon", "coordinates": [[[-35.0, 75.0], [-35.0, 77.5], [-32.5, 77.5], [-32.5, 75.0], [-35.0, 75.0]]]}, "properties": {"cell_id": "130_66", "lon": -33.75, "lat": 76.25}}, {"type": "Feature", "geometry": {"type": "Polygon", "coordinates": [[[-35.0, 77.5], [-35.0, 80.0], [-32.5, 80.0], [-32.5, 77.5], [-35.0, 77.5]]]}, "properties": {"cell_id": "130_67", "lon": -33.75, "lat": 78.75}}, {"type": "Feature", "geometry": {"type": "Polygon", "coordinates": [[[-32.5, 70.0], [-32.5, 72.5], [-30.0, 72.5], [-30.0, 70.0], [-32.5, 70.0]]]}, "properties": {"cell_id": "131_64", "lon": -31.25, "lat": 71.25}}, {"type": "Feature", "geometry": {"type": "Polygon", "coordinates": [[[-32.5, 72.5], [-32.5, 75.0], [-30.0, 75.0], [-30.0, 72.5], [-32.5, 72.5]]]}, "properties": {"cell_id": "131_65", "lon": -31.25, "lat": 73.75}}, {"type": "Feature", "geometry": {"type": "Polygon", "coordinates": [[[-32.5, 75.0], [-32.5, 77.5], [-30.0, 77.5], [-30.0, 75.0], [-32.5, 75.0]]]}, "properties": {"cell_id": "131_66", "lon": -31.25, "lat": 76.25}}, {"type": "Feature", "geometry": {"type": "Polygon", "coordinates": [[[-32.5, 77.5], [-32.5, 80.0], [-30.0, 80.0], [-30.0, 77.5], [-32.5, 77.5]]]}, "properties": {"cell_id": "131_67", "lon": -31.25, "lat": 78.75}}]}