{"type": "FeatureCollection", "features": [{"type": "Feature", "geometry": {"type": "Polygon", "coordinates": [[[-90.0, 80.0], [-90.0, 82.5], [-87.5, 82.5], [-87.5, 80.0], [-90.0, 80.0]]]}, "properties": {"cell_id": "108_68", "lon": -88.75, "lat": 81.25}}, {"type": "Feature", "geometry": {"type": "Polygon", "coordinates": [[[-87.5, 80.0], [-87.5, 82.5], [-85.0, 82.5], [-85.0, 80.0], [-87.5, 80.0]]]}, "properties": {"cell_id": "109_68", "lon": -86.25, "lat": 81.25}}, {"type": "Feature", "geometry": {"type": "Polygon", "coordinates": [[[-85.0, 80.0], [-85.0, 82.5], [-82.5, 82.5], [-82.5, 80.0], [-85.0, 80.0]]]}, "properties": {"cell_id": "110_68", "lon": -83.75, "lat": 81.25}}, {"type": "Feature", "geometry": {"type": "Polygon", "coordinates": [[[-82.5, 80.0], [-82.5, 82.5], [-80.0, 82.5], [-80.0, 80.0], [-82.5, 80.0]]]}, "properties": {"cell_id": "111_68", "lon": -81.25, "lat": 81.25}}]}