{"type": "FeatureCollection", "features": [{"type": "Feature", "geometry": {"type": "Polygon", "coordinates": [[[-80.0, 32.5], [-80.0, 35.0], [-77.5, 35.0], [-77.5, 32.5], [-80.0, 32.5]]]}, "properties": {"cell_id": "112_49", "lon": -78.75, "lat": 33.75}}, {"type": "Feature", "geometry": {"type": "Polygon", "coordinates": [[[-80.0, 35.0], [-80.0, 37.5], [-77.5, 37.5], [-77.5, 35.0], [-80.0, 35.0]]]}, "properties": {"cell_id": "112_50", "lon": -78.75, "lat": 36.25}}, {"type": "Feature", "geometry": {"type": "Polygon", "coordinates": [[[-80.0, 37.5], [-80.0, 40.0], [-77.5, 40.0], [-77.5, 37.5], [-80.0, 37.5]]]}, "properties": {"cell_id": "112_51", "lon": -78.75, "lat": 38.75}}, {"type": "Feature", "geometry": {"type": "Polygon", "coordinates": [[[-77.5, 35.0], [-77.5, 37.5], [-75.0, 37.5], [-75.0, 35.0], [-77.5, 35.0]]]}, "properties": {"cell_id": "113_50", "lon": -76.25, "lat": 36.25}}, {"type": "Feature", "geometry": {"type": "Polygon", "coordinates": [[[-77.5, 37.5], [-77.5, 40.0], [-75.0, 40.0], [-75.0, 37.5], [-77.5, 37.5]]]}, "properties": {"cell_id": "113_51", "lon": -76.25, "lat": 38.75}}]}