{"type": "FeatureCollection", "features": [{"type": "Feature", "geometry": {"type": "Polygon", "coordinates": [[[-150.0, 60.0], [-150.0, 62.5], [-147.5, 62.5], [-147.5, 60.0], [-150.0, 60.0]]]}, "properties": {"cell_id": "84_60", "lon": -148.75, "lat": 61.25}}, {"type": "Feature", "geometry": {"type": "Polygon", "coordinates": [[[-150.0, 62.5], [-150.0, 65.0], [-147.5, 65.0], [-147.5, 62.5], [-150.0, 62.5]]]}, "properties": {"cell_id": "84_61", "lon": -148.75, "lat": 63.75}}, {"type": "Feature", "geometry": {"type": "Polygon", "coordinates": [[[-150.0, 65.0], [-150.0, 67.5], [-147.5, 67.5], [-147.5, 65.0], [-150.0, 65.0]]]}, "properties": {"cell_id": "84_62", "lon": -148.75, "lat": 66.25}}, {"type": "Feature", "geometry": {"type": "Polygon", "coordinates": [[[-150.0, 67.5], [-150.0, 70.0], [-147.5, 70.0], [-147.5, 67.5], [-150.0, 67.5]]]}, "properties": {"cell_id": "84_63", "lon": -148.75, "lat": 68.75}}, {"type": "Feature", "geometry": {"type": "Polygon", "coordinates": [[[-147.5, 60.0], [-147.5, 62.5], [-145.0, 62.5], [-145.0, 60.0], [-147.5, 60.0]]]}, "properties": {"cell_id": "85_60", "lon": -146.25, "lat": 61.25}}, {"type": "Feature", "geometry": {"type": "Polygon", "coordinates": [[[-147.5, 62.5], [-147.5, 65.0], [-145.0, 65.0], [-145.0, 62.5], [-147.5, 62.5]]]}, "properties": {"cell_id": "85_61", "lon": -146.25, "lat": 63.75}}, {"type": "Feature", "geometry": {"type": "Polygon", "coordinates": [[[-147.5, 65.0], [-147.5, 67.5], [-145.0, 67.5], [-145.0, 65.0], [-147.5, 65.0]]]}, "properties": {"cell_id": "85_62", "lon": -146.25, "lat": 66.25}}, {"type": "Feature", "geometry": {"type": "Polygon", "coordinates": [[[-147.5, 67.5], [-147.5, 70.0], [-145.0, 70.0], [-145.0, 67.5], [-147.5, 67.5]]]}, "properties": {"cell_id": "85_63", "lon": -146.25, "lat": 68.75}}, {"type": "Feature", "geometry": {"type": "Polygon", "coordinates": [[[-145.0, 60.0], [-145.0, 62.5], [-142.5, 62.5], [-142.5, 60.0], [-145.0, 60.0]]]}, "properties": {"cell_id": "86_60", "lon": -143.75, "lat": 61.25}}, {"type": "Feature", "geometry": {"type": "Polygon", "coordinates": [[[-145.0, 62.5], [-145.0, 65.0], [-142.5, 65.0], [-142.5, 62.5], [-145.0, 62.5]]]}, "properties": {"cell_id": "86_61", "lon": -143.75, "lat": 63.75}}, {"type": "Feature", "geometry": {"type": "Polygon", "coordinates": [[[-145.0, 65.0], [-145.0, 67.5], [-142.5, 67.5], [-142.5, 65.0], [-145.0, 65.0]]]}, "properties": {"cell_id": "86_62", "lon": -143.75, "lat": 66.25}}, {"type": "Feature", "geometry": {"type": "Polygon", "coordinates": [[[-145.0, 67.5], [-145.0, 70.0], [-142.5, 70.0], [-142.5, 67.5], [-145.0, 67.5]]]}, "properties": {"cell_id": "86_63", "lon": -143.75, "lat": 68.75}}, {"type": "Feature", "geometry": {"type": "Polygon", "coordinates": [[[-142.5, 60.0], [-142.5, 62.5], [-140.0, 62.5], [-140.0, 60.0], [-142.5, 60.0]]]}, "properties": {"cell_id": "87_60", "lon": -141.25, "lat": 61.25}}, {"type": "Feature", "geometry": {"type": "Polygon", "coordinates": [[[-142.5, 62.5], [-142.5, 65.0], [-140.0, 65.0], [-140.0, 62.5], [-142.5, 62.5]]]}, "properties": {"cell_id": "87_61", "lon": -141.25, "lat": 63.75}}, {"type": "Feature", "geometry": {"type": "Polygon", "coordinates": [[[-142.5, 65.0], [-142.5, 67.5], [-140.0, 67.5], [-140.0, 65.0], [-142.5, 65.0]]]}, "properties": {"cell_id": "87_62", "lon": -141.25, "lat": 66.25}}, {"type": "Feature", "geometry": {"type": "Polygon", "coordinates": [[[-142.5, 67.5], [-142.5, 70.0], [-140.0, 70.0], [-140.0, 67.5], [-142.5, 67.5]]]}, "properties": {"cell_id": "87_63", "lon": -141.25, "lat": 68.75}}]}