{"type": "FeatureCollection", "features": [{"type": "Feature", "geometry": {"type": "Polygon", "coordinates": [[[0.75, -90.0], [0.75, -88.5], [2.25, -88.5], [2.25, -90.0], [0.75, -90.0]]]}, "properties": {"cell_id": "1_0", "lon": 1.5, "lat": -89.25}}, {"type": "Feature", "geometry": {"type": "Polygon", "coordinates": [[[0.75, -88.5], [0.75, -87.0], [2.25, -87.0], [2.25, -88.5], [0.75, -88.5]]]}, "properties": {"cell_id": "1_1", "lon": 1.5, "lat": -87.75}}, {"type": "Feature", "geometry": {"type": "Polygon", "coordinates": [[[0.75, -87.0], [0.75, -85.5], [2.25, -85.5], [2.25, -87.0], [0.75, -87.0]]]}, "properties": {"cell_id": "1_2", "lon": 1.5, "lat": -86.25}}, {"type": "Feature", "geometry": {"type": "Polygon", "coordinates": [[[0.75, -85.5], [0.75, -84.0], [2.25, -84.0], [2.25, -85.5], [0.75, -85.5]]]}, "properties": {"cell_id": "1_3", "lon": 1.5, "lat": -84.75}}, {"type": "Feature", "geometry": {"type": "Polygon", "coordinates": [[[0.75, -84.0], [0.75, -82.5], [2.25, -82.5], [2.25, -84.0], [0.75, -84.0]]]}, "properties": {"cell_id": "1_4", "lon": 1.5, "lat": -83.25}}, {"type": "Feature", "geometry": {"type": "Polygon", "coordinates": [[[0.75, -82.5], [0.75, -81.0], [2.25, -81.0], [2.25, -82.5], [0.75, -82.5]]]}, "properties": {"cell_id": "1_5", "lon": 1.5, "lat": -81.75}}, {"type": "Feature", "geometry": {"type": "Polygon", "coordinates": [[[0.75, -81.0], [0.75, -79.5], [2.25, -79.5], [2.25, -81.0], [0.75, -81.0]]]}, "properties": {"cell_id": "1_6", "lon": 1.5, "lat": -80.25}}, {"type": "Feature", "geometry": {"type": "Polygon", "coordinates": [[[2.25, -90.0], [2.25, -88.5], [3.75, -88.5], [3.75, -90.0], [2.25, -90.0]]]}, "properties": {"cell_id": "2_0", "lon": 3.0, "lat": -89.25}}, {"type": "Feature", "geometry": {"type": "Polygon", "coordinates": [[[2.25, -88.5], [2.25, -87.0], [3.75, -87.0], [3.75, -88.5], [2.25, -88.5]]]}, "properties": {"cell_id": "2_1", "lon": 3.0, "lat": -87.75}}, {"type": "Feature", "geometry": {"type": "Polygon", "coordinates": [[[2.25, -87.0], [2.25, -85.5], [3.75, -85.5], [3.75, -87.0], [2.25, -87.0]]]}, "properties": {"cell_id": "2_2", "lon": 3.0, "lat": -86.25}}, {"type": "Feature", "geometry": {"type": "Polygon", "coordinates": [[[2.25, -85.5], [2.25, -84.0], [3.75, -84.0], [3.75, -85.5], [2.25, -85.5]]]}, "properties": {"cell_id": "2_3", "lon": 3.0, "lat": -84.75}}, {"type": "Feature", "geometry": {"type": "Polygon", "coordinates": [[[2.25, -84.0], [2.25, -82.5], [3.75, -82.5], [3.75, -84.0], [2.25, -84.0]]]}, "properties": {"cell_id": "2_4", "lon": 3.0, "lat": -83.25}}, {"type": "Feature", "geometry": {"type": "Polygon", "coordinates": [[[2.25, -82.5], [2.25, -81.0], [3.75, -81.0], [3.75, -82.5], [2.25, -82.5]]]}, "properties": {"cell_id": "2_5", "lon": 3.0, "lat": -81.75}}, {"type": "Feature", "geometry": {"type": "Polygon", "coordinates": [[[2.25, -81.0], [2.25, -79.5], [3.75, -79.5], [3.75, -81.0], [2.25, -81.0]]]}, "properties": {"cell_id": "2_6", "lon": 3.0, "lat": -80.25}}, {"type": "Feature", "geometry": {"type": "Polygon", "coordinates": [[[3.75, -90.0], [3.75, -88.5], [5.25, -88.5], [5.25, -90.0], [3.75, -90.0]]]}, "properties": {"cell_id": "3_0", "lon": 4.5, "lat": -89.25}}, {"type": "Feature", "geometry": {"type": "Polygon", "coordinates": [[[3.75, -88.5], [3.75, -87.0], [5.25, -87.0], [5.25, -88.5], [3.75, -88.5]]]}, "properties": {"cell_id": "3_1", "lon": 4.5, "lat": -87.75}}, {"type": "Feature", "geometry": {"type": "Polygon", "coordinates": [[[3.75, -87.0], [3.75, -85.5], [5.25, -85.5], [5.25, -87.0], [3.75, -87.0]]]}, "properties": {"cell_id": "3_2", "lon": 4.5, "lat": -86.25}}, {"type": "Feature", "geometry": {"type": "Polygon", "coordinates": [[[3.75, -85.5], [3.75, -84.0], [5.25, -84.0], [5.25, -85.5], [3.75, -85.5]]]}, "properties": {"cell_id": "3_3", "lon": 4.5, "lat": -84.75}}, {"type": "Feature", "geometry": {"type": "Polygon", "coordinates": [[[3.75, -84.0], [3.75, -82.5], [5.25, -82.5], [5.25, -84.0], [3.75, -84.0]]]}, "properties": {"cell_id": "3_4", "lon": 4.5, "lat": -83.25}}, {"type": "Feature", "geometry": {"type": "Polygon", "coordinates": [[[3.75, -82.5], [3.75, -81.0], [5.25, -81.0], [5.25, -82.5], [3.75, -82.5]]]}, "properties": {"cell_id": "3_5", "lon": 4.5, "lat": -81.75}}, {"type": "Feature", "geometry": {"type": "Polygon", "coordinates": [[[3.75, -81.0], [3.75, -79.5], [5.25, -79.5], [5.25, -81.0], [3.75, -81.0]]]}, "properties": {"cell_id": "3_6", "lon": 4.5, "lat": -80.25}}, {"type": "Feature", "geometry": {"type": "Polygon", "coordinates": [[[5.25, -90.0], [5.25, -88.5], [6.75, -88.5], [6.75, -90.0], [5.25, -90.0]]]}, "properties": {"cell_id": "4_0", "lon": 6.0, "lat": -89.25}}, {"type": "Feature", "geometry": {"type": "Polygon", "coordinates": [[[5.25, -88.5], [5.25, -87.0], [6.75, -87.0], [6.75, -88.5], [5.25, -88.5]]]}, "properties": {"cell_id": "4_1", "lon": 6.0, "lat": -87.75}}, {"type": "Feature", "geometry": {"type": "Polygon", "coordinates": [[[5.25, -87.0], [5.25, -85.5], [6.75, -85.5], [6.75, -87.0], [5.25, -87.0]]]}, "properties": {"cell_id": "4_2", "lon": 6.0, "lat": -86.25}}, {"type": "Feature", "geometry": {"type": "Polygon", "coordinates": [[[5.25, -85.5], [5.25, -84.0], [6.75, -84.0], [6.75, -85.5], [5.25, -85.5]]]}, "properties": {"cell_id": "4_3", "lon": 6.0, "lat": -84.75}}, {"type": "Feature", "geometry": {"type": "Polygon", "coordinates": [[[5.25, -84.0], [5.25, -82.5], [6.75, -82.5], [6.75, -84.0], [5.25, -84.0]]]}, "properties": {"cell_id": "4_4", "lon": 6.0, "lat": -83.25}}, {"type": "Feature", "geometry": {"type": "Polygon", "coordinates": [[[5.25, -82.5], [5.25, -81.0], [6.75, -81.0], [6.75, -82.5], [5.25, -82.5]]]}, "properties": {"cell_id": "4_5", "lon": 6.0, "lat": -81.75}}, {"type": "Feature", "geometry": {"type": "Polygon", "coordinates": [[[5.25, -81.0], [5.25, -79.5], [6.75, -79.5], [6.75, -81.0], [5.25, -81.0]]]}, "properties": {"cell_id": "4_6", "lon": 6.0, "lat": -80.25}}, {"type": "Feature", "geometry": {"type": "Polygon", "coordinates": [[[6.75, -90.0], [6.75, -88.5], [8.25, -88.5], [8.25, -90.0], [6.75, -90.0]]]}, "properties": {"cell_id": "5_0", "lon": 7.5, "lat": -89.25}}, {"type": "Feature", "geometry": {"type": "Polygon", "coordinates": [[[6.75, -88.5], [6.75, -87.0], [8.25, -87.0], [8.25, -88.5], [6.75, -88.5]]]}, "properties": {"cell_id": "5_1", "lon": 7.5, "lat": -87.75}}, {"type": "Feature", "geometry": {"type": "Polygon", "coordinates": [[[6.75, -87.0], [6.75, -85.5], [8.25, -85.5], [8.25, -87.0], [6.75, -87.0]]]}, "properties": {"cell_id": "5_2", "lon": 7.5, "lat": -86.25}}, {"type": "Feature", "geometry": {"type": "Polygon", "coordinates": [[[6.75, -85.5], [6.75, -84.0], [8.25, -84.0], [8.25, -85.5], [6.75, -85.5]]]}, "properties": {"cell_id": "5_3", "lon": 7.5, "lat": -84.75}}, {"type": "Feature", "geometry": {"type": "Polygon", "coordinates": [[[6.75, -84.0], [6.75, -82.5], [8.25, -82.5], [8.25, -84.0], [6.75, -84.0]]]}, "properties": {"cell_id": "5_4", "lon": 7.5, "lat": -83.25}}, {"type": "Feature", "geometry": {"type": "Polygon", "coordinates": [[[6.75, -82.5], [6.75, -81.0], [8.25, -81.0], [8.25, -82.5], [6.75, -82.5]]]}, "properties": {"cell_id": "5_5", "lon": 7.5, "lat": -81.75}}, {"type": "Feature", "geometry": {"type": "Polygon", "coordinates": [[[6.75, -81.0], [6.75, -79.5], [8.25, -79.5], [8.25, -81.0], [6.75, -81.0]]]}, "properties": {"cell_id": "5_6", "lon": 7.5, "lat": -80.25}}, {"type": "Feature", "geometry": {"type": "Polygon", "coordinates": [[[8.25, -90.0], [8.25, -88.5], [9.75, -88.5], [9.75, -90.0], [8.25, -90.0]]]}, "properties": {"cell_id": "6_0", "lon": 9.0, "lat": -89.25}}, {"type": "Feature", "geometry": {"type": "Polygon", "coordinates": [[[8.25, -88.5], [8.25, -87.0], [9.75, -87.0], [9.75, -88.5], [8.25, -88.5]]]}, "properties": {"cell_id": "6_1", "lon": 9.0, "lat": -87.75}}, {"type": "Feature", "geometry": {"type": "Polygon", "coordinates": [[[8.25, -87.0], [8.25, -85.5], [9.75, -85.5], [9.75, -87.0], [8.25, -87.0]]]}, "properties": {"cell_id": "6_2", "lon": 9.0, "lat": -86.25}}, {"type": "Feature", "geometry": {"type": "Polygon", "coordinates": [[[8.25, -85.5], [8.25, -84.0], [9.75, -84.0], [9.75, -85.5], [8.25, -85.5]]]}, "properties": {"cell_id": "6_3", "lon": 9.0, "lat": -84.75}}, {"type": "Feature", "geometry": {"type": "Polygon", "coordinates": [[[8.25, -84.0], [8.25, -82.5], [9.75, -82.5], [9.75, -84.0], [8.25, -84.0]]]}, "properties": {"cell_id": "6_4", "lon": 9.0, "lat": -83.25}}, {"type": "Feature", "geometry": {"type": "Polygon", "coordinates": [[[8.25, -82.5], [8.25, -81.0], [9.75, -81.0], [9.75, -82.5], [8.25, -82.5]]]}, "properties": {"cell_id": "6_5", "lon": 9.0, "lat": -81.75}}, {"type": "Feature", "geometry": {"type": "Polygon", "coordinates": [[[8.25, -81.0], [8.25, -79.5], [9.75, -79.5], [9.75, -81.0], [8.25, -81.0]]]}, "properties": {"cell_id": "6_6", "lon": 9.0, "lat": -80.25}}, {"type": "Feature", "geometry": {"type": "Polygon", "coordinates": [[[9.75, -90.0], [9.75, -88.5], [11.25, -88.5], [11.25, -90.0], [9.75, -90.0]]]}, "properties": {"cell_id": "7_0", "lon": 10.5, "lat": -89.25}}, {"type": "Feature", "geometry": {"type": "Polygon", "coordinates": [[[9.75, -88.5], [9.75, -87.0], [11.25, -87.0], [11.25, -88.5], [9.75, -88.5]]]}, "properties": {"cell_id": "7_1", "lon": 10.5, "lat": -87.75}}, {"type": "Feature", "geometry": {"type": "Polygon", "coordinates": [[[9.75, -87.0], [9.75, -85.5], [11.25, -85.5], [11.25, -87.0], [9.75, -87.0]]]}, "properties": {"cell_id": "7_2", "lon": 10.5, "lat": -86.25}}, {"type": "Feature", "geometry": {"type": "Polygon", "coordinates": [[[9.75, -85.5], [9.75, -84.0], [11.25, -84.0], [11.25, -85.5], [9.75, -85.5]]]}, "properties": {"cell_id": "7_3", "lon": 10.5, "lat": -84.75}}, {"type": "Feature", "geometry": {"type": "Polygon", "coordinates": [[[9.75, -84.0], [9.75, -82.5], [11.25, -82.5], [11.25, -84.0], [9.75, -84.0]]]}, "properties": {"cell_id": "7_4", "lon": 10.5, "lat": -83.25}}, {"type": "Feature", "geometry": {"type": "Polygon", "coordinates": [[[9.75, -82.5], [9.75, -81.0], [11.25, -81.0], [11.25, -82.5], [9.75, -82.5]]]}, "properties": {"cell_id": "7_5", "lon": 10.5, "lat": -81.75}}, {"type": "Feature", "geometry": {"type": "Polygon", "coordinates": [[[9.75, -81.0], [9.75, -79.5], [11.25, -79.5], [11.25, -81.0], [9.75, -81.0]]]}, "properties": {"cell_id": "7_6", "lon": 10.5, "lat": -80.25}}]}