{"type": "FeatureCollection", "features": [{"type": "Feature", "geometry": {"type": "Polygon", "coordinates": [[[-50.0, 70.0], [-50.0, 72.5], [-47.5, 72.5], [-47.5, 70.0], [-50.0, 70.0]]]}, "properties": {"cell_id": "124_64", "lon": -48.75, "lat": 71.25}}, {"type": "Feature", "geometry": {"type": "Polygon", "coordinates": [[[-50.0, 72.5], [-50.0, 75.0], [-47.5, 75.0], [-47.5, 72.5], [-50.0, 72.5]]]}, "properties": {"cell_id": "124_65", "lon": -48.75, "lat": 73.75}}, {"type": "Feature", "geometry": {"type": "Polygon", "coordinates": [[[-50.0, 75.0], [-50.0, 77.5], [-47.5, 77.5], [-47.5, 75.0], [-50.0, 75.0]]]}, "properties": {"cell_id": "124_66", "lon": -48.75, "lat": 76.25}}, {"type": "Feature", "geometry": {"type": "Polygon", "coordinates": [[[-50.0, 77.5], [-50.0, 80.0], [-47.5, 80.0], [-47.5, 77.5], [-50.0, 77.5]]]}, "properties": {"cell_id": "124_67", "lon": -48.75, "lat": 78.75}}, {"type": "Feature", "geometry": {"type": "Polygon", "coordinates": [[[-47.5, 70.0], [-47.5, 72.5], [-45.0, 72.5], [-45.0, 70.0], [-47.5, 70.0]]]}, "properties": {"cell_id": "125_64", "lon": -46.25, "lat": 71.25}}, {"type": "Feature", "geometry": {"type": "Polygon", "coordinates": [[[-47.5, 72.5], [-47.5, 75.0], [-45.0, 75.0], [-45.0, 72.5], [-47.5, 72.5]]]}, "properties": {"cell_id": "125_65", "lon": -46.25, "lat": 73.75}}, {"type": "Feature", "geometry": {"type": "Polygon", "coordinates": [[[-47.5, 75.0], [-47.5, 77.5], [-45.0, 77.5], [-45.0, 75.0], [-47.5, 75.0]]]}, "properties": {"cell_id": "125_66", "lon": -46.25, "lat": 76.25}}, {"type": "Feature", "geometry": {"type": "Polygon", "coordinates": [[[-47.5, 77.5], [-47.5, 80.0], [-45.0, 80.0], [-45.0, 77.5], [-47.5, 77.5]]]}, "properties": {"cell_id": "125_67", "lon": -46.25, "lat": 78.75}}, {"type": "Feature", "geometry": {"type": "Polygon", "coordinates": [[[-45.0, 70.0], [-45.0, 72.5], [-42.5, 72.5], [-42.5, 70.0], [-45.0, 70.0]]]}, "properties": {"cell_id": "126_64", "lon": -43.75, "lat": 71.25}}, {"type": "Feature", "geometry": {"type": "Polygon", "coordinates": [[[-45.0, 72.5], [-45.0, 75.0], [-42.5, 75.0], [-42.5, 72.5], [-45.0, 72.5]]]}, "properties": {"cell_id": "126_65", "lon": -43.75, "lat": 73.75}}, {"type": "Feature", "geometry": {"type": "Polygon", "coordinates": [[[-45.0, 75.0], [-45.0, 77.5], [-42.5, 77.5], [-42.5, 75.0], [-45.0, 75.0]]]}, "properties": {"cell_id": "126_66", "lon": -43.75, "lat": 76.25}}, {"type": "Feature", "geometry": {"type": "Polygon", "coordinates": [[[-45.0, 77.5], [-45.0, 80.0], [-42.5, 80.0], [-42.5, 77.5], [-45.0, 77.5]]]}, "properties": {"cell_id": "126_67", "lon": -43.75, "lat": 78.75}}, {"type": "Feature", "geometry": {"type": "Polygon", "coordinates": [[[-42.5, 70.0], [-42.5, 72.5], [-40.0, 72.5], [-40.0, 70.0], [-42.5, 70.0]]]}, "properties": {"cell_id": "127_64", "lon": -41.25, "lat": 71.25}}, {"type": "Feature", "geometry": {"type": "Polygon", "coordinates": [[[-42.5, 72.5], [-42.5, 75.0], [-40.0, 75.0], [-40.0, 72.5], [-42.5, 72.5]]]}, "properties": {"cell_id": "127_65", "lon": -41.25, "lat": 73.75}}, {"type": "Feature", "geometry": {"type": "Polygon", "coordinates": [[[-42.5, 75.0], [-42.5, 77.5], [-40.0, 77.5], [-40.0, 75.0], [-42.5, 75.0]]]}, "properties": {"cell_id": "127_66", "lon": -41.25, "lat": 76.25}}, {"type": "Feature", "geometry": {"type": "Polygon", "coordinates": [[[-42.5, 77.5], [-42.5, 80.0], [-40.0, 80.0], [-40.0, 77.5], [-42.5, 77.5]]]}, "properties": {"cell_id": "127_67", "lon": -41.25, "lat": 78.75}}]}