{"type": "FeatureCollection", "features": [{"type": "Feature", "geometry": {"type": "Polygon", "coordinates": [[[71.25, -90.0], [71.25, -88.5], [72.75, -88.5], [72.75, -90.0], [71.25, -90.0]]]}, "properties": {"cell_id": "48_0", "lon": 72.0, "lat": -89.25}}, {"type": "Feature", "geometry": {"type": "Polygon", "coordinates": [[[71.25, -88.5], [71.25, -87.0], [72.75, -87.0], [72.75, -88.5], [71.25, -88.5]]]}, "properties": {"cell_id": "48_1", "lon": 72.0, "lat": -87.75}}, {"type": "Feature", "geometry": {"type": "Polygon", "coordinates": [[[71.25, -87.0], [71.25, -85.5], [72.75, -85.5], [72.75, -87.0], [71.25, -87.0]]]}, "properties": {"cell_id": "48_2", "lon": 72.0, "lat": -86.25}}, {"type": "Feature", "geometry": {"type": "Polygon", "coordinates": [[[71.25, -85.5], [71.25, -84.0], [72.75, -84.0], [72.75, -85.5], [71.25, -85.5]]]}, "properties": {"cell_id": "48_3", "lon": 72.0, "lat": -84.75}}, {"type": "Feature", "geometry": {"type": "Polygon", "coordinates": [[[71.25, -84.0], [71.25, -82.5], [72.75, -82.5], [72.75, -84.0], [71.25, -84.0]]]}, "properties": {"cell_id": "48_4", "lon": 72.0, "lat": -83.25}}, {"type": "Feature", "geometry": {"type": "Polygon", "coordinates": [[[71.25, -82.5], [71.25, -81.0], [72.75, -81.0], [72.75, -82.5], [71.25, -82.5]]]}, "properties": {"cell_id": "48_5", "lon": 72.0, "lat": -81.75}}, {"type": "Feature", "geometry": {"type": "Polygon", "coordinates": [[[71.25, -81.0], [71.25, -79.5], [72.75, -79.5], [72.75, -81.0], [71.25, -81.0]]]}, "properties": {"cell_id": "48_6", "lon": 72.0, "lat": -80.25}}, {"type": "Feature", "geometry": {"type": "Polygon", "coordinates": [[[72.75, -90.0], [72.75, -88.5], [74.25, -88.5], [74.25, -90.0], [72.75, -90.0]]]}, "properties": {"cell_id": "49_0", "lon": 73.5, "lat": -89.25}}, {"type": "Feature", "geometry": {"type": "Polygon", "coordinates": [[[72.75, -88.5], [72.75, -87.0], [74.25, -87.0], [74.25, -88.5], [72.75, -88.5]]]}, "properties": {"cell_id": "49_1", "lon": 73.5, "lat": -87.75}}, {"type": "Feature", "geometry": {"type": "Polygon", "coordinates": [[[72.75, -87.0], [72.75, -85.5], [74.25, -85.5], [74.25, -87.0], [72.75, -87.0]]]}, "properties": {"cell_id": "49_2", "lon": 73.5, "lat": -86.25}}, {"type": "Feature", "geometry": {"type": "Polygon", "coordinates": [[[72.75, -85.5], [72.75, -84.0], [74.25, -84.0], [74.25, -85.5], [72.75, -85.5]]]}, "properties": {"cell_id": "49_3", "lon": 73.5, "lat": -84.75}}, {"type": "Feature", "geometry": {"type": "Polygon", "coordinates": [[[72.75, -84.0], [72.75, -82.5], [74.25, -82.5], [74.25, -84.0], [72.75, -84.0]]]}, "properties": {"cell_id": "49_4", "lon": 73.5, "lat": -83.25}}, {"type": "Feature", "geometry": {"type": "Polygon", "coordinates": [[[72.75, -82.5], [72.75, -81.0], [74.25, -81.0], [74.25, -82.5], [72.75, -82.5]]]}, "properties": {"cell_id": "49_5", "lon": 73.5, "lat": -81.75}}, {"type": "Feature", "geometry": {"type": "Polygon", "coordinates": [[[72.75, -81.0], [72.75, -79.5], [74.25, -79.5], [74.25, -81.0], [72.75, -81.0]]]}, "properties": {"cell_id": "49_6", "lon": 73.5, "lat": -80.25}}, {"type": "Feature", "geometry": {"type": "Polygon", "coordinates": [[[74.25, -90.0], [74.25, -88.5], [75.75, -88.5], [75.75, -90.0], [74.25, -90.0]]]}, "properties": {"cell_id": "50_0", "lon": 75.0, "lat": -89.25}}, {"type": "Feature", "geometry": {"type": "Polygon", "coordinates": [[[74.25, -88.5], [74.25, -87.0], [75.75, -87.0], [75.75, -88.5], [74.25, -88.5]]]}, "properties": {"cell_id": "50_1", "lon": 75.0, "lat": -87.75}}, {"type": "Feature", "geometry": {"type": "Polygon", "coordinates": [[[74.25, -87.0], [74.25, -85.5], [75.75, -85.5], [75.75, -87.0], [74.25, -87.0]]]}, "properties": {"cell_id": "50_2", "lon": 75.0, "lat": -86.25}}, {"type": "Feature", "geometry": {"type": "Polygon", "coordinates": [[[74.25, -85.5], [74.25, -84.0], [75.75, -84.0], [75.75, -85.5], [74.25, -85.5]]]}, "properties": {"cell_id": "50_3", "lon": 75.0, "lat": -84.75}}, {"type": "Feature", "geometry": {"type": "Polygon", "coordinates": [[[74.25, -84.0], [74.25, -82.5], [75.75, -82.5], [75.75, -84.0], [74.25, -84.0]]]}, "properties": {"cell_id": "50_4", "lon": 75.0, "lat": -83.25}}, {"type": "Feature", "geometry": {"type": "Polygon", "coordinates": [[[74.25, -82.5], [74.25, -81.0], [75.75, -81.0], [75.75, -82.5], [74.25, -82.5]]]}, "properties": {"cell_id": "50_5", "lon": 75.0, "lat": -81.75}}, {"type": "Feature", "geometry": {"type": "Polygon", "coordinates": [[[74.25, -81.0], [74.25, -79.5], [75.75, -79.5], [75.75, -81.0], [74.25, -81.0]]]}, "properties": {"cell_id": "50_6", "lon": 75.0, "lat": -80.25}}, {"type": "Feature", "geometry": {"type": "Polygon", "coordinates": [[[75.75, -90.0], [75.75, -88.5], [77.25, -88.5], [77.25, -90.0], [75.75, -90.0]]]}, "properties": {"cell_id": "51_0", "lon": 76.5, "lat": -89.25}}, {"type": "Feature", "geometry": {"type": "Polygon", "coordinates": [[[75.75, -88.5], [75.75, -87.0], [77.25, -87.0], [77.25, -88.5], [75.75, -88.5]]]}, "properties": {"cell_id": "51_1", "lon": 76.5, "lat": -87.75}}, {"type": "Feature", "geometry": {"type": "Polygon", "coordinates": [[[75.75, -87.0], [75.75, -85.5], [77.25, -85.5], [77.25, -87.0], [75.75, -87.0]]]}, "properties": {"cell_id": "51_2", "lon": 76.5, "lat": -86.25}}, {"type": "Feature", "geometry": {"type": "Polygon", "coordinates": [[[75.75, -85.5], [75.75, -84.0], [77.25, -84.0], [77.25, -85.5], [75.75, -85.5]]]}, "properties": {"cell_id": "51_3", "lon": 76.5, "lat": -84.75}}, {"type": "Feature", "geometry": {"type": "Polygon", "coordinates": [[[75.75, -84.0], [75.75, -82.5], [77.25, -82.5], [77.25, -84.0], [75.75, -84.0]]]}, "properties": {"cell_id": "51_4", "lon": 76.5, "lat": -83.25}}, {"type": "Feature", "geometry": {"type": "Polygon", "coordinates": [[[75.75, -82.5], [75.75, -81.0], [77.25, -81.0], [77.25, -82.5], [75.75, -82.5]]]}, "properties": {"cell_id": "51_5", "lon": 76.5, "lat": -81.75}}, {"type": "Feature", "geometry": {"type": "Polygon", "coordinates": [[[75.75, -81.0], [75.75, -79.5], [77.25, -79.5], [77.25, -81.0], [75.75, -81.0]]]}, "properties": {"cell_id": "51_6", "lon": 76.5, "lat": -80.25}}, {"type": "Feature", "geometry": {"type": "Polygon", "coordinates": [[[77.25, -90.0], [77.25, -88.5], [78.75, -88.5], [78.75, -90.0], [77.25, -90.0]]]}, "properties": {"cell_id": "52_0", "lon": 78.0, "lat": -89.25}}, {"type": "Feature", "geometry": {"type": "Polygon", "coordinates": [[[77.25, -88.5], [77.25, -87.0], [78.75, -87.0], [78.75, -88.5], [77.25, -88.5]]]}, "properties": {"cell_id": "52_1", "lon": 78.0, "lat": -87.75}}, {"type": "Feature", "geometry": {"type": "Polygon", "coordinates": [[[77.25, -87.0], [77.25, -85.5], [78.75, -85.5], [78.75, -87.0], [77.25, -87.0]]]}, "properties": {"cell_id": "52_2", "lon": 78.0, "lat": -86.25}}, {"type": "Feature", "geometry": {"type": "Polygon", "coordinates": [[[77.25, -85.5], [77.25, -84.0], [78.75, -84.0], [78.75, -85.5], [77.25, -85.5]]]}, "properties": {"cell_id": "52_3", "lon": 78.0, "lat": -84.75}}, {"type": "Feature", "geometry": {"type": "Polygon", "coordinates": [[[77.25, -84.0], [77.25, -82.5], [78.75, -82.5], [78.75, -84.0], [77.25, -84.0]]]}, "properties": {"cell_id": "52_4", "lon": 78.0, "lat": -83.25}}, {"type": "Feature", "geometry": {"type": "Polygon", "coordinates": [[[77.25, -82.5], [77.25, -81.0], [78.75, -81.0], [78.75, -82.5], [77.25, -82.5]]]}, "properties": {"cell_id": "52_5", "lon": 78.0, "lat": -81.75}}, {"type": "Feature", "geometry": {"type": "Polygon", "coordinates": [[[77.25, -81.0], [77.25, -79.5], [78.75, -79.5], [78.75, -81.0], [77.25, -81.0]]]}, "properties": {"cell_id": "52_6", "lon": 78.0, "lat": -80.25}}, {"type": "Feature", "geometry": {"type": "Polygon", "coordinates": [[[78.75, -90.0], [78.75, -88.5], [80.25, -88.5], [80.25, -90.0], [78.75, -90.0]]]}, "properties": {"cell_id": "53_0", "lon": 79.5, "lat": -89.25}}, {"type": "Feature", "geometry": {"type": "Polygon", "coordinates": [[[78.75, -88.5], [78.75, -87.0], [80.25, -87.0], [80.25, -88.5], [78.75, -88.5]]]}, "properties": {"cell_id": "53_1", "lon": 79.5, "lat": -87.75}}, {"type": "Feature", "geometry": {"type": "Polygon", "coordinates": [[[78.75, -87.0], [78.75, -85.5], [80.25, -85.5], [80.25, -87.0], [78.75, -87.0]]]}, "properties": {"cell_id": "53_2", "lon": 79.5, "lat": -86.25}}, {"type": "Feature", "geometry": {"type": "Polygon", "coordinates": [[[78.75, -85.5], [78.75, -84.0], [80.25, -84.0], [80.25, -85.5], [78.75, -85.5]]]}, "properties": {"cell_id": "53_3", "lon": 79.5, "lat": -84.75}}, {"type": "Feature", "geometry": {"type": "Polygon", "coordinates": [[[78.75, -84.0], [78.75, -82.5], [80.25, -82.5], [80.25, -84.0], [78.75, -84.0]]]}, "properties": {"cell_id": "53_4", "lon": 79.5, "lat": -83.25}}, {"type": "Feature", "geometry": {"type": "Polygon", "coordinates": [[[78.75, -82.5], [78.75, -81.0], [80.25, -81.0], [80.25, -82.5], [78.75, -82.5]]]}, "properties": {"cell_id": "53_5", "lon": 79.5, "lat": -81.75}}, {"type": "Feature", "geometry": {"type": "Polygon", "coordinates": [[[78.75, -81.0], [78.75, -79.5], [80.25, -79.5], [80.25, -81.0], [78.75, -81.0]]]}, "properties": {"cell_id": "53_6", "lon": 79.5, "lat": -80.25}}]}