{"type": "FeatureCollection", "features": [{"type": "Feature", "geometry": {"type": "Polygon", "coordinates": [[[12.5, -22.5], [12.5, -20.0], [15.0, -20.0], [15.0, -22.5], [12.5, -22.5]]]}, "properties": {"cell_id": "5_27", "lon": 13.75, "lat": -21.25}}, {"type": "Feature", "geometry": {"type": "Polygon", "coordinates": [[[15.0, -27.5], [15.0, -25.0], [17.5, -25.0], [17.5, -27.5], [15.0, -27.5]]]}, "properties": {"cell_id": "6_25", "lon": 16.25, "lat": -26.25}}, {"type": "Feature", "geometry": {"type": "Polygon", "coordinates": [[[15.0, -25.0], [15.0, -22.5], [17.5, -22.5], [17.5, -25.0], [15.0, -25.0]]]}, "properties": {"cell_id": "6_26", "lon": 16.25, "lat": -23.75}}, {"type": "Feature", "geometry": {"type": "Polygon", "coordinates": [[[15.0, -22.5], [15.0, -20.0], [17.5, -20.0], [17.5, -22.5], [15.0, -22.5]]]}, "properties": {"cell_id": "6_27", "lon": 16.25, "lat": -21.25}}, {"type": "Feature", "geometry": {"type": "Polygon", "coordinates": [[[17.5, -30.0], [17.5, -27.5], [20.0, -27.5], [20.0, -30.0], [17.5, -30.0]]]}, "properties": {"cell_id": "7_24", "lon": 18.75, "lat": -28.75}}, {"type": "Feature", "geometry": {"type": "Polygon", "coordinates": [[[17.5, -27.5], [17.5, -25.0], [20.0, -25.0], [20.0, -27.5], [17.5, -27.5]]]}, "properties": {"cell_id": "7_25", "lon": 18.75, "lat": -26.25}}, {"type": "Feature", "geometry": {"type": "Polygon", "coordinates": [[[17.5, -25.0], [17.5, -22.5], [20.0, -22.5], [20.0, -25.0], [17.5, -25.0]]]}, "properties": {"cell_id": "7_26", "lon": 18.75, "lat": -23.75}}, {"type": "Feature", "geometry": {"type": "Polygon", "coordinates": [[[17.5, -22.5], [17.5, -20.0], [20.0, -20.0], [20.0, -22.5], [17.5, -22.5]]]}, "properties": {"cell_id": "7_27", "lon": 18.75, "lat": -21.25}}]}