{"type": "FeatureCollection", "features": [{"type": "Feature", "geometry": {"type": "Polygon", "coordinates": [[[-108.75, 40.5], [-108.75, 42.0], [-107.25, 42.0], [-107.25, 40.5], [-108.75, 40.5]]]}, "properties": {"cell_id": "168_87", "lon": -108.0, "lat": 41.25}}, {"type": "Feature", "geometry": {"type": "Polygon", "coordinates": [[[-108.75, 42.0], [-108.75, 43.5], [-107.25, 43.5], [-107.25, 42.0], [-108.75, 42.0]]]}, "properties": {"cell_id": "168_88", "lon": -108.0, "lat": 42.75}}, {"type": "Feature", "geometry": {"type": "Polygon", "coordinates": [[[-108.75, 43.5], [-108.75, 45.0], [-107.25, 45.0], [-107.25, 43.5], [-108.75, 43.5]]]}, "properties": {"cell_id": "168_89", "lon": -108.0, "lat": 44.25}}, {"type": "Feature", "geometry": {"type": "Polygon", "coordinates": [[[-108.75, 45.0], [-108.75, 46.5], [-107.25, 46.5], [-107.25, 45.0], [-108.75, 45.0]]]}, "properties": {"cell_id": "168_90", "lon": -108.0, "lat": 45.75}}, {"type": "Feature", "geometry": {"type": "Polygon", "coordinates": [[[-108.75, 46.5], [-108.75, 48.0], [-107.25, 48.0], [-107.25, 46.5], [-108.75, 46.5]]]}, "properties": {"cell_id": "168_91", "lon": -108.0, "lat": 47.25}}, {"type": "Feature", "geometry": {"type": "Polygon", "coordinates": [[[-108.75, 48.0], [-108.75, 49.5], [-107.25, 49.5], [-107.25, 48.0], [-108.75, 48.0]]]}, "properties": {"cell_id": "168_92", "lon": -108.0, "lat": 48.75}}, {"type": "Feature", "geometry": {"type": "Polygon", "coordinates": [[[-108.75, 49.5], [-108.75, 51.0], [-107.25, 51.0], [-107.25, 49.5], [-108.75, 49.5]]]}, "properties": {"cell_id": "168_93", "lon": -108.0, "lat": 50.25}}, {"type": "Feature", "geometry": {"type": "Polygon", "coordinates": [[[-107.25, 40.5], [-107.25, 42.0], [-105.75, 42.0], [-105.75, 40.5], [-107.25, 40.5]]]}, "properties": {"cell_id": "169_87", "lon": -106.5, "lat": 41.25}}, {"type": "Feature", "geometry": {"type": "Polygon", "coordinates": [[[-107.25, 42.0], [-107.25, 43.5], [-105.75, 43.5], [-105.75, 42.0], [-107.25, 42.0]]]}, "properties": {"cell_id": "169_88", "lon": -106.5, "lat": 42.75}}, {"type": "Feature", "geometry": {"type": "Polygon", "coordinates": [[[-107.25, 43.5], [-107.25, 45.0], [-105.75, 45.0], [-105.75, 43.5], [-107.25, 43.5]]]}, "properties": {"cell_id": "169_89", "lon": -106.5, "lat": 44.25}}, {"type": "Feature", "geometry": {"type": "Polygon", "coordinates": [[[-107.25, 45.0], [-107.25, 46.5], [-105.75, 46.5], [-105.75, 45.0], [-107.25, 45.0]]]}, "properties": {"cell_id": "169_90", "lon": -106.5, "lat": 45.75}}, {"type": "Feature", "geometry": {"type": "Polygon", "coordinates": [[[-107.25, 46.5], [-107.25, 48.0], [-105.75, 48.0], [-105.75, 46.5], [-107.25, 46.5]]]}, "properties": {"cell_id": "169_91", "lon": -106.5, "lat": 47.25}}, {"type": "Feature", "geometry": {"type": "Polygon", "coordinates": [[[-107.25, 48.0], [-107.25, 49.5], [-105.75, 49.5], [-105.75, 48.0], [-107.25, 48.0]]]}, "properties": {"cell_id": "169_92", "lon": -106.5, "lat": 48.75}}, {"type": "Feature", "geometry": {"type": "Polygon", "coordinates": [[[-107.25, 49.5], [-107.25, 51.0], [-105.75, 51.0], [-105.75, 49.5], [-107.25, 49.5]]]}, "properties": {"cell_id": "169_93", "lon": -106.5, "lat": 50.25}}, {"type": "Feature", "geometry": {"type": "Polygon", "coordinates": [[[-105.75, 40.5], [-105.75, 42.0], [-104.25, 42.0], [-104.25, 40.5], [-105.75, 40.5]]]}, "properties": {"cell_id": "170_87", "lon": -105.0, "lat": 41.25}}, {"type": "Feature", "geometry": {"type": "Polygon", "coordinates": [[[-105.75, 42.0], [-105.75, 43.5], [-104.25, 43.5], [-104.25, 42.0], [-105.75, 42.0]]]}, "properties": {"cell_id": "170_88", "lon": -105.0, "lat": 42.75}}, {"type": "Feature", "geometry": {"type": "Polygon", "coordinates": [[[-105.75, 43.5], [-105.75, 45.0], [-104.25, 45.0], [-104.25, 43.5], [-105.75, 43.5]]]}, "properties": {"cell_id": "170_89", "lon": -105.0, "lat": 44.25}}, {"type": "Feature", "geometry": {"type": "Polygon", "coordinates": [[[-105.75, 45.0], [-105.75, 46.5], [-104.25, 46.5], [-104.25, 45.0], [-105.75, 45.0]]]}, "properties": {"cell_id": "170_90", "lon": -105.0, "lat": 45.75}}, {"type": "Feature", "geometry": {"type": "Polygon", "coordinates": [[[-105.75, 46.5], [-105.75, 48.0], [-104.25, 48.0], [-104.25, 46.5], [-105.75, 46.5]]]}, "properties": {"cell_id": "170_91", "lon": -105.0, "lat": 47.25}}, {"type": "Feature", "geometry": {"type": "Polygon", "coordinates": [[[-105.75, 48.0], [-105.75, 49.5], [-104.25, 49.5], [-104.25, 48.0], [-105.75, 48.0]]]}, "properties": {"cell_id": "170_92", "lon": -105.0, "lat": 48.75}}, {"type": "Feature", "geometry": {"type": "Polygon", "coordinates": [[[-105.75, 49.5], [-105.75, 51.0], [-104.25, 51.0], [-104.25, 49.5], [-105.75, 49.5]]]}, "properties": {"cell_id": "170_93", "lon": -105.0, "lat": 50.25}}, {"type": "Feature", "geometry": {"type": "Polygon", "coordinates": [[[-104.25, 40.5], [-104.25, 42.0], [-102.75, 42.0], [-102.75, 40.5], [-104.25, 40.5]]]}, "properties": {"cell_id": "171_87", "lon": -103.5, "lat": 41.25}}, {"type": "Feature", "geometry": {"type": "Polygon", "coordinates": [[[-104.25, 42.0], [-104.25, 43.5], [-102.75, 43.5], [-102.75, 42.0], [-104.25, 42.0]]]}, "properties": {"cell_id": "171_88", "lon": -103.5, "lat": 42.75}}, {"type": "Feature", "geometry": {"type": "Polygon", "coordinates": [[[-104.25, 43.5], [-104.25, 45.0], [-102.75, 45.0], [-102.75, 43.5], [-104.25, 43.5]]]}, "properties": {"cell_id": "171_89", "lon": -103.5, "lat": 44.25}}, {"type": "Feature", "geometry": {"type": "Polygon", "coordinates": [[[-104.25, 45.0], [-104.25, 46.5], [-102.75, 46.5], [-102.75, 45.0], [-104.25, 45.0]]]}, "properties": {"cell_id": "171_90", "lon": -103.5, "lat": 45.75}}, {"type": "Feature", "geometry": {"type": "Polygon", "coordinates": [[[-104.25, 46.5], [-104.25, 48.0], [-102.75, 48.0], [-102.75, 46.5], [-104.25, 46.5]]]}, "properties": {"cell_id": "171_91", "lon": -103.5, "lat": 47.25}}, {"type": "Feature", "geometry": {"type": "Polygon", "coordinates": [[[-104.25, 48.0], [-104.25, 49.5], [-102.75, 49.5], [-102.75, 48.0], [-104.25, 48.0]]]}, "properties": {"cell_id": "171_92", "lon": -103.5, "lat": 48.75}}, {"type": "Feature", "geometry": {"type": "Polygon", "coordinates": [[[-104.25, 49.5], [-104.25, 51.0], [-102.75, 51.0], [-102.75, 49.5], [-104.25, 49.5]]]}, "properties": {"cell_id": "171_93", "lon": -103.5, "lat": 50.25}}, {"type": "Feature", "geometry": {"type": "Polygon", "coordinates": [[[-102.75, 40.5], [-102.75, 42.0], [-101.25, 42.0], [-101.25, 40.5], [-102.75, 40.5]]]}, "properties": {"cell_id": "172_87", "lon": -102.0, "lat": 41.25}}, {"type": "Feature", "geometry": {"type": "Polygon", "coordinates": [[[-102.75, 42.0], [-102.75, 43.5], [-101.25, 43.5], [-101.25, 42.0], [-102.75, 42.0]]]}, "properties": {"cell_id": "172_88", "lon": -102.0, "lat": 42.75}}, {"type": "Feature", "geometry": {"type": "Polygon", "coordinates": [[[-102.75, 43.5], [-102.75, 45.0], [-101.25, 45.0], [-101.25, 43.5], [-102.75, 43.5]]]}, "properties": {"cell_id": "172_89", "lon": -102.0, "lat": 44.25}}, {"type": "Feature", "geometry": {"type": "Polygon", "coordinates": [[[-102.75, 45.0], [-102.75, 46.5], [-101.25, 46.5], [-101.25, 45.0], [-102.75, 45.0]]]}, "properties": {"cell_id": "172_90", "lon": -102.0, "lat": 45.75}}, {"type": "Feature", "geometry": {"type": "Polygon", "coordinates": [[[-102.75, 46.5], [-102.75, 48.0], [-101.25, 48.0], [-101.25, 46.5], [-102.75, 46.5]]]}, "properties": {"cell_id": "172_91", "lon": -102.0, "lat": 47.25}}, {"type": "Feature", "geometry": {"type": "Polygon", "coordinates": [[[-102.75, 48.0], [-102.75, 49.5], [-101.25, 49.5], [-101.25, 48.0], [-102.75, 48.0]]]}, "properties": {"cell_id": "172_92", "lon": -102.0, "lat": 48.75}}, {"type": "Feature", "geometry": {"type": "Polygon", "coordinates": [[[-102.75, 49.5], [-102.75, 51.0], [-101.25, 51.0], [-101.25, 49.5], [-102.75, 49.5]]]}, "properties": {"cell_id": "172_93", "lon": -102.0, "lat": 50.25}}, {"type": "Feature", "geometry": {"type": "Polygon", "coordinates": [[[-101.25, 40.5], [-101.25, 42.0], [-99.75, 42.0], [-99.75, 40.5], [-101.25, 40.5]]]}, "properties": {"cell_id": "173_87", "lon": -100.5, "lat": 41.25}}, {"type": "Feature", "geometry": {"type": "Polygon", "coordinates": [[[-101.25, 42.0], [-101.25, 43.5], [-99.75, 43.5], [-99.75, 42.0], [-101.25, 42.0]]]}, "properties": {"cell_id": "173_88", "lon": -100.5, "lat": 42.75}}, {"type": "Feature", "geometry": {"type": "Polygon", "coordinates": [[[-101.25, 43.5], [-101.25, 45.0], [-99.75, 45.0], [-99.75, 43.5], [-101.25, 43.5]]]}, "properties": {"cell_id": "173_89", "lon": -100.5, "lat": 44.25}}, {"type": "Feature", "geometry": {"type": "Polygon", "coordinates": [[[-101.25, 45.0], [-101.25, 46.5], [-99.75, 46.5], [-99.75, 45.0], [-101.25, 45.0]]]}, "properties": {"cell_id": "173_90", "lon": -100.5, "lat": 45.75}}, {"type": "Feature", "geometry": {"type": "Polygon", "coordinates": [[[-101.25, 46.5], [-101.25, 48.0], [-99.75, 48.0], [-99.75, 46.5], [-101.25, 46.5]]]}, "properties": {"cell_id": "173_91", "lon": -100.5, "lat": 47.25}}, {"type": "Feature", "geometry": {"type": "Polygon", "coordinates": [[[-101.25, 48.0], [-101.25, 49.5], [-99.75, 49.5], [-99.75, 48.0], [-101.25, 48.0]]]}, "properties": {"cell_id": "173_92", "lon": -100.5, "lat": 48.75}}, {"type": "Feature", "geometry": {"type": "Polygon", "coordinates": [[[-101.25, 49.5], [-101.25, 51.0], [-99.75, 51.0], [-99.75, 49.5], [-101.25, 49.5]]]}, "properties": {"cell_id": "173_93", "lon": -100.5, "lat": 50.25}}]}