{"type": "FeatureCollection", "features": [{"type": "Feature", "geometry": {"type": "Polygon", "coordinates": [[[101.25, 60.0], [101.25, 61.5], [102.75, 61.5], [102.75, 60.0], [101.25, 60.0]]]}, "properties": {"cell_id": "68_100", "lon": 102.0, "lat": 60.75}}, {"type": "Feature", "geometry": {"type": "Polygon", "coordinates": [[[101.25, 61.5], [101.25, 63.0], [102.75, 63.0], [102.75, 61.5], [101.25, 61.5]]]}, "properties": {"cell_id": "68_101", "lon": 102.0, "lat": 62.25}}, {"type": "Feature", "geometry": {"type": "Polygon", "coordinates": [[[101.25, 63.0], [101.25, 64.5], [102.75, 64.5], [102.75, 63.0], [101.25, 63.0]]]}, "properties": {"cell_id": "68_102", "lon": 102.0, "lat": 63.75}}, {"type": "Feature", "geometry": {"type": "Polygon", "coordinates": [[[101.25, 64.5], [101.25, 66.0], [102.75, 66.0], [102.75, 64.5], [101.25, 64.5]]]}, "properties": {"cell_id": "68_103", "lon": 102.0, "lat": 65.25}}, {"type": "Feature", "geometry": {"type": "Polygon", "coordinates": [[[101.25, 66.0], [101.25, 67.5], [102.75, 67.5], [102.75, 66.0], [101.25, 66.0]]]}, "properties": {"cell_id": "68_104", "lon": 102.0, "lat": 66.75}}, {"type": "Feature", "geometry": {"type": "Polygon", "coordinates": [[[101.25, 67.5], [101.25, 69.0], [102.75, 69.0], [102.75, 67.5], [101.25, 67.5]]]}, "properties": {"cell_id": "68_105", "lon": 102.0, "lat": 68.25}}, {"type": "Feature", "geometry": {"type": "Polygon", "coordinates": [[[101.25, 69.0], [101.25, 70.5], [102.75, 70.5], [102.75, 69.0], [101.25, 69.0]]]}, "properties": {"cell_id": "68_106", "lon": 102.0, "lat": 69.75}}, {"type": "Feature", "geometry": {"type": "Polygon", "coordinates": [[[102.75, 60.0], [102.75, 61.5], [104.25, 61.5], [104.25, 60.0], [102.75, 60.0]]]}, "properties": {"cell_id": "69_100", "lon": 103.5, "lat": 60.75}}, {"type": "Feature", "geometry": {"type": "Polygon", "coordinates": [[[102.75, 61.5], [102.75, 63.0], [104.25, 63.0], [104.25, 61.5], [102.75, 61.5]]]}, "properties": {"cell_id": "69_101", "lon": 103.5, "lat": 62.25}}, {"type": "Feature", "geometry": {"type": "Polygon", "coordinates": [[[102.75, 63.0], [102.75, 64.5], [104.25, 64.5], [104.25, 63.0], [102.75, 63.0]]]}, "properties": {"cell_id": "69_102", "lon": 103.5, "lat": 63.75}}, {"type": "Feature", "geometry": {"type": "Polygon", "coordinates": [[[102.75, 64.5], [102.75, 66.0], [104.25, 66.0], [104.25, 64.5], [102.75, 64.5]]]}, "properties": {"cell_id": "69_103", "lon": 103.5, "lat": 65.25}}, {"type": "Feature", "geometry": {"type": "Polygon", "coordinates": [[[102.75, 66.0], [102.75, 67.5], [104.25, 67.5], [104.25, 66.0], [102.75, 66.0]]]}, "properties": {"cell_id": "69_104", "lon": 103.5, "lat": 66.75}}, {"type": "Feature", "geometry": {"type": "Polygon", "coordinates": [[[102.75, 67.5], [102.75, 69.0], [104.25, 69.0], [104.25, 67.5], [102.75, 67.5]]]}, "properties": {"cell_id": "69_105", "lon": 103.5, "lat": 68.25}}, {"type": "Feature", "geometry": {"type": "Polygon", "coordinates": [[[102.75, 69.0], [102.75, 70.5], [104.25, 70.5], [104.25, 69.0], [102.75, 69.0]]]}, "properties": {"cell_id": "69_106", "lon": 103.5, "lat": 69.75}}, {"type": "Feature", "geometry": {"type": "Polygon", "coordinates": [[[104.25, 60.0], [104.25, 61.5], [105.75, 61.5], [105.75, 60.0], [104.25, 60.0]]]}, "properties": {"cell_id": "70_100", "lon": 105.0, "lat": 60.75}}, {"type": "Feature", "geometry": {"type": "Polygon", "coordinates": [[[104.25, 61.5], [104.25, 63.0], [105.75, 63.0], [105.75, 61.5], [104.25, 61.5]]]}, "properties": {"cell_id": "70_101", "lon": 105.0, "lat": 62.25}}, {"type": "Feature", "geometry": {"type": "Polygon", "coordinates": [[[104.25, 63.0], [104.25, 64.5], [105.75, 64.5], [105.75, 63.0], [104.25, 63.0]]]}, "properties": {"cell_id": "70_102", "lon": 105.0, "lat": 63.75}}, {"type": "Feature", "geometry": {"type": "Polygon", "coordinates": [[[104.25, 64.5], [104.25, 66.0], [105.75, 66.0], [105.75, 64.5], [104.25, 64.5]]]}, "properties": {"cell_id": "70_103", "lon": 105.0, "lat": 65.25}}, {"type": "Feature", "geometry": {"type": "Polygon", "coordinates": [[[104.25, 66.0], [104.25, 67.5], [105.75, 67.5], [105.75, 66.0], [104.25, 66.0]]]}, "properties": {"cell_id": "70_104", "lon": 105.0, "lat": 66.75}}, {"type": "Feature", "geometry": {"type": "Polygon", "coordinates": [[[104.25, 67.5], [104.25, 69.0], [105.75, 69.0], [105.75, 67.5], [104.25, 67.5]]]}, "properties": {"cell_id": "70_105", "lon": 105.0, "lat": 68.25}}, {"type": "Feature", "geometry": {"type": "Polygon", "coordinates": [[[104.25, 69.0], [104.25, 70.5], [105.75, 70.5], [105.75, 69.0], [104.25, 69.0]]]}, "properties": {"cell_id": "70_106", "lon": 105.0, "lat": 69.75}}, {"type": "Feature", "geometry": {"type": "Polygon", "coordinates": [[[105.75, 60.0], [105.75, 61.5], [107.25, 61.5], [107.25, 60.0], [105.75, 60.0]]]}, "properties": {"cell_id": "71_100", "lon": 106.5, "lat": 60.75}}, {"type": "Feature", "geometry": {"type": "Polygon", "coordinates": [[[105.75, 61.5], [105.75, 63.0], [107.25, 63.0], [107.25, 61.5], [105.75, 61.5]]]}, "properties": {"cell_id": "71_101", "lon": 106.5, "lat": 62.25}}, {"type": "Feature", "geometry": {"type": "Polygon", "coordinates": [[[105.75, 63.0], [105.75, 64.5], [107.25, 64.5], [107.25, 63.0], [105.75, 63.0]]]}, "properties": {"cell_id": "71_102", "lon": 106.5, "lat": 63.75}}, {"type": "Feature", "geometry": {"type": "Polygon", "coordinates": [[[105.75, 64.5], [105.75, 66.0], [107.25, 66.0], [107.25, 64.5], [105.75, 64.5]]]}, "properties": {"cell_id": "71_103", "lon": 106.5, "lat": 65.25}}, {"type": "Feature", "geometry": {"type": "Polygon", "coordinates": [[[105.75, 66.0], [105.75, 67.5], [107.25, 67.5], [107.25, 66.0], [105.75, 66.0]]]}, "properties": {"cell_id": "71_104", "lon": 106.5, "lat": 66.75}}, {"type": "Feature", "geometry": {"type": "Polygon", "coordinates": [[[105.75, 67.5], [105.75, 69.0], [107.25, 69.0], [107.25, 67.5], [105.75, 67.5]]]}, "properties": {"cell_id": "71_105", "lon": 106.5, "lat": 68.25}}, {"type": "Feature", "geometry": {"type": "Polygon", "coordinates": [[[105.75, 69.0], [105.75, 70.5], [107.25, 70.5], [107.25, 69.0], [105.75, 69.0]]]}, "properties": {"cell_id": "71_106", "lon": 106.5, "lat": 69.75}}, {"type": "Feature", "geometry": {"type": "Polygon", "coordinates": [[[107.25, 60.0], [107.25, 61.5], [108.75, 61.5], [108.75, 60.0], [107.25, 60.0]]]}, "properties": {"cell_id": "72_100", "lon": 108.0, "lat": 60.75}}, {"type": "Feature", "geometry": {"type": "Polygon", "coordinates": [[[107.25, 61.5], [107.25, 63.0], [108.75, 63.0], [108.75, 61.5], [107.25, 61.5]]]}, "properties": {"cell_id": "72_101", "lon": 108.0, "lat": 62.25}}, {"type": "Feature", "geometry": {"type": "Polygon", "coordinates": [[[107.25, 63.0], [107.25, 64.5], [108.75, 64.5], [108.75, 63.0], [107.25, 63.0]]]}, "properties": {"cell_id": "72_102", "lon": 108.0, "lat": 63.75}}, {"type": "Feature", "geometry": {"type": "Polygon", "coordinates": [[[107.25, 64.5], [107.25, 66.0], [108.75, 66.0], [108.75, 64.5], [107.25, 64.5]]]}, "properties": {"cell_id": "72_103", "lon": 108.0, "lat": 65.25}}, {"type": "Feature", "geometry": {"type": "Polygon", "coordinates": [[[107.25, 66.0], [107.25, 67.5], [108.75, 67.5], [108.75, 66.0], [107.25, 66.0]]]}, "properties": {"cell_id": "72_104", "lon": 108.0, "lat": 66.75}}, {"type": "Feature", "geometry": {"type": "Polygon", "coordinates": [[[107.25, 67.5], [107.25, 69.0], [108.75, 69.0], [108.75, 67.5], [107.25, 67.5]]]}, "properties": {"cell_id": "72_105", "lon": 108.0, "lat": 68.25}}, {"type": "Feature", "geometry": {"type": "Polygon", "coordinates": [[[107.25, 69.0], [107.25, 70.5], [108.75, 70.5], [108.75, 69.0], [107.25, 69.0]]]}, "properties": {"cell_id": "72_106", "lon": 108.0, "lat": 69.75}}, {"type": "Feature", "geometry": {"type": "Polygon", "coordinates": [[[108.75, 60.0], [108.75, 61.5], [110.25, 61.5], [110.25, 60.0], [108.75, 60.0]]]}, "properties": {"cell_id": "73_100", "lon": 109.5, "lat": 60.75}}, {"type": "Feature", "geometry": {"type": "Polygon", "coordinates": [[[108.75, 61.5], [108.75, 63.0], [110.25, 63.0], [110.25, 61.5], [108.75, 61.5]]]}, "properties": {"cell_id": "73_101", "lon": 109.5, "lat": 62.25}}, {"type": "Feature", "geometry": {"type": "Polygon", "coordinates": [[[108.75, 63.0], [108.75, 64.5], [110.25, 64.5], [110.25, 63.0], [108.75, 63.0]]]}, "properties": {"cell_id": "73_102", "lon": 109.5, "lat": 63.75}}, {"type": "Feature", "geometry": {"type": "Polygon", "coordinates": [[[108.75, 64.5], [108.75, 66.0], [110.25, 66.0], [110.25, 64.5], [108.75, 64.5]]]}, "properties": {"cell_id": "73_103", "lon": 109.5, "lat": 65.25}}, {"type": "Feature", "geometry": {"type": "Polygon", "coordinates": [[[108.75, 66.0], [108.75, 67.5], [110.25, 67.5], [110.25, 66.0], [108.75, 66.0]]]}, "properties": {"cell_id": "73_104", "lon": 109.5, "lat": 66.75}}, {"type": "Feature", "geometry": {"type": "Polygon", "coordinates": [[[108.75, 67.5], [108.75, 69.0], [110.25, 69.0], [110.25, 67.5], [108.75, 67.5]]]}, "properties": {"cell_id": "73_105", "lon": 109.5, "lat": 68.25}}, {"type": "Feature", "geometry": {"type": "Polygon", "coordinates": [[[108.75, 69.0], [108.75, 70.5], [110.25, 70.5], [110.25, 69.0], [108.75, 69.0]]]}, "properties": {"cell_id": "73_106", "lon": 109.5, "lat": 69.75}}]}