{"type": "FeatureCollection", "features": [{"type": "Feature", "geometry": {"type": "Polygon", "coordinates": [[[110.25, -79.5], [110.25, -78.0], [111.75, -78.0], [111.75, -79.5], [110.25, -79.5]]]}, "properties": {"cell_id": "74_7", "lon": 111.0, "lat": -78.75}}, {"type": "Feature", "geometry": {"type": "Polygon", "coordinates": [[[110.25, -78.0], [110.25, -76.5], [111.75, -76.5], [111.75, -78.0], [110.25, -78.0]]]}, "properties": {"cell_id": "74_8", "lon": 111.0, "lat": -77.25}}, {"type": "Feature", "geometry": {"type": "Polygon", "coordinates": [[[110.25, -76.5], [110.25, -75.0], [111.75, -75.0], [111.75, -76.5], [110.25, -76.5]]]}, "properties": {"cell_id": "74_9", "lon": 111.0, "lat": -75.75}}, {"type": "Feature", "geometry": {"type": "Polygon", "coordinates": [[[110.25, -75.0], [110.25, -73.5], [111.75, -73.5], [111.75, -75.0], [110.25, -75.0]]]}, "properties": {"cell_id": "74_10", "lon": 111.0, "lat": -74.25}}, {"type": "Feature", "geometry": {"type": "Polygon", "coordinates": [[[110.25, -73.5], [110.25, -72.0], [111.75, -72.0], [111.75, -73.5], [110.25, -73.5]]]}, "properties": {"cell_id": "74_11", "lon": 111.0, "lat": -72.75}}, {"type": "Feature", "geometry": {"type": "Polygon", "coordinates": [[[110.25, -72.0], [110.25, -70.5], [111.75, -70.5], [111.75, -72.0], [110.25, -72.0]]]}, "properties": {"cell_id": "74_12", "lon": 111.0, "lat": -71.25}}, {"type": "Feature", "geometry": {"type": "Polygon", "coordinates": [[[110.25, -70.5], [110.25, -69.0], [111.75, -69.0], [111.75, -70.5], [110.25, -70.5]]]}, "properties": {"cell_id": "74_13", "lon": 111.0, "lat": -69.75}}, {"type": "Feature", "geometry": {"type": "Polygon", "coordinates": [[[111.75, -79.5], [111.75, -78.0], [113.25, -78.0], [113.25, -79.5], [111.75, -79.5]]]}, "properties": {"cell_id": "75_7", "lon": 112.5, "lat": -78.75}}, {"type": "Feature", "geometry": {"type": "Polygon", "coordinates": [[[111.75, -78.0], [111.75, -76.5], [113.25, -76.5], [113.25, -78.0], [111.75, -78.0]]]}, "properties": {"cell_id": "75_8", "lon": 112.5, "lat": -77.25}}, {"type": "Feature", "geometry": {"type": "Polygon", "coordinates": [[[111.75, -76.5], [111.75, -75.0], [113.25, -75.0], [113.25, -76.5], [111.75, -76.5]]]}, "properties": {"cell_id": "75_9", "lon": 112.5, "lat": -75.75}}, {"type": "Feature", "geometry": {"type": "Polygon", "coordinates": [[[111.75, -75.0], [111.75, -73.5], [113.25, -73.5], [113.25, -75.0], [111.75, -75.0]]]}, "properties": {"cell_id": "75_10", "lon": 112.5, "lat": -74.25}}, {"type": "Feature", "geometry": {"type": "Polygon", "coordinates": [[[111.75, -73.5], [111.75, -72.0], [113.25, -72.0], [113.25, -73.5], [111.75, -73.5]]]}, "properties": {"cell_id": "75_11", "lon": 112.5, "lat": -72.75}}, {"type": "Feature", "geometry": {"type": "Polygon", "coordinates": [[[111.75, -72.0], [111.75, -70.5], [113.25, -70.5], [113.25, -72.0], [111.75, -72.0]]]}, "properties": {"cell_id": "75_12", "lon": 112.5, "lat": -71.25}}, {"type": "Feature", "geometry": {"type": "Polygon", "coordinates": [[[111.75, -70.5], [111.75, -69.0], [113.25, -69.0], [113.25, -70.5], [111.75, -70.5]]]}, "properties": {"cell_id": "75_13", "lon": 112.5, "lat": -69.75}}, {"type": "Feature", "geometry": {"type": "Polygon", "coordinates": [[[113.25, -79.5], [113.25, -78.0], [114.75, -78.0], [114.75, -79.5], [113.25, -79.5]]]}, "properties": {"cell_id": "76_7", "lon": 114.0, "lat": -78.75}}, {"type": "Feature", "geometry": {"type": "Polygon", "coordinates": [[[113.25, -78.0], [113.25, -76.5], [114.75, -76.5], [114.75, -78.0], [113.25, -78.0]]]}, "properties": {"cell_id": "76_8", "lon": 114.0, "lat": -77.25}}, {"type": "Feature", "geometry": {"type": "Polygon", "coordinates": [[[113.25, -76.5], [113.25, -75.0], [114.75, -75.0], [114.75, -76.5], [113.25, -76.5]]]}, "properties": {"cell_id": "76_9", "lon": 114.0, "lat": -75.75}}, {"type": "Feature", "geometry": {"type": "Polygon", "coordinates": [[[113.25, -75.0], [113.25, -73.5], [114.75, -73.5], [114.75, -75.0], [113.25, -75.0]]]}, "properties": {"cell_id": "76_10", "lon": 114.0, "lat": -74.25}}, {"type": "Feature", "geometry": {"type": "Polygon", "coordinates": [[[113.25, -73.5], [113.25, -72.0], [114.75, -72.0], [114.75, -73.5], [113.25, -73.5]]]}, "properties": {"cell_id": "76_11", "lon": 114.0, "lat": -72.75}}, {"type": "Feature", "geometry": {"type": "Polygon", "coordinates": [[[113.25, -72.0], [113.25, -70.5], [114.75, -70.5], [114.75, -72.0], [113.25, -72.0]]]}, "properties": {"cell_id": "76_12", "lon": 114.0, "lat": -71.25}}, {"type": "Feature", "geometry": {"type": "Polygon", "coordinates": [[[113.25, -70.5], [113.25, -69.0], [114.75, -69.0], [114.75, -70.5], [113.25, -70.5]]]}, "properties": {"cell_id": "76_13", "lon": 114.0, "lat": -69.75}}, {"type": "Feature", "geometry": {"type": "Polygon", "coordinates": [[[114.75, -79.5], [114.75, -78.0], [116.25, -78.0], [116.25, -79.5], [114.75, -79.5]]]}, "properties": {"cell_id": "77_7", "lon": 115.5, "lat": -78.75}}, {"type": "Feature", "geometry": {"type": "Polygon", "coordinates": [[[114.75, -78.0], [114.75, -76.5], [116.25, -76.5], [116.25, -78.0], [114.75, -78.0]]]}, "properties": {"cell_id": "77_8", "lon": 115.5, "lat": -77.25}}, {"type": "Feature", "geometry": {"type": "Polygon", "coordinates": [[[114.75, -76.5], [114.75, -75.0], [116.25, -75.0], [116.25, -76.5], [114.75, -76.5]]]}, "properties": {"cell_id": "77_9", "lon": 115.5, "lat": -75.75}}, {"type": "Feature", "geometry": {"type": "Polygon", "coordinates": [[[114.75, -75.0], [114.75, -73.5], [116.25, -73.5], [116.25, -75.0], [114.75, -75.0]]]}, "properties": {"cell_id": "77_10", "lon": 115.5, "lat": -74.25}}, {"type": "Feature", "geometry": {"type": "Polygon", "coordinates": [[[114.75, -73.5], [114.75, -72.0], [116.25, -72.0], [116.25, -73.5], [114.75, -73.5]]]}, "properties": {"cell_id": "77_11", "lon": 115.5, "lat": -72.75}}, {"type": "Feature", "geometry": {"type": "Polygon", "coordinates": [[[114.75, -72.0], [114.75, -70.5], [116.25, -70.5], [116.25, -72.0], [114.75, -72.0]]]}, "properties": {"cell_id": "77_12", "lon": 115.5, "lat": -71.25}}, {"type": "Feature", "geometry": {"type": "Polygon", "coordinates": [[[114.75, -70.5], [114.75, -69.0], [116.25, -69.0], [116.25, -70.5], [114.75, -70.5]]]}, "properties": {"cell_id": "77_13", "lon": 115.5, "lat": -69.75}}, {"type": "Feature", "geometry": {"type": "Polygon", "coordinates": [[[116.25, -79.5], [116.25, -78.0], [117.75, -78.0], [117.75, -79.5], [116.25, -79.5]]]}, "properties": {"cell_id": "78_7", "lon": 117.0, "lat": -78.75}}, {"type": "Feature", "geometry": {"type": "Polygon", "coordinates": [[[116.25, -78.0], [116.25, -76.5], [117.75, -76.5], [117.75, -78.0], [116.25, -78.0]]]}, "properties": {"cell_id": "78_8", "lon": 117.0, "lat": -77.25}}, {"type": "Feature", "geometry": {"type": "Polygon", "coordinates": [[[116.25, -76.5], [116.25, -75.0], [117.75, -75.0], [117.75, -76.5], [116.25, -76.5]]]}, "properties": {"cell_id": "78_9", "lon": 117.0, "lat": -75.75}}, {"type": "Feature", "geometry": {"type": "Polygon", "coordinates": [[[116.25, -75.0], [116.25, -73.5], [117.75, -73.5], [117.75, -75.0], [116.25, -75.0]]]}, "properties": {"cell_id": "78_10", "lon": 117.0, "lat": -74.25}}, {"type": "Feature", "geometry": {"type": "Polygon", "coordinates": [[[116.25, -73.5], [116.25, -72.0], [117.75, -72.0], [117.75, -73.5], [116.25, -73.5]]]}, "properties": {"cell_id": "78_11", "lon": 117.0, "lat": -72.75}}, {"type": "Feature", "geometry": {"type": "Polygon", "coordinates": [[[116.25, -72.0], [116.25, -70.5], [117.75, -70.5], [117.75, -72.0], [116.25, -72.0]]]}, "properties": {"cell_id": "78_12", "lon": 117.0, "lat": -71.25}}, {"type": "Feature", "geometry": {"type": "Polygon", "coordinates": [[[116.25, -70.5], [116.25, -69.0], [117.75, -69.0], [117.75, -70.5], [116.25, -70.5]]]}, "properties": {"cell_id": "78_13", "lon": 117.0, "lat": -69.75}}, {"type": "Feature", "geometry": {"type": "Polygon", "coordinates": [[[117.75, -79.5], [117.75, -78.0], [119.25, -78.0], [119.25, -79.5], [117.75, -79.5]]]}, "properties": {"cell_id": "79_7", "lon": 118.5, "lat": -78.75}}, {"type": "Feature", "geometry": {"type": "Polygon", "coordinates": [[[117.75, -78.0], [117.75, -76.5], [119.25, -76.5], [119.25, -78.0], [117.75, -78.0]]]}, "properties": {"cell_id": "79_8", "lon": 118.5, "lat": -77.25}}, {"type": "Feature", "geometry": {"type": "Polygon", "coordinates": [[[117.75, -76.5], [117.75, -75.0], [119.25, -75.0], [119.25, -76.5], [117.75, -76.5]]]}, "properties": {"cell_id": "79_9", "lon": 118.5, "lat": -75.75}}, {"type": "Feature", "geometry": {"type": "Polygon", "coordinates": [[[117.75, -75.0], [117.75, -73.5], [119.25, -73.5], [119.25, -75.0], [117.75, -75.0]]]}, "properties": {"cell_id": "79_10", "lon": 118.5, "lat": -74.25}}, {"type": "Feature", "geometry": {"type": "Polygon", "coordinates": [[[117.75, -73.5], [117.75, -72.0], [119.25, -72.0], [119.25, -73.5], [117.75, -73.5]]]}, "properties": {"cell_id": "79_11", "lon": 118.5, "lat": -72.75}}, {"type": "Feature", "geometry": {"type": "Polygon", "coordinates": [[[117.75, -72.0], [117.75, -70.5], [119.25, -70.5], [119.25, -72.0], [117.75, -72.0]]]}, "properties": {"cell_id": "79_12", "lon": 118.5, "lat": -71.25}}, {"type": "Feature", "geometry": {"type": "Polygon", "coordinates": [[[117.75, -70.5], [117.75, -69.0], [119.25, -69.0], [119.25, -70.5], [117.75, -70.5]]]}, "properties": {"cell_id": "79_13", "lon": 118.5, "lat": -69.75}}, {"type": "Feature", "geometry": {"type": "Polygon", "coordinates": [[[119.25, -79.5], [119.25, -78.0], [120.75, -78.0], [120.75, -79.5], [119.25, -79.5]]]}, "properties": {"cell_id": "80_7", "lon": 120.0, "lat": -78.75}}, {"type": "Feature", "geometry": {"type": "Polygon", "coordinates": [[[119.25, -78.0], [119.25, -76.5], [120.75, -76.5], [120.75, -78.0], [119.25, -78.0]]]}, "properties": {"cell_id": "80_8", "lon": 120.0, "lat": -77.25}}, {"type": "Feature", "geometry": {"type": "Polygon", "coordinates": [[[119.25, -76.5], [119.25, -75.0], [120.75, -75.0], [120.75, -76.5], [119.25, -76.5]]]}, "properties": {"cell_id": "80_9", "lon": 120.0, "lat": -75.75}}, {"type": "Feature", "geometry": {"type": "Polygon", "coordinates": [[[119.25, -75.0], [119.25, -73.5], [120.75, -73.5], [120.75, -75.0], [119.25, -75.0]]]}, "properties": {"cell_id": "80_10", "lon": 120.0, "lat": -74.25}}, {"type": "Feature", "geometry": {"type": "Polygon", "coordinates": [[[119.25, -73.5], [119.25, -72.0], [120.75, -72.0], [120.75, -73.5], [119.25, -73.5]]]}, "properties": {"cell_id": "80_11", "lon": 120.0, "lat": -72.75}}, {"type": "Feature", "geometry": {"type": "Polygon", "coordinates": [[[119.25, -72.0], [119.25, -70.5], [120.75, -70.5], [120.75, -72.0], [119.25, -72.0]]]}, "properties": {"cell_id": "80_12", "lon": 120.0, "lat": -71.25}}, {"type": "Feature", "geometry": {"type": "Polygon", "coordinates": [[[119.25, -70.5], [119.25, -69.0], [120.75, -69.0], [120.75, -70.5], [119.25, -70.5]]]}, "properties": {"cell_id": "80_13", "lon": 120.0, "lat": -69.75}}]}