{"type": "FeatureCollection", "features": [{"type": "Feature", "geometry": {"type": "Polygon", "coordinates": [[[20.0, 65.0], [20.0, 67.5], [22.5, 67.5], [22.5, 65.0], [20.0, 65.0]]]}, "properties": {"cell_id": "8_62", "lon": 21.25, "lat": 66.25}}, {"type": "Feature", "geometry": {"type": "Polygon", "coordinates": [[[20.0, 67.5], [20.0, 70.0], [22.5, 70.0], [22.5, 67.5], [20.0, 67.5]]]}, "properties": {"cell_id": "8_63", "lon": 21.25, "lat": 68.75}}, {"type": "Feature", "geometry": {"type": "Polygon", "coordinates": [[[22.5, 60.0], [22.5, 62.5], [25.0, 62.5], [25.0, 60.0], [22.5, 60.0]]]}, "properties": {"cell_id": "9_60", "lon": 23.75, "lat": 61.25}}, {"type": "Feature", "geometry": {"type": "Polygon", "coordinates": [[[22.5, 62.5], [22.5, 65.0], [25.0, 65.0], [25.0, 62.5], [22.5, 62.5]]]}, "properties": {"cell_id": "9_61", "lon": 23.75, "lat": 63.75}}, {"type": "Feature", "geometry": {"type": "Polygon", "coordinates": [[[22.5, 65.0], [22.5, 67.5], [25.0, 67.5], [25.0, 65.0], [22.5, 65.0]]]}, "properties": {"cell_id": "9_62", "lon": 23.75, "lat": 66.25}}, {"type": "Feature", "geometry": {"type": "Polygon", "coordinates": [[[22.5, 67.5], [22.5, 70.0], [25.0, 70.0], [25.0, 67.5], [22.5, 67.5]]]}, "properties": {"cell_id": "9_63", "lon": 23.75, "lat": 68.75}}, {"type": "Feature", "geometry": {"type": "Polygon", "coordinates": [[[25.0, 60.0], [25.0, 62.5], [27.5, 62.5], [27.5, 60.0], [25.0, 60.0]]]}, "properties": {"cell_id": "10_60", "lon": 26.25, "lat": 61.25}}, {"type": "Feature", "geometry": {"type": "Polygon", "coordinates": [[[25.0, 62.5], [25.0, 65.0], [27.5, 65.0], [27.5, 62.5], [25.0, 62.5]]]}, "properties": {"cell_id": "10_61", "lon": 26.25, "lat": 63.75}}, {"type": "Feature", "geometry": {"type": "Polygon", "coordinates": [[[25.0, 65.0], [25.0, 67.5], [27.5, 67.5], [27.5, 65.0], [25.0, 65.0]]]}, "properties": {"cell_id": "10_62", "lon": 26.25, "lat": 66.25}}, {"type": "Feature", "geometry": {"type": "Polygon", "coordinates": [[[25.0, 67.5], [25.0, 70.0], [27.5, 70.0], [27.5, 67.5], [25.0, 67.5]]]}, "properties": {"cell_id": "10_63", "lon": 26.25, "lat": 68.75}}, {"type": "Feature", "geometry": {"type": "Polygon", "coordinates": [[[27.5, 60.0], [27.5, 62.5], [30.0, 62.5], [30.0, 60.0], [27.5, 60.0]]]}, "properties": {"cell_id": "11_60", "lon": 28.75, "lat": 61.25}}, {"type": "Feature", "geometry": {"type": "Polygon", "coordinates": [[[27.5, 62.5], [27.5, 65.0], [30.0, 65.0], [30.0, 62.5], [27.5, 62.5]]]}, "properties": {"cell_id": "11_61", "lon": 28.75, "lat": 63.75}}, {"type": "Feature", "geometry": {"type": "Polygon", "coordinates": [[[27.5, 65.0], [27.5, 67.5], [30.0, 67.5], [30.0, 65.0], [27.5, 65.0]]]}, "properties": {"cell_id": "11_62", "lon": 28.75, "lat": 66.25}}, {"type": "Feature", "geometry": {"type": "Polygon", "coordinates": [[[27.5, 67.5], [27.5, 70.0], [30.0, 70.0], [30.0, 67.5], [27.5, 67.5]]]}, "properties": {"cell_id": "11_63", "lon": 28.75, "lat": 68.75}}]}