{"type": "FeatureCollection", "features": [{"type": "Feature", "geometry": {"type": "Polygon", "coordinates": [[[-89.25, 30.0], [-89.25, 31.5], [-87.75, 31.5], [-87.75, 30.0], [-89.25, 30.0]]]}, "properties": {"cell_id": "181_80", "lon": -88.5, "lat": 30.75}}, {"type": "Feature", "geometry": {"type": "Polygon", "coordinates": [[[-89.25, 31.5], [-89.25, 33.0], [-87.75, 33.0], [-87.75, 31.5], [-89.25, 31.5]]]}, "properties": {"cell_id": "181_81", "lon": -88.5, "lat": 32.25}}, {"type": "Feature", "geometry": {"type": "Polygon", "coordinates": [[[-89.25, 33.0], [-89.25, 34.5], [-87.75, 34.5], [-87.75, 33.0], [-89.25, 33.0]]]}, "properties": {"cell_id": "181_82", "lon": -88.5, "lat": 33.75}}, {"type": "Feature", "geometry": {"type": "Polygon", "coordinates": [[[-89.25, 34.5], [-89.25, 36.0], [-87.75, 36.0], [-87.75, 34.5], [-89.25, 34.5]]]}, "properties": {"cell_id": "181_83", "lon": -88.5, "lat": 35.25}}, {"type": "Feature", "geometry": {"type": "Polygon", "coordinates": [[[-89.25, 36.0], [-89.25, 37.5], [-87.75, 37.5], [-87.75, 36.0], [-89.25, 36.0]]]}, "properties": {"cell_id": "181_84", "lon": -88.5, "lat": 36.75}}, {"type": "Feature", "geometry": {"type": "Polygon", "coordinates": [[[-89.25, 37.5], [-89.25, 39.0], [-87.75, 39.0], [-87.75, 37.5], [-89.25, 37.5]]]}, "properties": {"cell_id": "181_85", "lon": -88.5, "lat": 38.25}}, {"type": "Feature", "geometry": {"type": "Polygon", "coordinates": [[[-89.25, 39.0], [-89.25, 40.5], [-87.75, 40.5], [-87.75, 39.0], [-89.25, 39.0]]]}, "properties": {"cell_id": "181_86", "lon": -88.5, "lat": 39.75}}, {"type": "Feature", "geometry": {"type": "Polygon", "coordinates": [[[-87.75, 30.0], [-87.75, 31.5], [-86.25, 31.5], [-86.25, 30.0], [-87.75, 30.0]]]}, "properties": {"cell_id": "182_80", "lon": -87.0, "lat": 30.75}}, {"type": "Feature", "geometry": {"type": "Polygon", "coordinates": [[[-87.75, 31.5], [-87.75, 33.0], [-86.25, 33.0], [-86.25, 31.5], [-87.75, 31.5]]]}, "properties": {"cell_id": "182_81", "lon": -87.0, "lat": 32.25}}, {"type": "Feature", "geometry": {"type": "Polygon", "coordinates": [[[-87.75, 33.0], [-87.75, 34.5], [-86.25, 34.5], [-86.25, 33.0], [-87.75, 33.0]]]}, "properties": {"cell_id": "182_82", "lon": -87.0, "lat": 33.75}}, {"type": "Feature", "geometry": {"type": "Polygon", "coordinates": [[[-87.75, 34.5], [-87.75, 36.0], [-86.25, 36.0], [-86.25, 34.5], [-87.75, 34.5]]]}, "properties": {"cell_id": "182_83", "lon": -87.0, "lat": 35.25}}, {"type": "Feature", "geometry": {"type": "Polygon", "coordinates": [[[-87.75, 36.0], [-87.75, 37.5], [-86.25, 37.5], [-86.25, 36.0], [-87.75, 36.0]]]}, "properties": {"cell_id": "182_84", "lon": -87.0, "lat": 36.75}}, {"type": "Feature", "geometry": {"type": "Polygon", "coordinates": [[[-87.75, 37.5], [-87.75, 39.0], [-86.25, 39.0], [-86.25, 37.5], [-87.75, 37.5]]]}, "properties": {"cell_id": "182_85", "lon": -87.0, "lat": 38.25}}, {"type": "Feature", "geometry": {"type": "Polygon", "coordinates": [[[-87.75, 39.0], [-87.75, 40.5], [-86.25, 40.5], [-86.25, 39.0], [-87.75, 39.0]]]}, "properties": {"cell_id": "182_86", "lon": -87.0, "lat": 39.75}}, {"type": "Feature", "geometry": {"type": "Polygon", "coordinates": [[[-86.25, 30.0], [-86.25, 31.5], [-84.75, 31.5], [-84.75, 30.0], [-86.25, 30.0]]]}, "properties": {"cell_id": "183_80", "lon": -85.5, "lat": 30.75}}, {"type": "Feature", "geometry": {"type": "Polygon", "coordinates": [[[-86.25, 31.5], [-86.25, 33.0], [-84.75, 33.0], [-84.75, 31.5], [-86.25, 31.5]]]}, "properties": {"cell_id": "183_81", "lon": -85.5, "lat": 32.25}}, {"type": "Feature", "geometry": {"type": "Polygon", "coordinates": [[[-86.25, 33.0], [-86.25, 34.5], [-84.75, 34.5], [-84.75, 33.0], [-86.25, 33.0]]]}, "properties": {"cell_id": "183_82", "lon": -85.5, "lat": 33.75}}, {"type": "Feature", "geometry": {"type": "Polygon", "coordinates": [[[-86.25, 34.5], [-86.25, 36.0], [-84.75, 36.0], [-84.75, 34.5], [-86.25, 34.5]]]}, "properties": {"cell_id": "183_83", "lon": -85.5, "lat": 35.25}}, {"type": "Feature", "geometry": {"type": "Polygon", "coordinates": [[[-86.25, 36.0], [-86.25, 37.5], [-84.75, 37.5], [-84.75, 36.0], [-86.25, 36.0]]]}, "properties": {"cell_id": "183_84", "lon": -85.5, "lat": 36.75}}, {"type": "Feature", "geometry": {"type": "Polygon", "coordinates": [[[-86.25, 37.5], [-86.25, 39.0], [-84.75, 39.0], [-84.75, 37.5], [-86.25, 37.5]]]}, "properties": {"cell_id": "183_85", "lon": -85.5, "lat": 38.25}}, {"type": "Feature", "geometry": {"type": "Polygon", "coordinates": [[[-86.25, 39.0], [-86.25, 40.5], [-84.75, 40.5], [-84.75, 39.0], [-86.25, 39.0]]]}, "properties": {"cell_id": "183_86", "lon": -85.5, "lat": 39.75}}, {"type": "Feature", "geometry": {"type": "Polygon", "coordinates": [[[-84.75, 30.0], [-84.75, 31.5], [-83.25, 31.5], [-83.25, 30.0], [-84.75, 30.0]]]}, "properties": {"cell_id": "184_80", "lon": -84.0, "lat": 30.75}}, {"type": "Feature", "geometry": {"type": "Polygon", "coordinates": [[[-84.75, 31.5], [-84.75, 33.0], [-83.25, 33.0], [-83.25, 31.5], [-84.75, 31.5]]]}, "properties": {"cell_id": "184_81", "lon": -84.0, "lat": 32.25}}, {"type": "Feature", "geometry": {"type": "Polygon", "coordinates": [[[-84.75, 33.0], [-84.75, 34.5], [-83.25, 34.5], [-83.25, 33.0], [-84.75, 33.0]]]}, "properties": {"cell_id": "184_82", "lon": -84.0, "lat": 33.75}}, {"type": "Feature", "geometry": {"type": "Polygon", "coordinates": [[[-84.75, 34.5], [-84.75, 36.0], [-83.25, 36.0], [-83.25, 34.5], [-84.75, 34.5]]]}, "properties": {"cell_id": "184_83", "lon": -84.0, "lat": 35.25}}, {"type": "Feature", "geometry": {"type": "Polygon", "coordinates": [[[-84.75, 36.0], [-84.75, 37.5], [-83.25, 37.5], [-83.25, 36.0], [-84.75, 36.0]]]}, "properties": {"cell_id": "184_84", "lon": -84.0, "lat": 36.75}}, {"type": "Feature", "geometry": {"type": "Polygon", "coordinates": [[[-84.75, 37.5], [-84.75, 39.0], [-83.25, 39.0], [-83.25, 37.5], [-84.75, 37.5]]]}, "properties": {"cell_id": "184_85", "lon": -84.0, "lat": 38.25}}, {"type": "Feature", "geometry": {"type": "Polygon", "coordinates": [[[-84.75, 39.0], [-84.75, 40.5], [-83.25, 40.5], [-83.25, 39.0], [-84.75, 39.0]]]}, "properties": {"cell_id": "184_86", "lon": -84.0, "lat": 39.75}}, {"type": "Feature", "geometry": {"type": "Polygon", "coordinates": [[[-83.25, 30.0], [-83.25, 31.5], [-81.75, 31.5], [-81.75, 30.0], [-83.25, 30.0]]]}, "properties": {"cell_id": "185_80", "lon": -82.5, "lat": 30.75}}, {"type": "Feature", "geometry": {"type": "Polygon", "coordinates": [[[-83.25, 31.5], [-83.25, 33.0], [-81.75, 33.0], [-81.75, 31.5], [-83.25, 31.5]]]}, "properties": {"cell_id": "185_81", "lon": -82.5, "lat": 32.25}}, {"type": "Feature", "geometry": {"type": "Polygon", "coordinates": [[[-83.25, 33.0], [-83.25, 34.5], [-81.75, 34.5], [-81.75, 33.0], [-83.25, 33.0]]]}, "properties": {"cell_id": "185_82", "lon": -82.5, "lat": 33.75}}, {"type": "Feature", "geometry": {"type": "Polygon", "coordinates": [[[-83.25, 34.5], [-83.25, 36.0], [-81.75, 36.0], [-81.75, 34.5], [-83.25, 34.5]]]}, "properties": {"cell_id": "185_83", "lon": -82.5, "lat": 35.25}}, {"type": "Feature", "geometry": {"type": "Polygon", "coordinates": [[[-83.25, 36.0], [-83.25, 37.5], [-81.75, 37.5], [-81.75, 36.0], [-83.25, 36.0]]]}, "properties": {"cell_id": "185_84", "lon": -82.5, "lat": 36.75}}, {"type": "Feature", "geometry": {"type": "Polygon", "coordinates": [[[-83.25, 37.5], [-83.25, 39.0], [-81.75, 39.0], [-81.75, 37.5], [-83.25, 37.5]]]}, "properties": {"cell_id": "185_85", "lon": -82.5, "lat": 38.25}}, {"type": "Feature", "geometry": {"type": "Polygon", "coordinates": [[[-83.25, 39.0], [-83.25, 40.5], [-81.75, 40.5], [-81.75, 39.0], [-83.25, 39.0]]]}, "properties": {"cell_id": "185_86", "lon": -82.5, "lat": 39.75}}, {"type": "Feature", "geometry": {"type": "Polygon", "coordinates": [[[-81.75, 30.0], [-81.75, 31.5], [-80.25, 31.5], [-80.25, 30.0], [-81.75, 30.0]]]}, "properties": {"cell_id": "186_80", "lon": -81.0, "lat": 30.75}}, {"type": "Feature", "geometry": {"type": "Polygon", "coordinates": [[[-81.75, 31.5], [-81.75, 33.0], [-80.25, 33.0], [-80.25, 31.5], [-81.75, 31.5]]]}, "properties": {"cell_id": "186_81", "lon": -81.0, "lat": 32.25}}, {"type": "Feature", "geometry": {"type": "Polygon", "coordinates": [[[-81.75, 33.0], [-81.75, 34.5], [-80.25, 34.5], [-80.25, 33.0], [-81.75, 33.0]]]}, "properties": {"cell_id": "186_82", "lon": -81.0, "lat": 33.75}}, {"type": "Feature", "geometry": {"type": "Polygon", "coordinates": [[[-81.75, 34.5], [-81.75, 36.0], [-80.25, 36.0], [-80.25, 34.5], [-81.75, 34.5]]]}, "properties": {"cell_id": "186_83", "lon": -81.0, "lat": 35.25}}, {"type": "Feature", "geometry": {"type": "Polygon", "coordinates": [[[-81.75, 36.0], [-81.75, 37.5], [-80.25, 37.5], [-80.25, 36.0], [-81.75, 36.0]]]}, "properties": {"cell_id": "186_84", "lon": -81.0, "lat": 36.75}}, {"type": "Feature", "geometry": {"type": "Polygon", "coordinates": [[[-81.75, 37.5], [-81.75, 39.0], [-80.25, 39.0], [-80.25, 37.5], [-81.75, 37.5]]]}, "properties": {"cell_id": "186_85", "lon": -81.0, "lat": 38.25}}, {"type": "Feature", "geometry": {"type": "Polygon", "coordinates": [[[-81.75, 39.0], [-81.75, 40.5], [-80.25, 40.5], [-80.25, 39.0], [-81.75, 39.0]]]}, "properties": {"cell_id": "186_86", "lon": -81.0, "lat": 39.75}}, {"type": "Feature", "geometry": {"type": "Polygon", "coordinates": [[[-80.25, 31.5], [-80.25, 33.0], [-78.75, 33.0], [-78.75, 31.5], [-80.25, 31.5]]]}, "properties": {"cell_id": "187_81", "lon": -79.5, "lat": 32.25}}, {"type": "Feature", "geometry": {"type": "Polygon", "coordinates": [[[-80.25, 33.0], [-80.25, 34.5], [-78.75, 34.5], [-78.75, 33.0], [-80.25, 33.0]]]}, "properties": {"cell_id": "187_82", "lon": -79.5, "lat": 33.75}}, {"type": "Feature", "geometry": {"type": "Polygon", "coordinates": [[[-80.25, 34.5], [-80.25, 36.0], [-78.75, 36.0], [-78.75, 34.5], [-80.25, 34.5]]]}, "properties": {"cell_id": "187_83", "lon": -79.5, "lat": 35.25}}, {"type": "Feature", "geometry": {"type": "Polygon", "coordinates": [[[-80.25, 36.0], [-80.25, 37.5], [-78.75, 37.5], [-78.75, 36.0], [-80.25, 36.0]]]}, "properties": {"cell_id": "187_84", "lon": -79.5, "lat": 36.75}}, {"type": "Feature", "geometry": {"type": "Polygon", "coordinates": [[[-80.25, 37.5], [-80.25, 39.0], [-78.75, 39.0], [-78.75, 37.5], [-80.25, 37.5]]]}, "properties": {"cell_id": "187_85", "lon": -79.5, "lat": 38.25}}, {"type": "Feature", "geometry": {"type": "Polygon", "coordinates": [[[-80.25, 39.0], [-80.25, 40.5], [-78.75, 40.5], [-78.75, 39.0], [-80.25, 39.0]]]}, "properties": {"cell_id": "187_86", "lon": -79.5, "lat": 39.75}}]}