{"type": "FeatureCollection", "features": [{"type": "Feature", "geometry": {"type": "Polygon", "coordinates": [[[120.75, -69.0], [120.75, -67.5], [122.25, -67.5], [122.25, -69.0], [120.75, -69.0]]]}, "properties": {"cell_id": "81_14", "lon": 121.5, "lat": -68.25}}, {"type": "Feature", "geometry": {"type": "Polygon", "coordinates": [[[120.75, -67.5], [120.75, -66.0], [122.25, -66.0], [122.25, -67.5], [120.75, -67.5]]]}, "properties": {"cell_id": "81_15", "lon": 121.5, "lat": -66.75}}, {"type": "Feature", "geometry": {"type": "Polygon", "coordinates": [[[122.25, -69.0], [122.25, -67.5], [123.75, -67.5], [123.75, -69.0], [122.25, -69.0]]]}, "properties": {"cell_id": "82_14", "lon": 123.0, "lat": -68.25}}, {"type": "Feature", "geometry": {"type": "Polygon", "coordinates": [[[122.25, -67.5], [122.25, -66.0], [123.75, -66.0], [123.75, -67.5], [122.25, -67.5]]]}, "properties": {"cell_id": "82_15", "lon": 123.0, "lat": -66.75}}, {"type": "Feature", "geometry": {"type": "Polygon", "coordinates": [[[123.75, -69.0], [123.75, -67.5], [125.25, -67.5], [125.25, -69.0], [123.75, -69.0]]]}, "properties": {"cell_id": "83_14", "lon": 124.5, "lat": -68.25}}, {"type": "Feature", "geometry": {"type": "Polygon", "coordinates": [[[123.75, -67.5], [123.75, -66.0], [125.25, -66.0], [125.25, -67.5], [123.75, -67.5]]]}, "properties": {"cell_id": "83_15", "lon": 124.5, "lat": -66.75}}, {"type": "Feature", "geometry": {"type": "Polygon", "coordinates": [[[125.25, -69.0], [125.25, -67.5], [126.75, -67.5], [126.75, -69.0], [125.25, -69.0]]]}, "properties": {"cell_id": "84_14", "lon": 126.0, "lat": -68.25}}, {"type": "Feature", "geometry": {"type": "Polygon", "coordinates": [[[125.25, -67.5], [125.25, -66.0], [126.75, -66.0], [126.75, -67.5], [125.25, -67.5]]]}, "properties": {"cell_id": "84_15", "lon": 126.0, "lat": -66.75}}, {"type": "Feature", "geometry": {"type": "Polygon", "coordinates": [[[126.75, -69.0], [126.75, -67.5], [128.25, -67.5], [128.25, -69.0], [126.75, -69.0]]]}, "properties": {"cell_id": "85_14", "lon": 127.5, "lat": -68.25}}, {"type": "Feature", "geometry": {"type": "Polygon", "coordinates": [[[126.75, -67.5], [126.75, -66.0], [128.25, -66.0], [128.25, -67.5], [126.75, -67.5]]]}, "properties": {"cell_id": "85_15", "lon": 127.5, "lat": -66.75}}, {"type": "Feature", "geometry": {"type": "Polygon", "coordinates": [[[128.25, -69.0], [128.25, -67.5], [129.75, -67.5], [129.75, -69.0], [128.25, -69.0]]]}, "properties": {"cell_id": "86_14", "lon": 129.0, "lat": -68.25}}, {"type": "Feature", "geometry": {"type": "Polygon", "coordinates": [[[128.25, -67.5], [128.25, -66.0], [129.75, -66.0], [129.75, -67.5], [128.25, -67.5]]]}, "properties": {"cell_id": "86_15", "lon": 129.0, "lat": -66.75}}, {"type": "Feature", "geometry": {"type": "Polygon", "coordinates": [[[129.75, -69.0], [129.75, -67.5], [131.25, -67.5], [131.25, -69.0], [129.75, -69.0]]]}, "properties": {"cell_id": "87_14", "lon": 130.5, "lat": -68.25}}, {"type": "Feature", "geometry": {"type": "Polygon", "coordinates": [[[129.75, -67.5], [129.75, -66.0], [131.25, -66.0], [131.25, -67.5], [129.75, -67.5]]]}, "properties": {"cell_id": "87_15", "lon": 130.5, "lat": -66.75}}]}