{"type": "FeatureCollection", "features": [{"type": "Feature", "geometry": {"type": "Polygon", "coordinates": [[[120.75, -90.0], [120.75, -88.5], [122.25, -88.5], [122.25, -90.0], [120.75, -90.0]]]}, "properties": {"cell_id": "81_0", "lon": 121.5, "lat": -89.25}}, {"type": "Feature", "geometry": {"type": "Polygon", "coordinates": [[[120.75, -88.5], [120.75, -87.0], [122.25, -87.0], [122.25, -88.5], [120.75, -88.5]]]}, "properties": {"cell_id": "81_1", "lon": 121.5, "lat": -87.75}}, {"type": "Feature", "geometry": {"type": "Polygon", "coordinates": [[[120.75, -87.0], [120.75, -85.5], [122.25, -85.5], [122.25, -87.0], [120.75, -87.0]]]}, "properties": {"cell_id": "81_2", "lon": 121.5, "lat": -86.25}}, {"type": "Feature", "geometry": {"type": "Polygon", "coordinates": [[[120.75, -85.5], [120.75, -84.0], [122.25, -84.0], [122.25, -85.5], [120.75, -85.5]]]}, "properties": {"cell_id": "81_3", "lon": 121.5, "lat": -84.75}}, {"type": "Feature", "geometry": {"type": "Polygon", "coordinates": [[[120.75, -84.0], [120.75, -82.5], [122.25, -82.5], [122.25, -84.0], [120.75, -84.0]]]}, "properties": {"cell_id": "81_4", "lon": 121.5, "lat": -83.25}}, {"type": "Feature", "geometry": {"type": "Polygon", "coordinates": [[[120.75, -82.5], [120.75, -81.0], [122.25, -81.0], [122.25, -82.5], [120.75, -82.5]]]}, "properties": {"cell_id": "81_5", "lon": 121.5, "lat": -81.75}}, {"type": "Feature", "geometry": {"type": "Polygon", "coordinates": [[[120.75, -81.0], [120.75, -79.5], [122.25, -79.5], [122.25, -81.0], [120.75, -81.0]]]}, "properties": {"cell_id": "81_6", "lon": 121.5, "lat": -80.25}}, {"type": "Feature", "geometry": {"type": "Polygon", "coordinates": [[[122.25, -90.0], [122.25, -88.5], [123.75, -88.5], [123.75, -90.0], [122.25, -90.0]]]}, "properties": {"cell_id": "82_0", "lon": 123.0, "lat": -89.25}}, {"type": "Feature", "geometry": {"type": "Polygon", "coordinates": [[[122.25, -88.5], [122.25, -87.0], [123.75, -87.0], [123.75, -88.5], [122.25, -88.5]]]}, "properties": {"cell_id": "82_1", "lon": 123.0, "lat": -87.75}}, {"type": "Feature", "geometry": {"type": "Polygon", "coordinates": [[[122.25, -87.0], [122.25, -85.5], [123.75, -85.5], [123.75, -87.0], [122.25, -87.0]]]}, "properties": {"cell_id": "82_2", "lon": 123.0, "lat": -86.25}}, {"type": "Feature", "geometry": {"type": "Polygon", "coordinates": [[[122.25, -85.5], [122.25, -84.0], [123.75, -84.0], [123.75, -85.5], [122.25, -85.5]]]}, "properties": {"cell_id": "82_3", "lon": 123.0, "lat": -84.75}}, {"type": "Feature", "geometry": {"type": "Polygon", "coordinates": [[[122.25, -84.0], [122.25, -82.5], [123.75, -82.5], [123.75, -84.0], [122.25, -84.0]]]}, "properties": {"cell_id": "82_4", "lon": 123.0, "lat": -83.25}}, {"type": "Feature", "geometry": {"type": "Polygon", "coordinates": [[[122.25, -82.5], [122.25, -81.0], [123.75, -81.0], [123.75, -82.5], [122.25, -82.5]]]}, "properties": {"cell_id": "82_5", "lon": 123.0, "lat": -81.75}}, {"type": "Feature", "geometry": {"type": "Polygon", "coordinates": [[[122.25, -81.0], [122.25, -79.5], [123.75, -79.5], [123.75, -81.0], [122.25, -81.0]]]}, "properties": {"cell_id": "82_6", "lon": 123.0, "lat": -80.25}}, {"type": "Feature", "geometry": {"type": "Polygon", "coordinates": [[[123.75, -90.0], [123.75, -88.5], [125.25, -88.5], [125.25, -90.0], [123.75, -90.0]]]}, "properties": {"cell_id": "83_0", "lon": 124.5, "lat": -89.25}}, {"type": "Feature", "geometry": {"type": "Polygon", "coordinates": [[[123.75, -88.5], [123.75, -87.0], [125.25, -87.0], [125.25, -88.5], [123.75, -88.5]]]}, "properties": {"cell_id": "83_1", "lon": 124.5, "lat": -87.75}}, {"type": "Feature", "geometry": {"type": "Polygon", "coordinates": [[[123.75, -87.0], [123.75, -85.5], [125.25, -85.5], [125.25, -87.0], [123.75, -87.0]]]}, "properties": {"cell_id": "83_2", "lon": 124.5, "lat": -86.25}}, {"type": "Feature", "geometry": {"type": "Polygon", "coordinates": [[[123.75, -85.5], [123.75, -84.0], [125.25, -84.0], [125.25, -85.5], [123.75, -85.5]]]}, "properties": {"cell_id": "83_3", "lon": 124.5, "lat": -84.75}}, {"type": "Feature", "geometry": {"type": "Polygon", "coordinates": [[[123.75, -84.0], [123.75, -82.5], [125.25, -82.5], [125.25, -84.0], [123.75, -84.0]]]}, "properties": {"cell_id": "83_4", "lon": 124.5, "lat": -83.25}}, {"type": "Feature", "geometry": {"type": "Polygon", "coordinates": [[[123.75, -82.5], [123.75, -81.0], [125.25, -81.0], [125.25, -82.5], [123.75, -82.5]]]}, "properties": {"cell_id": "83_5", "lon": 124.5, "lat": -81.75}}, {"type": "Feature", "geometry": {"type": "Polygon", "coordinates": [[[123.75, -81.0], [123.75, -79.5], [125.25, -79.5], [125.25, -81.0], [123.75, -81.0]]]}, "properties": {"cell_id": "83_6", "lon": 124.5, "lat": -80.25}}, {"type": "Feature", "geometry": {"type": "Polygon", "coordinates": [[[125.25, -90.0], [125.25, -88.5], [126.75, -88.5], [126.75, -90.0], [125.25, -90.0]]]}, "properties": {"cell_id": "84_0", "lon": 126.0, "lat": -89.25}}, {"type": "Feature", "geometry": {"type": "Polygon", "coordinates": [[[125.25, -88.5], [125.25, -87.0], [126.75, -87.0], [126.75, -88.5], [125.25, -88.5]]]}, "properties": {"cell_id": "84_1", "lon": 126.0, "lat": -87.75}}, {"type": "Feature", "geometry": {"type": "Polygon", "coordinates": [[[125.25, -87.0], [125.25, -85.5], [126.75, -85.5], [126.75, -87.0], [125.25, -87.0]]]}, "properties": {"cell_id": "84_2", "lon": 126.0, "lat": -86.25}}, {"type": "Feature", "geometry": {"type": "Polygon", "coordinates": [[[125.25, -85.5], [125.25, -84.0], [126.75, -84.0], [126.75, -85.5], [125.25, -85.5]]]}, "properties": {"cell_id": "84_3", "lon": 126.0, "lat": -84.75}}, {"type": "Feature", "geometry": {"type": "Polygon", "coordinates": [[[125.25, -84.0], [125.25, -82.5], [126.75, -82.5], [126.75, -84.0], [125.25, -84.0]]]}, "properties": {"cell_id": "84_4", "lon": 126.0, "lat": -83.25}}, {"type": "Feature", "geometry": {"type": "Polygon", "coordinates": [[[125.25, -82.5], [125.25, -81.0], [126.75, -81.0], [126.75, -82.5], [125.25, -82.5]]]}, "properties": {"cell_id": "84_5", "lon": 126.0, "lat": -81.75}}, {"type": "Feature", "geometry": {"type": "Polygon", "coordinates": [[[125.25, -81.0], [125.25, -79.5], [126.75, -79.5], [126.75, -81.0], [125.25, -81.0]]]}, "properties": {"cell_id": "84_6", "lon": 126.0, "lat": -80.25}}, {"type": "Feature", "geometry": {"type": "Polygon", "coordinates": [[[126.75, -90.0], [126.75, -88.5], [128.25, -88.5], [128.25, -90.0], [126.75, -90.0]]]}, "properties": {"cell_id": "85_0", "lon": 127.5, "lat": -89.25}}, {"type": "Feature", "geometry": {"type": "Polygon", "coordinates": [[[126.75, -88.5], [126.75, -87.0], [128.25, -87.0], [128.25, -88.5], [126.75, -88.5]]]}, "properties": {"cell_id": "85_1", "lon": 127.5, "lat": -87.75}}, {"type": "Feature", "geometry": {"type": "Polygon", "coordinates": [[[126.75, -87.0], [126.75, -85.5], [128.25, -85.5], [128.25, -87.0], [126.75, -87.0]]]}, "properties": {"cell_id": "85_2", "lon": 127.5, "lat": -86.25}}, {"type": "Feature", "geometry": {"type": "Polygon", "coordinates": [[[126.75, -85.5], [126.75, -84.0], [128.25, -84.0], [128.25, -85.5], [126.75, -85.5]]]}, "properties": {"cell_id": "85_3", "lon": 127.5, "lat": -84.75}}, {"type": "Feature", "geometry": {"type": "Polygon", "coordinates": [[[126.75, -84.0], [126.75, -82.5], [128.25, -82.5], [128.25, -84.0], [126.75, -84.0]]]}, "properties": {"cell_id": "85_4", "lon": 127.5, "lat": -83.25}}, {"type": "Feature", "geometry": {"type": "Polygon", "coordinates": [[[126.75, -82.5], [126.75, -81.0], [128.25, -81.0], [128.25, -82.5], [126.75, -82.5]]]}, "properties": {"cell_id": "85_5", "lon": 127.5, "lat": -81.75}}, {"type": "Feature", "geometry": {"type": "Polygon", "coordinates": [[[126.75, -81.0], [126.75, -79.5], [128.25, -79.5], [128.25, -81.0], [126.75, -81.0]]]}, "properties": {"cell_id": "85_6", "lon": 127.5, "lat": -80.25}}, {"type": "Feature", "geometry": {"type": "Polygon", "coordinates": [[[128.25, -90.0], [128.25, -88.5], [129.75, -88.5], [129.75, -90.0], [128.25, -90.0]]]}, "properties": {"cell_id": "86_0", "lon": 129.0, "lat": -89.25}}, {"type": "Feature", "geometry": {"type": "Polygon", "coordinates": [[[128.25, -88.5], [128.25, -87.0], [129.75, -87.0], [129.75, -88.5], [128.25, -88.5]]]}, "properties": {"cell_id": "86_1", "lon": 129.0, "lat": -87.75}}, {"type": "Feature", "geometry": {"type": "Polygon", "coordinates": [[[128.25, -87.0], [128.25, -85.5], [129.75, -85.5], [129.75, -87.0], [128.25, -87.0]]]}, "properties": {"cell_id": "86_2", "lon": 129.0, "lat": -86.25}}, {"type": "Feature", "geometry": {"type": "Polygon", "coordinates": [[[128.25, -85.5], [128.25, -84.0], [129.75, -84.0], [129.75, -85.5], [128.25, -85.5]]]}, "properties": {"cell_id": "86_3", "lon": 129.0, "lat": -84.75}}, {"type": "Feature", "geometry": {"type": "Polygon", "coordinates": [[[128.25, -84.0], [128.25, -82.5], [129.75, -82.5], [129.75, -84.0], [128.25, -84.0]]]}, "properties": {"cell_id": "86_4", "lon": 129.0, "lat": -83.25}}, {"type": "Feature", "geometry": {"type": "Polygon", "coordinates": [[[128.25, -82.5], [128.25, -81.0], [129.75, -81.0], [129.75, -82.5], [128.25, -82.5]]]}, "properties": {"cell_id": "86_5", "lon": 129.0, "lat": -81.75}}, {"type": "Feature", "geometry": {"type": "Polygon", "coordinates": [[[128.25, -81.0], [128.25, -79.5], [129.75, -79.5], [129.75, -81.0], [128.25, -81.0]]]}, "properties": {"cell_id": "86_6", "lon": 129.0, "lat": -80.25}}, {"type": "Feature", "geometry": {"type": "Polygon", "coordinates": [[[129.75, -90.0], [129.75, -88.5], [131.25, -88.5], [131.25, -90.0], [129.75, -90.0]]]}, "properties": {"cell_id": "87_0", "lon": 130.5, "lat": -89.25}}, {"type": "Feature", "geometry": {"type": "Polygon", "coordinates": [[[129.75, -88.5], [129.75, -87.0], [131.25, -87.0], [131.25, -88.5], [129.75, -88.5]]]}, "properties": {"cell_id": "87_1", "lon": 130.5, "lat": -87.75}}, {"type": "Feature", "geometry": {"type": "Polygon", "coordinates": [[[129.75, -87.0], [129.75, -85.5], [131.25, -85.5], [131.25, -87.0], [129.75, -87.0]]]}, "properties": {"cell_id": "87_2", "lon": 130.5, "lat": -86.25}}, {"type": "Feature", "geometry": {"type": "Polygon", "coordinates": [[[129.75, -85.5], [129.75, -84.0], [131.25, -84.0], [131.25, -85.5], [129.75, -85.5]]]}, "properties": {"cell_id": "87_3", "lon": 130.5, "lat": -84.75}}, {"type": "Feature", "geometry": {"type": "Polygon", "coordinates": [[[129.75, -84.0], [129.75, -82.5], [131.25, -82.5], [131.25, -84.0], [129.75, -84.0]]]}, "properties": {"cell_id": "87_4", "lon": 130.5, "lat": -83.25}}, {"type": "Feature", "geometry": {"type": "Polygon", "coordinates": [[[129.75, -82.5], [129.75, -81.0], [131.25, -81.0], [131.25, -82.5], [129.75, -82.5]]]}, "properties": {"cell_id": "87_5", "lon": 130.5, "lat": -81.75}}, {"type": "Feature", "geometry": {"type": "Polygon", "coordinates": [[[129.75, -81.0], [129.75, -79.5], [131.25, -79.5], [131.25, -81.0], [129.75, -81.0]]]}, "properties": {"cell_id": "87_6", "lon": 130.5, "lat": -80.25}}]}