{"type": "FeatureCollection", "features": [{"type": "Feature", "geometry": {"type": "Polygon", "coordinates": [[[0.75, -79.5], [0.75, -78.0], [2.25, -78.0], [2.25, -79.5], [0.75, -79.5]]]}, "properties": {"cell_id": "1_7", "lon": 1.5, "lat": -78.75}}, {"type": "Feature", "geometry": {"type": "Polygon", "coordinates": [[[0.75, -78.0], [0.75, -76.5], [2.25, -76.5], [2.25, -78.0], [0.75, -78.0]]]}, "properties": {"cell_id": "1_8", "lon": 1.5, "lat": -77.25}}, {"type": "Feature", "geometry": {"type": "Polygon", "coordinates": [[[0.75, -76.5], [0.75, -75.0], [2.25, -75.0], [2.25, -76.5], [0.75, -76.5]]]}, "properties": {"cell_id": "1_9", "lon": 1.5, "lat": -75.75}}, {"type": "Feature", "geometry": {"type": "Polygon", "coordinates": [[[0.75, -75.0], [0.75, -73.5], [2.25, -73.5], [2.25, -75.0], [0.75, -75.0]]]}, "properties": {"cell_id": "1_10", "lon": 1.5, "lat": -74.25}}, {"type": "Feature", "geometry": {"type": "Polygon", "coordinates": [[[0.75, -73.5], [0.75, -72.0], [2.25, -72.0], [2.25, -73.5], [0.75, -73.5]]]}, "properties": {"cell_id": "1_11", "lon": 1.5, "lat": -72.75}}, {"type": "Feature", "geometry": {"type": "Polygon", "coordinates": [[[0.75, -72.0], [0.75, -70.5], [2.25, -70.5], [2.25, -72.0], [0.75, -72.0]]]}, "properties": {"cell_id": "1_12", "lon": 1.5, "lat": -71.25}}, {"type": "Feature", "geometry": {"type": "Polygon", "coordinates": [[[0.75, -70.5], [0.75, -69.0], [2.25, -69.0], [2.25, -70.5], [0.75, -70.5]]]}, "properties": {"cell_id": "1_13", "lon": 1.5, "lat": -69.75}}, {"type": "Feature", "geometry": {"type": "Polygon", "coordinates": [[[2.25, -79.5], [2.25, -78.0], [3.75, -78.0], [3.75, -79.5], [2.25, -79.5]]]}, "properties": {"cell_id": "2_7", "lon": 3.0, "lat": -78.75}}, {"type": "Feature", "geometry": {"type": "Polygon", "coordinates": [[[2.25, -78.0], [2.25, -76.5], [3.75, -76.5], [3.75, -78.0], [2.25, -78.0]]]}, "properties": {"cell_id": "2_8", "lon": 3.0, "lat": -77.25}}, {"type": "Feature", "geometry": {"type": "Polygon", "coordinates": [[[2.25, -76.5], [2.25, -75.0], [3.75, -75.0], [3.75, -76.5], [2.25, -76.5]]]}, "properties": {"cell_id": "2_9", "lon": 3.0, "lat": -75.75}}, {"type": "Feature", "geometry": {"type": "Polygon", "coordinates": [[[2.25, -75.0], [2.25, -73.5], [3.75, -73.5], [3.75, -75.0], [2.25, -75.0]]]}, "properties": {"cell_id": "2_10", "lon": 3.0, "lat": -74.25}}, {"type": "Feature", "geometry": {"type": "Polygon", "coordinates": [[[2.25, -73.5], [2.25, -72.0], [3.75, -72.0], [3.75, -73.5], [2.25, -73.5]]]}, "properties": {"cell_id": "2_11", "lon": 3.0, "lat": -72.75}}, {"type": "Feature", "geometry": {"type": "Polygon", "coordinates": [[[2.25, -72.0], [2.25, -70.5], [3.75, -70.5], [3.75, -72.0], [2.25, -72.0]]]}, "properties": {"cell_id": "2_12", "lon": 3.0, "lat": -71.25}}, {"type": "Feature", "geometry": {"type": "Polygon", "coordinates": [[[2.25, -70.5], [2.25, -69.0], [3.75, -69.0], [3.75, -70.5], [2.25, -70.5]]]}, "properties": {"cell_id": "2_13", "lon": 3.0, "lat": -69.75}}, {"type": "Feature", "geometry": {"type": "Polygon", "coordinates": [[[3.75, -79.5], [3.75, -78.0], [5.25, -78.0], [5.25, -79.5], [3.75, -79.5]]]}, "properties": {"cell_id": "3_7", "lon": 4.5, "lat": -78.75}}, {"type": "Feature", "geometry": {"type": "Polygon", "coordinates": [[[3.75, -78.0], [3.75, -76.5], [5.25, -76.5], [5.25, -78.0], [3.75, -78.0]]]}, "properties": {"cell_id": "3_8", "lon": 4.5, "lat": -77.25}}, {"type": "Feature", "geometry": {"type": "Polygon", "coordinates": [[[3.75, -76.5], [3.75, -75.0], [5.25, -75.0], [5.25, -76.5], [3.75, -76.5]]]}, "properties": {"cell_id": "3_9", "lon": 4.5, "lat": -75.75}}, {"type": "Feature", "geometry": {"type": "Polygon", "coordinates": [[[3.75, -75.0], [3.75, -73.5], [5.25, -73.5], [5.25, -75.0], [3.75, -75.0]]]}, "properties": {"cell_id": "3_10", "lon": 4.5, "lat": -74.25}}, {"type": "Feature", "geometry": {"type": "Polygon", "coordinates": [[[3.75, -73.5], [3.75, -72.0], [5.25, -72.0], [5.25, -73.5], [3.75, -73.5]]]}, "properties": {"cell_id": "3_11", "lon": 4.5, "lat": -72.75}}, {"type": "Feature", "geometry": {"type": "Polygon", "coordinates": [[[3.75, -72.0], [3.75, -70.5], [5.25, -70.5], [5.25, -72.0], [3.75, -72.0]]]}, "properties": {"cell_id": "3_12", "lon": 4.5, "lat": -71.25}}, {"type": "Feature", "geometry": {"type": "Polygon", "coordinates": [[[3.75, -70.5], [3.75, -69.0], [5.25, -69.0], [5.25, -70.5], [3.75, -70.5]]]}, "properties": {"cell_id": "3_13", "lon": 4.5, "lat": -69.75}}, {"type": "Feature", "geometry": {"type": "Polygon", "coordinates": [[[5.25, -79.5], [5.25, -78.0], [6.75, -78.0], [6.75, -79.5], [5.25, -79.5]]]}, "properties": {"cell_id": "4_7", "lon": 6.0, "lat": -78.75}}, {"type": "Feature", "geometry": {"type": "Polygon", "coordinates": [[[5.25, -78.0], [5.25, -76.5], [6.75, -76.5], [6.75, -78.0], [5.25, -78.0]]]}, "properties": {"cell_id": "4_8", "lon": 6.0, "lat": -77.25}}, {"type": "Feature", "geometry": {"type": "Polygon", "coordinates": [[[5.25, -76.5], [5.25, -75.0], [6.75, -75.0], [6.75, -76.5], [5.25, -76.5]]]}, "properties": {"cell_id": "4_9", "lon": 6.0, "lat": -75.75}}, {"type": "Feature", "geometry": {"type": "Polygon", "coordinates": [[[5.25, -75.0], [5.25, -73.5], [6.75, -73.5], [6.75, -75.0], [5.25, -75.0]]]}, "properties": {"cell_id": "4_10", "lon": 6.0, "lat": -74.25}}, {"type": "Feature", "geometry": {"type": "Polygon", "coordinates": [[[5.25, -73.5], [5.25, -72.0], [6.75, -72.0], [6.75, -73.5], [5.25, -73.5]]]}, "properties": {"cell_id": "4_11", "lon": 6.0, "lat": -72.75}}, {"type": "Feature", "geometry": {"type": "Polygon", "coordinates": [[[5.25, -72.0], [5.25, -70.5], [6.75, -70.5], [6.75, -72.0], [5.25, -72.0]]]}, "properties": {"cell_id": "4_12", "lon": 6.0, "lat": -71.25}}, {"type": "Feature", "geometry": {"type": "Polygon", "coordinates": [[[5.25, -70.5], [5.25, -69.0], [6.75, -69.0], [6.75, -70.5], [5.25, -70.5]]]}, "properties": {"cell_id": "4_13", "lon": 6.0, "lat": -69.75}}, {"type": "Feature", "geometry": {"type": "Polygon", "coordinates": [[[6.75, -79.5], [6.75, -78.0], [8.25, -78.0], [8.25, -79.5], [6.75, -79.5]]]}, "properties": {"cell_id": "5_7", "lon": 7.5, "lat": -78.75}}, {"type": "Feature", "geometry": {"type": "Polygon", "coordinates": [[[6.75, -78.0], [6.75, -76.5], [8.25, -76.5], [8.25, -78.0], [6.75, -78.0]]]}, "properties": {"cell_id": "5_8", "lon": 7.5, "lat": -77.25}}, {"type": "Feature", "geometry": {"type": "Polygon", "coordinates": [[[6.75, -76.5], [6.75, -75.0], [8.25, -75.0], [8.25, -76.5], [6.75, -76.5]]]}, "properties": {"cell_id": "5_9", "lon": 7.5, "lat": -75.75}}, {"type": "Feature", "geometry": {"type": "Polygon", "coordinates": [[[6.75, -75.0], [6.75, -73.5], [8.25, -73.5], [8.25, -75.0], [6.75, -75.0]]]}, "properties": {"cell_id": "5_10", "lon": 7.5, "lat": -74.25}}, {"type": "Feature", "geometry": {"type": "Polygon", "coordinates": [[[6.75, -73.5], [6.75, -72.0], [8.25, -72.0], [8.25, -73.5], [6.75, -73.5]]]}, "properties": {"cell_id": "5_11", "lon": 7.5, "lat": -72.75}}, {"type": "Feature", "geometry": {"type": "Polygon", "coordinates": [[[6.75, -72.0], [6.75, -70.5], [8.25, -70.5], [8.25, -72.0], [6.75, -72.0]]]}, "properties": {"cell_id": "5_12", "lon": 7.5, "lat": -71.25}}, {"type": "Feature", "geometry": {"type": "Polygon", "coordinates": [[[6.75, -70.5], [6.75, -69.0], [8.25, -69.0], [8.25, -70.5], [6.75, -70.5]]]}, "properties": {"cell_id": "5_13", "lon": 7.5, "lat": -69.75}}, {"type": "Feature", "geometry": {"type": "Polygon", "coordinates": [[[8.25, -79.5], [8.25, -78.0], [9.75, -78.0], [9.75, -79.5], [8.25, -79.5]]]}, "properties": {"cell_id": "6_7", "lon": 9.0, "lat": -78.75}}, {"type": "Feature", "geometry": {"type": "Polygon", "coordinates": [[[8.25, -78.0], [8.25, -76.5], [9.75, -76.5], [9.75, -78.0], [8.25, -78.0]]]}, "properties": {"cell_id": "6_8", "lon": 9.0, "lat": -77.25}}, {"type": "Feature", "geometry": {"type": "Polygon", "coordinates": [[[8.25, -76.5], [8.25, -75.0], [9.75, -75.0], [9.75, -76.5], [8.25, -76.5]]]}, "properties": {"cell_id": "6_9", "lon": 9.0, "lat": -75.75}}, {"type": "Feature", "geometry": {"type": "Polygon", "coordinates": [[[8.25, -75.0], [8.25, -73.5], [9.75, -73.5], [9.75, -75.0], [8.25, -75.0]]]}, "properties": {"cell_id": "6_10", "lon": 9.0, "lat": -74.25}}, {"type": "Feature", "geometry": {"type": "Polygon", "coordinates": [[[8.25, -73.5], [8.25, -72.0], [9.75, -72.0], [9.75, -73.5], [8.25, -73.5]]]}, "properties": {"cell_id": "6_11", "lon": 9.0, "lat": -72.75}}, {"type": "Feature", "geometry": {"type": "Polygon", "coordinates": [[[8.25, -72.0], [8.25, -70.5], [9.75, -70.5], [9.75, -72.0], [8.25, -72.0]]]}, "properties": {"cell_id": "6_12", "lon": 9.0, "lat": -71.25}}, {"type": "Feature", "geometry": {"type": "Polygon", "coordinates": [[[8.25, -70.5], [8.25, -69.0], [9.75, -69.0], [9.75, -70.5], [8.25, -70.5]]]}, "properties": {"cell_id": "6_13", "lon": 9.0, "lat": -69.75}}, {"type": "Feature", "geometry": {"type": "Polygon", "coordinates": [[[9.75, -79.5], [9.75, -78.0], [11.25, -78.0], [11.25, -79.5], [9.75, -79.5]]]}, "properties": {"cell_id": "7_7", "lon": 10.5, "lat": -78.75}}, {"type": "Feature", "geometry": {"type": "Polygon", "coordinates": [[[9.75, -78.0], [9.75, -76.5], [11.25, -76.5], [11.25, -78.0], [9.75, -78.0]]]}, "properties": {"cell_id": "7_8", "lon": 10.5, "lat": -77.25}}, {"type": "Feature", "geometry": {"type": "Polygon", "coordinates": [[[9.75, -76.5], [9.75, -75.0], [11.25, -75.0], [11.25, -76.5], [9.75, -76.5]]]}, "properties": {"cell_id": "7_9", "lon": 10.5, "lat": -75.75}}, {"type": "Feature", "geometry": {"type": "Polygon", "coordinates": [[[9.75, -75.0], [9.75, -73.5], [11.25, -73.5], [11.25, -75.0], [9.75, -75.0]]]}, "properties": {"cell_id": "7_10", "lon": 10.5, "lat": -74.25}}, {"type": "Feature", "geometry": {"type": "Polygon", "coordinates": [[[9.75, -73.5], [9.75, -72.0], [11.25, -72.0], [11.25, -73.5], [9.75, -73.5]]]}, "properties": {"cell_id": "7_11", "lon": 10.5, "lat": -72.75}}, {"type": "Feature", "geometry": {"type": "Polygon", "coordinates": [[[9.75, -72.0], [9.75, -70.5], [11.25, -70.5], [11.25, -72.0], [9.75, -72.0]]]}, "properties": {"cell_id": "7_12", "lon": 10.5, "lat": -71.25}}, {"type": "Feature", "geometry": {"type": "Polygon", "coordinates": [[[9.75, -70.5], [9.75, -69.0], [11.25, -69.0], [11.25, -70.5], [9.75, -70.5]]]}, "properties": {"cell_id": "7_13", "lon": 10.5, "lat": -69.75}}]}