{"type": "FeatureCollection", "features": [{"type": "Feature", "geometry": {"type": "Polygon", "coordinates": [[[-0.75, 51.0], [-0.75, 52.5], [0.75, 52.5], [0.75, 51.0], [-0.75, 51.0]]]}, "properties": {"cell_id": "0_94", "lon": 0.0, "lat": 51.75}}, {"type": "Feature", "geometry": {"type": "Polygon", "coordinates": [[[-0.75, 52.5], [-0.75, 54.0], [0.75, 54.0], [0.75, 52.5], [-0.75, 52.5]]]}, "properties": {"cell_id": "0_95", "lon": 0.0, "lat": 53.25}}, {"type": "Feature", "geometry": {"type": "Polygon", "coordinates": [[[-0.75, 54.0], [-0.75, 55.5], [0.75, 55.5], [0.75, 54.0], [-0.75, 54.0]]]}, "properties": {"cell_id": "0_96", "lon": 0.0, "lat": 54.75}}, {"type": "Feature", "geometry": {"type": "Polygon", "coordinates": [[[-9.75, 51.0], [-9.75, 52.5], [-8.25, 52.5], [-8.25, 51.0], [-9.75, 51.0]]]}, "properties": {"cell_id": "234_94", "lon": -9.0, "lat": 51.75}}, {"type": "Feature", "geometry": {"type": "Polygon", "coordinates": [[[-9.75, 52.5], [-9.75, 54.0], [-8.25, 54.0], [-8.25, 52.5], [-9.75, 52.5]]]}, "properties": {"cell_id": "234_95", "lon": -9.0, "lat": 53.25}}, {"type": "Feature", "geometry": {"type": "Polygon", "coordinates": [[[-9.75, 54.0], [-9.75, 55.5], [-8.25, 55.5], [-8.25, 54.0], [-9.75, 54.0]]]}, "properties": {"cell_id": "234_96", "lon": -9.0, "lat": 54.75}}, {"type": "Feature", "geometry": {"type": "Polygon", "coordinates": [[[-8.25, 51.0], [-8.25, 52.5], [-6.75, 52.5], [-6.75, 51.0], [-8.25, 51.0]]]}, "properties": {"cell_id": "235_94", "lon": -7.5, "lat": 51.75}}, {"type": "Feature", "geometry": {"type": "Polygon", "coordinates": [[[-8.25, 52.5], [-8.25, 54.0], [-6.75, 54.0], [-6.75, 52.5], [-8.25, 52.5]]]}, "properties": {"cell_id": "235_95", "lon": -7.5, "lat": 53.25}}, {"type": "Feature", "geometry": {"type": "Polygon", "coordinates": [[[-8.25, 54.0], [-8.25, 55.5], [-6.75, 55.5], [-6.75, 54.0], [-8.25, 54.0]]]}, "properties": {"cell_id": "235_96", "lon": -7.5, "lat": 54.75}}, {"type": "Feature", "geometry": {"type": "Polygon", "coordinates": [[[-6.75, 52.5], [-6.75, 54.0], [-5.25, 54.0], [-5.25, 52.5], [-6.75, 52.5]]]}, "properties": {"cell_id": "236_95", "lon": -6.0, "lat": 53.25}}, {"type": "Feature", "geometry": {"type": "Polygon", "coordinates": [[[-6.75, 54.0], [-6.75, 55.5], [-5.25, 55.5], [-5.25, 54.0], [-6.75, 54.0]]]}, "properties": {"cell_id": "236_96", "lon": -6.0, "lat": 54.75}}, {"type": "Feature", "geometry": {"type": "Polygon", "coordinates": [[[-6.75, 55.5], [-6.75, 57.0], [-5.25, 57.0], [-5.25, 55.5], [-6.75, 55.5]]]}, "properties": {"cell_id": "236_97", "lon": -6.0, "lat": 56.25}}, {"type": "Feature", "geometry": {"type": "Polygon", "coordinates": [[[-6.75, 57.0], [-6.75, 58.5], [-5.25, 58.5], [-5.25, 57.0], [-6.75, 57.0]]]}, "properties": {"cell_id": "236_98", "lon": -6.0, "lat": 57.75}}, {"type": "Feature", "geometry": {"type": "Polygon", "coordinates": [[[-5.25, 51.0], [-5.25, 52.5], [-3.75, 52.5], [-3.75, 51.0], [-5.25, 51.0]]]}, "properties": {"cell_id": "237_94", "lon": -4.5, "lat": 51.75}}, {"type": "Feature", "geometry": {"type": "Polygon", "coordinates": [[[-5.25, 52.5], [-5.25, 54.0], [-3.75, 54.0], [-3.75, 52.5], [-5.25, 52.5]]]}, "properties": {"cell_id": "237_95", "lon": -4.5, "lat": 53.25}}, {"type": "Feature", "geometry": {"type": "Polygon", "coordinates": [[[-5.25, 54.0], [-5.25, 55.5], [-3.75, 55.5], [-3.75, 54.0], [-5.25, 54.0]]]}, "properties": {"cell_id": "237_96", "lon": -4.5, "lat": 54.75}}, {"type": "Feature", "geometry": {"type": "Polygon", "coordinates": [[[-5.25, 55.5], [-5.25, 57.0], [-3.75, 57.0], [-3.75, 55.5], [-5.25, 55.5]]]}, "properties": {"cell_id": "237_97", "lon": -4.5, "lat": 56.25}}, {"type": "Feature", "geometry": {"type": "Polygon", "coordinates": [[[-5.25, 57.0], [-5.25, 58.5], [-3.75, 58.5], [-3.75, 57.0], [-5.25, 57.0]]]}, "properties": {"cell_id": "237_98", "lon": -4.5, "lat": 57.75}}, {"type": "Feature", "geometry": {"type": "Polygon", "coordinates": [[[-3.75, 51.0], [-3.75, 52.5], [-2.25, 52.5], [-2.25, 51.0], [-3.75, 51.0]]]}, "properties": {"cell_id": "238_94", "lon": -3.0, "lat": 51.75}}, {"type": "Feature", "geometry": {"type": "Polygon", "coordinates": [[[-3.75, 52.5], [-3.75, 54.0], [-2.25, 54.0], [-2.25, 52.5], [-3.75, 52.5]]]}, "properties": {"cell_id": "238_95", "lon": -3.0, "lat": 53.25}}, {"type": "Feature", "geometry": {"type": "Polygon", "coordinates": [[[-3.75, 54.0], [-3.75, 55.5], [-2.25, 55.5], [-2.25, 54.0], [-3.75, 54.0]]]}, "properties": {"cell_id": "238_96", "lon": -3.0, "lat": 54.75}}, {"type": "Feature", "geometry": {"type": "Polygon", "coordinates": [[[-3.75, 55.5], [-3.75, 57.0], [-2.25, 57.0], [-2.25, 55.5], [-3.75, 55.5]]]}, "properties": {"cell_id": "238_97", "lon": -3.0, "lat": 56.25}}, {"type": "Feature", "geometry": {"type": "Polygon", "coordinates": [[[-3.75, 57.0], [-3.75, 58.5], [-2.25, 58.5], [-2.25, 57.0], [-3.75, 57.0]]]}, "properties": {"cell_id": "238_98", "lon": -3.0, "lat": 57.75}}, {"type": "Feature", "geometry": {"type": "Polygon", "coordinates": [[[-2.25, 51.0], [-2.25, 52.5], [-0.75, 52.5], [-0.75, 51.0], [-2.25, 51.0]]]}, "properties": {"cell_id": "239_94", "lon": -1.5, "lat": 51.75}}, {"type": "Feature", "geometry": {"type": "Polygon", "coordinates": [[[-2.25, 52.5], [-2.25, 54.0], [-0.75, 54.0], [-0.75, 52.5], [-2.25, 52.5]]]}, "properties": {"cell_id": "239_95", "lon": -1.5, "lat": 53.25}}, {"type": "Feature", "geometry": {"type": "Polygon", "coordinates": [[[-2.25, 54.0], [-2.25, 55.5], [-0.75, 55.5], [-0.75, 54.0], [-2.25, 54.0]]]}, "properties": {"cell_id": "239_96", "lon": -1.5, "lat": 54.75}}, {"type": "Feature", "geometry": {"type": "Polygon", "coordinates": [[[-2.25, 55.5], [-2.25, 57.0], [-0.75, 57.0], [-0.75, 55.5], [-2.25, 55.5]]]}, "properties": {"cell_id": "239_97", "lon": -1.5, "lat": 56.25}}]}