{"type": "FeatureCollection", "features": [{"type": "Feature", "geometry": {"type": "Polygon", "coordinates": [[[-17.5, 20.0], [-17.5, 22.5], [-15.0, 22.5], [-15.0, 20.0], [-17.5, 20.0]]]}, "properties": {"cell_id": "137_44", "lon": -16.25, "lat": 21.25}}, {"type": "Feature", "geometry": {"type": "Polygon", "coordinates": [[[-15.0, 20.0], [-15.0, 22.5], [-12.5, 22.5], [-12.5, 20.0], [-15.0, 20.0]]]}, "properties": {"cell_id": "138_44", "lon": -13.75, "lat": 21.25}}, {"type": "Feature", "geometry": {"type": "Polygon", "coordinates": [[[-15.0, 22.5], [-15.0, 25.0], [-12.5, 25.0], [-12.5, 22.5], [-15.0, 22.5]]]}, "properties": {"cell_id": "138_45", "lon": -13.75, "lat": 23.75}}, {"type": "Feature", "geometry": {"type": "Polygon", "coordinates": [[[-15.0, 25.0], [-15.0, 27.5], [-12.5, 27.5], [-12.5, 25.0], [-15.0, 25.0]]]}, "properties": {"cell_id": "138_46", "lon": -13.75, "lat": 26.25}}, {"type": "Feature", "geometry": {"type": "Polygon", "coordinates": [[[-12.5, 20.0], [-12.5, 22.5], [-10.0, 22.5], [-10.0, 20.0], [-12.5, 20.0]]]}, "properties": {"cell_id": "139_44", "lon": -11.25, "lat": 21.25}}, {"type": "Feature", "geometry": {"type": "Polygon", "coordinates": [[[-12.5, 22.5], [-12.5, 25.0], [-10.0, 25.0], [-10.0, 22.5], [-12.5, 22.5]]]}, "properties": {"cell_id": "139_45", "lon": -11.25, "lat": 23.75}}, {"type": "Feature", "geometry": {"type": "Polygon", "coordinates": [[[-12.5, 25.0], [-12.5, 27.5], [-10.0, 27.5], [-10.0, 25.0], [-12.5, 25.0]]]}, "properties": {"cell_id": "139_46", "lon": -11.25, "lat": 26.25}}]}