{"type": "FeatureCollection", "features": [{"type": "Feature", "geometry": {"type": "Polygon", "coordinates": [[[80.0, 20.0], [80.0, 22.5], [82.5, 22.5], [82.5, 20.0], [80.0, 20.0]]]}, "properties": {"cell_id": "32_44", "lon": 81.25, "lat": 21.25}}, {"type": "Feature", "geometry": {"type": "Polygon", "coordinates": [[[80.0, 22.5], [80.0, 25.0], [82.5, 25.0], [82.5, 22.5], [80.0, 22.5]]]}, "properties": {"cell_id": "32_45", "lon": 81.25, "lat": 23.75}}, {"type": "Feature", "geometry": {"type": "Polygon", "coordinates": [[[80.0, 25.0], [80.0, 27.5], [82.5, 27.5], [82.5, 25.0], [80.0, 25.0]]]}, "properties": {"cell_id": "32_46", "lon": 81.25, "lat": 26.25}}, {"type": "Feature", "geometry": {"type": "Polygon", "coordinates": [[[80.0, 27.5], [80.0, 30.0], [82.5, 30.0], [82.5, 27.5], [80.0, 27.5]]]}, "properties": {"cell_id": "32_47", "lon": 81.25, "lat": 28.75}}, {"type": "Feature", "geometry": {"type": "Polygon", "coordinates": [[[82.5, 20.0], [82.5, 22.5], [85.0, 22.5], [85.0, 20.0], [82.5, 20.0]]]}, "properties": {"cell_id": "33_44", "lon": 83.75, "lat": 21.25}}, {"type": "Feature", "geometry": {"type": "Polygon", "coordinates": [[[82.5, 22.5], [82.5, 25.0], [85.0, 25.0], [85.0, 22.5], [82.5, 22.5]]]}, "properties": {"cell_id": "33_45", "lon": 83.75, "lat": 23.75}}, {"type": "Feature", "geometry": {"type": "Polygon", "coordinates": [[[82.5, 25.0], [82.5, 27.5], [85.0, 27.5], [85.0, 25.0], [82.5, 25.0]]]}, "properties": {"cell_id": "33_46", "lon": 83.75, "lat": 26.25}}, {"type": "Feature", "geometry": {"type": "Polygon", "coordinates": [[[82.5, 27.5], [82.5, 30.0], [85.0, 30.0], [85.0, 27.5], [82.5, 27.5]]]}, "properties": {"cell_id": "33_47", "lon": 83.75, "lat": 28.75}}, {"type": "Feature", "geometry": {"type": "Polygon", "coordinates": [[[85.0, 20.0], [85.0, 22.5], [87.5, 22.5], [87.5, 20.0], [85.0, 20.0]]]}, "properties": {"cell_id": "34_44", "lon": 86.25, "lat": 21.25}}, {"type": "Feature", "geometry": {"type": "Polygon", "coordinates": [[[85.0, 22.5], [85.0, 25.0], [87.5, 25.0], [87.5, 22.5], [85.0, 22.5]]]}, "properties": {"cell_id": "34_45", "lon": 86.25, "lat": 23.75}}, {"type": "Feature", "geometry": {"type": "Polygon", "coordinates": [[[85.0, 25.0], [85.0, 27.5], [87.5, 27.5], [87.5, 25.0], [85.0, 25.0]]]}, "properties": {"cell_id": "34_46", "lon": 86.25, "lat": 26.25}}, {"type": "Feature", "geometry": {"type": "Polygon", "coordinates": [[[85.0, 27.5], [85.0, 30.0], [87.5, 30.0], [87.5, 27.5], [85.0, 27.5]]]}, "properties": {"cell_id": "34_47", "lon": 86.25, "lat": 28.75}}, {"type": "Feature", "geometry": {"type": "Polygon", "coordinates": [[[87.5, 22.5], [87.5, 25.0], [90.0, 25.0], [90.0, 22.5], [87.5, 22.5]]]}, "properties": {"cell_id": "35_45", "lon": 88.75, "lat": 23.75}}, {"type": "Feature", "geometry": {"type": "Polygon", "coordinates": [[[87.5, 25.0], [87.5, 27.5], [90.0, 27.5], [90.0, 25.0], [87.5, 25.0]]]}, "properties": {"cell_id": "35_46", "lon": 88.75, "lat": 26.25}}, {"type": "Feature", "geometry": {"type": "Polygon", "coordinates": [[[87.5, 27.5], [87.5, 30.0], [90.0, 30.0], [90.0, 27.5], [87.5, 27.5]]]}, "properties": {"cell_id": "35_47", "lon": 88.75, "lat": 28.75}}]}