{"type": "FeatureCollection", "features": [{"type": "Feature", "geometry": {"type": "Polygon", "coordinates": [[[-20.0, 80.0], [-20.0, 82.5], [-17.5, 82.5], [-17.5, 80.0], [-20.0, 80.0]]]}, "properties": {"cell_id": "136_68", "lon": -18.75, "lat": 81.25}}, {"type": "Feature", "geometry": {"type": "Polygon", "coordinates": [[[-17.5, 80.0], [-17.5, 82.5], [-15.0, 82.5], [-15.0, 80.0], [-17.5, 80.0]]]}, "properties": {"cell_id": "137_68", "lon": -16.25, "lat": 81.25}}, {"type": "Feature", "geometry": {"type": "Polygon", "coordinates": [[[-15.0, 80.0], [-15.0, 82.5], [-12.5, 82.5], [-12.5, 80.0], [-15.0, 80.0]]]}, "properties": {"cell_id": "138_68", "lon": -13.75, "lat": 81.25}}]}