{"type": "FeatureCollection", "features": [{"type": "Feature", "geometry": {"type": "Polygon", "coordinates": [[[110.25, -3.0], [110.25, -1.5], [111.75, -1.5], [111.75, -3.0], [110.25, -3.0]]]}, "properties": {"cell_id": "74_58", "lon": 111.0, "lat": -2.25}}, {"type": "Feature", "geometry": {"type": "Polygon", "coordinates": [[[110.25, -1.5], [110.25, 0.0], [111.75, 0.0], [111.75, -1.5], [110.25, -1.5]]]}, "properties": {"cell_id": "74_59", "lon": 111.0, "lat": -0.75}}, {"type": "Feature", "geometry": {"type": "Polygon", "coordinates": [[[111.75, -3.0], [111.75, -1.5], [113.25, -1.5], [113.25, -3.0], [111.75, -3.0]]]}, "properties": {"cell_id": "75_58", "lon": 112.5, "lat": -2.25}}, {"type": "Feature", "geometry": {"type": "Polygon", "coordinates": [[[111.75, -1.5], [111.75, 0.0], [113.25, 0.0], [113.25, -1.5], [111.75, -1.5]]]}, "properties": {"cell_id": "75_59", "lon": 112.5, "lat": -0.75}}, {"type": "Feature", "geometry": {"type": "Polygon", "coordinates": [[[113.25, -3.0], [113.25, -1.5], [114.75, -1.5], [114.75, -3.0], [113.25, -3.0]]]}, "properties": {"cell_id": "76_58", "lon": 114.0, "lat": -2.25}}, {"type": "Feature", "geometry": {"type": "Polygon", "coordinates": [[[113.25, -1.5], [113.25, 0.0], [114.75, 0.0], [114.75, -1.5], [113.25, -1.5]]]}, "properties": {"cell_id": "76_59", "lon": 114.0, "lat": -0.75}}, {"type": "Feature", "geometry": {"type": "Polygon", "coordinates": [[[114.75, -3.0], [114.75, -1.5], [116.25, -1.5], [116.25, -3.0], [114.75, -3.0]]]}, "properties": {"cell_id": "77_58", "lon": 115.5, "lat": -2.25}}, {"type": "Feature", "geometry": {"type": "Polygon", "coordinates": [[[114.75, -1.5], [114.75, 0.0], [116.25, 0.0], [116.25, -1.5], [114.75, -1.5]]]}, "properties": {"cell_id": "77_59", "lon": 115.5, "lat": -0.75}}, {"type": "Feature", "geometry": {"type": "Polygon", "coordinates": [[[116.25, -3.0], [116.25, -1.5], [117.75, -1.5], [117.75, -3.0], [116.25, -3.0]]]}, "properties": {"cell_id": "78_58", "lon": 117.0, "lat": -2.25}}, {"type": "Feature", "geometry": {"type": "Polygon", "coordinates": [[[116.25, -1.5], [116.25, 0.0], [117.75, 0.0], [117.75, -1.5], [116.25, -1.5]]]}, "properties": {"cell_id": "78_59", "lon": 117.0, "lat": -0.75}}, {"type": "Feature", "geometry": {"type": "Polygon", "coordinates": [[[119.25, -6.0], [119.25, -4.5], [120.75, -4.5], [120.75, -6.0], [119.25, -6.0]]]}, "properties": {"cell_id": "80_56", "lon": 120.0, "lat": -5.25}}, {"type": "Feature", "geometry": {"type": "Polygon", "coordinates": [[[119.25, -4.5], [119.25, -3.0], [120.75, -3.0], [120.75, -4.5], [119.25, -4.5]]]}, "properties": {"cell_id": "80_57", "lon": 120.0, "lat": -3.75}}, {"type": "Feature", "geometry": {"type": "Polygon", "coordinates": [[[119.25, -3.0], [119.25, -1.5], [120.75, -1.5], [120.75, -3.0], [119.25, -3.0]]]}, "properties": {"cell_id": "80_58", "lon": 120.0, "lat": -2.25}}, {"type": "Feature", "geometry": {"type": "Polygon", "coordinates": [[[119.25, -1.5], [119.25, 0.0], [120.75, 0.0], [120.75, -1.5], [119.25, -1.5]]]}, "properties": {"cell_id": "80_59", "lon": 120.0, "lat": -0.75}}]}