{"type": "FeatureCollection", "features": [{"type": "Feature", "geometry": {"type": "Polygon", "coordinates": [[[10.0, 20.0], [10.0, 22.5], [12.5, 22.5], [12.5, 20.0], [10.0, 20.0]]]}, "properties": {"cell_id": "4_44", "lon": 11.25, "lat": 21.25}}, {"type": "Feature", "geometry": {"type": "Polygon", "coordinates": [[[10.0, 22.5], [10.0, 25.0], [12.5, 25.0], [12.5, 22.5], [10.0, 22.5]]]}, "properties": {"cell_id": "4_45", "lon": 11.25, "lat": 23.75}}, {"type": "Feature", "geometry": {"type": "Polygon", "coordinates": [[[10.0, 25.0], [10.0, 27.5], [12.5, 27.5], [12.5, 25.0], [10.0, 25.0]]]}, "properties": {"cell_id": "4_46", "lon": 11.25, "lat": 26.25}}, {"type": "Feature", "geometry": {"type": "Polygon", "coordinates": [[[10.0, 27.5], [10.0, 30.0], [12.5, 30.0], [12.5, 27.5], [10.0, 27.5]]]}, "properties": {"cell_id": "4_47", "lon": 11.25, "lat": 28.75}}, {"type": "Feature", "geometry": {"type": "Polygon", "coordinates": [[[12.5, 20.0], [12.5, 22.5], [15.0, 22.5], [15.0, 20.0], [12.5, 20.0]]]}, "properties": {"cell_id": "5_44", "lon": 13.75, "lat": 21.25}}, {"type": "Feature", "geometry": {"type": "Polygon", "coordinates": [[[12.5, 22.5], [12.5, 25.0], [15.0, 25.0], [15.0, 22.5], [12.5, 22.5]]]}, "properties": {"cell_id": "5_45", "lon": 13.75, "lat": 23.75}}, {"type": "Feature", "geometry": {"type": "Polygon", "coordinates": [[[12.5, 25.0], [12.5, 27.5], [15.0, 27.5], [15.0, 25.0], [12.5, 25.0]]]}, "properties": {"cell_id": "5_46", "lon": 13.75, "lat": 26.25}}, {"type": "Feature", "geometry": {"type": "Polygon", "coordinates": [[[12.5, 27.5], [12.5, 30.0], [15.0, 30.0], [15.0, 27.5], [12.5, 27.5]]]}, "properties": {"cell_id": "5_47", "lon": 13.75, "lat": 28.75}}, {"type": "Feature", "geometry": {"type": "Polygon", "coordinates": [[[15.0, 20.0], [15.0, 22.5], [17.5, 22.5], [17.5, 20.0], [15.0, 20.0]]]}, "properties": {"cell_id": "6_44", "lon": 16.25, "lat": 21.25}}, {"type": "Feature", "geometry": {"type": "Polygon", "coordinates": [[[15.0, 22.5], [15.0, 25.0], [17.5, 25.0], [17.5, 22.5], [15.0, 22.5]]]}, "properties": {"cell_id": "6_45", "lon": 16.25, "lat": 23.75}}, {"type": "Feature", "geometry": {"type": "Polygon", "coordinates": [[[15.0, 25.0], [15.0, 27.5], [17.5, 27.5], [17.5, 25.0], [15.0, 25.0]]]}, "properties": {"cell_id": "6_46", "lon": 16.25, "lat": 26.25}}, {"type": "Feature", "geometry": {"type": "Polygon", "coordinates": [[[15.0, 27.5], [15.0, 30.0], [17.5, 30.0], [17.5, 27.5], [15.0, 27.5]]]}, "properties": {"cell_id": "6_47", "lon": 16.25, "lat": 28.75}}, {"type": "Feature", "geometry": {"type": "Polygon", "coordinates": [[[17.5, 20.0], [17.5, 22.5], [20.0, 22.5], [20.0, 20.0], [17.5, 20.0]]]}, "properties": {"cell_id": "7_44", "lon": 18.75, "lat": 21.25}}, {"type": "Feature", "geometry": {"type": "Polygon", "coordinates": [[[17.5, 22.5], [17.5, 25.0], [20.0, 25.0], [20.0, 22.5], [17.5, 22.5]]]}, "properties": {"cell_id": "7_45", "lon": 18.75, "lat": 23.75}}, {"type": "Feature", "geometry": {"type": "Polygon", "coordinates": [[[17.5, 25.0], [17.5, 27.5], [20.0, 27.5], [20.0, 25.0], [17.5, 25.0]]]}, "properties": {"cell_id": "7_46", "lon": 18.75, "lat": 26.25}}, {"type": "Feature", "geometry": {"type": "Polygon", "coordinates": [[[17.5, 27.5], [17.5, 30.0], [20.0, 30.0], [20.0, 27.5], [17.5, 27.5]]]}, "properties": {"cell_id": "7_47", "lon": 18.75, "lat": 28.75}}]}