{"type": "FeatureCollection", "features": [{"type": "Feature", "geometry": {"type": "Polygon", "coordinates": [[[120.75, 27.0], [120.75, 28.5], [122.25, 28.5], [122.25, 27.0], [120.75, 27.0]]]}, "properties": {"cell_id": "81_78", "lon": 121.5, "lat": 27.75}}, {"type": "Feature", "geometry": {"type": "Polygon", "coordinates": [[[120.75, 28.5], [120.75, 30.0], [122.25, 30.0], [122.25, 28.5], [120.75, 28.5]]]}, "properties": {"cell_id": "81_79", "lon": 121.5, "lat": 29.25}}, {"type": "Feature", "geometry": {"type": "Polygon", "coordinates": [[[122.25, 27.0], [122.25, 28.5], [123.75, 28.5], [123.75, 27.0], [122.25, 27.0]]]}, "properties": {"cell_id": "82_78", "lon": 123.0, "lat": 27.75}}, {"type": "Feature", "geometry": {"type": "Polygon", "coordinates": [[[122.25, 28.5], [122.25, 30.0], [123.75, 30.0], [123.75, 28.5], [122.25, 28.5]]]}, "properties": {"cell_id": "82_79", "lon": 123.0, "lat": 29.25}}]}