{"type": "FeatureCollection", "features": [{"type": "Feature", "geometry": {"type": "Polygon", "coordinates": [[[51.75, 70.5], [51.75, 72.0], [53.25, 72.0], [53.25, 70.5], [51.75, 70.5]]]}, "properties": {"cell_id": "35_107", "lon": 52.5, "lat": 71.25}}, {"type": "Feature", "geometry": {"type": "Polygon", "coordinates": [[[51.75, 72.0], [51.75, 73.5], [53.25, 73.5], [53.25, 72.0], [51.75, 72.0]]]}, "properties": {"cell_id": "35_108", "lon": 52.5, "lat": 72.75}}, {"type": "Feature", "geometry": {"type": "Polygon", "coordinates": [[[53.25, 70.5], [53.25, 72.0], [54.75, 72.0], [54.75, 70.5], [53.25, 70.5]]]}, "properties": {"cell_id": "36_107", "lon": 54.0, "lat": 71.25}}, {"type": "Feature", "geometry": {"type": "Polygon", "coordinates": [[[53.25, 72.0], [53.25, 73.5], [54.75, 73.5], [54.75, 72.0], [53.25, 72.0]]]}, "properties": {"cell_id": "36_108", "lon": 54.0, "lat": 72.75}}, {"type": "Feature", "geometry": {"type": "Polygon", "coordinates": [[[53.25, 73.5], [53.25, 75.0], [54.75, 75.0], [54.75, 73.5], [53.25, 73.5]]]}, "properties": {"cell_id": "36_109", "lon": 54.0, "lat": 74.25}}, {"type": "Feature", "geometry": {"type": "Polygon", "coordinates": [[[54.75, 70.5], [54.75, 72.0], [56.25, 72.0], [56.25, 70.5], [54.75, 70.5]]]}, "properties": {"cell_id": "37_107", "lon": 55.5, "lat": 71.25}}, {"type": "Feature", "geometry": {"type": "Polygon", "coordinates": [[[54.75, 72.0], [54.75, 73.5], [56.25, 73.5], [56.25, 72.0], [54.75, 72.0]]]}, "properties": {"cell_id": "37_108", "lon": 55.5, "lat": 72.75}}, {"type": "Feature", "geometry": {"type": "Polygon", "coordinates": [[[54.75, 73.5], [54.75, 75.0], [56.25, 75.0], [56.25, 73.5], [54.75, 73.5]]]}, "properties": {"cell_id": "37_109", "lon": 55.5, "lat": 74.25}}, {"type": "Feature", "geometry": {"type": "Polygon", "coordinates": [[[56.25, 72.0], [56.25, 73.5], [57.75, 73.5], [57.75, 72.0], [56.25, 72.0]]]}, "properties": {"cell_id": "38_108", "lon": 57.0, "lat": 72.75}}, {"type": "Feature", "geometry": {"type": "Polygon", "coordinates": [[[56.25, 73.5], [56.25, 75.0], [57.75, 75.0], [57.75, 73.5], [56.25, 73.5]]]}, "properties": {"cell_id": "38_109", "lon": 57.0, "lat": 74.25}}, {"type": "Feature", "geometry": {"type": "Polygon", "coordinates": [[[56.25, 75.0], [56.25, 76.5], [57.75, 76.5], [57.75, 75.0], [56.25, 75.0]]]}, "properties": {"cell_id": "38_110", "lon": 57.0, "lat": 75.75}}, {"type": "Feature", "geometry": {"type": "Polygon", "coordinates": [[[57.75, 73.5], [57.75, 75.0], [59.25, 75.0], [59.25, 73.5], [57.75, 73.5]]]}, "properties": {"cell_id": "39_109", "lon": 58.5, "lat": 74.25}}, {"type": "Feature", "geometry": {"type": "Polygon", "coordinates": [[[57.75, 75.0], [57.75, 76.5], [59.25, 76.5], [59.25, 75.0], [57.75, 75.0]]]}, "properties": {"cell_id": "39_110", "lon": 58.5, "lat": 75.75}}, {"type": "Feature", "geometry": {"type": "Polygon", "coordinates": [[[59.25, 75.0], [59.25, 76.5], [60.75, 76.5], [60.75, 75.0], [59.25, 75.0]]]}, "properties": {"cell_id": "40_110", "lon": 60.0, "lat": 75.75}}]}