{"type": "FeatureCollection", "features": [{"type": "Feature", "geometry": {"type": "Polygon", "coordinates": [[[130.0, -30.0], [130.0, -27.5], [132.5, -27.5], [132.5, -30.0], [130.0, -30.0]]]}, "properties": {"cell_id": "52_24", "lon": 131.25, "lat": -28.75}}, {"type": "Feature", "geometry": {"type": "Polygon", "coordinates": [[[130.0, -27.5], [130.0, -25.0], [132.5, -25.0], [132.5, -27.5], [130.0, -27.5]]]}, "properties": {"cell_id": "52_25", "lon": 131.25, "lat": -26.25}}, {"type": "Feature", "geometry": {"type": "Polygon", "coordinates": [[[130.0, -25.0], [130.0, -22.5], [132.5, -22.5], [132.5, -25.0], [130.0, -25.0]]]}, "properties": {"cell_id": "52_26", "lon": 131.25, "lat": -23.75}}, {"type": "Feature", "geometry": {"type": "Polygon", "coordinates": [[[130.0, -22.5], [130.0, -20.0], [132.5, -20.0], [132.5, -22.5], [130.0, -22.5]]]}, "properties": {"cell_id": "52_27", "lon": 131.25, "lat": -21.25}}, {"type": "Feature", "geometry": {"type": "Polygon", "coordinates": [[[132.5, -30.0], [132.5, -27.5], [135.0, -27.5], [135.0, -30.0], [132.5, -30.0]]]}, "properties": {"cell_id": "53_24", "lon": 133.75, "lat": -28.75}}, {"type": "Feature", "geometry": {"type": "Polygon", "coordinates": [[[132.5, -27.5], [132.5, -25.0], [135.0, -25.0], [135.0, -27.5], [132.5, -27.5]]]}, "properties": {"cell_id": "53_25", "lon": 133.75, "lat": -26.25}}, {"type": "Feature", "geometry": {"type": "Polygon", "coordinates": [[[132.5, -25.0], [132.5, -22.5], [135.0, -22.5], [135.0, -25.0], [132.5, -25.0]]]}, "properties": {"cell_id": "53_26", "lon": 133.75, "lat": -23.75}}, {"type": "Feature", "geometry": {"type": "Polygon", "coordinates": [[[132.5, -22.5], [132.5, -20.0], [135.0, -20.0], [135.0, -22.5], [132.5, -22.5]]]}, "properties": {"cell_id": "53_27", "lon": 133.75, "lat": -21.25}}, {"type": "Feature", "geometry": {"type": "Polygon", "coordinates": [[[135.0, -30.0], [135.0, -27.5], [137.5, -27.5], [137.5, -30.0], [135.0, -30.0]]]}, "properties": {"cell_id": "54_24", "lon": 136.25, "lat": -28.75}}, {"type": "Feature", "geometry": {"type": "Polygon", "coordinates": [[[135.0, -27.5], [135.0, -25.0], [137.5, -25.0], [137.5, -27.5], [135.0, -27.5]]]}, "properties": {"cell_id": "54_25", "lon": 136.25, "lat": -26.25}}, {"type": "Feature", "geometry": {"type": "Polygon", "coordinates": [[[135.0, -25.0], [135.0, -22.5], [137.5, -22.5], [137.5, -25.0], [135.0, -25.0]]]}, "properties": {"cell_id": "54_26", "lon": 136.25, "lat": -23.75}}, {"type": "Feature", "geometry": {"type": "Polygon", "coordinates": [[[135.0, -22.5], [135.0, -20.0], [137.5, -20.0], [137.5, -22.5], [135.0, -22.5]]]}, "properties": {"cell_id": "54_27", "lon": 136.25, "lat": -21.25}}, {"type": "Feature", "geometry": {"type": "Polygon", "coordinates": [[[137.5, -30.0], [137.5, -27.5], [140.0, -27.5], [140.0, -30.0], [137.5, -30.0]]]}, "properties": {"cell_id": "55_24", "lon": 138.75, "lat": -28.75}}, {"type": "Feature", "geometry": {"type": "Polygon", "coordinates": [[[137.5, -27.5], [137.5, -25.0], [140.0, -25.0], [140.0, -27.5], [137.5, -27.5]]]}, "properties": {"cell_id": "55_25", "lon": 138.75, "lat": -26.25}}, {"type": "Feature", "geometry": {"type": "Polygon", "coordinates": [[[137.5, -25.0], [137.5, -22.5], [140.0, -22.5], [140.0, -25.0], [137.5, -25.0]]]}, "properties": {"cell_id": "55_26", "lon": 138.75, "lat": -23.75}}, {"type": "Feature", "geometry": {"type": "Polygon", "coordinates": [[[137.5, -22.5], [137.5, -20.0], [140.0, -20.0], [140.0, -22.5], [137.5, -22.5]]]}, "properties": {"cell_id": "55_27", "lon": 138.75, "lat": -21.25}}]}