{"type": "FeatureCollection", "features": [{"type": "Feature", "geometry": {"type": "Polygon", "coordinates": [[[60.0, 30.0], [60.0, 32.5], [62.5, 32.5], [62.5, 30.0], [60.0, 30.0]]]}, "properties": {"cell_id": "24_48", "lon": 61.25, "lat": 31.25}}, {"type": "Feature", "geometry": {"type": "Polygon", "coordinates": [[[60.0, 32.5], [60.0, 35.0], [62.5, 35.0], [62.5, 32.5], [60.0, 32.5]]]}, "properties": {"cell_id": "24_49", "lon": 61.25, "lat": 33.75}}, {"type": "Feature", "geometry": {"type": "Polygon", "coordinates": [[[60.0, 35.0], [60.0, 37.5], [62.5, 37.5], [62.5, 35.0], [60.0, 35.0]]]}, "properties": {"cell_id": "24_50", "lon": 61.25, "lat": 36.25}}, {"type": "Feature", "geometry": {"type": "Polygon", "coordinates": [[[60.0, 37.5], [60.0, 40.0], [62.5, 40.0], [62.5, 37.5], [60.0, 37.5]]]}, "properties": {"cell_id": "24_51", "lon": 61.25, "lat": 38.75}}, {"type": "Feature", "geometry": {"type": "Polygon", "coordinates": [[[62.5, 30.0], [62.5, 32.5], [65.0, 32.5], [65.0, 30.0], [62.5, 30.0]]]}, "properties": {"cell_id": "25_48", "lon": 63.75, "lat": 31.25}}, {"type": "Feature", "geometry": {"type": "Polygon", "coordinates": [[[62.5, 32.5], [62.5, 35.0], [65.0, 35.0], [65.0, 32.5], [62.5, 32.5]]]}, "properties": {"cell_id": "25_49", "lon": 63.75, "lat": 33.75}}, {"type": "Feature", "geometry": {"type": "Polygon", "coordinates": [[[62.5, 35.0], [62.5, 37.5], [65.0, 37.5], [65.0, 35.0], [62.5, 35.0]]]}, "properties": {"cell_id": "25_50", "lon": 63.75, "lat": 36.25}}, {"type": "Feature", "geometry": {"type": "Polygon", "coordinates": [[[62.5, 37.5], [62.5, 40.0], [65.0, 40.0], [65.0, 37.5], [62.5, 37.5]]]}, "properties": {"cell_id": "25_51", "lon": 63.75, "lat": 38.75}}, {"type": "Feature", "geometry": {"type": "Polygon", "coordinates": [[[65.0, 30.0], [65.0, 32.5], [67.5, 32.5], [67.5, 30.0], [65.0, 30.0]]]}, "properties": {"cell_id": "26_48", "lon": 66.25, "lat": 31.25}}, {"type": "Feature", "geometry": {"type": "Polygon", "coordinates": [[[65.0, 32.5], [65.0, 35.0], [67.5, 35.0], [67.5, 32.5], [65.0, 32.5]]]}, "properties": {"cell_id": "26_49", "lon": 66.25, "lat": 33.75}}, {"type": "Feature", "geometry": {"type": "Polygon", "coordinates": [[[65.0, 35.0], [65.0, 37.5], [67.5, 37.5], [67.5, 35.0], [65.0, 35.0]]]}, "properties": {"cell_id": "26_50", "lon": 66.25, "lat": 36.25}}, {"type": "Feature", "geometry": {"type": "Polygon", "coordinates": [[[65.0, 37.5], [65.0, 40.0], [67.5, 40.0], [67.5, 37.5], [65.0, 37.5]]]}, "properties": {"cell_id": "26_51", "lon": 66.25, "lat": 38.75}}, {"type": "Feature", "geometry": {"type": "Polygon", "coordinates": [[[67.5, 30.0], [67.5, 32.5], [70.0, 32.5], [70.0, 30.0], [67.5, 30.0]]]}, "properties": {"cell_id": "27_48", "lon": 68.75, "lat": 31.25}}, {"type": "Feature", "geometry": {"type": "Polygon", "coordinates": [[[67.5, 32.5], [67.5, 35.0], [70.0, 35.0], [70.0, 32.5], [67.5, 32.5]]]}, "properties": {"cell_id": "27_49", "lon": 68.75, "lat": 33.75}}, {"type": "Feature", "geometry": {"type": "Polygon", "coordinates": [[[67.5, 35.0], [67.5, 37.5], [70.0, 37.5], [70.0, 35.0], [67.5, 35.0]]]}, "properties": {"cell_id": "27_50", "lon": 68.75, "lat": 36.25}}, {"type": "Feature", "geometry": {"type": "Polygon", "coordinates": [[[67.5, 37.5], [67.5, 40.0], [70.0, 40.0], [70.0, 37.5], [67.5, 37.5]]]}, "properties": {"cell_id": "27_51", "lon": 68.75, "lat": 38.75}}]}