{"type": "FeatureCollection", "features": [{"type": "Feature", "geometry": {"type": "Polygon", "coordinates": [[[-80.0, 70.0], [-80.0, 72.5], [-77.5, 72.5], [-77.5, 70.0], [-80.0, 70.0]]]}, "properties": {"cell_id": "112_64", "lon": -78.75, "lat": 71.25}}, {"type": "Feature", "geometry": {"type": "Polygon", "coordinates": [[[-80.0, 77.5], [-80.0, 80.0], [-77.5, 80.0], [-77.5, 77.5], [-80.0, 77.5]]]}, "properties": {"cell_id": "112_67", "lon": -78.75, "lat": 78.75}}, {"type": "Feature", "geometry": {"type": "Polygon", "coordinates": [[[-77.5, 70.0], [-77.5, 72.5], [-75.0, 72.5], [-75.0, 70.0], [-77.5, 70.0]]]}, "properties": {"cell_id": "113_64", "lon": -76.25, "lat": 71.25}}, {"type": "Feature", "geometry": {"type": "Polygon", "coordinates": [[[-77.5, 77.5], [-77.5, 80.0], [-75.0, 80.0], [-75.0, 77.5], [-77.5, 77.5]]]}, "properties": {"cell_id": "113_67", "lon": -76.25, "lat": 78.75}}, {"type": "Feature", "geometry": {"type": "Polygon", "coordinates": [[[-75.0, 70.0], [-75.0, 72.5], [-72.5, 72.5], [-72.5, 70.0], [-75.0, 70.0]]]}, "properties": {"cell_id": "114_64", "lon": -73.75, "lat": 71.25}}]}