{"type": "FeatureCollection", "features": [{"type": "Feature", "geometry": {"type": "Polygon", "coordinates": [[[-18.75, -90.0], [-18.75, -88.5], [-17.25, -88.5], [-17.25, -90.0], [-18.75, -90.0]]]}, "properties": {"cell_id": "228_0", "lon": -18.0, "lat": -89.25}}, {"type": "Feature", "geometry": {"type": "Polygon", "coordinates": [[[-18.75, -88.5], [-18.75, -87.0], [-17.25, -87.0], [-17.25, -88.5], [-18.75, -88.5]]]}, "properties": {"cell_id": "228_1", "lon": -18.0, "lat": -87.75}}, {"type": "Feature", "geometry": {"type": "Polygon", "coordinates": [[[-18.75, -87.0], [-18.75, -85.5], [-17.25, -85.5], [-17.25, -87.0], [-18.75, -87.0]]]}, "properties": {"cell_id": "228_2", "lon": -18.0, "lat": -86.25}}, {"type": "Feature", "geometry": {"type": "Polygon", "coordinates": [[[-18.75, -85.5], [-18.75, -84.0], [-17.25, -84.0], [-17.25, -85.5], [-18.75, -85.5]]]}, "properties": {"cell_id": "228_3", "lon": -18.0, "lat": -84.75}}, {"type": "Feature", "geometry": {"type": "Polygon", "coordinates": [[[-18.75, -84.0], [-18.75, -82.5], [-17.25, -82.5], [-17.25, -84.0], [-18.75, -84.0]]]}, "properties": {"cell_id": "228_4", "lon": -18.0, "lat": -83.25}}, {"type": "Feature", "geometry": {"type": "Polygon", "coordinates": [[[-18.75, -82.5], [-18.75, -81.0], [-17.25, -81.0], [-17.25, -82.5], [-18.75, -82.5]]]}, "properties": {"cell_id": "228_5", "lon": -18.0, "lat": -81.75}}, {"type": "Feature", "geometry": {"type": "Polygon", "coordinates": [[[-18.75, -81.0], [-18.75, -79.5], [-17.25, -79.5], [-17.25, -81.0], [-18.75, -81.0]]]}, "properties": {"cell_id": "228_6", "lon": -18.0, "lat": -80.25}}, {"type": "Feature", "geometry": {"type": "Polygon", "coordinates": [[[-17.25, -90.0], [-17.25, -88.5], [-15.75, -88.5], [-15.75, -90.0], [-17.25, -90.0]]]}, "properties": {"cell_id": "229_0", "lon": -16.5, "lat": -89.25}}, {"type": "Feature", "geometry": {"type": "Polygon", "coordinates": [[[-17.25, -88.5], [-17.25, -87.0], [-15.75, -87.0], [-15.75, -88.5], [-17.25, -88.5]]]}, "properties": {"cell_id": "229_1", "lon": -16.5, "lat": -87.75}}, {"type": "Feature", "geometry": {"type": "Polygon", "coordinates": [[[-17.25, -87.0], [-17.25, -85.5], [-15.75, -85.5], [-15.75, -87.0], [-17.25, -87.0]]]}, "properties": {"cell_id": "229_2", "lon": -16.5, "lat": -86.25}}, {"type": "Feature", "geometry": {"type": "Polygon", "coordinates": [[[-17.25, -85.5], [-17.25, -84.0], [-15.75, -84.0], [-15.75, -85.5], [-17.25, -85.5]]]}, "properties": {"cell_id": "229_3", "lon": -16.5, "lat": -84.75}}, {"type": "Feature", "geometry": {"type": "Polygon", "coordinates": [[[-17.25, -84.0], [-17.25, -82.5], [-15.75, -82.5], [-15.75, -84.0], [-17.25, -84.0]]]}, "properties": {"cell_id": "229_4", "lon": -16.5, "lat": -83.25}}, {"type": "Feature", "geometry": {"type": "Polygon", "coordinates": [[[-17.25, -82.5], [-17.25, -81.0], [-15.75, -81.0], [-15.75, -82.5], [-17.25, -82.5]]]}, "properties": {"cell_id": "229_5", "lon": -16.5, "lat": -81.75}}, {"type": "Feature", "geometry": {"type": "Polygon", "coordinates": [[[-17.25, -81.0], [-17.25, -79.5], [-15.75, -79.5], [-15.75, -81.0], [-17.25, -81.0]]]}, "properties": {"cell_id": "229_6", "lon": -16.5, "lat": -80.25}}, {"type": "Feature", "geometry": {"type": "Polygon", "coordinates": [[[-15.75, -90.0], [-15.75, -88.5], [-14.25, -88.5], [-14.25, -90.0], [-15.75, -90.0]]]}, "properties": {"cell_id": "230_0", "lon": -15.0, "lat": -89.25}}, {"type": "Feature", "geometry": {"type": "Polygon", "coordinates": [[[-15.75, -88.5], [-15.75, -87.0], [-14.25, -87.0], [-14.25, -88.5], [-15.75, -88.5]]]}, "properties": {"cell_id": "230_1", "lon": -15.0, "lat": -87.75}}, {"type": "Feature", "geometry": {"type": "Polygon", "coordinates": [[[-15.75, -87.0], [-15.75, -85.5], [-14.25, -85.5], [-14.25, -87.0], [-15.75, -87.0]]]}, "properties": {"cell_id": "230_2", "lon": -15.0, "lat": -86.25}}, {"type": "Feature", "geometry": {"type": "Polygon", "coordinates": [[[-15.75, -85.5], [-15.75, -84.0], [-14.25, -84.0], [-14.25, -85.5], [-15.75, -85.5]]]}, "properties": {"cell_id": "230_3", "lon": -15.0, "lat": -84.75}}, {"type": "Feature", "geometry": {"type": "Polygon", "coordinates": [[[-15.75, -84.0], [-15.75, -82.5], [-14.25, -82.5], [-14.25, -84.0], [-15.75, -84.0]]]}, "properties": {"cell_id": "230_4", "lon": -15.0, "lat": -83.25}}, {"type": "Feature", "geometry": {"type": "Polygon", "coordinates": [[[-15.75, -82.5], [-15.75, -81.0], [-14.25, -81.0], [-14.25, -82.5], [-15.75, -82.5]]]}, "properties": {"cell_id": "230_5", "lon": -15.0, "lat": -81.75}}, {"type": "Feature", "geometry": {"type": "Polygon", "coordinates": [[[-15.75, -81.0], [-15.75, -79.5], [-14.25, -79.5], [-14.25, -81.0], [-15.75, -81.0]]]}, "properties": {"cell_id": "230_6", "lon": -15.0, "lat": -80.25}}, {"type": "Feature", "geometry": {"type": "Polygon", "coordinates": [[[-14.25, -90.0], [-14.25, -88.5], [-12.75, -88.5], [-12.75, -90.0], [-14.25, -90.0]]]}, "properties": {"cell_id": "231_0", "lon": -13.5, "lat": -89.25}}, {"type": "Feature", "geometry": {"type": "Polygon", "coordinates": [[[-14.25, -88.5], [-14.25, -87.0], [-12.75, -87.0], [-12.75, -88.5], [-14.25, -88.5]]]}, "properties": {"cell_id": "231_1", "lon": -13.5, "lat": -87.75}}, {"type": "Feature", "geometry": {"type": "Polygon", "coordinates": [[[-14.25, -87.0], [-14.25, -85.5], [-12.75, -85.5], [-12.75, -87.0], [-14.25, -87.0]]]}, "properties": {"cell_id": "231_2", "lon": -13.5, "lat": -86.25}}, {"type": "Feature", "geometry": {"type": "Polygon", "coordinates": [[[-14.25, -85.5], [-14.25, -84.0], [-12.75, -84.0], [-12.75, -85.5], [-14.25, -85.5]]]}, "properties": {"cell_id": "231_3", "lon": -13.5, "lat": -84.75}}, {"type": "Feature", "geometry": {"type": "Polygon", "coordinates": [[[-14.25, -84.0], [-14.25, -82.5], [-12.75, -82.5], [-12.75, -84.0], [-14.25, -84.0]]]}, "properties": {"cell_id": "231_4", "lon": -13.5, "lat": -83.25}}, {"type": "Feature", "geometry": {"type": "Polygon", "coordinates": [[[-14.25, -82.5], [-14.25, -81.0], [-12.75, -81.0], [-12.75, -82.5], [-14.25, -82.5]]]}, "properties": {"cell_id": "231_5", "lon": -13.5, "lat": -81.75}}, {"type": "Feature", "geometry": {"type": "Polygon", "coordinates": [[[-14.25, -81.0], [-14.25, -79.5], [-12.75, -79.5], [-12.75, -81.0], [-14.25, -81.0]]]}, "properties": {"cell_id": "231_6", "lon": -13.5, "lat": -80.25}}, {"type": "Feature", "geometry": {"type": "Polygon", "coordinates": [[[-12.75, -90.0], [-12.75, -88.5], [-11.25, -88.5], [-11.25, -90.0], [-12.75, -90.0]]]}, "properties": {"cell_id": "232_0", "lon": -12.0, "lat": -89.25}}, {"type": "Feature", "geometry": {"type": "Polygon", "coordinates": [[[-12.75, -88.5], [-12.75, -87.0], [-11.25, -87.0], [-11.25, -88.5], [-12.75, -88.5]]]}, "properties": {"cell_id": "232_1", "lon": -12.0, "lat": -87.75}}, {"type": "Feature", "geometry": {"type": "Polygon", "coordinates": [[[-12.75, -87.0], [-12.75, -85.5], [-11.25, -85.5], [-11.25, -87.0], [-12.75, -87.0]]]}, "properties": {"cell_id": "232_2", "lon": -12.0, "lat": -86.25}}, {"type": "Feature", "geometry": {"type": "Polygon", "coordinates": [[[-12.75, -85.5], [-12.75, -84.0], [-11.25, -84.0], [-11.25, -85.5], [-12.75, -85.5]]]}, "properties": {"cell_id": "232_3", "lon": -12.0, "lat": -84.75}}, {"type": "Feature", "geometry": {"type": "Polygon", "coordinates": [[[-12.75, -84.0], [-12.75, -82.5], [-11.25, -82.5], [-11.25, -84.0], [-12.75, -84.0]]]}, "properties": {"cell_id": "232_4", "lon": -12.0, "lat": -83.25}}, {"type": "Feature", "geometry": {"type": "Polygon", "coordinates": [[[-12.75, -82.5], [-12.75, -81.0], [-11.25, -81.0], [-11.25, -82.5], [-12.75, -82.5]]]}, "properties": {"cell_id": "232_5", "lon": -12.0, "lat": -81.75}}, {"type": "Feature", "geometry": {"type": "Polygon", "coordinates": [[[-12.75, -81.0], [-12.75, -79.5], [-11.25, -79.5], [-11.25, -81.0], [-12.75, -81.0]]]}, "properties": {"cell_id": "232_6", "lon": -12.0, "lat": -80.25}}, {"type": "Feature", "geometry": {"type": "Polygon", "coordinates": [[[-11.25, -90.0], [-11.25, -88.5], [-9.75, -88.5], [-9.75, -90.0], [-11.25, -90.0]]]}, "properties": {"cell_id": "233_0", "lon": -10.5, "lat": -89.25}}, {"type": "Feature", "geometry": {"type": "Polygon", "coordinates": [[[-11.25, -88.5], [-11.25, -87.0], [-9.75, -87.0], [-9.75, -88.5], [-11.25, -88.5]]]}, "properties": {"cell_id": "233_1", "lon": -10.5, "lat": -87.75}}, {"type": "Feature", "geometry": {"type": "Polygon", "coordinates": [[[-11.25, -87.0], [-11.25, -85.5], [-9.75, -85.5], [-9.75, -87.0], [-11.25, -87.0]]]}, "properties": {"cell_id": "233_2", "lon": -10.5, "lat": -86.25}}, {"type": "Feature", "geometry": {"type": "Polygon", "coordinates": [[[-11.25, -85.5], [-11.25, -84.0], [-9.75, -84.0], [-9.75, -85.5], [-11.25, -85.5]]]}, "properties": {"cell_id": "233_3", "lon": -10.5, "lat": -84.75}}, {"type": "Feature", "geometry": {"type": "Polygon", "coordinates": [[[-11.25, -84.0], [-11.25, -82.5], [-9.75, -82.5], [-9.75, -84.0], [-11.25, -84.0]]]}, "properties": {"cell_id": "233_4", "lon": -10.5, "lat": -83.25}}, {"type": "Feature", "geometry": {"type": "Polygon", "coordinates": [[[-11.25, -82.5], [-11.25, -81.0], [-9.75, -81.0], [-9.75, -82.5], [-11.25, -82.5]]]}, "properties": {"cell_id": "233_5", "lon": -10.5, "lat": -81.75}}, {"type": "Feature", "geometry": {"type": "Polygon", "coordinates": [[[-11.25, -81.0], [-11.25, -79.5], [-9.75, -79.5], [-9.75, -81.0], [-11.25, -81.0]]]}, "properties": {"cell_id": "233_6", "lon": -10.5, "lat": -80.25}}]}