{"type": "FeatureCollection", "features": [{"type": "Feature", "geometry": {"type": "Polygon", "coordinates": [[[-40.0, -10.0], [-40.0, -7.5], [-37.5, -7.5], [-37.5, -10.0], [-40.0, -10.0]]]}, "properties": {"cell_id": "128_32", "lon": -38.75, "lat": -8.75}}, {"type": "Feature", "geometry": {"type": "Polygon", "coordinates": [[[-40.0, -7.5], [-40.0, -5.0], [-37.5, -5.0], [-37.5, -7.5], [-40.0, -7.5]]]}, "properties": {"cell_id": "128_33", "lon": -38.75, "lat": -6.25}}, {"type": "Feature", "geometry": {"type": "Polygon", "coordinates": [[[-40.0, -5.0], [-40.0, -2.5], [-37.5, -2.5], [-37.5, -5.0], [-40.0, -5.0]]]}, "properties": {"cell_id": "128_34", "lon": -38.75, "lat": -3.75}}, {"type": "Feature", "geometry": {"type": "Polygon", "coordinates": [[[-37.5, -10.0], [-37.5, -7.5], [-35.0, -7.5], [-35.0, -10.0], [-37.5, -10.0]]]}, "properties": {"cell_id": "129_32", "lon": -36.25, "lat": -8.75}}, {"type": "Feature", "geometry": {"type": "Polygon", "coordinates": [[[-37.5, -7.5], [-37.5, -5.0], [-35.0, -5.0], [-35.0, -7.5], [-37.5, -7.5]]]}, "properties": {"cell_id": "129_33", "lon": -36.25, "lat": -6.25}}]}