{"type": "FeatureCollection", "features": [{"type": "Feature", "geometry": {"type": "Polygon", "coordinates": [[[-69.75, 61.5], [-69.75, 63.0], [-68.25, 63.0], [-68.25, 61.5], [-69.75, 61.5]]]}, "properties": {"cell_id": "194_101", "lon": -69.0, "lat": 62.25}}, {"type": "Feature", "geometry": {"type": "Polygon", "coordinates": [[[-69.75, 63.0], [-69.75, 64.5], [-68.25, 64.5], [-68.25, 63.0], [-69.75, 63.0]]]}, "properties": {"cell_id": "194_102", "lon": -69.0, "lat": 63.75}}, {"type": "Feature", "geometry": {"type": "Polygon", "coordinates": [[[-69.75, 64.5], [-69.75, 66.0], [-68.25, 66.0], [-68.25, 64.5], [-69.75, 64.5]]]}, "properties": {"cell_id": "194_103", "lon": -69.0, "lat": 65.25}}, {"type": "Feature", "geometry": {"type": "Polygon", "coordinates": [[[-69.75, 66.0], [-69.75, 67.5], [-68.25, 67.5], [-68.25, 66.0], [-69.75, 66.0]]]}, "properties": {"cell_id": "194_104", "lon": -69.0, "lat": 66.75}}, {"type": "Feature", "geometry": {"type": "Polygon", "coordinates": [[[-69.75, 67.5], [-69.75, 69.0], [-68.25, 69.0], [-68.25, 67.5], [-69.75, 67.5]]]}, "properties": {"cell_id": "194_105", "lon": -69.0, "lat": 68.25}}, {"type": "Feature", "geometry": {"type": "Polygon", "coordinates": [[[-69.75, 69.0], [-69.75, 70.5], [-68.25, 70.5], [-68.25, 69.0], [-69.75, 69.0]]]}, "properties": {"cell_id": "194_106", "lon": -69.0, "lat": 69.75}}, {"type": "Feature", "geometry": {"type": "Polygon", "coordinates": [[[-68.25, 61.5], [-68.25, 63.0], [-66.75, 63.0], [-66.75, 61.5], [-68.25, 61.5]]]}, "properties": {"cell_id": "195_101", "lon": -67.5, "lat": 62.25}}, {"type": "Feature", "geometry": {"type": "Polygon", "coordinates": [[[-68.25, 63.0], [-68.25, 64.5], [-66.75, 64.5], [-66.75, 63.0], [-68.25, 63.0]]]}, "properties": {"cell_id": "195_102", "lon": -67.5, "lat": 63.75}}, {"type": "Feature", "geometry": {"type": "Polygon", "coordinates": [[[-68.25, 64.5], [-68.25, 66.0], [-66.75, 66.0], [-66.75, 64.5], [-68.25, 64.5]]]}, "properties": {"cell_id": "195_103", "lon": -67.5, "lat": 65.25}}, {"type": "Feature", "geometry": {"type": "Polygon", "coordinates": [[[-68.25, 66.0], [-68.25, 67.5], [-66.75, 67.5], [-66.75, 66.0], [-68.25, 66.0]]]}, "properties": {"cell_id": "195_104", "lon": -67.5, "lat": 66.75}}, {"type": "Feature", "geometry": {"type": "Polygon", "coordinates": [[[-68.25, 67.5], [-68.25, 69.0], [-66.75, 69.0], [-66.75, 67.5], [-68.25, 67.5]]]}, "properties": {"cell_id": "195_105", "lon": -67.5, "lat": 68.25}}, {"type": "Feature", "geometry": {"type": "Polygon", "coordinates": [[[-68.25, 69.0], [-68.25, 70.5], [-66.75, 70.5], [-66.75, 69.0], [-68.25, 69.0]]]}, "properties": {"cell_id": "195_106", "lon": -67.5, "lat": 69.75}}, {"type": "Feature", "geometry": {"type": "Polygon", "coordinates": [[[-66.75, 61.5], [-66.75, 63.0], [-65.25, 63.0], [-65.25, 61.5], [-66.75, 61.5]]]}, "properties": {"cell_id": "196_101", "lon": -66.0, "lat": 62.25}}, {"type": "Feature", "geometry": {"type": "Polygon", "coordinates": [[[-66.75, 63.0], [-66.75, 64.5], [-65.25, 64.5], [-65.25, 63.0], [-66.75, 63.0]]]}, "properties": {"cell_id": "196_102", "lon": -66.0, "lat": 63.75}}, {"type": "Feature", "geometry": {"type": "Polygon", "coordinates": [[[-66.75, 64.5], [-66.75, 66.0], [-65.25, 66.0], [-65.25, 64.5], [-66.75, 64.5]]]}, "properties": {"cell_id": "196_103", "lon": -66.0, "lat": 65.25}}, {"type": "Feature", "geometry": {"type": "Polygon", "coordinates": [[[-66.75, 66.0], [-66.75, 67.5], [-65.25, 67.5], [-65.25, 66.0], [-66.75, 66.0]]]}, "properties": {"cell_id": "196_104", "lon": -66.0, "lat": 66.75}}, {"type": "Feature", "geometry": {"type": "Polygon", "coordinates": [[[-66.75, 67.5], [-66.75, 69.0], [-65.25, 69.0], [-65.25, 67.5], [-66.75, 67.5]]]}, "properties": {"cell_id": "196_105", "lon": -66.0, "lat": 68.25}}, {"type": "Feature", "geometry": {"type": "Polygon", "coordinates": [[[-65.25, 63.0], [-65.25, 64.5], [-63.75, 64.5], [-63.75, 63.0], [-65.25, 63.0]]]}, "properties": {"cell_id": "197_102", "lon": -64.5, "lat": 63.75}}, {"type": "Feature", "geometry": {"type": "Polygon", "coordinates": [[[-65.25, 64.5], [-65.25, 66.0], [-63.75, 66.0], [-63.75, 64.5], [-65.25, 64.5]]]}, "properties": {"cell_id": "197_103", "lon": -64.5, "lat": 65.25}}, {"type": "Feature", "geometry": {"type": "Polygon", "coordinates": [[[-65.25, 66.0], [-65.25, 67.5], [-63.75, 67.5], [-63.75, 66.0], [-65.25, 66.0]]]}, "properties": {"cell_id": "197_104", "lon": -64.5, "lat": 66.75}}, {"type": "Feature", "geometry": {"type": "Polygon", "coordinates": [[[-63.75, 64.5], [-63.75, 66.0], [-62.25, 66.0], [-62.25, 64.5], [-63.75, 64.5]]]}, "properties": {"cell_id": "198_103", "lon": -63.0, "lat": 65.25}}, {"type": "Feature", "geometry": {"type": "Polygon", "coordinates": [[[-63.75, 66.0], [-63.75, 67.5], [-62.25, 67.5], [-62.25, 66.0], [-63.75, 66.0]]]}, "properties": {"cell_id": "198_104", "lon": -63.0, "lat": 66.75}}]}