{"type": "FeatureCollection", "features": [{"type": "Feature", "geometry": {"type": "Polygon", "coordinates": [[[-138.75, 58.5], [-138.75, 60.0], [-137.25, 60.0], [-137.25, 58.5], [-138.75, 58.5]]]}, "properties": {"cell_id": "148_99", "lon": -138.0, "lat": 59.25}}, {"type": "Feature", "geometry": {"type": "Polygon", "coordinates": [[[-137.25, 57.0], [-137.25, 58.5], [-135.75, 58.5], [-135.75, 57.0], [-137.25, 57.0]]]}, "properties": {"cell_id": "149_98", "lon": -136.5, "lat": 57.75}}, {"type": "Feature", "geometry": {"type": "Polygon", "coordinates": [[[-137.25, 58.5], [-137.25, 60.0], [-135.75, 60.0], [-135.75, 58.5], [-137.25, 58.5]]]}, "properties": {"cell_id": "149_99", "lon": -136.5, "lat": 59.25}}, {"type": "Feature", "geometry": {"type": "Polygon", "coordinates": [[[-135.75, 55.5], [-135.75, 57.0], [-134.25, 57.0], [-134.25, 55.5], [-135.75, 55.5]]]}, "properties": {"cell_id": "150_97", "lon": -135.0, "lat": 56.25}}, {"type": "Feature", "geometry": {"type": "Polygon", "coordinates": [[[-135.75, 57.0], [-135.75, 58.5], [-134.25, 58.5], [-134.25, 57.0], [-135.75, 57.0]]]}, "properties": {"cell_id": "150_98", "lon": -135.0, "lat": 57.75}}, {"type": "Feature", "geometry": {"type": "Polygon", "coordinates": [[[-135.75, 58.5], [-135.75, 60.0], [-134.25, 60.0], [-134.25, 58.5], [-135.75, 58.5]]]}, "properties": {"cell_id": "150_99", "lon": -135.0, "lat": 59.25}}, {"type": "Feature", "geometry": {"type": "Polygon", "coordinates": [[[-134.25, 55.5], [-134.25, 57.0], [-132.75, 57.0], [-132.75, 55.5], [-134.25, 55.5]]]}, "properties": {"cell_id": "151_97", "lon": -133.5, "lat": 56.25}}, {"type": "Feature", "geometry": {"type": "Polygon", "coordinates": [[[-134.25, 57.0], [-134.25, 58.5], [-132.75, 58.5], [-132.75, 57.0], [-134.25, 57.0]]]}, "properties": {"cell_id": "151_98", "lon": -133.5, "lat": 57.75}}, {"type": "Feature", "geometry": {"type": "Polygon", "coordinates": [[[-134.25, 58.5], [-134.25, 60.0], [-132.75, 60.0], [-132.75, 58.5], [-134.25, 58.5]]]}, "properties": {"cell_id": "151_99", "lon": -133.5, "lat": 59.25}}, {"type": "Feature", "geometry": {"type": "Polygon", "coordinates": [[[-132.75, 54.0], [-132.75, 55.5], [-131.25, 55.5], [-131.25, 54.0], [-132.75, 54.0]]]}, "properties": {"cell_id": "152_96", "lon": -132.0, "lat": 54.75}}, {"type": "Feature", "geometry": {"type": "Polygon", "coordinates": [[[-132.75, 55.5], [-132.75, 57.0], [-131.25, 57.0], [-131.25, 55.5], [-132.75, 55.5]]]}, "properties": {"cell_id": "152_97", "lon": -132.0, "lat": 56.25}}, {"type": "Feature", "geometry": {"type": "Polygon", "coordinates": [[[-132.75, 57.0], [-132.75, 58.5], [-131.25, 58.5], [-131.25, 57.0], [-132.75, 57.0]]]}, "properties": {"cell_id": "152_98", "lon": -132.0, "lat": 57.75}}, {"type": "Feature", "geometry": {"type": "Polygon", "coordinates": [[[-132.75, 58.5], [-132.75, 60.0], [-131.25, 60.0], [-131.25, 58.5], [-132.75, 58.5]]]}, "properties": {"cell_id": "152_99", "lon": -132.0, "lat": 59.25}}, {"type": "Feature", "geometry": {"type": "Polygon", "coordinates": [[[-131.25, 52.5], [-131.25, 54.0], [-129.75, 54.0], [-129.75, 52.5], [-131.25, 52.5]]]}, "properties": {"cell_id": "153_95", "lon": -130.5, "lat": 53.25}}, {"type": "Feature", "geometry": {"type": "Polygon", "coordinates": [[[-131.25, 54.0], [-131.25, 55.5], [-129.75, 55.5], [-129.75, 54.0], [-131.25, 54.0]]]}, "properties": {"cell_id": "153_96", "lon": -130.5, "lat": 54.75}}, {"type": "Feature", "geometry": {"type": "Polygon", "coordinates": [[[-131.25, 55.5], [-131.25, 57.0], [-129.75, 57.0], [-129.75, 55.5], [-131.25, 55.5]]]}, "properties": {"cell_id": "153_97", "lon": -130.5, "lat": 56.25}}, {"type": "Feature", "geometry": {"type": "Polygon", "coordinates": [[[-131.25, 57.0], [-131.25, 58.5], [-129.75, 58.5], [-129.75, 57.0], [-131.25, 57.0]]]}, "properties": {"cell_id": "153_98", "lon": -130.5, "lat": 57.75}}, {"type": "Feature", "geometry": {"type": "Polygon", "coordinates": [[[-131.25, 58.5], [-131.25, 60.0], [-129.75, 60.0], [-129.75, 58.5], [-131.25, 58.5]]]}, "properties": {"cell_id": "153_99", "lon": -130.5, "lat": 59.25}}]}