{"type": "FeatureCollection", "features": [{"type": "Feature", "geometry": {"type": "Polygon", "coordinates": [[[-70.0, -50.0], [-70.0, -47.5], [-67.5, -47.5], [-67.5, -50.0], [-70.0, -50.0]]]}, "properties": {"cell_id": "116_16", "lon": -68.75, "lat": -48.75}}, {"type": "Feature", "geometry": {"type": "Polygon", "coordinates": [[[-70.0, -47.5], [-70.0, -45.0], [-67.5, -45.0], [-67.5, -47.5], [-70.0, -47.5]]]}, "properties": {"cell_id": "116_17", "lon": -68.75, "lat": -46.25}}, {"type": "Feature", "geometry": {"type": "Polygon", "coordinates": [[[-70.0, -45.0], [-70.0, -42.5], [-67.5, -42.5], [-67.5, -45.0], [-70.0, -45.0]]]}, "properties": {"cell_id": "116_18", "lon": -68.75, "lat": -43.75}}, {"type": "Feature", "geometry": {"type": "Polygon", "coordinates": [[[-70.0, -42.5], [-70.0, -40.0], [-67.5, -40.0], [-67.5, -42.5], [-70.0, -42.5]]]}, "properties": {"cell_id": "116_19", "lon": -68.75, "lat": -41.25}}, {"type": "Feature", "geometry": {"type": "Polygon", "coordinates": [[[-67.5, -45.0], [-67.5, -42.5], [-65.0, -42.5], [-65.0, -45.0], [-67.5, -45.0]]]}, "properties": {"cell_id": "117_18", "lon": -66.25, "lat": -43.75}}, {"type": "Feature", "geometry": {"type": "Polygon", "coordinates": [[[-67.5, -42.5], [-67.5, -40.0], [-65.0, -40.0], [-65.0, -42.5], [-67.5, -42.5]]]}, "properties": {"cell_id": "117_19", "lon": -66.25, "lat": -41.25}}]}