{"type": "FeatureCollection", "features": [{"type": "Feature", "geometry": {"type": "Polygon", "coordinates": [[[-70.0, -30.0], [-70.0, -27.5], [-67.5, -27.5], [-67.5, -30.0], [-70.0, -30.0]]]}, "properties": {"cell_id": "116_24", "lon": -68.75, "lat": -28.75}}, {"type": "Feature", "geometry": {"type": "Polygon", "coordinates": [[[-70.0, -27.5], [-70.0, -25.0], [-67.5, -25.0], [-67.5, -27.5], [-70.0, -27.5]]]}, "properties": {"cell_id": "116_25", "lon": -68.75, "lat": -26.25}}, {"type": "Feature", "geometry": {"type": "Polygon", "coordinates": [[[-70.0, -25.0], [-70.0, -22.5], [-67.5, -22.5], [-67.5, -25.0], [-70.0, -25.0]]]}, "properties": {"cell_id": "116_26", "lon": -68.75, "lat": -23.75}}, {"type": "Feature", "geometry": {"type": "Polygon", "coordinates": [[[-70.0, -22.5], [-70.0, -20.0], [-67.5, -20.0], [-67.5, -22.5], [-70.0, -22.5]]]}, "properties": {"cell_id": "116_27", "lon": -68.75, "lat": -21.25}}, {"type": "Feature", "geometry": {"type": "Polygon", "coordinates": [[[-67.5, -30.0], [-67.5, -27.5], [-65.0, -27.5], [-65.0, -30.0], [-67.5, -30.0]]]}, "properties": {"cell_id": "117_24", "lon": -66.25, "lat": -28.75}}, {"type": "Feature", "geometry": {"type": "Polygon", "coordinates": [[[-67.5, -27.5], [-67.5, -25.0], [-65.0, -25.0], [-65.0, -27.5], [-67.5, -27.5]]]}, "properties": {"cell_id": "117_25", "lon": -66.25, "lat": -26.25}}, {"type": "Feature", "geometry": {"type": "Polygon", "coordinates": [[[-67.5, -25.0], [-67.5, -22.5], [-65.0, -22.5], [-65.0, -25.0], [-67.5, -25.0]]]}, "properties": {"cell_id": "117_26", "lon": -66.25, "lat": -23.75}}, {"type": "Feature", "geometry": {"type": "Polygon", "coordinates": [[[-67.5, -22.5], [-67.5, -20.0], [-65.0, -20.0], [-65.0, -22.5], [-67.5, -22.5]]]}, "properties": {"cell_id": "117_27", "lon": -66.25, "lat": -21.25}}, {"type": "Feature", "geometry": {"type": "Polygon", "coordinates": [[[-65.0, -30.0], [-65.0, -27.5], [-62.5, -27.5], [-62.5, -30.0], [-65.0, -30.0]]]}, "properties": {"cell_id": "118_24", "lon": -63.75, "lat": -28.75}}, {"type": "Feature", "geometry": {"type": "Polygon", "coordinates": [[[-65.0, -27.5], [-65.0, -25.0], [-62.5, -25.0], [-62.5, -27.5], [-65.0, -27.5]]]}, "properties": {"cell_id": "118_25", "lon": -63.75, "lat": -26.25}}, {"type": "Feature", "geometry": {"type": "Polygon", "coordinates": [[[-65.0, -25.0], [-65.0, -22.5], [-62.5, -22.5], [-62.5, -25.0], [-65.0, -25.0]]]}, "properties": {"cell_id": "118_26", "lon": -63.75, "lat": -23.75}}, {"type": "Feature", "geometry": {"type": "Polygon", "coordinates": [[[-65.0, -22.5], [-65.0, -20.0], [-62.5, -20.0], [-62.5, -22.5], [-65.0, -22.5]]]}, "properties": {"cell_id": "118_27", "lon": -63.75, "lat": -21.25}}, {"type": "Feature", "geometry": {"type": "Polygon", "coordinates": [[[-62.5, -30.0], [-62.5, -27.5], [-60.0, -27.5], [-60.0, -30.0], [-62.5, -30.0]]]}, "properties": {"cell_id": "119_24", "lon": -61.25, "lat": -28.75}}, {"type": "Feature", "geometry": {"type": "Polygon", "coordinates": [[[-62.5, -27.5], [-62.5, -25.0], [-60.0, -25.0], [-60.0, -27.5], [-62.5, -27.5]]]}, "properties": {"cell_id": "119_25", "lon": -61.25, "lat": -26.25}}, {"type": "Feature", "geometry": {"type": "Polygon", "coordinates": [[[-62.5, -25.0], [-62.5, -22.5], [-60.0, -22.5], [-60.0, -25.0], [-62.5, -25.0]]]}, "properties": {"cell_id": "119_26", "lon": -61.25, "lat": -23.75}}, {"type": "Feature", "geometry": {"type": "Polygon", "coordinates": [[[-62.5, -22.5], [-62.5, -20.0], [-60.0, -20.0], [-60.0, -22.5], [-62.5, -22.5]]]}, "properties": {"cell_id": "119_27", "lon": -61.25, "lat": -21.25}}]}