{"type": "FeatureCollection", "features": [{"type": "Feature", "geometry": {"type": "Polygon", "coordinates": [[[71.25, 19.5], [71.25, 21.0], [72.75, 21.0], [72.75, 19.5], [71.25, 19.5]]]}, "properties": {"cell_id": "48_73", "lon": 72.0, "lat": 20.25}}, {"type": "Feature", "geometry": {"type": "Polygon", "coordinates": [[[72.75, 15.0], [72.75, 16.5], [74.25, 16.5], [74.25, 15.0], [72.75, 15.0]]]}, "properties": {"cell_id": "49_70", "lon": 73.5, "lat": 15.75}}, {"type": "Feature", "geometry": {"type": "Polygon", "coordinates": [[[72.75, 16.5], [72.75, 18.0], [74.25, 18.0], [74.25, 16.5], [72.75, 16.5]]]}, "properties": {"cell_id": "49_71", "lon": 73.5, "lat": 17.25}}, {"type": "Feature", "geometry": {"type": "Polygon", "coordinates": [[[72.75, 18.0], [72.75, 19.5], [74.25, 19.5], [74.25, 18.0], [72.75, 18.0]]]}, "properties": {"cell_id": "49_72", "lon": 73.5, "lat": 18.75}}, {"type": "Feature", "geometry": {"type": "Polygon", "coordinates": [[[72.75, 19.5], [72.75, 21.0], [74.25, 21.0], [74.25, 19.5], [72.75, 19.5]]]}, "properties": {"cell_id": "49_73", "lon": 73.5, "lat": 20.25}}, {"type": "Feature", "geometry": {"type": "Polygon", "coordinates": [[[74.25, 10.5], [74.25, 12.0], [75.75, 12.0], [75.75, 10.5], [74.25, 10.5]]]}, "properties": {"cell_id": "50_67", "lon": 75.0, "lat": 11.25}}, {"type": "Feature", "geometry": {"type": "Polygon", "coordinates": [[[74.25, 12.0], [74.25, 13.5], [75.75, 13.5], [75.75, 12.0], [74.25, 12.0]]]}, "properties": {"cell_id": "50_68", "lon": 75.0, "lat": 12.75}}, {"type": "Feature", "geometry": {"type": "Polygon", "coordinates": [[[74.25, 13.5], [74.25, 15.0], [75.75, 15.0], [75.75, 13.5], [74.25, 13.5]]]}, "properties": {"cell_id": "50_69", "lon": 75.0, "lat": 14.25}}, {"type": "Feature", "geometry": {"type": "Polygon", "coordinates": [[[74.25, 15.0], [74.25, 16.5], [75.75, 16.5], [75.75, 15.0], [74.25, 15.0]]]}, "properties": {"cell_id": "50_70", "lon": 75.0, "lat": 15.75}}, {"type": "Feature", "geometry": {"type": "Polygon", "coordinates": [[[74.25, 16.5], [74.25, 18.0], [75.75, 18.0], [75.75, 16.5], [74.25, 16.5]]]}, "properties": {"cell_id": "50_71", "lon": 75.0, "lat": 17.25}}, {"type": "Feature", "geometry": {"type": "Polygon", "coordinates": [[[74.25, 18.0], [74.25, 19.5], [75.75, 19.5], [75.75, 18.0], [74.25, 18.0]]]}, "properties": {"cell_id": "50_72", "lon": 75.0, "lat": 18.75}}, {"type": "Feature", "geometry": {"type": "Polygon", "coordinates": [[[74.25, 19.5], [74.25, 21.0], [75.75, 21.0], [75.75, 19.5], [74.25, 19.5]]]}, "properties": {"cell_id": "50_73", "lon": 75.0, "lat": 20.25}}, {"type": "Feature", "geometry": {"type": "Polygon", "coordinates": [[[75.75, 10.5], [75.75, 12.0], [77.25, 12.0], [77.25, 10.5], [75.75, 10.5]]]}, "properties": {"cell_id": "51_67", "lon": 76.5, "lat": 11.25}}, {"type": "Feature", "geometry": {"type": "Polygon", "coordinates": [[[75.75, 12.0], [75.75, 13.5], [77.25, 13.5], [77.25, 12.0], [75.75, 12.0]]]}, "properties": {"cell_id": "51_68", "lon": 76.5, "lat": 12.75}}, {"type": "Feature", "geometry": {"type": "Polygon", "coordinates": [[[75.75, 13.5], [75.75, 15.0], [77.25, 15.0], [77.25, 13.5], [75.75, 13.5]]]}, "properties": {"cell_id": "51_69", "lon": 76.5, "lat": 14.25}}, {"type": "Feature", "geometry": {"type": "Polygon", "coordinates": [[[75.75, 15.0], [75.75, 16.5], [77.25, 16.5], [77.25, 15.0], [75.75, 15.0]]]}, "properties": {"cell_id": "51_70", "lon": 76.5, "lat": 15.75}}, {"type": "Feature", "geometry": {"type": "Polygon", "coordinates": [[[75.75, 16.5], [75.75, 18.0], [77.25, 18.0], [77.25, 16.5], [75.75, 16.5]]]}, "properties": {"cell_id": "51_71", "lon": 76.5, "lat": 17.25}}, {"type": "Feature", "geometry": {"type": "Polygon", "coordinates": [[[75.75, 18.0], [75.75, 19.5], [77.25, 19.5], [77.25, 18.0], [75.75, 18.0]]]}, "properties": {"cell_id": "51_72", "lon": 76.5, "lat": 18.75}}, {"type": "Feature", "geometry": {"type": "Polygon", "coordinates": [[[75.75, 19.5], [75.75, 21.0], [77.25, 21.0], [77.25, 19.5], [75.75, 19.5]]]}, "properties": {"cell_id": "51_73", "lon": 76.5, "lat": 20.25}}, {"type": "Feature", "geometry": {"type": "Polygon", "coordinates": [[[77.25, 10.5], [77.25, 12.0], [78.75, 12.0], [78.75, 10.5], [77.25, 10.5]]]}, "properties": {"cell_id": "52_67", "lon": 78.0, "lat": 11.25}}, {"type": "Feature", "geometry": {"type": "Polygon", "coordinates": [[[77.25, 12.0], [77.25, 13.5], [78.75, 13.5], [78.75, 12.0], [77.25, 12.0]]]}, "properties": {"cell_id": "52_68", "lon": 78.0, "lat": 12.75}}, {"type": "Feature", "geometry": {"type": "Polygon", "coordinates": [[[77.25, 13.5], [77.25, 15.0], [78.75, 15.0], [78.75, 13.5], [77.25, 13.5]]]}, "properties": {"cell_id": "52_69", "lon": 78.0, "lat": 14.25}}, {"type": "Feature", "geometry": {"type": "Polygon", "coordinates": [[[77.25, 15.0], [77.25, 16.5], [78.75, 16.5], [78.75, 15.0], [77.25, 15.0]]]}, "properties": {"cell_id": "52_70", "lon": 78.0, "lat": 15.75}}, {"type": "Feature", "geometry": {"type": "Polygon", "coordinates": [[[77.25, 16.5], [77.25, 18.0], [78.75, 18.0], [78.75, 16.5], [77.25, 16.5]]]}, "properties": {"cell_id": "52_71", "lon": 78.0, "lat": 17.25}}, {"type": "Feature", "geometry": {"type": "Polygon", "coordinates": [[[77.25, 18.0], [77.25, 19.5], [78.75, 19.5], [78.75, 18.0], [77.25, 18.0]]]}, "properties": {"cell_id": "52_72", "lon": 78.0, "lat": 18.75}}, {"type": "Feature", "geometry": {"type": "Polygon", "coordinates": [[[77.25, 19.5], [77.25, 21.0], [78.75, 21.0], [78.75, 19.5], [77.25, 19.5]]]}, "properties": {"cell_id": "52_73", "lon": 78.0, "lat": 20.25}}, {"type": "Feature", "geometry": {"type": "Polygon", "coordinates": [[[78.75, 10.5], [78.75, 12.0], [80.25, 12.0], [80.25, 10.5], [78.75, 10.5]]]}, "properties": {"cell_id": "53_67", "lon": 79.5, "lat": 11.25}}, {"type": "Feature", "geometry": {"type": "Polygon", "coordinates": [[[78.75, 12.0], [78.75, 13.5], [80.25, 13.5], [80.25, 12.0], [78.75, 12.0]]]}, "properties": {"cell_id": "53_68", "lon": 79.5, "lat": 12.75}}, {"type": "Feature", "geometry": {"type": "Polygon", "coordinates": [[[78.75, 13.5], [78.75, 15.0], [80.25, 15.0], [80.25, 13.5], [78.75, 13.5]]]}, "properties": {"cell_id": "53_69", "lon": 79.5, "lat": 14.25}}, {"type": "Feature", "geometry": {"type": "Polygon", "coordinates": [[[78.75, 15.0], [78.75, 16.5], [80.25, 16.5], [80.25, 15.0], [78.75, 15.0]]]}, "properties": {"cell_id": "53_70", "lon": 79.5, "lat": 15.75}}, {"type": "Feature", "geometry": {"type": "Polygon", "coordinates": [[[78.75, 16.5], [78.75, 18.0], [80.25, 18.0], [80.25, 16.5], [78.75, 16.5]]]}, "properties": {"cell_id": "53_71", "lon": 79.5, "lat": 17.25}}, {"type": "Feature", "geometry": {"type": "Polygon", "coordinates": [[[78.75, 18.0], [78.75, 19.5], [80.25, 19.5], [80.25, 18.0], [78.75, 18.0]]]}, "properties": {"cell_id": "53_72", "lon": 79.5, "lat": 18.75}}, {"type": "Feature", "geometry": {"type": "Polygon", "coordinates": [[[78.75, 19.5], [78.75, 21.0], [80.25, 21.0], [80.25, 19.5], [78.75, 19.5]]]}, "properties": {"cell_id": "53_73", "lon": 79.5, "lat": 20.25}}]}