{"type": "FeatureCollection", "features": [{"type": "Feature", "geometry": {"type": "Polygon", "coordinates": [[[-69.75, -9.0], [-69.75, -7.5], [-68.25, -7.5], [-68.25, -9.0], [-69.75, -9.0]]]}, "properties": {"cell_id": "194_54", "lon": -69.0, "lat": -8.25}}, {"type": "Feature", "geometry": {"type": "Polygon", "coordinates": [[[-69.75, -7.5], [-69.75, -6.0], [-68.25, -6.0], [-68.25, -7.5], [-69.75, -7.5]]]}, "properties": {"cell_id": "194_55", "lon": -69.0, "lat": -6.75}}, {"type": "Feature", "geometry": {"type": "Polygon", "coordinates": [[[-69.75, -6.0], [-69.75, -4.5], [-68.25, -4.5], [-68.25, -6.0], [-69.75, -6.0]]]}, "properties": {"cell_id": "194_56", "lon": -69.0, "lat": -5.25}}, {"type": "Feature", "geometry": {"type": "Polygon", "coordinates": [[[-69.75, -4.5], [-69.75, -3.0], [-68.25, -3.0], [-68.25, -4.5], [-69.75, -4.5]]]}, "properties": {"cell_id": "194_57", "lon": -69.0, "lat": -3.75}}, {"type": "Feature", "geometry": {"type": "Polygon", "coordinates": [[[-69.75, -3.0], [-69.75, -1.5], [-68.25, -1.5], [-68.25, -3.0], [-69.75, -3.0]]]}, "properties": {"cell_id": "194_58", "lon": -69.0, "lat": -2.25}}, {"type": "Feature", "geometry": {"type": "Polygon", "coordinates": [[[-69.75, -1.5], [-69.75, 0.0], [-68.25, 0.0], [-68.25, -1.5], [-69.75, -1.5]]]}, "properties": {"cell_id": "194_59", "lon": -69.0, "lat": -0.75}}, {"type": "Feature", "geometry": {"type": "Polygon", "coordinates": [[[-68.25, -9.0], [-68.25, -7.5], [-66.75, -7.5], [-66.75, -9.0], [-68.25, -9.0]]]}, "properties": {"cell_id": "195_54", "lon": -67.5, "lat": -8.25}}, {"type": "Feature", "geometry": {"type": "Polygon", "coordinates": [[[-68.25, -7.5], [-68.25, -6.0], [-66.75, -6.0], [-66.75, -7.5], [-68.25, -7.5]]]}, "properties": {"cell_id": "195_55", "lon": -67.5, "lat": -6.75}}, {"type": "Feature", "geometry": {"type": "Polygon", "coordinates": [[[-68.25, -6.0], [-68.25, -4.5], [-66.75, -4.5], [-66.75, -6.0], [-68.25, -6.0]]]}, "properties": {"cell_id": "195_56", "lon": -67.5, "lat": -5.25}}, {"type": "Feature", "geometry": {"type": "Polygon", "coordinates": [[[-68.25, -4.5], [-68.25, -3.0], [-66.75, -3.0], [-66.75, -4.5], [-68.25, -4.5]]]}, "properties": {"cell_id": "195_57", "lon": -67.5, "lat": -3.75}}, {"type": "Feature", "geometry": {"type": "Polygon", "coordinates": [[[-68.25, -3.0], [-68.25, -1.5], [-66.75, -1.5], [-66.75, -3.0], [-68.25, -3.0]]]}, "properties": {"cell_id": "195_58", "lon": -67.5, "lat": -2.25}}, {"type": "Feature", "geometry": {"type": "Polygon", "coordinates": [[[-68.25, -1.5], [-68.25, 0.0], [-66.75, 0.0], [-66.75, -1.5], [-68.25, -1.5]]]}, "properties": {"cell_id": "195_59", "lon": -67.5, "lat": -0.75}}, {"type": "Feature", "geometry": {"type": "Polygon", "coordinates": [[[-66.75, -9.0], [-66.75, -7.5], [-65.25, -7.5], [-65.25, -9.0], [-66.75, -9.0]]]}, "properties": {"cell_id": "196_54", "lon": -66.0, "lat": -8.25}}, {"type": "Feature", "geometry": {"type": "Polygon", "coordinates": [[[-66.75, -7.5], [-66.75, -6.0], [-65.25, -6.0], [-65.25, -7.5], [-66.75, -7.5]]]}, "properties": {"cell_id": "196_55", "lon": -66.0, "lat": -6.75}}, {"type": "Feature", "geometry": {"type": "Polygon", "coordinates": [[[-66.75, -6.0], [-66.75, -4.5], [-65.25, -4.5], [-65.25, -6.0], [-66.75, -6.0]]]}, "properties": {"cell_id": "196_56", "lon": -66.0, "lat": -5.25}}, {"type": "Feature", "geometry": {"type": "Polygon", "coordinates": [[[-66.75, -4.5], [-66.75, -3.0], [-65.25, -3.0], [-65.25, -4.5], [-66.75, -4.5]]]}, "properties": {"cell_id": "196_57", "lon": -66.0, "lat": -3.75}}, {"type": "Feature", "geometry": {"type": "Polygon", "coordinates": [[[-66.75, -3.0], [-66.75, -1.5], [-65.25, -1.5], [-65.25, -3.0], [-66.75, -3.0]]]}, "properties": {"cell_id": "196_58", "lon": -66.0, "lat": -2.25}}, {"type": "Feature", "geometry": {"type": "Polygon", "coordinates": [[[-66.75, -1.5], [-66.75, 0.0], [-65.25, 0.0], [-65.25, -1.5], [-66.75, -1.5]]]}, "properties": {"cell_id": "196_59", "lon": -66.0, "lat": -0.75}}, {"type": "Feature", "geometry": {"type": "Polygon", "coordinates": [[[-65.25, -9.0], [-65.25, -7.5], [-63.75, -7.5], [-63.75, -9.0], [-65.25, -9.0]]]}, "properties": {"cell_id": "197_54", "lon": -64.5, "lat": -8.25}}, {"type": "Feature", "geometry": {"type": "Polygon", "coordinates": [[[-65.25, -7.5], [-65.25, -6.0], [-63.75, -6.0], [-63.75, -7.5], [-65.25, -7.5]]]}, "properties": {"cell_id": "197_55", "lon": -64.5, "lat": -6.75}}, {"type": "Feature", "geometry": {"type": "Polygon", "coordinates": [[[-65.25, -6.0], [-65.25, -4.5], [-63.75, -4.5], [-63.75, -6.0], [-65.25, -6.0]]]}, "properties": {"cell_id": "197_56", "lon": -64.5, "lat": -5.25}}, {"type": "Feature", "geometry": {"type": "Polygon", "coordinates": [[[-65.25, -4.5], [-65.25, -3.0], [-63.75, -3.0], [-63.75, -4.5], [-65.25, -4.5]]]}, "properties": {"cell_id": "197_57", "lon": -64.5, "lat": -3.75}}, {"type": "Feature", "geometry": {"type": "Polygon", "coordinates": [[[-65.25, -3.0], [-65.25, -1.5], [-63.75, -1.5], [-63.75, -3.0], [-65.25, -3.0]]]}, "properties": {"cell_id": "197_58", "lon": -64.5, "lat": -2.25}}, {"type": "Feature", "geometry": {"type": "Polygon", "coordinates": [[[-65.25, -1.5], [-65.25, 0.0], [-63.75, 0.0], [-63.75, -1.5], [-65.25, -1.5]]]}, "properties": {"cell_id": "197_59", "lon": -64.5, "lat": -0.75}}, {"type": "Feature", "geometry": {"type": "Polygon", "coordinates": [[[-63.75, -9.0], [-63.75, -7.5], [-62.25, -7.5], [-62.25, -9.0], [-63.75, -9.0]]]}, "properties": {"cell_id": "198_54", "lon": -63.0, "lat": -8.25}}, {"type": "Feature", "geometry": {"type": "Polygon", "coordinates": [[[-63.75, -7.5], [-63.75, -6.0], [-62.25, -6.0], [-62.25, -7.5], [-63.75, -7.5]]]}, "properties": {"cell_id": "198_55", "lon": -63.0, "lat": -6.75}}, {"type": "Feature", "geometry": {"type": "Polygon", "coordinates": [[[-63.75, -6.0], [-63.75, -4.5], [-62.25, -4.5], [-62.25, -6.0], [-63.75, -6.0]]]}, "properties": {"cell_id": "198_56", "lon": -63.0, "lat": -5.25}}, {"type": "Feature", "geometry": {"type": "Polygon", "coordinates": [[[-63.75, -4.5], [-63.75, -3.0], [-62.25, -3.0], [-62.25, -4.5], [-63.75, -4.5]]]}, "properties": {"cell_id": "198_57", "lon": -63.0, "lat": -3.75}}, {"type": "Feature", "geometry": {"type": "Polygon", "coordinates": [[[-63.75, -3.0], [-63.75, -1.5], [-62.25, -1.5], [-62.25, -3.0], [-63.75, -3.0]]]}, "properties": {"cell_id": "198_58", "lon": -63.0, "lat": -2.25}}, {"type": "Feature", "geometry": {"type": "Polygon", "coordinates": [[[-63.75, -1.5], [-63.75, 0.0], [-62.25, 0.0], [-62.25, -1.5], [-63.75, -1.5]]]}, "properties": {"cell_id": "198_59", "lon": -63.0, "lat": -0.75}}, {"type": "Feature", "geometry": {"type": "Polygon", "coordinates": [[[-62.25, -9.0], [-62.25, -7.5], [-60.75, -7.5], [-60.75, -9.0], [-62.25, -9.0]]]}, "properties": {"cell_id": "199_54", "lon": -61.5, "lat": -8.25}}, {"type": "Feature", "geometry": {"type": "Polygon", "coordinates": [[[-62.25, -7.5], [-62.25, -6.0], [-60.75, -6.0], [-60.75, -7.5], [-62.25, -7.5]]]}, "properties": {"cell_id": "199_55", "lon": -61.5, "lat": -6.75}}, {"type": "Feature", "geometry": {"type": "Polygon", "coordinates": [[[-62.25, -6.0], [-62.25, -4.5], [-60.75, -4.5], [-60.75, -6.0], [-62.25, -6.0]]]}, "properties": {"cell_id": "199_56", "lon": -61.5, "lat": -5.25}}, {"type": "Feature", "geometry": {"type": "Polygon", "coordinates": [[[-62.25, -4.5], [-62.25, -3.0], [-60.75, -3.0], [-60.75, -4.5], [-62.25, -4.5]]]}, "properties": {"cell_id": "199_57", "lon": -61.5, "lat": -3.75}}, {"type": "Feature", "geometry": {"type": "Polygon", "coordinates": [[[-62.25, -3.0], [-62.25, -1.5], [-60.75, -1.5], [-60.75, -3.0], [-62.25, -3.0]]]}, "properties": {"cell_id": "199_58", "lon": -61.5, "lat": -2.25}}, {"type": "Feature", "geometry": {"type": "Polygon", "coordinates": [[[-62.25, -1.5], [-62.25, 0.0], [-60.75, 0.0], [-60.75, -1.5], [-62.25, -1.5]]]}, "properties": {"cell_id": "199_59", "lon": -61.5, "lat": -0.75}}, {"type": "Feature", "geometry": {"type": "Polygon", "coordinates": [[[-60.75, -9.0], [-60.75, -7.5], [-59.25, -7.5], [-59.25, -9.0], [-60.75, -9.0]]]}, "properties": {"cell_id": "200_54", "lon": -60.0, "lat": -8.25}}, {"type": "Feature", "geometry": {"type": "Polygon", "coordinates": [[[-60.75, -7.5], [-60.75, -6.0], [-59.25, -6.0], [-59.25, -7.5], [-60.75, -7.5]]]}, "properties": {"cell_id": "200_55", "lon": -60.0, "lat": -6.75}}, {"type": "Feature", "geometry": {"type": "Polygon", "coordinates": [[[-60.75, -6.0], [-60.75, -4.5], [-59.25, -4.5], [-59.25, -6.0], [-60.75, -6.0]]]}, "properties": {"cell_id": "200_56", "lon": -60.0, "lat": -5.25}}, {"type": "Feature", "geometry": {"type": "Polygon", "coordinates": [[[-60.75, -4.5], [-60.75, -3.0], [-59.25, -3.0], [-59.25, -4.5], [-60.75, -4.5]]]}, "properties": {"cell_id": "200_57", "lon": -60.0, "lat": -3.75}}, {"type": "Feature", "geometry": {"type": "Polygon", "coordinates": [[[-60.75, -3.0], [-60.75, -1.5], [-59.25, -1.5], [-59.25, -3.0], [-60.75, -3.0]]]}, "properties": {"cell_id": "200_58", "lon": -60.0, "lat": -2.25}}, {"type": "Feature", "geometry": {"type": "Polygon", "coordinates": [[[-60.75, -1.5], [-60.75, 0.0], [-59.25, 0.0], [-59.25, -1.5], [-60.75, -1.5]]]}, "properties": {"cell_id": "200_59", "lon": -60.0, "lat": -0.75}}]}