{"type": "FeatureCollection", "features": [{"type": "Feature", "geometry": {"type": "Polygon", "coordinates": [[[110.0, 40.0], [110.0, 42.5], [112.5, 42.5], [112.5, 40.0], [110.0, 40.0]]]}, "properties": {"cell_id": "44_52", "lon": 111.25, "lat": 41.25}}, {"type": "Feature", "geometry": {"type": "Polygon", "coordinates": [[[110.0, 42.5], [110.0, 45.0], [112.5, 45.0], [112.5, 42.5], [110.0, 42.5]]]}, "properties": {"cell_id": "44_53", "lon": 111.25, "lat": 43.75}}, {"type": "Feature", "geometry": {"type": "Polygon", "coordinates": [[[110.0, 45.0], [110.0, 47.5], [112.5, 47.5], [112.5, 45.0], [110.0, 45.0]]]}, "properties": {"cell_id": "44_54", "lon": 111.25, "lat": 46.25}}, {"type": "Feature", "geometry": {"type": "Polygon", "coordinates": [[[110.0, 47.5], [110.0, 50.0], [112.5, 50.0], [112.5, 47.5], [110.0, 47.5]]]}, "properties": {"cell_id": "44_55", "lon": 111.25, "lat": 48.75}}, {"type": "Feature", "geometry": {"type": "Polygon", "coordinates": [[[112.5, 40.0], [112.5, 42.5], [115.0, 42.5], [115.0, 40.0], [112.5, 40.0]]]}, "properties": {"cell_id": "45_52", "lon": 113.75, "lat": 41.25}}, {"type": "Feature", "geometry": {"type": "Polygon", "coordinates": [[[112.5, 42.5], [112.5, 45.0], [115.0, 45.0], [115.0, 42.5], [112.5, 42.5]]]}, "properties": {"cell_id": "45_53", "lon": 113.75, "lat": 43.75}}, {"type": "Feature", "geometry": {"type": "Polygon", "coordinates": [[[112.5, 45.0], [112.5, 47.5], [115.0, 47.5], [115.0, 45.0], [112.5, 45.0]]]}, "properties": {"cell_id": "45_54", "lon": 113.75, "lat": 46.25}}, {"type": "Feature", "geometry": {"type": "Polygon", "coordinates": [[[112.5, 47.5], [112.5, 50.0], [115.0, 50.0], [115.0, 47.5], [112.5, 47.5]]]}, "properties": {"cell_id": "45_55", "lon": 113.75, "lat": 48.75}}, {"type": "Feature", "geometry": {"type": "Polygon", "coordinates": [[[115.0, 40.0], [115.0, 42.5], [117.5, 42.5], [117.5, 40.0], [115.0, 40.0]]]}, "properties": {"cell_id": "46_52", "lon": 116.25, "lat": 41.25}}, {"type": "Feature", "geometry": {"type": "Polygon", "coordinates": [[[115.0, 42.5], [115.0, 45.0], [117.5, 45.0], [117.5, 42.5], [115.0, 42.5]]]}, "properties": {"cell_id": "46_53", "lon": 116.25, "lat": 43.75}}, {"type": "Feature", "geometry": {"type": "Polygon", "coordinates": [[[115.0, 45.0], [115.0, 47.5], [117.5, 47.5], [117.5, 45.0], [115.0, 45.0]]]}, "properties": {"cell_id": "46_54", "lon": 116.25, "lat": 46.25}}, {"type": "Feature", "geometry": {"type": "Polygon", "coordinates": [[[115.0, 47.5], [115.0, 50.0], [117.5, 50.0], [117.5, 47.5], [115.0, 47.5]]]}, "properties": {"cell_id": "46_55", "lon": 116.25, "lat": 48.75}}, {"type": "Feature", "geometry": {"type": "Polygon", "coordinates": [[[117.5, 40.0], [117.5, 42.5], [120.0, 42.5], [120.0, 40.0], [117.5, 40.0]]]}, "properties": {"cell_id": "47_52", "lon": 118.75, "lat": 41.25}}, {"type": "Feature", "geometry": {"type": "Polygon", "coordinates": [[[117.5, 42.5], [117.5, 45.0], [120.0, 45.0], [120.0, 42.5], [117.5, 42.5]]]}, "properties": {"cell_id": "47_53", "lon": 118.75, "lat": 43.75}}, {"type": "Feature", "geometry": {"type": "Polygon", "coordinates": [[[117.5, 45.0], [117.5, 47.5], [120.0, 47.5], [120.0, 45.0], [117.5, 45.0]]]}, "properties": {"cell_id": "47_54", "lon": 118.75, "lat": 46.25}}, {"type": "Feature", "geometry": {"type": "Polygon", "coordinates": [[[117.5, 47.5], [117.5, 50.0], [120.0, 50.0], [120.0, 47.5], [117.5, 47.5]]]}, "properties": {"cell_id": "47_55", "lon": 118.75, "lat": 48.75}}]}