{"type": "FeatureCollection", "features": [{"type": "Feature", "geometry": {"type": "Polygon", "coordinates": [[[90.75, 30.0], [90.75, 31.5], [92.25, 31.5], [92.25, 30.0], [90.75, 30.0]]]}, "properties": {"cell_id": "61_80", "lon": 91.5, "lat": 30.75}}, {"type": "Feature", "geometry": {"type": "Polygon", "coordinates": [[[90.75, 31.5], [90.75, 33.0], [92.25, 33.0], [92.25, 31.5], [90.75, 31.5]]]}, "properties": {"cell_id": "61_81", "lon": 91.5, "lat": 32.25}}, {"type": "Feature", "geometry": {"type": "Polygon", "coordinates": [[[90.75, 33.0], [90.75, 34.5], [92.25, 34.5], [92.25, 33.0], [90.75, 33.0]]]}, "properties": {"cell_id": "61_82", "lon": 91.5, "lat": 33.75}}, {"type": "Feature", "geometry": {"type": "Polygon", "coordinates": [[[90.75, 34.5], [90.75, 36.0], [92.25, 36.0], [92.25, 34.5], [90.75, 34.5]]]}, "properties": {"cell_id": "61_83", "lon": 91.5, "lat": 35.25}}, {"type": "Feature", "geometry": {"type": "Polygon", "coordinates": [[[90.75, 36.0], [90.75, 37.5], [92.25, 37.5], [92.25, 36.0], [90.75, 36.0]]]}, "properties": {"cell_id": "61_84", "lon": 91.5, "lat": 36.75}}, {"type": "Feature", "geometry": {"type": "Polygon", "coordinates": [[[90.75, 37.5], [90.75, 39.0], [92.25, 39.0], [92.25, 37.5], [90.75, 37.5]]]}, "properties": {"cell_id": "61_85", "lon": 91.5, "lat": 38.25}}, {"type": "Feature", "geometry": {"type": "Polygon", "coordinates": [[[90.75, 39.0], [90.75, 40.5], [92.25, 40.5], [92.25, 39.0], [90.75, 39.0]]]}, "properties": {"cell_id": "61_86", "lon": 91.5, "lat": 39.75}}, {"type": "Feature", "geometry": {"type": "Polygon", "coordinates": [[[92.25, 30.0], [92.25, 31.5], [93.75, 31.5], [93.75, 30.0], [92.25, 30.0]]]}, "properties": {"cell_id": "62_80", "lon": 93.0, "lat": 30.75}}, {"type": "Feature", "geometry": {"type": "Polygon", "coordinates": [[[92.25, 31.5], [92.25, 33.0], [93.75, 33.0], [93.75, 31.5], [92.25, 31.5]]]}, "properties": {"cell_id": "62_81", "lon": 93.0, "lat": 32.25}}, {"type": "Feature", "geometry": {"type": "Polygon", "coordinates": [[[92.25, 33.0], [92.25, 34.5], [93.75, 34.5], [93.75, 33.0], [92.25, 33.0]]]}, "properties": {"cell_id": "62_82", "lon": 93.0, "lat": 33.75}}, {"type": "Feature", "geometry": {"type": "Polygon", "coordinates": [[[92.25, 34.5], [92.25, 36.0], [93.75, 36.0], [93.75, 34.5], [92.25, 34.5]]]}, "properties": {"cell_id": "62_83", "lon": 93.0, "lat": 35.25}}, {"type": "Feature", "geometry": {"type": "Polygon", "coordinates": [[[92.25, 36.0], [92.25, 37.5], [93.75, 37.5], [93.75, 36.0], [92.25, 36.0]]]}, "properties": {"cell_id": "62_84", "lon": 93.0, "lat": 36.75}}, {"type": "Feature", "geometry": {"type": "Polygon", "coordinates": [[[92.25, 37.5], [92.25, 39.0], [93.75, 39.0], [93.75, 37.5], [92.25, 37.5]]]}, "properties": {"cell_id": "62_85", "lon": 93.0, "lat": 38.25}}, {"type": "Feature", "geometry": {"type": "Polygon", "coordinates": [[[92.25, 39.0], [92.25, 40.5], [93.75, 40.5], [93.75, 39.0], [92.25, 39.0]]]}, "properties": {"cell_id": "62_86", "lon": 93.0, "lat": 39.75}}, {"type": "Feature", "geometry": {"type": "Polygon", "coordinates": [[[93.75, 30.0], [93.75, 31.5], [95.25, 31.5], [95.25, 30.0], [93.75, 30.0]]]}, "properties": {"cell_id": "63_80", "lon": 94.5, "lat": 30.75}}, {"type": "Feature", "geometry": {"type": "Polygon", "coordinates": [[[93.75, 31.5], [93.75, 33.0], [95.25, 33.0], [95.25, 31.5], [93.75, 31.5]]]}, "properties": {"cell_id": "63_81", "lon": 94.5, "lat": 32.25}}, {"type": "Feature", "geometry": {"type": "Polygon", "coordinates": [[[93.75, 33.0], [93.75, 34.5], [95.25, 34.5], [95.25, 33.0], [93.75, 33.0]]]}, "properties": {"cell_id": "63_82", "lon": 94.5, "lat": 33.75}}, {"type": "Feature", "geometry": {"type": "Polygon", "coordinates": [[[93.75, 34.5], [93.75, 36.0], [95.25, 36.0], [95.25, 34.5], [93.75, 34.5]]]}, "properties": {"cell_id": "63_83", "lon": 94.5, "lat": 35.25}}, {"type": "Feature", "geometry": {"type": "Polygon", "coordinates": [[[93.75, 36.0], [93.75, 37.5], [95.25, 37.5], [95.25, 36.0], [93.75, 36.0]]]}, "properties": {"cell_id": "63_84", "lon": 94.5, "lat": 36.75}}, {"type": "Feature", "geometry": {"type": "Polygon", "coordinates": [[[93.75, 37.5], [93.75, 39.0], [95.25, 39.0], [95.25, 37.5], [93.75, 37.5]]]}, "properties": {"cell_id": "63_85", "lon": 94.5, "lat": 38.25}}, {"type": "Feature", "geometry": {"type": "Polygon", "coordinates": [[[93.75, 39.0], [93.75, 40.5], [95.25, 40.5], [95.25, 39.0], [93.75, 39.0]]]}, "properties": {"cell_id": "63_86", "lon": 94.5, "lat": 39.75}}, {"type": "Feature", "geometry": {"type": "Polygon", "coordinates": [[[95.25, 30.0], [95.25, 31.5], [96.75, 31.5], [96.75, 30.0], [95.25, 30.0]]]}, "properties": {"cell_id": "64_80", "lon": 96.0, "lat": 30.75}}, {"type": "Feature", "geometry": {"type": "Polygon", "coordinates": [[[95.25, 31.5], [95.25, 33.0], [96.75, 33.0], [96.75, 31.5], [95.25, 31.5]]]}, "properties": {"cell_id": "64_81", "lon": 96.0, "lat": 32.25}}, {"type": "Feature", "geometry": {"type": "Polygon", "coordinates": [[[95.25, 33.0], [95.25, 34.5], [96.75, 34.5], [96.75, 33.0], [95.25, 33.0]]]}, "properties": {"cell_id": "64_82", "lon": 96.0, "lat": 33.75}}, {"type": "Feature", "geometry": {"type": "Polygon", "coordinates": [[[95.25, 34.5], [95.25, 36.0], [96.75, 36.0], [96.75, 34.5], [95.25, 34.5]]]}, "properties": {"cell_id": "64_83", "lon": 96.0, "lat": 35.25}}, {"type": "Feature", "geometry": {"type": "Polygon", "coordinates": [[[95.25, 36.0], [95.25, 37.5], [96.75, 37.5], [96.75, 36.0], [95.25, 36.0]]]}, "properties": {"cell_id": "64_84", "lon": 96.0, "lat": 36.75}}, {"type": "Feature", "geometry": {"type": "Polygon", "coordinates": [[[95.25, 37.5], [95.25, 39.0], [96.75, 39.0], [96.75, 37.5], [95.25, 37.5]]]}, "properties": {"cell_id": "64_85", "lon": 96.0, "lat": 38.25}}, {"type": "Feature", "geometry": {"type": "Polygon", "coordinates": [[[95.25, 39.0], [95.25, 40.5], [96.75, 40.5], [96.75, 39.0], [95.25, 39.0]]]}, "properties": {"cell_id": "64_86", "lon": 96.0, "lat": 39.75}}, {"type": "Feature", "geometry": {"type": "Polygon", "coordinates": [[[96.75, 30.0], [96.75, 31.5], [98.25, 31.5], [98.25, 30.0], [96.75, 30.0]]]}, "properties": {"cell_id": "65_80", "lon": 97.5, "lat": 30.75}}, {"type": "Feature", "geometry": {"type": "Polygon", "coordinates": [[[96.75, 31.5], [96.75, 33.0], [98.25, 33.0], [98.25, 31.5], [96.75, 31.5]]]}, "properties": {"cell_id": "65_81", "lon": 97.5, "lat": 32.25}}, {"type": "Feature", "geometry": {"type": "Polygon", "coordinates": [[[96.75, 33.0], [96.75, 34.5], [98.25, 34.5], [98.25, 33.0], [96.75, 33.0]]]}, "properties": {"cell_id": "65_82", "lon": 97.5, "lat": 33.75}}, {"type": "Feature", "geometry": {"type": "Polygon", "coordinates": [[[96.75, 34.5], [96.75, 36.0], [98.25, 36.0], [98.25, 34.5], [96.75, 34.5]]]}, "properties": {"cell_id": "65_83", "lon": 97.5, "lat": 35.25}}, {"type": "Feature", "geometry": {"type": "Polygon", "coordinates": [[[96.75, 36.0], [96.75, 37.5], [98.25, 37.5], [98.25, 36.0], [96.75, 36.0]]]}, "properties": {"cell_id": "65_84", "lon": 97.5, "lat": 36.75}}, {"type": "Feature", "geometry": {"type": "Polygon", "coordinates": [[[96.75, 37.5], [96.75, 39.0], [98.25, 39.0], [98.25, 37.5], [96.75, 37.5]]]}, "properties": {"cell_id": "65_85", "lon": 97.5, "lat": 38.25}}, {"type": "Feature", "geometry": {"type": "Polygon", "coordinates": [[[96.75, 39.0], [96.75, 40.5], [98.25, 40.5], [98.25, 39.0], [96.75, 39.0]]]}, "properties": {"cell_id": "65_86", "lon": 97.5, "lat": 39.75}}, {"type": "Feature", "geometry": {"type": "Polygon", "coordinates": [[[98.25, 30.0], [98.25, 31.5], [99.75, 31.5], [99.75, 30.0], [98.25, 30.0]]]}, "properties": {"cell_id": "66_80", "lon": 99.0, "lat": 30.75}}, {"type": "Feature", "geometry": {"type": "Polygon", "coordinates": [[[98.25, 31.5], [98.25, 33.0], [99.75, 33.0], [99.75, 31.5], [98.25, 31.5]]]}, "properties": {"cell_id": "66_81", "lon": 99.0, "lat": 32.25}}, {"type": "Feature", "geometry": {"type": "Polygon", "coordinates": [[[98.25, 33.0], [98.25, 34.5], [99.75, 34.5], [99.75, 33.0], [98.25, 33.0]]]}, "properties": {"cell_id": "66_82", "lon": 99.0, "lat": 33.75}}, {"type": "Feature", "geometry": {"type": "Polygon", "coordinates": [[[98.25, 34.5], [98.25, 36.0], [99.75, 36.0], [99.75, 34.5], [98.25, 34.5]]]}, "properties": {"cell_id": "66_83", "lon": 99.0, "lat": 35.25}}, {"type": "Feature", "geometry": {"type": "Polygon", "coordinates": [[[98.25, 36.0], [98.25, 37.5], [99.75, 37.5], [99.75, 36.0], [98.25, 36.0]]]}, "properties": {"cell_id": "66_84", "lon": 99.0, "lat": 36.75}}, {"type": "Feature", "geometry": {"type": "Polygon", "coordinates": [[[98.25, 37.5], [98.25, 39.0], [99.75, 39.0], [99.75, 37.5], [98.25, 37.5]]]}, "properties": {"cell_id": "66_85", "lon": 99.0, "lat": 38.25}}, {"type": "Feature", "geometry": {"type": "Polygon", "coordinates": [[[98.25, 39.0], [98.25, 40.5], [99.75, 40.5], [99.75, 39.0], [98.25, 39.0]]]}, "properties": {"cell_id": "66_86", "lon": 99.0, "lat": 39.75}}, {"type": "Feature", "geometry": {"type": "Polygon", "coordinates": [[[99.75, 30.0], [99.75, 31.5], [101.25, 31.5], [101.25, 30.0], [99.75, 30.0]]]}, "properties": {"cell_id": "67_80", "lon": 100.5, "lat": 30.75}}, {"type": "Feature", "geometry": {"type": "Polygon", "coordinates": [[[99.75, 31.5], [99.75, 33.0], [101.25, 33.0], [101.25, 31.5], [99.75, 31.5]]]}, "properties": {"cell_id": "67_81", "lon": 100.5, "lat": 32.25}}, {"type": "Feature", "geometry": {"type": "Polygon", "coordinates": [[[99.75, 33.0], [99.75, 34.5], [101.25, 34.5], [101.25, 33.0], [99.75, 33.0]]]}, "properties": {"cell_id": "67_82", "lon": 100.5, "lat": 33.75}}, {"type": "Feature", "geometry": {"type": "Polygon", "coordinates": [[[99.75, 34.5], [99.75, 36.0], [101.25, 36.0], [101.25, 34.5], [99.75, 34.5]]]}, "properties": {"cell_id": "67_83", "lon": 100.5, "lat": 35.25}}, {"type": "Feature", "geometry": {"type": "Polygon", "coordinates": [[[99.75, 36.0], [99.75, 37.5], [101.25, 37.5], [101.25, 36.0], [99.75, 36.0]]]}, "properties": {"cell_id": "67_84", "lon": 100.5, "lat": 36.75}}, {"type": "Feature", "geometry": {"type": "Polygon", "coordinates": [[[99.75, 37.5], [99.75, 39.0], [101.25, 39.0], [101.25, 37.5], [99.75, 37.5]]]}, "properties": {"cell_id": "67_85", "lon": 100.5, "lat": 38.25}}, {"type": "Feature", "geometry": {"type": "Polygon", "coordinates": [[[99.75, 39.0], [99.75, 40.5], [101.25, 40.5], [101.25, 39.0], [99.75, 39.0]]]}, "properties": {"cell_id": "67_86", "lon": 100.5, "lat": 39.75}}]}