{"type": "FeatureCollection", "features": [{"type": "Feature", "geometry": {"type": "Polygon", "coordinates": [[[130.0, 50.0], [130.0, 52.5], [132.5, 52.5], [132.5, 50.0], [130.0, 50.0]]]}, "properties": {"cell_id": "52_56", "lon": 131.25, "lat": 51.25}}, {"type": "Feature", "geometry": {"type": "Polygon", "coordinates": [[[130.0, 52.5], [130.0, 55.0], [132.5, 55.0], [132.5, 52.5], [130.0, 52.5]]]}, "properties": {"cell_id": "52_57", "lon": 131.25, "lat": 53.75}}, {"type": "Feature", "geometry": {"type": "Polygon", "coordinates": [[[130.0, 55.0], [130.0, 57.5], [132.5, 57.5], [132.5, 55.0], [130.0, 55.0]]]}, "properties": {"cell_id": "52_58", "lon": 131.25, "lat": 56.25}}, {"type": "Feature", "geometry": {"type": "Polygon", "coordinates": [[[130.0, 57.5], [130.0, 60.0], [132.5, 60.0], [132.5, 57.5], [130.0, 57.5]]]}, "properties": {"cell_id": "52_59", "lon": 131.25, "lat": 58.75}}, {"type": "Feature", "geometry": {"type": "Polygon", "coordinates": [[[132.5, 50.0], [132.5, 52.5], [135.0, 52.5], [135.0, 50.0], [132.5, 50.0]]]}, "properties": {"cell_id": "53_56", "lon": 133.75, "lat": 51.25}}, {"type": "Feature", "geometry": {"type": "Polygon", "coordinates": [[[132.5, 52.5], [132.5, 55.0], [135.0, 55.0], [135.0, 52.5], [132.5, 52.5]]]}, "properties": {"cell_id": "53_57", "lon": 133.75, "lat": 53.75}}, {"type": "Feature", "geometry": {"type": "Polygon", "coordinates": [[[132.5, 55.0], [132.5, 57.5], [135.0, 57.5], [135.0, 55.0], [132.5, 55.0]]]}, "properties": {"cell_id": "53_58", "lon": 133.75, "lat": 56.25}}, {"type": "Feature", "geometry": {"type": "Polygon", "coordinates": [[[132.5, 57.5], [132.5, 60.0], [135.0, 60.0], [135.0, 57.5], [132.5, 57.5]]]}, "properties": {"cell_id": "53_59", "lon": 133.75, "lat": 58.75}}, {"type": "Feature", "geometry": {"type": "Polygon", "coordinates": [[[135.0, 50.0], [135.0, 52.5], [137.5, 52.5], [137.5, 50.0], [135.0, 50.0]]]}, "properties": {"cell_id": "54_56", "lon": 136.25, "lat": 51.25}}, {"type": "Feature", "geometry": {"type": "Polygon", "coordinates": [[[135.0, 52.5], [135.0, 55.0], [137.5, 55.0], [137.5, 52.5], [135.0, 52.5]]]}, "properties": {"cell_id": "54_57", "lon": 136.25, "lat": 53.75}}, {"type": "Feature", "geometry": {"type": "Polygon", "coordinates": [[[135.0, 55.0], [135.0, 57.5], [137.5, 57.5], [137.5, 55.0], [135.0, 55.0]]]}, "properties": {"cell_id": "54_58", "lon": 136.25, "lat": 56.25}}, {"type": "Feature", "geometry": {"type": "Polygon", "coordinates": [[[135.0, 57.5], [135.0, 60.0], [137.5, 60.0], [137.5, 57.5], [135.0, 57.5]]]}, "properties": {"cell_id": "54_59", "lon": 136.25, "lat": 58.75}}, {"type": "Feature", "geometry": {"type": "Polygon", "coordinates": [[[137.5, 50.0], [137.5, 52.5], [140.0, 52.5], [140.0, 50.0], [137.5, 50.0]]]}, "properties": {"cell_id": "55_56", "lon": 138.75, "lat": 51.25}}, {"type": "Feature", "geometry": {"type": "Polygon", "coordinates": [[[137.5, 52.5], [137.5, 55.0], [140.0, 55.0], [140.0, 52.5], [137.5, 52.5]]]}, "properties": {"cell_id": "55_57", "lon": 138.75, "lat": 53.75}}, {"type": "Feature", "geometry": {"type": "Polygon", "coordinates": [[[137.5, 57.5], [137.5, 60.0], [140.0, 60.0], [140.0, 57.5], [137.5, 57.5]]]}, "properties": {"cell_id": "55_59", "lon": 138.75, "lat": 58.75}}]}