{"type": "FeatureCollection", "features": [{"type": "Feature", "geometry": {"type": "Polygon", "coordinates": [[[60.0, 60.0], [60.0, 62.5], [62.5, 62.5], [62.5, 60.0], [60.0, 60.0]]]}, "properties": {"cell_id": "24_60", "lon": 61.25, "lat": 61.25}}, {"type": "Feature", "geometry": {"type": "Polygon", "coordinates": [[[60.0, 62.5], [60.0, 65.0], [62.5, 65.0], [62.5, 62.5], [60.0, 62.5]]]}, "properties": {"cell_id": "24_61", "lon": 61.25, "lat": 63.75}}, {"type": "Feature", "geometry": {"type": "Polygon", "coordinates": [[[60.0, 65.0], [60.0, 67.5], [62.5, 67.5], [62.5, 65.0], [60.0, 65.0]]]}, "properties": {"cell_id": "24_62", "lon": 61.25, "lat": 66.25}}, {"type": "Feature", "geometry": {"type": "Polygon", "coordinates": [[[60.0, 67.5], [60.0, 70.0], [62.5, 70.0], [62.5, 67.5], [60.0, 67.5]]]}, "properties": {"cell_id": "24_63", "lon": 61.25, "lat": 68.75}}, {"type": "Feature", "geometry": {"type": "Polygon", "coordinates": [[[62.5, 60.0], [62.5, 62.5], [65.0, 62.5], [65.0, 60.0], [62.5, 60.0]]]}, "properties": {"cell_id": "25_60", "lon": 63.75, "lat": 61.25}}, {"type": "Feature", "geometry": {"type": "Polygon", "coordinates": [[[62.5, 62.5], [62.5, 65.0], [65.0, 65.0], [65.0, 62.5], [62.5, 62.5]]]}, "properties": {"cell_id": "25_61", "lon": 63.75, "lat": 63.75}}, {"type": "Feature", "geometry": {"type": "Polygon", "coordinates": [[[62.5, 65.0], [62.5, 67.5], [65.0, 67.5], [65.0, 65.0], [62.5, 65.0]]]}, "properties": {"cell_id": "25_62", "lon": 63.75, "lat": 66.25}}, {"type": "Feature", "geometry": {"type": "Polygon", "coordinates": [[[62.5, 67.5], [62.5, 70.0], [65.0, 70.0], [65.0, 67.5], [62.5, 67.5]]]}, "properties": {"cell_id": "25_63", "lon": 63.75, "lat": 68.75}}, {"type": "Feature", "geometry": {"type": "Polygon", "coordinates": [[[65.0, 60.0], [65.0, 62.5], [67.5, 62.5], [67.5, 60.0], [65.0, 60.0]]]}, "properties": {"cell_id": "26_60", "lon": 66.25, "lat": 61.25}}, {"type": "Feature", "geometry": {"type": "Polygon", "coordinates": [[[65.0, 62.5], [65.0, 65.0], [67.5, 65.0], [67.5, 62.5], [65.0, 62.5]]]}, "properties": {"cell_id": "26_61", "lon": 66.25, "lat": 63.75}}, {"type": "Feature", "geometry": {"type": "Polygon", "coordinates": [[[65.0, 65.0], [65.0, 67.5], [67.5, 67.5], [67.5, 65.0], [65.0, 65.0]]]}, "properties": {"cell_id": "26_62", "lon": 66.25, "lat": 66.25}}, {"type": "Feature", "geometry": {"type": "Polygon", "coordinates": [[[65.0, 67.5], [65.0, 70.0], [67.5, 70.0], [67.5, 67.5], [65.0, 67.5]]]}, "properties": {"cell_id": "26_63", "lon": 66.25, "lat": 68.75}}, {"type": "Feature", "geometry": {"type": "Polygon", "coordinates": [[[67.5, 60.0], [67.5, 62.5], [70.0, 62.5], [70.0, 60.0], [67.5, 60.0]]]}, "properties": {"cell_id": "27_60", "lon": 68.75, "lat": 61.25}}, {"type": "Feature", "geometry": {"type": "Polygon", "coordinates": [[[67.5, 62.5], [67.5, 65.0], [70.0, 65.0], [70.0, 62.5], [67.5, 62.5]]]}, "properties": {"cell_id": "27_61", "lon": 68.75, "lat": 63.75}}, {"type": "Feature", "geometry": {"type": "Polygon", "coordinates": [[[67.5, 65.0], [67.5, 67.5], [70.0, 67.5], [70.0, 65.0], [67.5, 65.0]]]}, "properties": {"cell_id": "27_62", "lon": 68.75, "lat": 66.25}}]}