{"type": "FeatureCollection", "features": [{"type": "Feature", "geometry": {"type": "Polygon", "coordinates": [[[0.0, 30.0], [0.0, 32.5], [2.5, 32.5], [2.5, 30.0], [0.0, 30.0]]]}, "properties": {"cell_id": "0_48", "lon": 1.25, "lat": 31.25}}, {"type": "Feature", "geometry": {"type": "Polygon", "coordinates": [[[0.0, 32.5], [0.0, 35.0], [2.5, 35.0], [2.5, 32.5], [0.0, 32.5]]]}, "properties": {"cell_id": "0_49", "lon": 1.25, "lat": 33.75}}, {"type": "Feature", "geometry": {"type": "Polygon", "coordinates": [[[0.0, 35.0], [0.0, 37.5], [2.5, 37.5], [2.5, 35.0], [0.0, 35.0]]]}, "properties": {"cell_id": "0_50", "lon": 1.25, "lat": 36.25}}, {"type": "Feature", "geometry": {"type": "Polygon", "coordinates": [[[2.5, 30.0], [2.5, 32.5], [5.0, 32.5], [5.0, 30.0], [2.5, 30.0]]]}, "properties": {"cell_id": "1_48", "lon": 3.75, "lat": 31.25}}, {"type": "Feature", "geometry": {"type": "Polygon", "coordinates": [[[2.5, 32.5], [2.5, 35.0], [5.0, 35.0], [5.0, 32.5], [2.5, 32.5]]]}, "properties": {"cell_id": "1_49", "lon": 3.75, "lat": 33.75}}, {"type": "Feature", "geometry": {"type": "Polygon", "coordinates": [[[2.5, 35.0], [2.5, 37.5], [5.0, 37.5], [5.0, 35.0], [2.5, 35.0]]]}, "properties": {"cell_id": "1_50", "lon": 3.75, "lat": 36.25}}, {"type": "Feature", "geometry": {"type": "Polygon", "coordinates": [[[5.0, 30.0], [5.0, 32.5], [7.5, 32.5], [7.5, 30.0], [5.0, 30.0]]]}, "properties": {"cell_id": "2_48", "lon": 6.25, "lat": 31.25}}, {"type": "Feature", "geometry": {"type": "Polygon", "coordinates": [[[5.0, 32.5], [5.0, 35.0], [7.5, 35.0], [7.5, 32.5], [5.0, 32.5]]]}, "properties": {"cell_id": "2_49", "lon": 6.25, "lat": 33.75}}, {"type": "Feature", "geometry": {"type": "Polygon", "coordinates": [[[5.0, 35.0], [5.0, 37.5], [7.5, 37.5], [7.5, 35.0], [5.0, 35.0]]]}, "properties": {"cell_id": "2_50", "lon": 6.25, "lat": 36.25}}, {"type": "Feature", "geometry": {"type": "Polygon", "coordinates": [[[7.5, 30.0], [7.5, 32.5], [10.0, 32.5], [10.0, 30.0], [7.5, 30.0]]]}, "properties": {"cell_id": "3_48", "lon": 8.75, "lat": 31.25}}, {"type": "Feature", "geometry": {"type": "Polygon", "coordinates": [[[7.5, 32.5], [7.5, 35.0], [10.0, 35.0], [10.0, 32.5], [7.5, 32.5]]]}, "properties": {"cell_id": "3_49", "lon": 8.75, "lat": 33.75}}, {"type": "Feature", "geometry": {"type": "Polygon", "coordinates": [[[7.5, 35.0], [7.5, 37.5], [10.0, 37.5], [10.0, 35.0], [7.5, 35.0]]]}, "properties": {"cell_id": "3_50", "lon": 8.75, "lat": 36.25}}]}