{"type": "FeatureCollection", "features": [{"type": "Feature", "geometry": {"type": "Polygon", "coordinates": [[[-50.0, -27.5], [-50.0, -25.0], [-47.5, -25.0], [-47.5, -27.5], [-50.0, -27.5]]]}, "properties": {"cell_id": "124_25", "lon": -48.75, "lat": -26.25}}, {"type": "Feature", "geometry": {"type": "Polygon", "coordinates": [[[-50.0, -25.0], [-50.0, -22.5], [-47.5, -22.5], [-47.5, -25.0], [-50.0, -25.0]]]}, "properties": {"cell_id": "124_26", "lon": -48.75, "lat": -23.75}}, {"type": "Feature", "geometry": {"type": "Polygon", "coordinates": [[[-50.0, -22.5], [-50.0, -20.0], [-47.5, -20.0], [-47.5, -22.5], [-50.0, -22.5]]]}, "properties": {"cell_id": "124_27", "lon": -48.75, "lat": -21.25}}, {"type": "Feature", "geometry": {"type": "Polygon", "coordinates": [[[-47.5, -25.0], [-47.5, -22.5], [-45.0, -22.5], [-45.0, -25.0], [-47.5, -25.0]]]}, "properties": {"cell_id": "125_26", "lon": -46.25, "lat": -23.75}}, {"type": "Feature", "geometry": {"type": "Polygon", "coordinates": [[[-47.5, -22.5], [-47.5, -20.0], [-45.0, -20.0], [-45.0, -22.5], [-47.5, -22.5]]]}, "properties": {"cell_id": "125_27", "lon": -46.25, "lat": -21.25}}, {"type": "Feature", "geometry": {"type": "Polygon", "coordinates": [[[-45.0, -22.5], [-45.0, -20.0], [-42.5, -20.0], [-42.5, -22.5], [-45.0, -22.5]]]}, "properties": {"cell_id": "126_27", "lon": -43.75, "lat": -21.25}}, {"type": "Feature", "geometry": {"type": "Polygon", "coordinates": [[[-42.5, -22.5], [-42.5, -20.0], [-40.0, -20.0], [-40.0, -22.5], [-42.5, -22.5]]]}, "properties": {"cell_id": "127_27", "lon": -41.25, "lat": -21.25}}]}