{"type": "FeatureCollection", "features": [{"type": "Feature", "geometry": {"type": "Polygon", "coordinates": [[[122.5, -20.0], [122.5, -17.5], [125.0, -17.5], [125.0, -20.0], [122.5, -20.0]]]}, "properties": {"cell_id": "49_28", "lon": 123.75, "lat": -18.75}}, {"type": "Feature", "geometry": {"type": "Polygon", "coordinates": [[[122.5, -17.5], [122.5, -15.0], [125.0, -15.0], [125.0, -17.5], [122.5, -17.5]]]}, "properties": {"cell_id": "49_29", "lon": 123.75, "lat": -16.25}}, {"type": "Feature", "geometry": {"type": "Polygon", "coordinates": [[[125.0, -20.0], [125.0, -17.5], [127.5, -17.5], [127.5, -20.0], [125.0, -20.0]]]}, "properties": {"cell_id": "50_28", "lon": 126.25, "lat": -18.75}}, {"type": "Feature", "geometry": {"type": "Polygon", "coordinates": [[[125.0, -17.5], [125.0, -15.0], [127.5, -15.0], [127.5, -17.5], [125.0, -17.5]]]}, "properties": {"cell_id": "50_29", "lon": 126.25, "lat": -16.25}}, {"type": "Feature", "geometry": {"type": "Polygon", "coordinates": [[[127.5, -20.0], [127.5, -17.5], [130.0, -17.5], [130.0, -20.0], [127.5, -20.0]]]}, "properties": {"cell_id": "51_28", "lon": 128.75, "lat": -18.75}}, {"type": "Feature", "geometry": {"type": "Polygon", "coordinates": [[[127.5, -17.5], [127.5, -15.0], [130.0, -15.0], [130.0, -17.5], [127.5, -17.5]]]}, "properties": {"cell_id": "51_29", "lon": 128.75, "lat": -16.25}}]}