{"type": "FeatureCollection", "features": [{"type": "Feature", "geometry": {"type": "Polygon", "coordinates": [[[120.0, 12.5], [120.0, 15.0], [122.5, 15.0], [122.5, 12.5], [120.0, 12.5]]]}, "properties": {"cell_id": "48_41", "lon": 121.25, "lat": 13.75}}, {"type": "Feature", "geometry": {"type": "Polygon", "coordinates": [[[120.0, 15.0], [120.0, 17.5], [122.5, 17.5], [122.5, 15.0], [120.0, 15.0]]]}, "properties": {"cell_id": "48_42", "lon": 121.25, "lat": 16.25}}, {"type": "Feature", "geometry": {"type": "Polygon", "coordinates": [[[122.5, 12.5], [122.5, 15.0], [125.0, 15.0], [125.0, 12.5], [122.5, 12.5]]]}, "properties": {"cell_id": "49_41", "lon": 123.75, "lat": 13.75}}]}