{"type": "FeatureCollection", "features": [{"type": "Feature", "geometry": {"type": "Polygon", "coordinates": [[[101.25, 40.5], [101.25, 42.0], [102.75, 42.0], [102.75, 40.5], [101.25, 40.5]]]}, "properties": {"cell_id": "68_87", "lon": 102.0, "lat": 41.25}}, {"type": "Feature", "geometry": {"type": "Polygon", "coordinates": [[[101.25, 42.0], [101.25, 43.5], [102.75, 43.5], [102.75, 42.0], [101.25, 42.0]]]}, "properties": {"cell_id": "68_88", "lon": 102.0, "lat": 42.75}}, {"type": "Feature", "geometry": {"type": "Polygon", "coordinates": [[[101.25, 43.5], [101.25, 45.0], [102.75, 45.0], [102.75, 43.5], [101.25, 43.5]]]}, "properties": {"cell_id": "68_89", "lon": 102.0, "lat": 44.25}}, {"type": "Feature", "geometry": {"type": "Polygon", "coordinates": [[[101.25, 45.0], [101.25, 46.5], [102.75, 46.5], [102.75, 45.0], [101.25, 45.0]]]}, "properties": {"cell_id": "68_90", "lon": 102.0, "lat": 45.75}}, {"type": "Feature", "geometry": {"type": "Polygon", "coordinates": [[[101.25, 46.5], [101.25, 48.0], [102.75, 48.0], [102.75, 46.5], [101.25, 46.5]]]}, "properties": {"cell_id": "68_91", "lon": 102.0, "lat": 47.25}}, {"type": "Feature", "geometry": {"type": "Polygon", "coordinates": [[[101.25, 48.0], [101.25, 49.5], [102.75, 49.5], [102.75, 48.0], [101.25, 48.0]]]}, "properties": {"cell_id": "68_92", "lon": 102.0, "lat": 48.75}}, {"type": "Feature", "geometry": {"type": "Polygon", "coordinates": [[[101.25, 49.5], [101.25, 51.0], [102.75, 51.0], [102.75, 49.5], [101.25, 49.5]]]}, "properties": {"cell_id": "68_93", "lon": 102.0, "lat": 50.25}}, {"type": "Feature", "geometry": {"type": "Polygon", "coordinates": [[[102.75, 40.5], [102.75, 42.0], [104.25, 42.0], [104.25, 40.5], [102.75, 40.5]]]}, "properties": {"cell_id": "69_87", "lon": 103.5, "lat": 41.25}}, {"type": "Feature", "geometry": {"type": "Polygon", "coordinates": [[[102.75, 42.0], [102.75, 43.5], [104.25, 43.5], [104.25, 42.0], [102.75, 42.0]]]}, "properties": {"cell_id": "69_88", "lon": 103.5, "lat": 42.75}}, {"type": "Feature", "geometry": {"type": "Polygon", "coordinates": [[[102.75, 43.5], [102.75, 45.0], [104.25, 45.0], [104.25, 43.5], [102.75, 43.5]]]}, "properties": {"cell_id": "69_89", "lon": 103.5, "lat": 44.25}}, {"type": "Feature", "geometry": {"type": "Polygon", "coordinates": [[[102.75, 45.0], [102.75, 46.5], [104.25, 46.5], [104.25, 45.0], [102.75, 45.0]]]}, "properties": {"cell_id": "69_90", "lon": 103.5, "lat": 45.75}}, {"type": "Feature", "geometry": {"type": "Polygon", "coordinates": [[[102.75, 46.5], [102.75, 48.0], [104.25, 48.0], [104.25, 46.5], [102.75, 46.5]]]}, "properties": {"cell_id": "69_91", "lon": 103.5, "lat": 47.25}}, {"type": "Feature", "geometry": {"type": "Polygon", "coordinates": [[[102.75, 48.0], [102.75, 49.5], [104.25, 49.5], [104.25, 48.0], [102.75, 48.0]]]}, "properties": {"cell_id": "69_92", "lon": 103.5, "lat": 48.75}}, {"type": "Feature", "geometry": {"type": "Polygon", "coordinates": [[[102.75, 49.5], [102.75, 51.0], [104.25, 51.0], [104.25, 49.5], [102.75, 49.5]]]}, "properties": {"cell_id": "69_93", "lon": 103.5, "lat": 50.25}}, {"type": "Feature", "geometry": {"type": "Polygon", "coordinates": [[[104.25, 40.5], [104.25, 42.0], [105.75, 42.0], [105.75, 40.5], [104.25, 40.5]]]}, "properties": {"cell_id": "70_87", "lon": 105.0, "lat": 41.25}}, {"type": "Feature", "geometry": {"type": "Polygon", "coordinates": [[[104.25, 42.0], [104.25, 43.5], [105.75, 43.5], [105.75, 42.0], [104.25, 42.0]]]}, "properties": {"cell_id": "70_88", "lon": 105.0, "lat": 42.75}}, {"type": "Feature", "geometry": {"type": "Polygon", "coordinates": [[[104.25, 43.5], [104.25, 45.0], [105.75, 45.0], [105.75, 43.5], [104.25, 43.5]]]}, "properties": {"cell_id": "70_89", "lon": 105.0, "lat": 44.25}}, {"type": "Feature", "geometry": {"type": "Polygon", "coordinates": [[[104.25, 45.0], [104.25, 46.5], [105.75, 46.5], [105.75, 45.0], [104.25, 45.0]]]}, "properties": {"cell_id": "70_90", "lon": 105.0, "lat": 45.75}}, {"type": "Feature", "geometry": {"type": "Polygon", "coordinates": [[[104.25, 46.5], [104.25, 48.0], [105.75, 48.0], [105.75, 46.5], [104.25, 46.5]]]}, "properties": {"cell_id": "70_91", "lon": 105.0, "lat": 47.25}}, {"type": "Feature", "geometry": {"type": "Polygon", "coordinates": [[[104.25, 48.0], [104.25, 49.5], [105.75, 49.5], [105.75, 48.0], [104.25, 48.0]]]}, "properties": {"cell_id": "70_92", "lon": 105.0, "lat": 48.75}}, {"type": "Feature", "geometry": {"type": "Polygon", "coordinates": [[[104.25, 49.5], [104.25, 51.0], [105.75, 51.0], [105.75, 49.5], [104.25, 49.5]]]}, "properties": {"cell_id": "70_93", "lon": 105.0, "lat": 50.25}}, {"type": "Feature", "geometry": {"type": "Polygon", "coordinates": [[[105.75, 40.5], [105.75, 42.0], [107.25, 42.0], [107.25, 40.5], [105.75, 40.5]]]}, "properties": {"cell_id": "71_87", "lon": 106.5, "lat": 41.25}}, {"type": "Feature", "geometry": {"type": "Polygon", "coordinates": [[[105.75, 42.0], [105.75, 43.5], [107.25, 43.5], [107.25, 42.0], [105.75, 42.0]]]}, "properties": {"cell_id": "71_88", "lon": 106.5, "lat": 42.75}}, {"type": "Feature", "geometry": {"type": "Polygon", "coordinates": [[[105.75, 43.5], [105.75, 45.0], [107.25, 45.0], [107.25, 43.5], [105.75, 43.5]]]}, "properties": {"cell_id": "71_89", "lon": 106.5, "lat": 44.25}}, {"type": "Feature", "geometry": {"type": "Polygon", "coordinates": [[[105.75, 45.0], [105.75, 46.5], [107.25, 46.5], [107.25, 45.0], [105.75, 45.0]]]}, "properties": {"cell_id": "71_90", "lon": 106.5, "lat": 45.75}}, {"type": "Feature", "geometry": {"type": "Polygon", "coordinates": [[[105.75, 46.5], [105.75, 48.0], [107.25, 48.0], [107.25, 46.5], [105.75, 46.5]]]}, "properties": {"cell_id": "71_91", "lon": 106.5, "lat": 47.25}}, {"type": "Feature", "geometry": {"type": "Polygon", "coordinates": [[[105.75, 48.0], [105.75, 49.5], [107.25, 49.5], [107.25, 48.0], [105.75, 48.0]]]}, "properties": {"cell_id": "71_92", "lon": 106.5, "lat": 48.75}}, {"type": "Feature", "geometry": {"type": "Polygon", "coordinates": [[[105.75, 49.5], [105.75, 51.0], [107.25, 51.0], [107.25, 49.5], [105.75, 49.5]]]}, "properties": {"cell_id": "71_93", "lon": 106.5, "lat": 50.25}}, {"type": "Feature", "geometry": {"type": "Polygon", "coordinates": [[[107.25, 40.5], [107.25, 42.0], [108.75, 42.0], [108.75, 40.5], [107.25, 40.5]]]}, "properties": {"cell_id": "72_87", "lon": 108.0, "lat": 41.25}}, {"type": "Feature", "geometry": {"type": "Polygon", "coordinates": [[[107.25, 42.0], [107.25, 43.5], [108.75, 43.5], [108.75, 42.0], [107.25, 42.0]]]}, "properties": {"cell_id": "72_88", "lon": 108.0, "lat": 42.75}}, {"type": "Feature", "geometry": {"type": "Polygon", "coordinates": [[[107.25, 43.5], [107.25, 45.0], [108.75, 45.0], [108.75, 43.5], [107.25, 43.5]]]}, "properties": {"cell_id": "72_89", "lon": 108.0, "lat": 44.25}}, {"type": "Feature", "geometry": {"type": "Polygon", "coordinates": [[[107.25, 45.0], [107.25, 46.5], [108.75, 46.5], [108.75, 45.0], [107.25, 45.0]]]}, "properties": {"cell_id": "72_90", "lon": 108.0, "lat": 45.75}}, {"type": "Feature", "geometry": {"type": "Polygon", "coordinates": [[[107.25, 46.5], [107.25, 48.0], [108.75, 48.0], [108.75, 46.5], [107.25, 46.5]]]}, "properties": {"cell_id": "72_91", "lon": 108.0, "lat": 47.25}}, {"type": "Feature", "geometry": {"type": "Polygon", "coordinates": [[[107.25, 48.0], [107.25, 49.5], [108.75, 49.5], [108.75, 48.0], [107.25, 48.0]]]}, "properties": {"cell_id": "72_92", "lon": 108.0, "lat": 48.75}}, {"type": "Feature", "geometry": {"type": "Polygon", "coordinates": [[[107.25, 49.5], [107.25, 51.0], [108.75, 51.0], [108.75, 49.5], [107.25, 49.5]]]}, "properties": {"cell_id": "72_93", "lon": 108.0, "lat": 50.25}}, {"type": "Feature", "geometry": {"type": "Polygon", "coordinates": [[[108.75, 40.5], [108.75, 42.0], [110.25, 42.0], [110.25, 40.5], [108.75, 40.5]]]}, "properties": {"cell_id": "73_87", "lon": 109.5, "lat": 41.25}}, {"type": "Feature", "geometry": {"type": "Polygon", "coordinates": [[[108.75, 42.0], [108.75, 43.5], [110.25, 43.5], [110.25, 42.0], [108.75, 42.0]]]}, "properties": {"cell_id": "73_88", "lon": 109.5, "lat": 42.75}}, {"type": "Feature", "geometry": {"type": "Polygon", "coordinates": [[[108.75, 43.5], [108.75, 45.0], [110.25, 45.0], [110.25, 43.5], [108.75, 43.5]]]}, "properties": {"cell_id": "73_89", "lon": 109.5, "lat": 44.25}}, {"type": "Feature", "geometry": {"type": "Polygon", "coordinates": [[[108.75, 45.0], [108.75, 46.5], [110.25, 46.5], [110.25, 45.0], [108.75, 45.0]]]}, "properties": {"cell_id": "73_90", "lon": 109.5, "lat": 45.75}}, {"type": "Feature", "geometry": {"type": "Polygon", "coordinates": [[[108.75, 46.5], [108.75, 48.0], [110.25, 48.0], [110.25, 46.5], [108.75, 46.5]]]}, "properties": {"cell_id": "73_91", "lon": 109.5, "lat": 47.25}}, {"type": "Feature", "geometry": {"type": "Polygon", "coordinates": [[[108.75, 48.0], [108.75, 49.5], [110.25, 49.5], [110.25, 48.0], [108.75, 48.0]]]}, "properties": {"cell_id": "73_92", "lon": 109.5, "lat": 48.75}}, {"type": "Feature", "geometry": {"type": "Polygon", "coordinates": [[[108.75, 49.5], [108.75, 51.0], [110.25, 51.0], [110.25, 49.5], [108.75, 49.5]]]}, "properties": {"cell_id": "73_93", "lon": 109.5, "lat": 50.25}}]}