{"type": "FeatureCollection", "features": [{"type": "Feature", "geometry": {"type": "Polygon", "coordinates": [[[60.75, -69.0], [60.75, -67.5], [62.25, -67.5], [62.25, -69.0], [60.75, -69.0]]]}, "properties": {"cell_id": "41_14", "lon": 61.5, "lat": -68.25}}, {"type": "Feature", "geometry": {"type": "Polygon", "coordinates": [[[60.75, -67.5], [60.75, -66.0], [62.25, -66.0], [62.25, -67.5], [60.75, -67.5]]]}, "properties": {"cell_id": "41_15", "lon": 61.5, "lat": -66.75}}, {"type": "Feature", "geometry": {"type": "Polygon", "coordinates": [[[62.25, -69.0], [62.25, -67.5], [63.75, -67.5], [63.75, -69.0], [62.25, -69.0]]]}, "properties": {"cell_id": "42_14", "lon": 63.0, "lat": -68.25}}, {"type": "Feature", "geometry": {"type": "Polygon", "coordinates": [[[63.75, -69.0], [63.75, -67.5], [65.25, -67.5], [65.25, -69.0], [63.75, -69.0]]]}, "properties": {"cell_id": "43_14", "lon": 64.5, "lat": -68.25}}, {"type": "Feature", "geometry": {"type": "Polygon", "coordinates": [[[65.25, -69.0], [65.25, -67.5], [66.75, -67.5], [66.75, -69.0], [65.25, -69.0]]]}, "properties": {"cell_id": "44_14", "lon": 66.0, "lat": -68.25}}, {"type": "Feature", "geometry": {"type": "Polygon", "coordinates": [[[66.75, -69.0], [66.75, -67.5], [68.25, -67.5], [68.25, -69.0], [66.75, -69.0]]]}, "properties": {"cell_id": "45_14", "lon": 67.5, "lat": -68.25}}, {"type": "Feature", "geometry": {"type": "Polygon", "coordinates": [[[68.25, -69.0], [68.25, -67.5], [69.75, -67.5], [69.75, -69.0], [68.25, -69.0]]]}, "properties": {"cell_id": "46_14", "lon": 69.0, "lat": -68.25}}]}