{"type": "FeatureCollection", "features": [{"type": "Feature", "geometry": {"type": "Polygon", "coordinates": [[[41.25, 40.5], [41.25, 42.0], [42.75, 42.0], [42.75, 40.5], [41.25, 40.5]]]}, "properties": {"cell_id": "28_87", "lon": 42.0, "lat": 41.25}}, {"type": "Feature", "geometry": {"type": "Polygon", "coordinates": [[[41.25, 42.0], [41.25, 43.5], [42.75, 43.5], [42.75, 42.0], [41.25, 42.0]]]}, "properties": {"cell_id": "28_88", "lon": 42.0, "lat": 42.75}}, {"type": "Feature", "geometry": {"type": "Polygon", "coordinates": [[[41.25, 43.5], [41.25, 45.0], [42.75, 45.0], [42.75, 43.5], [41.25, 43.5]]]}, "properties": {"cell_id": "28_89", "lon": 42.0, "lat": 44.25}}, {"type": "Feature", "geometry": {"type": "Polygon", "coordinates": [[[41.25, 45.0], [41.25, 46.5], [42.75, 46.5], [42.75, 45.0], [41.25, 45.0]]]}, "properties": {"cell_id": "28_90", "lon": 42.0, "lat": 45.75}}, {"type": "Feature", "geometry": {"type": "Polygon", "coordinates": [[[41.25, 46.5], [41.25, 48.0], [42.75, 48.0], [42.75, 46.5], [41.25, 46.5]]]}, "properties": {"cell_id": "28_91", "lon": 42.0, "lat": 47.25}}, {"type": "Feature", "geometry": {"type": "Polygon", "coordinates": [[[41.25, 48.0], [41.25, 49.5], [42.75, 49.5], [42.75, 48.0], [41.25, 48.0]]]}, "properties": {"cell_id": "28_92", "lon": 42.0, "lat": 48.75}}, {"type": "Feature", "geometry": {"type": "Polygon", "coordinates": [[[41.25, 49.5], [41.25, 51.0], [42.75, 51.0], [42.75, 49.5], [41.25, 49.5]]]}, "properties": {"cell_id": "28_93", "lon": 42.0, "lat": 50.25}}, {"type": "Feature", "geometry": {"type": "Polygon", "coordinates": [[[42.75, 40.5], [42.75, 42.0], [44.25, 42.0], [44.25, 40.5], [42.75, 40.5]]]}, "properties": {"cell_id": "29_87", "lon": 43.5, "lat": 41.25}}, {"type": "Feature", "geometry": {"type": "Polygon", "coordinates": [[[42.75, 42.0], [42.75, 43.5], [44.25, 43.5], [44.25, 42.0], [42.75, 42.0]]]}, "properties": {"cell_id": "29_88", "lon": 43.5, "lat": 42.75}}, {"type": "Feature", "geometry": {"type": "Polygon", "coordinates": [[[42.75, 43.5], [42.75, 45.0], [44.25, 45.0], [44.25, 43.5], [42.75, 43.5]]]}, "properties": {"cell_id": "29_89", "lon": 43.5, "lat": 44.25}}, {"type": "Feature", "geometry": {"type": "Polygon", "coordinates": [[[42.75, 45.0], [42.75, 46.5], [44.25, 46.5], [44.25, 45.0], [42.75, 45.0]]]}, "properties": {"cell_id": "29_90", "lon": 43.5, "lat": 45.75}}, {"type": "Feature", "geometry": {"type": "Polygon", "coordinates": [[[42.75, 46.5], [42.75, 48.0], [44.25, 48.0], [44.25, 46.5], [42.75, 46.5]]]}, "properties": {"cell_id": "29_91", "lon": 43.5, "lat": 47.25}}, {"type": "Feature", "geometry": {"type": "Polygon", "coordinates": [[[42.75, 48.0], [42.75, 49.5], [44.25, 49.5], [44.25, 48.0], [42.75, 48.0]]]}, "properties": {"cell_id": "29_92", "lon": 43.5, "lat": 48.75}}, {"type": "Feature", "geometry": {"type": "Polygon", "coordinates": [[[42.75, 49.5], [42.75, 51.0], [44.25, 51.0], [44.25, 49.5], [42.75, 49.5]]]}, "properties": {"cell_id": "29_93", "lon": 43.5, "lat": 50.25}}, {"type": "Feature", "geometry": {"type": "Polygon", "coordinates": [[[44.25, 40.5], [44.25, 42.0], [45.75, 42.0], [45.75, 40.5], [44.25, 40.5]]]}, "properties": {"cell_id": "30_87", "lon": 45.0, "lat": 41.25}}, {"type": "Feature", "geometry": {"type": "Polygon", "coordinates": [[[44.25, 42.0], [44.25, 43.5], [45.75, 43.5], [45.75, 42.0], [44.25, 42.0]]]}, "properties": {"cell_id": "30_88", "lon": 45.0, "lat": 42.75}}, {"type": "Feature", "geometry": {"type": "Polygon", "coordinates": [[[44.25, 43.5], [44.25, 45.0], [45.75, 45.0], [45.75, 43.5], [44.25, 43.5]]]}, "properties": {"cell_id": "30_89", "lon": 45.0, "lat": 44.25}}, {"type": "Feature", "geometry": {"type": "Polygon", "coordinates": [[[44.25, 45.0], [44.25, 46.5], [45.75, 46.5], [45.75, 45.0], [44.25, 45.0]]]}, "properties": {"cell_id": "30_90", "lon": 45.0, "lat": 45.75}}, {"type": "Feature", "geometry": {"type": "Polygon", "coordinates": [[[44.25, 46.5], [44.25, 48.0], [45.75, 48.0], [45.75, 46.5], [44.25, 46.5]]]}, "properties": {"cell_id": "30_91", "lon": 45.0, "lat": 47.25}}, {"type": "Feature", "geometry": {"type": "Polygon", "coordinates": [[[44.25, 48.0], [44.25, 49.5], [45.75, 49.5], [45.75, 48.0], [44.25, 48.0]]]}, "properties": {"cell_id": "30_92", "lon": 45.0, "lat": 48.75}}, {"type": "Feature", "geometry": {"type": "Polygon", "coordinates": [[[44.25, 49.5], [44.25, 51.0], [45.75, 51.0], [45.75, 49.5], [44.25, 49.5]]]}, "properties": {"cell_id": "30_93", "lon": 45.0, "lat": 50.25}}, {"type": "Feature", "geometry": {"type": "Polygon", "coordinates": [[[45.75, 40.5], [45.75, 42.0], [47.25, 42.0], [47.25, 40.5], [45.75, 40.5]]]}, "properties": {"cell_id": "31_87", "lon": 46.5, "lat": 41.25}}, {"type": "Feature", "geometry": {"type": "Polygon", "coordinates": [[[45.75, 42.0], [45.75, 43.5], [47.25, 43.5], [47.25, 42.0], [45.75, 42.0]]]}, "properties": {"cell_id": "31_88", "lon": 46.5, "lat": 42.75}}, {"type": "Feature", "geometry": {"type": "Polygon", "coordinates": [[[45.75, 43.5], [45.75, 45.0], [47.25, 45.0], [47.25, 43.5], [45.75, 43.5]]]}, "properties": {"cell_id": "31_89", "lon": 46.5, "lat": 44.25}}, {"type": "Feature", "geometry": {"type": "Polygon", "coordinates": [[[45.75, 45.0], [45.75, 46.5], [47.25, 46.5], [47.25, 45.0], [45.75, 45.0]]]}, "properties": {"cell_id": "31_90", "lon": 46.5, "lat": 45.75}}, {"type": "Feature", "geometry": {"type": "Polygon", "coordinates": [[[45.75, 46.5], [45.75, 48.0], [47.25, 48.0], [47.25, 46.5], [45.75, 46.5]]]}, "properties": {"cell_id": "31_91", "lon": 46.5, "lat": 47.25}}, {"type": "Feature", "geometry": {"type": "Polygon", "coordinates": [[[45.75, 48.0], [45.75, 49.5], [47.25, 49.5], [47.25, 48.0], [45.75, 48.0]]]}, "properties": {"cell_id": "31_92", "lon": 46.5, "lat": 48.75}}, {"type": "Feature", "geometry": {"type": "Polygon", "coordinates": [[[45.75, 49.5], [45.75, 51.0], [47.25, 51.0], [47.25, 49.5], [45.75, 49.5]]]}, "properties": {"cell_id": "31_93", "lon": 46.5, "lat": 50.25}}, {"type": "Feature", "geometry": {"type": "Polygon", "coordinates": [[[47.25, 40.5], [47.25, 42.0], [48.75, 42.0], [48.75, 40.5], [47.25, 40.5]]]}, "properties": {"cell_id": "32_87", "lon": 48.0, "lat": 41.25}}, {"type": "Feature", "geometry": {"type": "Polygon", "coordinates": [[[47.25, 42.0], [47.25, 43.5], [48.75, 43.5], [48.75, 42.0], [47.25, 42.0]]]}, "properties": {"cell_id": "32_88", "lon": 48.0, "lat": 42.75}}, {"type": "Feature", "geometry": {"type": "Polygon", "coordinates": [[[47.25, 43.5], [47.25, 45.0], [48.75, 45.0], [48.75, 43.5], [47.25, 43.5]]]}, "properties": {"cell_id": "32_89", "lon": 48.0, "lat": 44.25}}, {"type": "Feature", "geometry": {"type": "Polygon", "coordinates": [[[47.25, 45.0], [47.25, 46.5], [48.75, 46.5], [48.75, 45.0], [47.25, 45.0]]]}, "properties": {"cell_id": "32_90", "lon": 48.0, "lat": 45.75}}, {"type": "Feature", "geometry": {"type": "Polygon", "coordinates": [[[47.25, 46.5], [47.25, 48.0], [48.75, 48.0], [48.75, 46.5], [47.25, 46.5]]]}, "properties": {"cell_id": "32_91", "lon": 48.0, "lat": 47.25}}, {"type": "Feature", "geometry": {"type": "Polygon", "coordinates": [[[47.25, 48.0], [47.25, 49.5], [48.75, 49.5], [48.75, 48.0], [47.25, 48.0]]]}, "properties": {"cell_id": "32_92", "lon": 48.0, "lat": 48.75}}, {"type": "Feature", "geometry": {"type": "Polygon", "coordinates": [[[47.25, 49.5], [47.25, 51.0], [48.75, 51.0], [48.75, 49.5], [47.25, 49.5]]]}, "properties": {"cell_id": "32_93", "lon": 48.0, "lat": 50.25}}, {"type": "Feature", "geometry": {"type": "Polygon", "coordinates": [[[48.75, 40.5], [48.75, 42.0], [50.25, 42.0], [50.25, 40.5], [48.75, 40.5]]]}, "properties": {"cell_id": "33_87", "lon": 49.5, "lat": 41.25}}, {"type": "Feature", "geometry": {"type": "Polygon", "coordinates": [[[48.75, 45.0], [48.75, 46.5], [50.25, 46.5], [50.25, 45.0], [48.75, 45.0]]]}, "properties": {"cell_id": "33_90", "lon": 49.5, "lat": 45.75}}, {"type": "Feature", "geometry": {"type": "Polygon", "coordinates": [[[48.75, 46.5], [48.75, 48.0], [50.25, 48.0], [50.25, 46.5], [48.75, 46.5]]]}, "properties": {"cell_id": "33_91", "lon": 49.5, "lat": 47.25}}, {"type": "Feature", "geometry": {"type": "Polygon", "coordinates": [[[48.75, 48.0], [48.75, 49.5], [50.25, 49.5], [50.25, 48.0], [48.75, 48.0]]]}, "properties": {"cell_id": "33_92", "lon": 49.5, "lat": 48.75}}, {"type": "Feature", "geometry": {"type": "Polygon", "coordinates": [[[48.75, 49.5], [48.75, 51.0], [50.25, 51.0], [50.25, 49.5], [48.75, 49.5]]]}, "properties": {"cell_id": "33_93", "lon": 49.5, "lat": 50.25}}]}