{"type": "FeatureCollection", "features": [{"type": "Feature", "geometry": {"type": "Polygon", "coordinates": [[[30.0, 60.0], [30.0, 62.5], [32.5, 62.5], [32.5, 60.0], [30.0, 60.0]]]}, "properties": {"cell_id": "12_60", "lon": 31.25, "lat": 61.25}}, {"type": "Feature", "geometry": {"type": "Polygon", "coordinates": [[[30.0, 62.5], [30.0, 65.0], [32.5, 65.0], [32.5, 62.5], [30.0, 62.5]]]}, "properties": {"cell_id": "12_61", "lon": 31.25, "lat": 63.75}}, {"type": "Feature", "geometry": {"type": "Polygon", "coordinates": [[[30.0, 65.0], [30.0, 67.5], [32.5, 67.5], [32.5, 65.0], [30.0, 65.0]]]}, "properties": {"cell_id": "12_62", "lon": 31.25, "lat": 66.25}}, {"type": "Feature", "geometry": {"type": "Polygon", "coordinates": [[[30.0, 67.5], [30.0, 70.0], [32.5, 70.0], [32.5, 67.5], [30.0, 67.5]]]}, "properties": {"cell_id": "12_63", "lon": 31.25, "lat": 68.75}}, {"type": "Feature", "geometry": {"type": "Polygon", "coordinates": [[[32.5, 60.0], [32.5, 62.5], [35.0, 62.5], [35.0, 60.0], [32.5, 60.0]]]}, "properties": {"cell_id": "13_60", "lon": 33.75, "lat": 61.25}}, {"type": "Feature", "geometry": {"type": "Polygon", "coordinates": [[[32.5, 62.5], [32.5, 65.0], [35.0, 65.0], [35.0, 62.5], [32.5, 62.5]]]}, "properties": {"cell_id": "13_61", "lon": 33.75, "lat": 63.75}}, {"type": "Feature", "geometry": {"type": "Polygon", "coordinates": [[[32.5, 65.0], [32.5, 67.5], [35.0, 67.5], [35.0, 65.0], [32.5, 65.0]]]}, "properties": {"cell_id": "13_62", "lon": 33.75, "lat": 66.25}}, {"type": "Feature", "geometry": {"type": "Polygon", "coordinates": [[[32.5, 67.5], [32.5, 70.0], [35.0, 70.0], [35.0, 67.5], [32.5, 67.5]]]}, "properties": {"cell_id": "13_63", "lon": 33.75, "lat": 68.75}}, {"type": "Feature", "geometry": {"type": "Polygon", "coordinates": [[[35.0, 60.0], [35.0, 62.5], [37.5, 62.5], [37.5, 60.0], [35.0, 60.0]]]}, "properties": {"cell_id": "14_60", "lon": 36.25, "lat": 61.25}}, {"type": "Feature", "geometry": {"type": "Polygon", "coordinates": [[[35.0, 62.5], [35.0, 65.0], [37.5, 65.0], [37.5, 62.5], [35.0, 62.5]]]}, "properties": {"cell_id": "14_61", "lon": 36.25, "lat": 63.75}}, {"type": "Feature", "geometry": {"type": "Polygon", "coordinates": [[[35.0, 67.5], [35.0, 70.0], [37.5, 70.0], [37.5, 67.5], [35.0, 67.5]]]}, "properties": {"cell_id": "14_63", "lon": 36.25, "lat": 68.75}}, {"type": "Feature", "geometry": {"type": "Polygon", "coordinates": [[[37.5, 60.0], [37.5, 62.5], [40.0, 62.5], [40.0, 60.0], [37.5, 60.0]]]}, "properties": {"cell_id": "15_60", "lon": 38.75, "lat": 61.25}}, {"type": "Feature", "geometry": {"type": "Polygon", "coordinates": [[[37.5, 62.5], [37.5, 65.0], [40.0, 65.0], [40.0, 62.5], [37.5, 62.5]]]}, "properties": {"cell_id": "15_61", "lon": 38.75, "lat": 63.75}}, {"type": "Feature", "geometry": {"type": "Polygon", "coordinates": [[[37.5, 65.0], [37.5, 67.5], [40.0, 67.5], [40.0, 65.0], [37.5, 65.0]]]}, "properties": {"cell_id": "15_62", "lon": 38.75, "lat": 66.25}}]}