{"type": "FeatureCollection", "features": [{"type": "Feature", "geometry": {"type": "Polygon", "coordinates": [[[11.25, -19.5], [11.25, -18.0], [12.75, -18.0], [12.75, -19.5], [11.25, -19.5]]]}, "properties": {"cell_id": "8_47", "lon": 12.0, "lat": -18.75}}, {"type": "Feature", "geometry": {"type": "Polygon", "coordinates": [[[11.25, -18.0], [11.25, -16.5], [12.75, -16.5], [12.75, -18.0], [11.25, -18.0]]]}, "properties": {"cell_id": "8_48", "lon": 12.0, "lat": -17.25}}, {"type": "Feature", "geometry": {"type": "Polygon", "coordinates": [[[11.25, -16.5], [11.25, -15.0], [12.75, -15.0], [12.75, -16.5], [11.25, -16.5]]]}, "properties": {"cell_id": "8_49", "lon": 12.0, "lat": -15.75}}, {"type": "Feature", "geometry": {"type": "Polygon", "coordinates": [[[11.25, -15.0], [11.25, -13.5], [12.75, -13.5], [12.75, -15.0], [11.25, -15.0]]]}, "properties": {"cell_id": "8_50", "lon": 12.0, "lat": -14.25}}, {"type": "Feature", "geometry": {"type": "Polygon", "coordinates": [[[12.75, -19.5], [12.75, -18.0], [14.25, -18.0], [14.25, -19.5], [12.75, -19.5]]]}, "properties": {"cell_id": "9_47", "lon": 13.5, "lat": -18.75}}, {"type": "Feature", "geometry": {"type": "Polygon", "coordinates": [[[12.75, -18.0], [12.75, -16.5], [14.25, -16.5], [14.25, -18.0], [12.75, -18.0]]]}, "properties": {"cell_id": "9_48", "lon": 13.5, "lat": -17.25}}, {"type": "Feature", "geometry": {"type": "Polygon", "coordinates": [[[12.75, -16.5], [12.75, -15.0], [14.25, -15.0], [14.25, -16.5], [12.75, -16.5]]]}, "properties": {"cell_id": "9_49", "lon": 13.5, "lat": -15.75}}, {"type": "Feature", "geometry": {"type": "Polygon", "coordinates": [[[12.75, -15.0], [12.75, -13.5], [14.25, -13.5], [14.25, -15.0], [12.75, -15.0]]]}, "properties": {"cell_id": "9_50", "lon": 13.5, "lat": -14.25}}, {"type": "Feature", "geometry": {"type": "Polygon", "coordinates": [[[12.75, -13.5], [12.75, -12.0], [14.25, -12.0], [14.25, -13.5], [12.75, -13.5]]]}, "properties": {"cell_id": "9_51", "lon": 13.5, "lat": -12.75}}, {"type": "Feature", "geometry": {"type": "Polygon", "coordinates": [[[12.75, -12.0], [12.75, -10.5], [14.25, -10.5], [14.25, -12.0], [12.75, -12.0]]]}, "properties": {"cell_id": "9_52", "lon": 13.5, "lat": -11.25}}, {"type": "Feature", "geometry": {"type": "Polygon", "coordinates": [[[12.75, -10.5], [12.75, -9.0], [14.25, -9.0], [14.25, -10.5], [12.75, -10.5]]]}, "properties": {"cell_id": "9_53", "lon": 13.5, "lat": -9.75}}, {"type": "Feature", "geometry": {"type": "Polygon", "coordinates": [[[14.25, -19.5], [14.25, -18.0], [15.75, -18.0], [15.75, -19.5], [14.25, -19.5]]]}, "properties": {"cell_id": "10_47", "lon": 15.0, "lat": -18.75}}, {"type": "Feature", "geometry": {"type": "Polygon", "coordinates": [[[14.25, -18.0], [14.25, -16.5], [15.75, -16.5], [15.75, -18.0], [14.25, -18.0]]]}, "properties": {"cell_id": "10_48", "lon": 15.0, "lat": -17.25}}, {"type": "Feature", "geometry": {"type": "Polygon", "coordinates": [[[14.25, -16.5], [14.25, -15.0], [15.75, -15.0], [15.75, -16.5], [14.25, -16.5]]]}, "properties": {"cell_id": "10_49", "lon": 15.0, "lat": -15.75}}, {"type": "Feature", "geometry": {"type": "Polygon", "coordinates": [[[14.25, -15.0], [14.25, -13.5], [15.75, -13.5], [15.75, -15.0], [14.25, -15.0]]]}, "properties": {"cell_id": "10_50", "lon": 15.0, "lat": -14.25}}, {"type": "Feature", "geometry": {"type": "Polygon", "coordinates": [[[14.25, -13.5], [14.25, -12.0], [15.75, -12.0], [15.75, -13.5], [14.25, -13.5]]]}, "properties": {"cell_id": "10_51", "lon": 15.0, "lat": -12.75}}, {"type": "Feature", "geometry": {"type": "Polygon", "coordinates": [[[14.25, -12.0], [14.25, -10.5], [15.75, -10.5], [15.75, -12.0], [14.25, -12.0]]]}, "properties": {"cell_id": "10_52", "lon": 15.0, "lat": -11.25}}, {"type": "Feature", "geometry": {"type": "Polygon", "coordinates": [[[14.25, -10.5], [14.25, -9.0], [15.75, -9.0], [15.75, -10.5], [14.25, -10.5]]]}, "properties": {"cell_id": "10_53", "lon": 15.0, "lat": -9.75}}, {"type": "Feature", "geometry": {"type": "Polygon", "coordinates": [[[15.75, -19.5], [15.75, -18.0], [17.25, -18.0], [17.25, -19.5], [15.75, -19.5]]]}, "properties": {"cell_id": "11_47", "lon": 16.5, "lat": -18.75}}, {"type": "Feature", "geometry": {"type": "Polygon", "coordinates": [[[15.75, -18.0], [15.75, -16.5], [17.25, -16.5], [17.25, -18.0], [15.75, -18.0]]]}, "properties": {"cell_id": "11_48", "lon": 16.5, "lat": -17.25}}, {"type": "Feature", "geometry": {"type": "Polygon", "coordinates": [[[15.75, -16.5], [15.75, -15.0], [17.25, -15.0], [17.25, -16.5], [15.75, -16.5]]]}, "properties": {"cell_id": "11_49", "lon": 16.5, "lat": -15.75}}, {"type": "Feature", "geometry": {"type": "Polygon", "coordinates": [[[15.75, -15.0], [15.75, -13.5], [17.25, -13.5], [17.25, -15.0], [15.75, -15.0]]]}, "properties": {"cell_id": "11_50", "lon": 16.5, "lat": -14.25}}, {"type": "Feature", "geometry": {"type": "Polygon", "coordinates": [[[15.75, -13.5], [15.75, -12.0], [17.25, -12.0], [17.25, -13.5], [15.75, -13.5]]]}, "properties": {"cell_id": "11_51", "lon": 16.5, "lat": -12.75}}, {"type": "Feature", "geometry": {"type": "Polygon", "coordinates": [[[15.75, -12.0], [15.75, -10.5], [17.25, -10.5], [17.25, -12.0], [15.75, -12.0]]]}, "properties": {"cell_id": "11_52", "lon": 16.5, "lat": -11.25}}, {"type": "Feature", "geometry": {"type": "Polygon", "coordinates": [[[15.75, -10.5], [15.75, -9.0], [17.25, -9.0], [17.25, -10.5], [15.75, -10.5]]]}, "properties": {"cell_id": "11_53", "lon": 16.5, "lat": -9.75}}, {"type": "Feature", "geometry": {"type": "Polygon", "coordinates": [[[17.25, -19.5], [17.25, -18.0], [18.75, -18.0], [18.75, -19.5], [17.25, -19.5]]]}, "properties": {"cell_id": "12_47", "lon": 18.0, "lat": -18.75}}, {"type": "Feature", "geometry": {"type": "Polygon", "coordinates": [[[17.25, -18.0], [17.25, -16.5], [18.75, -16.5], [18.75, -18.0], [17.25, -18.0]]]}, "properties": {"cell_id": "12_48", "lon": 18.0, "lat": -17.25}}, {"type": "Feature", "geometry": {"type": "Polygon", "coordinates": [[[17.25, -16.5], [17.25, -15.0], [18.75, -15.0], [18.75, -16.5], [17.25, -16.5]]]}, "properties": {"cell_id": "12_49", "lon": 18.0, "lat": -15.75}}, {"type": "Feature", "geometry": {"type": "Polygon", "coordinates": [[[17.25, -15.0], [17.25, -13.5], [18.75, -13.5], [18.75, -15.0], [17.25, -15.0]]]}, "properties": {"cell_id": "12_50", "lon": 18.0, "lat": -14.25}}, {"type": "Feature", "geometry": {"type": "Polygon", "coordinates": [[[17.25, -13.5], [17.25, -12.0], [18.75, -12.0], [18.75, -13.5], [17.25, -13.5]]]}, "properties": {"cell_id": "12_51", "lon": 18.0, "lat": -12.75}}, {"type": "Feature", "geometry": {"type": "Polygon", "coordinates": [[[17.25, -12.0], [17.25, -10.5], [18.75, -10.5], [18.75, -12.0], [17.25, -12.0]]]}, "properties": {"cell_id": "12_52", "lon": 18.0, "lat": -11.25}}, {"type": "Feature", "geometry": {"type": "Polygon", "coordinates": [[[17.25, -10.5], [17.25, -9.0], [18.75, -9.0], [18.75, -10.5], [17.25, -10.5]]]}, "properties": {"cell_id": "12_53", "lon": 18.0, "lat": -9.75}}, {"type": "Feature", "geometry": {"type": "Polygon", "coordinates": [[[18.75, -19.5], [18.75, -18.0], [20.25, -18.0], [20.25, -19.5], [18.75, -19.5]]]}, "properties": {"cell_id": "13_47", "lon": 19.5, "lat": -18.75}}, {"type": "Feature", "geometry": {"type": "Polygon", "coordinates": [[[18.75, -18.0], [18.75, -16.5], [20.25, -16.5], [20.25, -18.0], [18.75, -18.0]]]}, "properties": {"cell_id": "13_48", "lon": 19.5, "lat": -17.25}}, {"type": "Feature", "geometry": {"type": "Polygon", "coordinates": [[[18.75, -16.5], [18.75, -15.0], [20.25, -15.0], [20.25, -16.5], [18.75, -16.5]]]}, "properties": {"cell_id": "13_49", "lon": 19.5, "lat": -15.75}}, {"type": "Feature", "geometry": {"type": "Polygon", "coordinates": [[[18.75, -15.0], [18.75, -13.5], [20.25, -13.5], [20.25, -15.0], [18.75, -15.0]]]}, "properties": {"cell_id": "13_50", "lon": 19.5, "lat": -14.25}}, {"type": "Feature", "geometry": {"type": "Polygon", "coordinates": [[[18.75, -13.5], [18.75, -12.0], [20.25, -12.0], [20.25, -13.5], [18.75, -13.5]]]}, "properties": {"cell_id": "13_51", "lon": 19.5, "lat": -12.75}}, {"type": "Feature", "geometry": {"type": "Polygon", "coordinates": [[[18.75, -12.0], [18.75, -10.5], [20.25, -10.5], [20.25, -12.0], [18.75, -12.0]]]}, "properties": {"cell_id": "13_52", "lon": 19.5, "lat": -11.25}}, {"type": "Feature", "geometry": {"type": "Polygon", "coordinates": [[[18.75, -10.5], [18.75, -9.0], [20.25, -9.0], [20.25, -10.5], [18.75, -10.5]]]}, "properties": {"cell_id": "13_53", "lon": 19.5, "lat": -9.75}}]}