{"type": "FeatureCollection", "features": [{"type": "Feature", "geometry": {"type": "Polygon", "coordinates": [[[-179.25, -79.5], [-179.25, -78.0], [-177.75, -78.0], [-177.75, -79.5], [-179.25, -79.5]]]}, "properties": {"cell_id": "121_7", "lon": -178.5, "lat": -78.75}}, {"type": "Feature", "geometry": {"type": "Polygon", "coordinates": [[[-177.75, -79.5], [-177.75, -78.0], [-176.25, -78.0], [-176.25, -79.5], [-177.75, -79.5]]]}, "properties": {"cell_id": "122_7", "lon": -177.0, "lat": -78.75}}, {"type": "Feature", "geometry": {"type": "Polygon", "coordinates": [[[-176.25, -79.5], [-176.25, -78.0], [-174.75, -78.0], [-174.75, -79.5], [-176.25, -79.5]]]}, "properties": {"cell_id": "123_7", "lon": -175.5, "lat": -78.75}}, {"type": "Feature", "geometry": {"type": "Polygon", "coordinates": [[[-174.75, -79.5], [-174.75, -78.0], [-173.25, -78.0], [-173.25, -79.5], [-174.75, -79.5]]]}, "properties": {"cell_id": "124_7", "lon": -174.0, "lat": -78.75}}, {"type": "Feature", "geometry": {"type": "Polygon", "coordinates": [[[-173.25, -79.5], [-173.25, -78.0], [-171.75, -78.0], [-171.75, -79.5], [-173.25, -79.5]]]}, "properties": {"cell_id": "125_7", "lon": -172.5, "lat": -78.75}}, {"type": "Feature", "geometry": {"type": "Polygon", "coordinates": [[[-171.75, -79.5], [-171.75, -78.0], [-170.25, -78.0], [-170.25, -79.5], [-171.75, -79.5]]]}, "properties": {"cell_id": "126_7", "lon": -171.0, "lat": -78.75}}, {"type": "Feature", "geometry": {"type": "Polygon", "coordinates": [[[-170.25, -79.5], [-170.25, -78.0], [-168.75, -78.0], [-168.75, -79.5], [-170.25, -79.5]]]}, "properties": {"cell_id": "127_7", "lon": -169.5, "lat": -78.75}}]}