{"type": "FeatureCollection", "features": [{"type": "Feature", "geometry": {"type": "Polygon", "coordinates": [[[30.75, 0.0], [30.75, 1.5], [32.25, 1.5], [32.25, 0.0], [30.75, 0.0]]]}, "properties": {"cell_id": "21_60", "lon": 31.5, "lat": 0.75}}, {"type": "Feature", "geometry": {"type": "Polygon", "coordinates": [[[30.75, 1.5], [30.75, 3.0], [32.25, 3.0], [32.25, 1.5], [30.75, 1.5]]]}, "properties": {"cell_id": "21_61", "lon": 31.5, "lat": 2.25}}, {"type": "Feature", "geometry": {"type": "Polygon", "coordinates": [[[30.75, 3.0], [30.75, 4.5], [32.25, 4.5], [32.25, 3.0], [30.75, 3.0]]]}, "properties": {"cell_id": "21_62", "lon": 31.5, "lat": 3.75}}, {"type": "Feature", "geometry": {"type": "Polygon", "coordinates": [[[30.75, 4.5], [30.75, 6.0], [32.25, 6.0], [32.25, 4.5], [30.75, 4.5]]]}, "properties": {"cell_id": "21_63", "lon": 31.5, "lat": 5.25}}, {"type": "Feature", "geometry": {"type": "Polygon", "coordinates": [[[30.75, 6.0], [30.75, 7.5], [32.25, 7.5], [32.25, 6.0], [30.75, 6.0]]]}, "properties": {"cell_id": "21_64", "lon": 31.5, "lat": 6.75}}, {"type": "Feature", "geometry": {"type": "Polygon", "coordinates": [[[30.75, 7.5], [30.75, 9.0], [32.25, 9.0], [32.25, 7.5], [30.75, 7.5]]]}, "properties": {"cell_id": "21_65", "lon": 31.5, "lat": 8.25}}, {"type": "Feature", "geometry": {"type": "Polygon", "coordinates": [[[30.75, 9.0], [30.75, 10.5], [32.25, 10.5], [32.25, 9.0], [30.75, 9.0]]]}, "properties": {"cell_id": "21_66", "lon": 31.5, "lat": 9.75}}, {"type": "Feature", "geometry": {"type": "Polygon", "coordinates": [[[32.25, 0.0], [32.25, 1.5], [33.75, 1.5], [33.75, 0.0], [32.25, 0.0]]]}, "properties": {"cell_id": "22_60", "lon": 33.0, "lat": 0.75}}, {"type": "Feature", "geometry": {"type": "Polygon", "coordinates": [[[32.25, 1.5], [32.25, 3.0], [33.75, 3.0], [33.75, 1.5], [32.25, 1.5]]]}, "properties": {"cell_id": "22_61", "lon": 33.0, "lat": 2.25}}, {"type": "Feature", "geometry": {"type": "Polygon", "coordinates": [[[32.25, 3.0], [32.25, 4.5], [33.75, 4.5], [33.75, 3.0], [32.25, 3.0]]]}, "properties": {"cell_id": "22_62", "lon": 33.0, "lat": 3.75}}, {"type": "Feature", "geometry": {"type": "Polygon", "coordinates": [[[32.25, 4.5], [32.25, 6.0], [33.75, 6.0], [33.75, 4.5], [32.25, 4.5]]]}, "properties": {"cell_id": "22_63", "lon": 33.0, "lat": 5.25}}, {"type": "Feature", "geometry": {"type": "Polygon", "coordinates": [[[32.25, 6.0], [32.25, 7.5], [33.75, 7.5], [33.75, 6.0], [32.25, 6.0]]]}, "properties": {"cell_id": "22_64", "lon": 33.0, "lat": 6.75}}, {"type": "Feature", "geometry": {"type": "Polygon", "coordinates": [[[32.25, 7.5], [32.25, 9.0], [33.75, 9.0], [33.75, 7.5], [32.25, 7.5]]]}, "properties": {"cell_id": "22_65", "lon": 33.0, "lat": 8.25}}, {"type": "Feature", "geometry": {"type": "Polygon", "coordinates": [[[32.25, 9.0], [32.25, 10.5], [33.75, 10.5], [33.75, 9.0], [32.25, 9.0]]]}, "properties": {"cell_id": "22_66", "lon": 33.0, "lat": 9.75}}, {"type": "Feature", "geometry": {"type": "Polygon", "coordinates": [[[33.75, 0.0], [33.75, 1.5], [35.25, 1.5], [35.25, 0.0], [33.75, 0.0]]]}, "properties": {"cell_id": "23_60", "lon": 34.5, "lat": 0.75}}, {"type": "Feature", "geometry": {"type": "Polygon", "coordinates": [[[33.75, 1.5], [33.75, 3.0], [35.25, 3.0], [35.25, 1.5], [33.75, 1.5]]]}, "properties": {"cell_id": "23_61", "lon": 34.5, "lat": 2.25}}, {"type": "Feature", "geometry": {"type": "Polygon", "coordinates": [[[33.75, 3.0], [33.75, 4.5], [35.25, 4.5], [35.25, 3.0], [33.75, 3.0]]]}, "properties": {"cell_id": "23_62", "lon": 34.5, "lat": 3.75}}, {"type": "Feature", "geometry": {"type": "Polygon", "coordinates": [[[33.75, 4.5], [33.75, 6.0], [35.25, 6.0], [35.25, 4.5], [33.75, 4.5]]]}, "properties": {"cell_id": "23_63", "lon": 34.5, "lat": 5.25}}, {"type": "Feature", "geometry": {"type": "Polygon", "coordinates": [[[33.75, 6.0], [33.75, 7.5], [35.25, 7.5], [35.25, 6.0], [33.75, 6.0]]]}, "properties": {"cell_id": "23_64", "lon": 34.5, "lat": 6.75}}, {"type": "Feature", "geometry": {"type": "Polygon", "coordinates": [[[33.75, 7.5], [33.75, 9.0], [35.25, 9.0], [35.25, 7.5], [33.75, 7.5]]]}, "properties": {"cell_id": "23_65", "lon": 34.5, "lat": 8.25}}, {"type": "Feature", "geometry": {"type": "Polygon", "coordinates": [[[33.75, 9.0], [33.75, 10.5], [35.25, 10.5], [35.25, 9.0], [33.75, 9.0]]]}, "properties": {"cell_id": "23_66", "lon": 34.5, "lat": 9.75}}, {"type": "Feature", "geometry": {"type": "Polygon", "coordinates": [[[35.25, 0.0], [35.25, 1.5], [36.75, 1.5], [36.75, 0.0], [35.25, 0.0]]]}, "properties": {"cell_id": "24_60", "lon": 36.0, "lat": 0.75}}, {"type": "Feature", "geometry": {"type": "Polygon", "coordinates": [[[35.25, 1.5], [35.25, 3.0], [36.75, 3.0], [36.75, 1.5], [35.25, 1.5]]]}, "properties": {"cell_id": "24_61", "lon": 36.0, "lat": 2.25}}, {"type": "Feature", "geometry": {"type": "Polygon", "coordinates": [[[35.25, 3.0], [35.25, 4.5], [36.75, 4.5], [36.75, 3.0], [35.25, 3.0]]]}, "properties": {"cell_id": "24_62", "lon": 36.0, "lat": 3.75}}, {"type": "Feature", "geometry": {"type": "Polygon", "coordinates": [[[35.25, 4.5], [35.25, 6.0], [36.75, 6.0], [36.75, 4.5], [35.25, 4.5]]]}, "properties": {"cell_id": "24_63", "lon": 36.0, "lat": 5.25}}, {"type": "Feature", "geometry": {"type": "Polygon", "coordinates": [[[35.25, 6.0], [35.25, 7.5], [36.75, 7.5], [36.75, 6.0], [35.25, 6.0]]]}, "properties": {"cell_id": "24_64", "lon": 36.0, "lat": 6.75}}, {"type": "Feature", "geometry": {"type": "Polygon", "coordinates": [[[35.25, 7.5], [35.25, 9.0], [36.75, 9.0], [36.75, 7.5], [35.25, 7.5]]]}, "properties": {"cell_id": "24_65", "lon": 36.0, "lat": 8.25}}, {"type": "Feature", "geometry": {"type": "Polygon", "coordinates": [[[35.25, 9.0], [35.25, 10.5], [36.75, 10.5], [36.75, 9.0], [35.25, 9.0]]]}, "properties": {"cell_id": "24_66", "lon": 36.0, "lat": 9.75}}, {"type": "Feature", "geometry": {"type": "Polygon", "coordinates": [[[36.75, 0.0], [36.75, 1.5], [38.25, 1.5], [38.25, 0.0], [36.75, 0.0]]]}, "properties": {"cell_id": "25_60", "lon": 37.5, "lat": 0.75}}, {"type": "Feature", "geometry": {"type": "Polygon", "coordinates": [[[36.75, 1.5], [36.75, 3.0], [38.25, 3.0], [38.25, 1.5], [36.75, 1.5]]]}, "properties": {"cell_id": "25_61", "lon": 37.5, "lat": 2.25}}, {"type": "Feature", "geometry": {"type": "Polygon", "coordinates": [[[36.75, 3.0], [36.75, 4.5], [38.25, 4.5], [38.25, 3.0], [36.75, 3.0]]]}, "properties": {"cell_id": "25_62", "lon": 37.5, "lat": 3.75}}, {"type": "Feature", "geometry": {"type": "Polygon", "coordinates": [[[36.75, 4.5], [36.75, 6.0], [38.25, 6.0], [38.25, 4.5], [36.75, 4.5]]]}, "properties": {"cell_id": "25_63", "lon": 37.5, "lat": 5.25}}, {"type": "Feature", "geometry": {"type": "Polygon", "coordinates": [[[36.75, 6.0], [36.75, 7.5], [38.25, 7.5], [38.25, 6.0], [36.75, 6.0]]]}, "properties": {"cell_id": "25_64", "lon": 37.5, "lat": 6.75}}, {"type": "Feature", "geometry": {"type": "Polygon", "coordinates": [[[36.75, 7.5], [36.75, 9.0], [38.25, 9.0], [38.25, 7.5], [36.75, 7.5]]]}, "properties": {"cell_id": "25_65", "lon": 37.5, "lat": 8.25}}, {"type": "Feature", "geometry": {"type": "Polygon", "coordinates": [[[36.75, 9.0], [36.75, 10.5], [38.25, 10.5], [38.25, 9.0], [36.75, 9.0]]]}, "properties": {"cell_id": "25_66", "lon": 37.5, "lat": 9.75}}, {"type": "Feature", "geometry": {"type": "Polygon", "coordinates": [[[38.25, 0.0], [38.25, 1.5], [39.75, 1.5], [39.75, 0.0], [38.25, 0.0]]]}, "properties": {"cell_id": "26_60", "lon": 39.0, "lat": 0.75}}, {"type": "Feature", "geometry": {"type": "Polygon", "coordinates": [[[38.25, 1.5], [38.25, 3.0], [39.75, 3.0], [39.75, 1.5], [38.25, 1.5]]]}, "properties": {"cell_id": "26_61", "lon": 39.0, "lat": 2.25}}, {"type": "Feature", "geometry": {"type": "Polygon", "coordinates": [[[38.25, 3.0], [38.25, 4.5], [39.75, 4.5], [39.75, 3.0], [38.25, 3.0]]]}, "properties": {"cell_id": "26_62", "lon": 39.0, "lat": 3.75}}, {"type": "Feature", "geometry": {"type": "Polygon", "coordinates": [[[38.25, 4.5], [38.25, 6.0], [39.75, 6.0], [39.75, 4.5], [38.25, 4.5]]]}, "properties": {"cell_id": "26_63", "lon": 39.0, "lat": 5.25}}, {"type": "Feature", "geometry": {"type": "Polygon", "coordinates": [[[38.25, 6.0], [38.25, 7.5], [39.75, 7.5], [39.75, 6.0], [38.25, 6.0]]]}, "properties": {"cell_id": "26_64", "lon": 39.0, "lat": 6.75}}, {"type": "Feature", "geometry": {"type": "Polygon", "coordinates": [[[38.25, 7.5], [38.25, 9.0], [39.75, 9.0], [39.75, 7.5], [38.25, 7.5]]]}, "properties": {"cell_id": "26_65", "lon": 39.0, "lat": 8.25}}, {"type": "Feature", "geometry": {"type": "Polygon", "coordinates": [[[38.25, 9.0], [38.25, 10.5], [39.75, 10.5], [39.75, 9.0], [38.25, 9.0]]]}, "properties": {"cell_id": "26_66", "lon": 39.0, "lat": 9.75}}, {"type": "Feature", "geometry": {"type": "Polygon", "coordinates": [[[39.75, 0.0], [39.75, 1.5], [41.25, 1.5], [41.25, 0.0], [39.75, 0.0]]]}, "properties": {"cell_id": "27_60", "lon": 40.5, "lat": 0.75}}, {"type": "Feature", "geometry": {"type": "Polygon", "coordinates": [[[39.75, 1.5], [39.75, 3.0], [41.25, 3.0], [41.25, 1.5], [39.75, 1.5]]]}, "properties": {"cell_id": "27_61", "lon": 40.5, "lat": 2.25}}, {"type": "Feature", "geometry": {"type": "Polygon", "coordinates": [[[39.75, 3.0], [39.75, 4.5], [41.25, 4.5], [41.25, 3.0], [39.75, 3.0]]]}, "properties": {"cell_id": "27_62", "lon": 40.5, "lat": 3.75}}, {"type": "Feature", "geometry": {"type": "Polygon", "coordinates": [[[39.75, 4.5], [39.75, 6.0], [41.25, 6.0], [41.25, 4.5], [39.75, 4.5]]]}, "properties": {"cell_id": "27_63", "lon": 40.5, "lat": 5.25}}, {"type": "Feature", "geometry": {"type": "Polygon", "coordinates": [[[39.75, 6.0], [39.75, 7.5], [41.25, 7.5], [41.25, 6.0], [39.75, 6.0]]]}, "properties": {"cell_id": "27_64", "lon": 40.5, "lat": 6.75}}, {"type": "Feature", "geometry": {"type": "Polygon", "coordinates": [[[39.75, 7.5], [39.75, 9.0], [41.25, 9.0], [41.25, 7.5], [39.75, 7.5]]]}, "properties": {"cell_id": "27_65", "lon": 40.5, "lat": 8.25}}, {"type": "Feature", "geometry": {"type": "Polygon", "coordinates": [[[39.75, 9.0], [39.75, 10.5], [41.25, 10.5], [41.25, 9.0], [39.75, 9.0]]]}, "properties": {"cell_id": "27_66", "lon": 40.5, "lat": 9.75}}]}