{"type": "FeatureCollection", "features": [{"type": "Feature", "geometry": {"type": "Polygon", "coordinates": [[[90.75, -79.5], [90.75, -78.0], [92.25, -78.0], [92.25, -79.5], [90.75, -79.5]]]}, "properties": {"cell_id": "61_7", "lon": 91.5, "lat": -78.75}}, {"type": "Feature", "geometry": {"type": "Polygon", "coordinates": [[[90.75, -78.0], [90.75, -76.5], [92.25, -76.5], [92.25, -78.0], [90.75, -78.0]]]}, "properties": {"cell_id": "61_8", "lon": 91.5, "lat": -77.25}}, {"type": "Feature", "geometry": {"type": "Polygon", "coordinates": [[[90.75, -76.5], [90.75, -75.0], [92.25, -75.0], [92.25, -76.5], [90.75, -76.5]]]}, "properties": {"cell_id": "61_9", "lon": 91.5, "lat": -75.75}}, {"type": "Feature", "geometry": {"type": "Polygon", "coordinates": [[[90.75, -75.0], [90.75, -73.5], [92.25, -73.5], [92.25, -75.0], [90.75, -75.0]]]}, "properties": {"cell_id": "61_10", "lon": 91.5, "lat": -74.25}}, {"type": "Feature", "geometry": {"type": "Polygon", "coordinates": [[[90.75, -73.5], [90.75, -72.0], [92.25, -72.0], [92.25, -73.5], [90.75, -73.5]]]}, "properties": {"cell_id": "61_11", "lon": 91.5, "lat": -72.75}}, {"type": "Feature", "geometry": {"type": "Polygon", "coordinates": [[[90.75, -72.0], [90.75, -70.5], [92.25, -70.5], [92.25, -72.0], [90.75, -72.0]]]}, "properties": {"cell_id": "61_12", "lon": 91.5, "lat": -71.25}}, {"type": "Feature", "geometry": {"type": "Polygon", "coordinates": [[[90.75, -70.5], [90.75, -69.0], [92.25, -69.0], [92.25, -70.5], [90.75, -70.5]]]}, "properties": {"cell_id": "61_13", "lon": 91.5, "lat": -69.75}}, {"type": "Feature", "geometry": {"type": "Polygon", "coordinates": [[[92.25, -79.5], [92.25, -78.0], [93.75, -78.0], [93.75, -79.5], [92.25, -79.5]]]}, "properties": {"cell_id": "62_7", "lon": 93.0, "lat": -78.75}}, {"type": "Feature", "geometry": {"type": "Polygon", "coordinates": [[[92.25, -78.0], [92.25, -76.5], [93.75, -76.5], [93.75, -78.0], [92.25, -78.0]]]}, "properties": {"cell_id": "62_8", "lon": 93.0, "lat": -77.25}}, {"type": "Feature", "geometry": {"type": "Polygon", "coordinates": [[[92.25, -76.5], [92.25, -75.0], [93.75, -75.0], [93.75, -76.5], [92.25, -76.5]]]}, "properties": {"cell_id": "62_9", "lon": 93.0, "lat": -75.75}}, {"type": "Feature", "geometry": {"type": "Polygon", "coordinates": [[[92.25, -75.0], [92.25, -73.5], [93.75, -73.5], [93.75, -75.0], [92.25, -75.0]]]}, "properties": {"cell_id": "62_10", "lon": 93.0, "lat": -74.25}}, {"type": "Feature", "geometry": {"type": "Polygon", "coordinates": [[[92.25, -73.5], [92.25, -72.0], [93.75, -72.0], [93.75, -73.5], [92.25, -73.5]]]}, "properties": {"cell_id": "62_11", "lon": 93.0, "lat": -72.75}}, {"type": "Feature", "geometry": {"type": "Polygon", "coordinates": [[[92.25, -72.0], [92.25, -70.5], [93.75, -70.5], [93.75, -72.0], [92.25, -72.0]]]}, "properties": {"cell_id": "62_12", "lon": 93.0, "lat": -71.25}}, {"type": "Feature", "geometry": {"type": "Polygon", "coordinates": [[[92.25, -70.5], [92.25, -69.0], [93.75, -69.0], [93.75, -70.5], [92.25, -70.5]]]}, "properties": {"cell_id": "62_13", "lon": 93.0, "lat": -69.75}}, {"type": "Feature", "geometry": {"type": "Polygon", "coordinates": [[[93.75, -79.5], [93.75, -78.0], [95.25, -78.0], [95.25, -79.5], [93.75, -79.5]]]}, "properties": {"cell_id": "63_7", "lon": 94.5, "lat": -78.75}}, {"type": "Feature", "geometry": {"type": "Polygon", "coordinates": [[[93.75, -78.0], [93.75, -76.5], [95.25, -76.5], [95.25, -78.0], [93.75, -78.0]]]}, "properties": {"cell_id": "63_8", "lon": 94.5, "lat": -77.25}}, {"type": "Feature", "geometry": {"type": "Polygon", "coordinates": [[[93.75, -76.5], [93.75, -75.0], [95.25, -75.0], [95.25, -76.5], [93.75, -76.5]]]}, "properties": {"cell_id": "63_9", "lon": 94.5, "lat": -75.75}}, {"type": "Feature", "geometry": {"type": "Polygon", "coordinates": [[[93.75, -75.0], [93.75, -73.5], [95.25, -73.5], [95.25, -75.0], [93.75, -75.0]]]}, "properties": {"cell_id": "63_10", "lon": 94.5, "lat": -74.25}}, {"type": "Feature", "geometry": {"type": "Polygon", "coordinates": [[[93.75, -73.5], [93.75, -72.0], [95.25, -72.0], [95.25, -73.5], [93.75, -73.5]]]}, "properties": {"cell_id": "63_11", "lon": 94.5, "lat": -72.75}}, {"type": "Feature", "geometry": {"type": "Polygon", "coordinates": [[[93.75, -72.0], [93.75, -70.5], [95.25, -70.5], [95.25, -72.0], [93.75, -72.0]]]}, "properties": {"cell_id": "63_12", "lon": 94.5, "lat": -71.25}}, {"type": "Feature", "geometry": {"type": "Polygon", "coordinates": [[[93.75, -70.5], [93.75, -69.0], [95.25, -69.0], [95.25, -70.5], [93.75, -70.5]]]}, "properties": {"cell_id": "63_13", "lon": 94.5, "lat": -69.75}}, {"type": "Feature", "geometry": {"type": "Polygon", "coordinates": [[[95.25, -79.5], [95.25, -78.0], [96.75, -78.0], [96.75, -79.5], [95.25, -79.5]]]}, "properties": {"cell_id": "64_7", "lon": 96.0, "lat": -78.75}}, {"type": "Feature", "geometry": {"type": "Polygon", "coordinates": [[[95.25, -78.0], [95.25, -76.5], [96.75, -76.5], [96.75, -78.0], [95.25, -78.0]]]}, "properties": {"cell_id": "64_8", "lon": 96.0, "lat": -77.25}}, {"type": "Feature", "geometry": {"type": "Polygon", "coordinates": [[[95.25, -76.5], [95.25, -75.0], [96.75, -75.0], [96.75, -76.5], [95.25, -76.5]]]}, "properties": {"cell_id": "64_9", "lon": 96.0, "lat": -75.75}}, {"type": "Feature", "geometry": {"type": "Polygon", "coordinates": [[[95.25, -75.0], [95.25, -73.5], [96.75, -73.5], [96.75, -75.0], [95.25, -75.0]]]}, "properties": {"cell_id": "64_10", "lon": 96.0, "lat": -74.25}}, {"type": "Feature", "geometry": {"type": "Polygon", "coordinates": [[[95.25, -73.5], [95.25, -72.0], [96.75, -72.0], [96.75, -73.5], [95.25, -73.5]]]}, "properties": {"cell_id": "64_11", "lon": 96.0, "lat": -72.75}}, {"type": "Feature", "geometry": {"type": "Polygon", "coordinates": [[[95.25, -72.0], [95.25, -70.5], [96.75, -70.5], [96.75, -72.0], [95.25, -72.0]]]}, "properties": {"cell_id": "64_12", "lon": 96.0, "lat": -71.25}}, {"type": "Feature", "geometry": {"type": "Polygon", "coordinates": [[[95.25, -70.5], [95.25, -69.0], [96.75, -69.0], [96.75, -70.5], [95.25, -70.5]]]}, "properties": {"cell_id": "64_13", "lon": 96.0, "lat": -69.75}}, {"type": "Feature", "geometry": {"type": "Polygon", "coordinates": [[[96.75, -79.5], [96.75, -78.0], [98.25, -78.0], [98.25, -79.5], [96.75, -79.5]]]}, "properties": {"cell_id": "65_7", "lon": 97.5, "lat": -78.75}}, {"type": "Feature", "geometry": {"type": "Polygon", "coordinates": [[[96.75, -78.0], [96.75, -76.5], [98.25, -76.5], [98.25, -78.0], [96.75, -78.0]]]}, "properties": {"cell_id": "65_8", "lon": 97.5, "lat": -77.25}}, {"type": "Feature", "geometry": {"type": "Polygon", "coordinates": [[[96.75, -76.5], [96.75, -75.0], [98.25, -75.0], [98.25, -76.5], [96.75, -76.5]]]}, "properties": {"cell_id": "65_9", "lon": 97.5, "lat": -75.75}}, {"type": "Feature", "geometry": {"type": "Polygon", "coordinates": [[[96.75, -75.0], [96.75, -73.5], [98.25, -73.5], [98.25, -75.0], [96.75, -75.0]]]}, "properties": {"cell_id": "65_10", "lon": 97.5, "lat": -74.25}}, {"type": "Feature", "geometry": {"type": "Polygon", "coordinates": [[[96.75, -73.5], [96.75, -72.0], [98.25, -72.0], [98.25, -73.5], [96.75, -73.5]]]}, "properties": {"cell_id": "65_11", "lon": 97.5, "lat": -72.75}}, {"type": "Feature", "geometry": {"type": "Polygon", "coordinates": [[[96.75, -72.0], [96.75, -70.5], [98.25, -70.5], [98.25, -72.0], [96.75, -72.0]]]}, "properties": {"cell_id": "65_12", "lon": 97.5, "lat": -71.25}}, {"type": "Feature", "geometry": {"type": "Polygon", "coordinates": [[[96.75, -70.5], [96.75, -69.0], [98.25, -69.0], [98.25, -70.5], [96.75, -70.5]]]}, "properties": {"cell_id": "65_13", "lon": 97.5, "lat": -69.75}}, {"type": "Feature", "geometry": {"type": "Polygon", "coordinates": [[[98.25, -79.5], [98.25, -78.0], [99.75, -78.0], [99.75, -79.5], [98.25, -79.5]]]}, "properties": {"cell_id": "66_7", "lon": 99.0, "lat": -78.75}}, {"type": "Feature", "geometry": {"type": "Polygon", "coordinates": [[[98.25, -78.0], [98.25, -76.5], [99.75, -76.5], [99.75, -78.0], [98.25, -78.0]]]}, "properties": {"cell_id": "66_8", "lon": 99.0, "lat": -77.25}}, {"type": "Feature", "geometry": {"type": "Polygon", "coordinates": [[[98.25, -76.5], [98.25, -75.0], [99.75, -75.0], [99.75, -76.5], [98.25, -76.5]]]}, "properties": {"cell_id": "66_9", "lon": 99.0, "lat": -75.75}}, {"type": "Feature", "geometry": {"type": "Polygon", "coordinates": [[[98.25, -75.0], [98.25, -73.5], [99.75, -73.5], [99.75, -75.0], [98.25, -75.0]]]}, "properties": {"cell_id": "66_10", "lon": 99.0, "lat": -74.25}}, {"type": "Feature", "geometry": {"type": "Polygon", "coordinates": [[[98.25, -73.5], [98.25, -72.0], [99.75, -72.0], [99.75, -73.5], [98.25, -73.5]]]}, "properties": {"cell_id": "66_11", "lon": 99.0, "lat": -72.75}}, {"type": "Feature", "geometry": {"type": "Polygon", "coordinates": [[[98.25, -72.0], [98.25, -70.5], [99.75, -70.5], [99.75, -72.0], [98.25, -72.0]]]}, "properties": {"cell_id": "66_12", "lon": 99.0, "lat": -71.25}}, {"type": "Feature", "geometry": {"type": "Polygon", "coordinates": [[[98.25, -70.5], [98.25, -69.0], [99.75, -69.0], [99.75, -70.5], [98.25, -70.5]]]}, "properties": {"cell_id": "66_13", "lon": 99.0, "lat": -69.75}}, {"type": "Feature", "geometry": {"type": "Polygon", "coordinates": [[[99.75, -79.5], [99.75, -78.0], [101.25, -78.0], [101.25, -79.5], [99.75, -79.5]]]}, "properties": {"cell_id": "67_7", "lon": 100.5, "lat": -78.75}}, {"type": "Feature", "geometry": {"type": "Polygon", "coordinates": [[[99.75, -78.0], [99.75, -76.5], [101.25, -76.5], [101.25, -78.0], [99.75, -78.0]]]}, "properties": {"cell_id": "67_8", "lon": 100.5, "lat": -77.25}}, {"type": "Feature", "geometry": {"type": "Polygon", "coordinates": [[[99.75, -76.5], [99.75, -75.0], [101.25, -75.0], [101.25, -76.5], [99.75, -76.5]]]}, "properties": {"cell_id": "67_9", "lon": 100.5, "lat": -75.75}}, {"type": "Feature", "geometry": {"type": "Polygon", "coordinates": [[[99.75, -75.0], [99.75, -73.5], [101.25, -73.5], [101.25, -75.0], [99.75, -75.0]]]}, "properties": {"cell_id": "67_10", "lon": 100.5, "lat": -74.25}}, {"type": "Feature", "geometry": {"type": "Polygon", "coordinates": [[[99.75, -73.5], [99.75, -72.0], [101.25, -72.0], [101.25, -73.5], [99.75, -73.5]]]}, "properties": {"cell_id": "67_11", "lon": 100.5, "lat": -72.75}}, {"type": "Feature", "geometry": {"type": "Polygon", "coordinates": [[[99.75, -72.0], [99.75, -70.5], [101.25, -70.5], [101.25, -72.0], [99.75, -72.0]]]}, "properties": {"cell_id": "67_12", "lon": 100.5, "lat": -71.25}}, {"type": "Feature", "geometry": {"type": "Polygon", "coordinates": [[[99.75, -70.5], [99.75, -69.0], [101.25, -69.0], [101.25, -70.5], [99.75, -70.5]]]}, "properties": {"cell_id": "67_13", "lon": 100.5, "lat": -69.75}}]}