{"type": "FeatureCollection", "features": [{"type": "Feature", "geometry": {"type": "Polygon", "coordinates": [[[170.25, -90.0], [170.25, -88.5], [171.75, -88.5], [171.75, -90.0], [170.25, -90.0]]]}, "properties": {"cell_id": "114_0", "lon": 171.0, "lat": -89.25}}, {"type": "Feature", "geometry": {"type": "Polygon", "coordinates": [[[170.25, -88.5], [170.25, -87.0], [171.75, -87.0], [171.75, -88.5], [170.25, -88.5]]]}, "properties": {"cell_id": "114_1", "lon": 171.0, "lat": -87.75}}, {"type": "Feature", "geometry": {"type": "Polygon", "coordinates": [[[170.25, -87.0], [170.25, -85.5], [171.75, -85.5], [171.75, -87.0], [170.25, -87.0]]]}, "properties": {"cell_id": "114_2", "lon": 171.0, "lat": -86.25}}, {"type": "Feature", "geometry": {"type": "Polygon", "coordinates": [[[170.25, -85.5], [170.25, -84.0], [171.75, -84.0], [171.75, -85.5], [170.25, -85.5]]]}, "properties": {"cell_id": "114_3", "lon": 171.0, "lat": -84.75}}, {"type": "Feature", "geometry": {"type": "Polygon", "coordinates": [[[170.25, -84.0], [170.25, -82.5], [171.75, -82.5], [171.75, -84.0], [170.25, -84.0]]]}, "properties": {"cell_id": "114_4", "lon": 171.0, "lat": -83.25}}, {"type": "Feature", "geometry": {"type": "Polygon", "coordinates": [[[170.25, -82.5], [170.25, -81.0], [171.75, -81.0], [171.75, -82.5], [170.25, -82.5]]]}, "properties": {"cell_id": "114_5", "lon": 171.0, "lat": -81.75}}, {"type": "Feature", "geometry": {"type": "Polygon", "coordinates": [[[170.25, -81.0], [170.25, -79.5], [171.75, -79.5], [171.75, -81.0], [170.25, -81.0]]]}, "properties": {"cell_id": "114_6", "lon": 171.0, "lat": -80.25}}, {"type": "Feature", "geometry": {"type": "Polygon", "coordinates": [[[171.75, -90.0], [171.75, -88.5], [173.25, -88.5], [173.25, -90.0], [171.75, -90.0]]]}, "properties": {"cell_id": "115_0", "lon": 172.5, "lat": -89.25}}, {"type": "Feature", "geometry": {"type": "Polygon", "coordinates": [[[171.75, -88.5], [171.75, -87.0], [173.25, -87.0], [173.25, -88.5], [171.75, -88.5]]]}, "properties": {"cell_id": "115_1", "lon": 172.5, "lat": -87.75}}, {"type": "Feature", "geometry": {"type": "Polygon", "coordinates": [[[171.75, -87.0], [171.75, -85.5], [173.25, -85.5], [173.25, -87.0], [171.75, -87.0]]]}, "properties": {"cell_id": "115_2", "lon": 172.5, "lat": -86.25}}, {"type": "Feature", "geometry": {"type": "Polygon", "coordinates": [[[171.75, -85.5], [171.75, -84.0], [173.25, -84.0], [173.25, -85.5], [171.75, -85.5]]]}, "properties": {"cell_id": "115_3", "lon": 172.5, "lat": -84.75}}, {"type": "Feature", "geometry": {"type": "Polygon", "coordinates": [[[171.75, -84.0], [171.75, -82.5], [173.25, -82.5], [173.25, -84.0], [171.75, -84.0]]]}, "properties": {"cell_id": "115_4", "lon": 172.5, "lat": -83.25}}, {"type": "Feature", "geometry": {"type": "Polygon", "coordinates": [[[171.75, -82.5], [171.75, -81.0], [173.25, -81.0], [173.25, -82.5], [171.75, -82.5]]]}, "properties": {"cell_id": "115_5", "lon": 172.5, "lat": -81.75}}, {"type": "Feature", "geometry": {"type": "Polygon", "coordinates": [[[171.75, -81.0], [171.75, -79.5], [173.25, -79.5], [173.25, -81.0], [171.75, -81.0]]]}, "properties": {"cell_id": "115_6", "lon": 172.5, "lat": -80.25}}, {"type": "Feature", "geometry": {"type": "Polygon", "coordinates": [[[173.25, -90.0], [173.25, -88.5], [174.75, -88.5], [174.75, -90.0], [173.25, -90.0]]]}, "properties": {"cell_id": "116_0", "lon": 174.0, "lat": -89.25}}, {"type": "Feature", "geometry": {"type": "Polygon", "coordinates": [[[173.25, -88.5], [173.25, -87.0], [174.75, -87.0], [174.75, -88.5], [173.25, -88.5]]]}, "properties": {"cell_id": "116_1", "lon": 174.0, "lat": -87.75}}, {"type": "Feature", "geometry": {"type": "Polygon", "coordinates": [[[173.25, -87.0], [173.25, -85.5], [174.75, -85.5], [174.75, -87.0], [173.25, -87.0]]]}, "properties": {"cell_id": "116_2", "lon": 174.0, "lat": -86.25}}, {"type": "Feature", "geometry": {"type": "Polygon", "coordinates": [[[173.25, -85.5], [173.25, -84.0], [174.75, -84.0], [174.75, -85.5], [173.25, -85.5]]]}, "properties": {"cell_id": "116_3", "lon": 174.0, "lat": -84.75}}, {"type": "Feature", "geometry": {"type": "Polygon", "coordinates": [[[173.25, -84.0], [173.25, -82.5], [174.75, -82.5], [174.75, -84.0], [173.25, -84.0]]]}, "properties": {"cell_id": "116_4", "lon": 174.0, "lat": -83.25}}, {"type": "Feature", "geometry": {"type": "Polygon", "coordinates": [[[173.25, -82.5], [173.25, -81.0], [174.75, -81.0], [174.75, -82.5], [173.25, -82.5]]]}, "properties": {"cell_id": "116_5", "lon": 174.0, "lat": -81.75}}, {"type": "Feature", "geometry": {"type": "Polygon", "coordinates": [[[173.25, -81.0], [173.25, -79.5], [174.75, -79.5], [174.75, -81.0], [173.25, -81.0]]]}, "properties": {"cell_id": "116_6", "lon": 174.0, "lat": -80.25}}, {"type": "Feature", "geometry": {"type": "Polygon", "coordinates": [[[174.75, -90.0], [174.75, -88.5], [176.25, -88.5], [176.25, -90.0], [174.75, -90.0]]]}, "properties": {"cell_id": "117_0", "lon": 175.5, "lat": -89.25}}, {"type": "Feature", "geometry": {"type": "Polygon", "coordinates": [[[174.75, -88.5], [174.75, -87.0], [176.25, -87.0], [176.25, -88.5], [174.75, -88.5]]]}, "properties": {"cell_id": "117_1", "lon": 175.5, "lat": -87.75}}, {"type": "Feature", "geometry": {"type": "Polygon", "coordinates": [[[174.75, -87.0], [174.75, -85.5], [176.25, -85.5], [176.25, -87.0], [174.75, -87.0]]]}, "properties": {"cell_id": "117_2", "lon": 175.5, "lat": -86.25}}, {"type": "Feature", "geometry": {"type": "Polygon", "coordinates": [[[174.75, -85.5], [174.75, -84.0], [176.25, -84.0], [176.25, -85.5], [174.75, -85.5]]]}, "properties": {"cell_id": "117_3", "lon": 175.5, "lat": -84.75}}, {"type": "Feature", "geometry": {"type": "Polygon", "coordinates": [[[174.75, -84.0], [174.75, -82.5], [176.25, -82.5], [176.25, -84.0], [174.75, -84.0]]]}, "properties": {"cell_id": "117_4", "lon": 175.5, "lat": -83.25}}, {"type": "Feature", "geometry": {"type": "Polygon", "coordinates": [[[174.75, -82.5], [174.75, -81.0], [176.25, -81.0], [176.25, -82.5], [174.75, -82.5]]]}, "properties": {"cell_id": "117_5", "lon": 175.5, "lat": -81.75}}, {"type": "Feature", "geometry": {"type": "Polygon", "coordinates": [[[174.75, -81.0], [174.75, -79.5], [176.25, -79.5], [176.25, -81.0], [174.75, -81.0]]]}, "properties": {"cell_id": "117_6", "lon": 175.5, "lat": -80.25}}, {"type": "Feature", "geometry": {"type": "Polygon", "coordinates": [[[176.25, -90.0], [176.25, -88.5], [177.75, -88.5], [177.75, -90.0], [176.25, -90.0]]]}, "properties": {"cell_id": "118_0", "lon": 177.0, "lat": -89.25}}, {"type": "Feature", "geometry": {"type": "Polygon", "coordinates": [[[176.25, -88.5], [176.25, -87.0], [177.75, -87.0], [177.75, -88.5], [176.25, -88.5]]]}, "properties": {"cell_id": "118_1", "lon": 177.0, "lat": -87.75}}, {"type": "Feature", "geometry": {"type": "Polygon", "coordinates": [[[176.25, -87.0], [176.25, -85.5], [177.75, -85.5], [177.75, -87.0], [176.25, -87.0]]]}, "properties": {"cell_id": "118_2", "lon": 177.0, "lat": -86.25}}, {"type": "Feature", "geometry": {"type": "Polygon", "coordinates": [[[176.25, -85.5], [176.25, -84.0], [177.75, -84.0], [177.75, -85.5], [176.25, -85.5]]]}, "properties": {"cell_id": "118_3", "lon": 177.0, "lat": -84.75}}, {"type": "Feature", "geometry": {"type": "Polygon", "coordinates": [[[176.25, -84.0], [176.25, -82.5], [177.75, -82.5], [177.75, -84.0], [176.25, -84.0]]]}, "properties": {"cell_id": "118_4", "lon": 177.0, "lat": -83.25}}, {"type": "Feature", "geometry": {"type": "Polygon", "coordinates": [[[176.25, -82.5], [176.25, -81.0], [177.75, -81.0], [177.75, -82.5], [176.25, -82.5]]]}, "properties": {"cell_id": "118_5", "lon": 177.0, "lat": -81.75}}, {"type": "Feature", "geometry": {"type": "Polygon", "coordinates": [[[176.25, -81.0], [176.25, -79.5], [177.75, -79.5], [177.75, -81.0], [176.25, -81.0]]]}, "properties": {"cell_id": "118_6", "lon": 177.0, "lat": -80.25}}, {"type": "Feature", "geometry": {"type": "Polygon", "coordinates": [[[177.75, -90.0], [177.75, -88.5], [179.25, -88.5], [179.25, -90.0], [177.75, -90.0]]]}, "properties": {"cell_id": "119_0", "lon": 178.5, "lat": -89.25}}, {"type": "Feature", "geometry": {"type": "Polygon", "coordinates": [[[177.75, -88.5], [177.75, -87.0], [179.25, -87.0], [179.25, -88.5], [177.75, -88.5]]]}, "properties": {"cell_id": "119_1", "lon": 178.5, "lat": -87.75}}, {"type": "Feature", "geometry": {"type": "Polygon", "coordinates": [[[177.75, -87.0], [177.75, -85.5], [179.25, -85.5], [179.25, -87.0], [177.75, -87.0]]]}, "properties": {"cell_id": "119_2", "lon": 178.5, "lat": -86.25}}, {"type": "Feature", "geometry": {"type": "Polygon", "coordinates": [[[177.75, -85.5], [177.75, -84.0], [179.25, -84.0], [179.25, -85.5], [177.75, -85.5]]]}, "properties": {"cell_id": "119_3", "lon": 178.5, "lat": -84.75}}, {"type": "Feature", "geometry": {"type": "Polygon", "coordinates": [[[177.75, -84.0], [177.75, -82.5], [179.25, -82.5], [179.25, -84.0], [177.75, -84.0]]]}, "properties": {"cell_id": "119_4", "lon": 178.5, "lat": -83.25}}, {"type": "Feature", "geometry": {"type": "Polygon", "coordinates": [[[177.75, -82.5], [177.75, -81.0], [179.25, -81.0], [179.25, -82.5], [177.75, -82.5]]]}, "properties": {"cell_id": "119_5", "lon": 178.5, "lat": -81.75}}, {"type": "Feature", "geometry": {"type": "Polygon", "coordinates": [[[177.75, -81.0], [177.75, -79.5], [179.25, -79.5], [179.25, -81.0], [177.75, -81.0]]]}, "properties": {"cell_id": "119_6", "lon": 178.5, "lat": -80.25}}, {"type": "Feature", "geometry": {"type": "Polygon", "coordinates": [[[179.25, -90.0], [179.25, -88.5], [180.75, -88.5], [180.75, -90.0], [179.25, -90.0]]]}, "properties": {"cell_id": "120_0", "lon": 180.0, "lat": -89.25}}, {"type": "Feature", "geometry": {"type": "Polygon", "coordinates": [[[179.25, -88.5], [179.25, -87.0], [180.75, -87.0], [180.75, -88.5], [179.25, -88.5]]]}, "properties": {"cell_id": "120_1", "lon": 180.0, "lat": -87.75}}, {"type": "Feature", "geometry": {"type": "Polygon", "coordinates": [[[179.25, -87.0], [179.25, -85.5], [180.75, -85.5], [180.75, -87.0], [179.25, -87.0]]]}, "properties": {"cell_id": "120_2", "lon": 180.0, "lat": -86.25}}, {"type": "Feature", "geometry": {"type": "Polygon", "coordinates": [[[179.25, -85.5], [179.25, -84.0], [180.75, -84.0], [180.75, -85.5], [179.25, -85.5]]]}, "properties": {"cell_id": "120_3", "lon": 180.0, "lat": -84.75}}, {"type": "Feature", "geometry": {"type": "Polygon", "coordinates": [[[179.25, -84.0], [179.25, -82.5], [180.75, -82.5], [180.75, -84.0], [179.25, -84.0]]]}, "properties": {"cell_id": "120_4", "lon": 180.0, "lat": -83.25}}, {"type": "Feature", "geometry": {"type": "Polygon", "coordinates": [[[179.25, -82.5], [179.25, -81.0], [180.75, -81.0], [180.75, -82.5], [179.25, -82.5]]]}, "properties": {"cell_id": "120_5", "lon": 180.0, "lat": -81.75}}, {"type": "Feature", "geometry": {"type": "Polygon", "coordinates": [[[179.25, -81.0], [179.25, -79.5], [180.75, -79.5], [180.75, -81.0], [179.25, -81.0]]]}, "properties": {"cell_id": "120_6", "lon": 180.0, "lat": -80.25}}]}