{"type": "FeatureCollection", "features": [{"type": "Feature", "geometry": {"type": "Polygon", "coordinates": [[[-108.75, 70.5], [-108.75, 72.0], [-107.25, 72.0], [-107.25, 70.5], [-108.75, 70.5]]]}, "properties": {"cell_id": "168_107", "lon": -108.0, "lat": 71.25}}, {"type": "Feature", "geometry": {"type": "Polygon", "coordinates": [[[-108.75, 72.0], [-108.75, 73.5], [-107.25, 73.5], [-107.25, 72.0], [-108.75, 72.0]]]}, "properties": {"cell_id": "168_108", "lon": -108.0, "lat": 72.75}}, {"type": "Feature", "geometry": {"type": "Polygon", "coordinates": [[[-107.25, 70.5], [-107.25, 72.0], [-105.75, 72.0], [-105.75, 70.5], [-107.25, 70.5]]]}, "properties": {"cell_id": "169_107", "lon": -106.5, "lat": 71.25}}, {"type": "Feature", "geometry": {"type": "Polygon", "coordinates": [[[-107.25, 72.0], [-107.25, 73.5], [-105.75, 73.5], [-105.75, 72.0], [-107.25, 72.0]]]}, "properties": {"cell_id": "169_108", "lon": -106.5, "lat": 72.75}}, {"type": "Feature", "geometry": {"type": "Polygon", "coordinates": [[[-105.75, 70.5], [-105.75, 72.0], [-104.25, 72.0], [-104.25, 70.5], [-105.75, 70.5]]]}, "properties": {"cell_id": "170_107", "lon": -105.0, "lat": 71.25}}, {"type": "Feature", "geometry": {"type": "Polygon", "coordinates": [[[-105.75, 72.0], [-105.75, 73.5], [-104.25, 73.5], [-104.25, 72.0], [-105.75, 72.0]]]}, "properties": {"cell_id": "170_108", "lon": -105.0, "lat": 72.75}}, {"type": "Feature", "geometry": {"type": "Polygon", "coordinates": [[[-101.25, 72.0], [-101.25, 73.5], [-99.75, 73.5], [-99.75, 72.0], [-101.25, 72.0]]]}, "properties": {"cell_id": "173_108", "lon": -100.5, "lat": 72.75}}, {"type": "Feature", "geometry": {"type": "Polygon", "coordinates": [[[-101.25, 73.5], [-101.25, 75.0], [-99.75, 75.0], [-99.75, 73.5], [-101.25, 73.5]]]}, "properties": {"cell_id": "173_109", "lon": -100.5, "lat": 74.25}}, {"type": "Feature", "geometry": {"type": "Polygon", "coordinates": [[[-101.25, 75.0], [-101.25, 76.5], [-99.75, 76.5], [-99.75, 75.0], [-101.25, 75.0]]]}, "properties": {"cell_id": "173_110", "lon": -100.5, "lat": 75.75}}]}