{"type": "FeatureCollection", "features": [{"type": "Feature", "geometry": {"type": "Polygon", "coordinates": [[[-59.25, 51.0], [-59.25, 52.5], [-57.75, 52.5], [-57.75, 51.0], [-59.25, 51.0]]]}, "properties": {"cell_id": "201_94", "lon": -58.5, "lat": 51.75}}, {"type": "Feature", "geometry": {"type": "Polygon", "coordinates": [[[-59.25, 52.5], [-59.25, 54.0], [-57.75, 54.0], [-57.75, 52.5], [-59.25, 52.5]]]}, "properties": {"cell_id": "201_95", "lon": -58.5, "lat": 53.25}}, {"type": "Feature", "geometry": {"type": "Polygon", "coordinates": [[[-59.25, 54.0], [-59.25, 55.5], [-57.75, 55.5], [-57.75, 54.0], [-59.25, 54.0]]]}, "properties": {"cell_id": "201_96", "lon": -58.5, "lat": 54.75}}, {"type": "Feature", "geometry": {"type": "Polygon", "coordinates": [[[-59.25, 55.5], [-59.25, 57.0], [-57.75, 57.0], [-57.75, 55.5], [-59.25, 55.5]]]}, "properties": {"cell_id": "201_97", "lon": -58.5, "lat": 56.25}}, {"type": "Feature", "geometry": {"type": "Polygon", "coordinates": [[[-57.75, 51.0], [-57.75, 52.5], [-56.25, 52.5], [-56.25, 51.0], [-57.75, 51.0]]]}, "properties": {"cell_id": "202_94", "lon": -57.0, "lat": 51.75}}, {"type": "Feature", "geometry": {"type": "Polygon", "coordinates": [[[-57.75, 52.5], [-57.75, 54.0], [-56.25, 54.0], [-56.25, 52.5], [-57.75, 52.5]]]}, "properties": {"cell_id": "202_95", "lon": -57.0, "lat": 53.25}}, {"type": "Feature", "geometry": {"type": "Polygon", "coordinates": [[[-57.75, 54.0], [-57.75, 55.5], [-56.25, 55.5], [-56.25, 54.0], [-57.75, 54.0]]]}, "properties": {"cell_id": "202_96", "lon": -57.0, "lat": 54.75}}, {"type": "Feature", "geometry": {"type": "Polygon", "coordinates": [[[-57.75, 55.5], [-57.75, 57.0], [-56.25, 57.0], [-56.25, 55.5], [-57.75, 55.5]]]}, "properties": {"cell_id": "202_97", "lon": -57.0, "lat": 56.25}}, {"type": "Feature", "geometry": {"type": "Polygon", "coordinates": [[[-56.25, 51.0], [-56.25, 52.5], [-54.75, 52.5], [-54.75, 51.0], [-56.25, 51.0]]]}, "properties": {"cell_id": "203_94", "lon": -55.5, "lat": 51.75}}, {"type": "Feature", "geometry": {"type": "Polygon", "coordinates": [[[-56.25, 52.5], [-56.25, 54.0], [-54.75, 54.0], [-54.75, 52.5], [-56.25, 52.5]]]}, "properties": {"cell_id": "203_95", "lon": -55.5, "lat": 53.25}}]}