{"type": "FeatureCollection", "features": [{"type": "Feature", "geometry": {"type": "Polygon", "coordinates": [[[-99.75, -90.0], [-99.75, -88.5], [-98.25, -88.5], [-98.25, -90.0], [-99.75, -90.0]]]}, "properties": {"cell_id": "174_0", "lon": -99.0, "lat": -89.25}}, {"type": "Feature", "geometry": {"type": "Polygon", "coordinates": [[[-99.75, -88.5], [-99.75, -87.0], [-98.25, -87.0], [-98.25, -88.5], [-99.75, -88.5]]]}, "properties": {"cell_id": "174_1", "lon": -99.0, "lat": -87.75}}, {"type": "Feature", "geometry": {"type": "Polygon", "coordinates": [[[-99.75, -87.0], [-99.75, -85.5], [-98.25, -85.5], [-98.25, -87.0], [-99.75, -87.0]]]}, "properties": {"cell_id": "174_2", "lon": -99.0, "lat": -86.25}}, {"type": "Feature", "geometry": {"type": "Polygon", "coordinates": [[[-99.75, -85.5], [-99.75, -84.0], [-98.25, -84.0], [-98.25, -85.5], [-99.75, -85.5]]]}, "properties": {"cell_id": "174_3", "lon": -99.0, "lat": -84.75}}, {"type": "Feature", "geometry": {"type": "Polygon", "coordinates": [[[-99.75, -84.0], [-99.75, -82.5], [-98.25, -82.5], [-98.25, -84.0], [-99.75, -84.0]]]}, "properties": {"cell_id": "174_4", "lon": -99.0, "lat": -83.25}}, {"type": "Feature", "geometry": {"type": "Polygon", "coordinates": [[[-99.75, -82.5], [-99.75, -81.0], [-98.25, -81.0], [-98.25, -82.5], [-99.75, -82.5]]]}, "properties": {"cell_id": "174_5", "lon": -99.0, "lat": -81.75}}, {"type": "Feature", "geometry": {"type": "Polygon", "coordinates": [[[-99.75, -81.0], [-99.75, -79.5], [-98.25, -79.5], [-98.25, -81.0], [-99.75, -81.0]]]}, "properties": {"cell_id": "174_6", "lon": -99.0, "lat": -80.25}}, {"type": "Feature", "geometry": {"type": "Polygon", "coordinates": [[[-98.25, -90.0], [-98.25, -88.5], [-96.75, -88.5], [-96.75, -90.0], [-98.25, -90.0]]]}, "properties": {"cell_id": "175_0", "lon": -97.5, "lat": -89.25}}, {"type": "Feature", "geometry": {"type": "Polygon", "coordinates": [[[-98.25, -88.5], [-98.25, -87.0], [-96.75, -87.0], [-96.75, -88.5], [-98.25, -88.5]]]}, "properties": {"cell_id": "175_1", "lon": -97.5, "lat": -87.75}}, {"type": "Feature", "geometry": {"type": "Polygon", "coordinates": [[[-98.25, -87.0], [-98.25, -85.5], [-96.75, -85.5], [-96.75, -87.0], [-98.25, -87.0]]]}, "properties": {"cell_id": "175_2", "lon": -97.5, "lat": -86.25}}, {"type": "Feature", "geometry": {"type": "Polygon", "coordinates": [[[-98.25, -85.5], [-98.25, -84.0], [-96.75, -84.0], [-96.75, -85.5], [-98.25, -85.5]]]}, "properties": {"cell_id": "175_3", "lon": -97.5, "lat": -84.75}}, {"type": "Feature", "geometry": {"type": "Polygon", "coordinates": [[[-98.25, -84.0], [-98.25, -82.5], [-96.75, -82.5], [-96.75, -84.0], [-98.25, -84.0]]]}, "properties": {"cell_id": "175_4", "lon": -97.5, "lat": -83.25}}, {"type": "Feature", "geometry": {"type": "Polygon", "coordinates": [[[-98.25, -82.5], [-98.25, -81.0], [-96.75, -81.0], [-96.75, -82.5], [-98.25, -82.5]]]}, "properties": {"cell_id": "175_5", "lon": -97.5, "lat": -81.75}}, {"type": "Feature", "geometry": {"type": "Polygon", "coordinates": [[[-98.25, -81.0], [-98.25, -79.5], [-96.75, -79.5], [-96.75, -81.0], [-98.25, -81.0]]]}, "properties": {"cell_id": "175_6", "lon": -97.5, "lat": -80.25}}, {"type": "Feature", "geometry": {"type": "Polygon", "coordinates": [[[-96.75, -90.0], [-96.75, -88.5], [-95.25, -88.5], [-95.25, -90.0], [-96.75, -90.0]]]}, "properties": {"cell_id": "176_0", "lon": -96.0, "lat": -89.25}}, {"type": "Feature", "geometry": {"type": "Polygon", "coordinates": [[[-96.75, -88.5], [-96.75, -87.0], [-95.25, -87.0], [-95.25, -88.5], [-96.75, -88.5]]]}, "properties": {"cell_id": "176_1", "lon": -96.0, "lat": -87.75}}, {"type": "Feature", "geometry": {"type": "Polygon", "coordinates": [[[-96.75, -87.0], [-96.75, -85.5], [-95.25, -85.5], [-95.25, -87.0], [-96.75, -87.0]]]}, "properties": {"cell_id": "176_2", "lon": -96.0, "lat": -86.25}}, {"type": "Feature", "geometry": {"type": "Polygon", "coordinates": [[[-96.75, -85.5], [-96.75, -84.0], [-95.25, -84.0], [-95.25, -85.5], [-96.75, -85.5]]]}, "properties": {"cell_id": "176_3", "lon": -96.0, "lat": -84.75}}, {"type": "Feature", "geometry": {"type": "Polygon", "coordinates": [[[-96.75, -84.0], [-96.75, -82.5], [-95.25, -82.5], [-95.25, -84.0], [-96.75, -84.0]]]}, "properties": {"cell_id": "176_4", "lon": -96.0, "lat": -83.25}}, {"type": "Feature", "geometry": {"type": "Polygon", "coordinates": [[[-96.75, -82.5], [-96.75, -81.0], [-95.25, -81.0], [-95.25, -82.5], [-96.75, -82.5]]]}, "properties": {"cell_id": "176_5", "lon": -96.0, "lat": -81.75}}, {"type": "Feature", "geometry": {"type": "Polygon", "coordinates": [[[-96.75, -81.0], [-96.75, -79.5], [-95.25, -79.5], [-95.25, -81.0], [-96.75, -81.0]]]}, "properties": {"cell_id": "176_6", "lon": -96.0, "lat": -80.25}}, {"type": "Feature", "geometry": {"type": "Polygon", "coordinates": [[[-95.25, -90.0], [-95.25, -88.5], [-93.75, -88.5], [-93.75, -90.0], [-95.25, -90.0]]]}, "properties": {"cell_id": "177_0", "lon": -94.5, "lat": -89.25}}, {"type": "Feature", "geometry": {"type": "Polygon", "coordinates": [[[-95.25, -88.5], [-95.25, -87.0], [-93.75, -87.0], [-93.75, -88.5], [-95.25, -88.5]]]}, "properties": {"cell_id": "177_1", "lon": -94.5, "lat": -87.75}}, {"type": "Feature", "geometry": {"type": "Polygon", "coordinates": [[[-95.25, -87.0], [-95.25, -85.5], [-93.75, -85.5], [-93.75, -87.0], [-95.25, -87.0]]]}, "properties": {"cell_id": "177_2", "lon": -94.5, "lat": -86.25}}, {"type": "Feature", "geometry": {"type": "Polygon", "coordinates": [[[-95.25, -85.5], [-95.25, -84.0], [-93.75, -84.0], [-93.75, -85.5], [-95.25, -85.5]]]}, "properties": {"cell_id": "177_3", "lon": -94.5, "lat": -84.75}}, {"type": "Feature", "geometry": {"type": "Polygon", "coordinates": [[[-95.25, -84.0], [-95.25, -82.5], [-93.75, -82.5], [-93.75, -84.0], [-95.25, -84.0]]]}, "properties": {"cell_id": "177_4", "lon": -94.5, "lat": -83.25}}, {"type": "Feature", "geometry": {"type": "Polygon", "coordinates": [[[-95.25, -82.5], [-95.25, -81.0], [-93.75, -81.0], [-93.75, -82.5], [-95.25, -82.5]]]}, "properties": {"cell_id": "177_5", "lon": -94.5, "lat": -81.75}}, {"type": "Feature", "geometry": {"type": "Polygon", "coordinates": [[[-95.25, -81.0], [-95.25, -79.5], [-93.75, -79.5], [-93.75, -81.0], [-95.25, -81.0]]]}, "properties": {"cell_id": "177_6", "lon": -94.5, "lat": -80.25}}, {"type": "Feature", "geometry": {"type": "Polygon", "coordinates": [[[-93.75, -90.0], [-93.75, -88.5], [-92.25, -88.5], [-92.25, -90.0], [-93.75, -90.0]]]}, "properties": {"cell_id": "178_0", "lon": -93.0, "lat": -89.25}}, {"type": "Feature", "geometry": {"type": "Polygon", "coordinates": [[[-93.75, -88.5], [-93.75, -87.0], [-92.25, -87.0], [-92.25, -88.5], [-93.75, -88.5]]]}, "properties": {"cell_id": "178_1", "lon": -93.0, "lat": -87.75}}, {"type": "Feature", "geometry": {"type": "Polygon", "coordinates": [[[-93.75, -87.0], [-93.75, -85.5], [-92.25, -85.5], [-92.25, -87.0], [-93.75, -87.0]]]}, "properties": {"cell_id": "178_2", "lon": -93.0, "lat": -86.25}}, {"type": "Feature", "geometry": {"type": "Polygon", "coordinates": [[[-93.75, -85.5], [-93.75, -84.0], [-92.25, -84.0], [-92.25, -85.5], [-93.75, -85.5]]]}, "properties": {"cell_id": "178_3", "lon": -93.0, "lat": -84.75}}, {"type": "Feature", "geometry": {"type": "Polygon", "coordinates": [[[-93.75, -84.0], [-93.75, -82.5], [-92.25, -82.5], [-92.25, -84.0], [-93.75, -84.0]]]}, "properties": {"cell_id": "178_4", "lon": -93.0, "lat": -83.25}}, {"type": "Feature", "geometry": {"type": "Polygon", "coordinates": [[[-93.75, -82.5], [-93.75, -81.0], [-92.25, -81.0], [-92.25, -82.5], [-93.75, -82.5]]]}, "properties": {"cell_id": "178_5", "lon": -93.0, "lat": -81.75}}, {"type": "Feature", "geometry": {"type": "Polygon", "coordinates": [[[-93.75, -81.0], [-93.75, -79.5], [-92.25, -79.5], [-92.25, -81.0], [-93.75, -81.0]]]}, "properties": {"cell_id": "178_6", "lon": -93.0, "lat": -80.25}}, {"type": "Feature", "geometry": {"type": "Polygon", "coordinates": [[[-92.25, -90.0], [-92.25, -88.5], [-90.75, -88.5], [-90.75, -90.0], [-92.25, -90.0]]]}, "properties": {"cell_id": "179_0", "lon": -91.5, "lat": -89.25}}, {"type": "Feature", "geometry": {"type": "Polygon", "coordinates": [[[-92.25, -88.5], [-92.25, -87.0], [-90.75, -87.0], [-90.75, -88.5], [-92.25, -88.5]]]}, "properties": {"cell_id": "179_1", "lon": -91.5, "lat": -87.75}}, {"type": "Feature", "geometry": {"type": "Polygon", "coordinates": [[[-92.25, -87.0], [-92.25, -85.5], [-90.75, -85.5], [-90.75, -87.0], [-92.25, -87.0]]]}, "properties": {"cell_id": "179_2", "lon": -91.5, "lat": -86.25}}, {"type": "Feature", "geometry": {"type": "Polygon", "coordinates": [[[-92.25, -85.5], [-92.25, -84.0], [-90.75, -84.0], [-90.75, -85.5], [-92.25, -85.5]]]}, "properties": {"cell_id": "179_3", "lon": -91.5, "lat": -84.75}}, {"type": "Feature", "geometry": {"type": "Polygon", "coordinates": [[[-92.25, -84.0], [-92.25, -82.5], [-90.75, -82.5], [-90.75, -84.0], [-92.25, -84.0]]]}, "properties": {"cell_id": "179_4", "lon": -91.5, "lat": -83.25}}, {"type": "Feature", "geometry": {"type": "Polygon", "coordinates": [[[-92.25, -82.5], [-92.25, -81.0], [-90.75, -81.0], [-90.75, -82.5], [-92.25, -82.5]]]}, "properties": {"cell_id": "179_5", "lon": -91.5, "lat": -81.75}}, {"type": "Feature", "geometry": {"type": "Polygon", "coordinates": [[[-92.25, -81.0], [-92.25, -79.5], [-90.75, -79.5], [-90.75, -81.0], [-92.25, -81.0]]]}, "properties": {"cell_id": "179_6", "lon": -91.5, "lat": -80.25}}, {"type": "Feature", "geometry": {"type": "Polygon", "coordinates": [[[-90.75, -90.0], [-90.75, -88.5], [-89.25, -88.5], [-89.25, -90.0], [-90.75, -90.0]]]}, "properties": {"cell_id": "180_0", "lon": -90.0, "lat": -89.25}}, {"type": "Feature", "geometry": {"type": "Polygon", "coordinates": [[[-90.75, -88.5], [-90.75, -87.0], [-89.25, -87.0], [-89.25, -88.5], [-90.75, -88.5]]]}, "properties": {"cell_id": "180_1", "lon": -90.0, "lat": -87.75}}, {"type": "Feature", "geometry": {"type": "Polygon", "coordinates": [[[-90.75, -87.0], [-90.75, -85.5], [-89.25, -85.5], [-89.25, -87.0], [-90.75, -87.0]]]}, "properties": {"cell_id": "180_2", "lon": -90.0, "lat": -86.25}}, {"type": "Feature", "geometry": {"type": "Polygon", "coordinates": [[[-90.75, -85.5], [-90.75, -84.0], [-89.25, -84.0], [-89.25, -85.5], [-90.75, -85.5]]]}, "properties": {"cell_id": "180_3", "lon": -90.0, "lat": -84.75}}, {"type": "Feature", "geometry": {"type": "Polygon", "coordinates": [[[-90.75, -84.0], [-90.75, -82.5], [-89.25, -82.5], [-89.25, -84.0], [-90.75, -84.0]]]}, "properties": {"cell_id": "180_4", "lon": -90.0, "lat": -83.25}}, {"type": "Feature", "geometry": {"type": "Polygon", "coordinates": [[[-90.75, -82.5], [-90.75, -81.0], [-89.25, -81.0], [-89.25, -82.5], [-90.75, -82.5]]]}, "properties": {"cell_id": "180_5", "lon": -90.0, "lat": -81.75}}, {"type": "Feature", "geometry": {"type": "Polygon", "coordinates": [[[-90.75, -81.0], [-90.75, -79.5], [-89.25, -79.5], [-89.25, -81.0], [-90.75, -81.0]]]}, "properties": {"cell_id": "180_6", "lon": -90.0, "lat": -80.25}}]}