{"type": "FeatureCollection", "features": [{"type": "Feature", "geometry": {"type": "Polygon", "coordinates": [[[50.25, -79.5], [50.25, -78.0], [51.75, -78.0], [51.75, -79.5], [50.25, -79.5]]]}, "properties": {"cell_id": "34_7", "lon": 51.0, "lat": -78.75}}, {"type": "Feature", "geometry": {"type": "Polygon", "coordinates": [[[50.25, -78.0], [50.25, -76.5], [51.75, -76.5], [51.75, -78.0], [50.25, -78.0]]]}, "properties": {"cell_id": "34_8", "lon": 51.0, "lat": -77.25}}, {"type": "Feature", "geometry": {"type": "Polygon", "coordinates": [[[50.25, -76.5], [50.25, -75.0], [51.75, -75.0], [51.75, -76.5], [50.25, -76.5]]]}, "properties": {"cell_id": "34_9", "lon": 51.0, "lat": -75.75}}, {"type": "Feature", "geometry": {"type": "Polygon", "coordinates": [[[50.25, -75.0], [50.25, -73.5], [51.75, -73.5], [51.75, -75.0], [50.25, -75.0]]]}, "properties": {"cell_id": "34_10", "lon": 51.0, "lat": -74.25}}, {"type": "Feature", "geometry": {"type": "Polygon", "coordinates": [[[50.25, -73.5], [50.25, -72.0], [51.75, -72.0], [51.75, -73.5], [50.25, -73.5]]]}, "properties": {"cell_id": "34_11", "lon": 51.0, "lat": -72.75}}, {"type": "Feature", "geometry": {"type": "Polygon", "coordinates": [[[50.25, -72.0], [50.25, -70.5], [51.75, -70.5], [51.75, -72.0], [50.25, -72.0]]]}, "properties": {"cell_id": "34_12", "lon": 51.0, "lat": -71.25}}, {"type": "Feature", "geometry": {"type": "Polygon", "coordinates": [[[50.25, -70.5], [50.25, -69.0], [51.75, -69.0], [51.75, -70.5], [50.25, -70.5]]]}, "properties": {"cell_id": "34_13", "lon": 51.0, "lat": -69.75}}, {"type": "Feature", "geometry": {"type": "Polygon", "coordinates": [[[51.75, -79.5], [51.75, -78.0], [53.25, -78.0], [53.25, -79.5], [51.75, -79.5]]]}, "properties": {"cell_id": "35_7", "lon": 52.5, "lat": -78.75}}, {"type": "Feature", "geometry": {"type": "Polygon", "coordinates": [[[51.75, -78.0], [51.75, -76.5], [53.25, -76.5], [53.25, -78.0], [51.75, -78.0]]]}, "properties": {"cell_id": "35_8", "lon": 52.5, "lat": -77.25}}, {"type": "Feature", "geometry": {"type": "Polygon", "coordinates": [[[51.75, -76.5], [51.75, -75.0], [53.25, -75.0], [53.25, -76.5], [51.75, -76.5]]]}, "properties": {"cell_id": "35_9", "lon": 52.5, "lat": -75.75}}, {"type": "Feature", "geometry": {"type": "Polygon", "coordinates": [[[51.75, -75.0], [51.75, -73.5], [53.25, -73.5], [53.25, -75.0], [51.75, -75.0]]]}, "properties": {"cell_id": "35_10", "lon": 52.5, "lat": -74.25}}, {"type": "Feature", "geometry": {"type": "Polygon", "coordinates": [[[51.75, -73.5], [51.75, -72.0], [53.25, -72.0], [53.25, -73.5], [51.75, -73.5]]]}, "properties": {"cell_id": "35_11", "lon": 52.5, "lat": -72.75}}, {"type": "Feature", "geometry": {"type": "Polygon", "coordinates": [[[51.75, -72.0], [51.75, -70.5], [53.25, -70.5], [53.25, -72.0], [51.75, -72.0]]]}, "properties": {"cell_id": "35_12", "lon": 52.5, "lat": -71.25}}, {"type": "Feature", "geometry": {"type": "Polygon", "coordinates": [[[51.75, -70.5], [51.75, -69.0], [53.25, -69.0], [53.25, -70.5], [51.75, -70.5]]]}, "properties": {"cell_id": "35_13", "lon": 52.5, "lat": -69.75}}, {"type": "Feature", "geometry": {"type": "Polygon", "coordinates": [[[53.25, -79.5], [53.25, -78.0], [54.75, -78.0], [54.75, -79.5], [53.25, -79.5]]]}, "properties": {"cell_id": "36_7", "lon": 54.0, "lat": -78.75}}, {"type": "Feature", "geometry": {"type": "Polygon", "coordinates": [[[53.25, -78.0], [53.25, -76.5], [54.75, -76.5], [54.75, -78.0], [53.25, -78.0]]]}, "properties": {"cell_id": "36_8", "lon": 54.0, "lat": -77.25}}, {"type": "Feature", "geometry": {"type": "Polygon", "coordinates": [[[53.25, -76.5], [53.25, -75.0], [54.75, -75.0], [54.75, -76.5], [53.25, -76.5]]]}, "properties": {"cell_id": "36_9", "lon": 54.0, "lat": -75.75}}, {"type": "Feature", "geometry": {"type": "Polygon", "coordinates": [[[53.25, -75.0], [53.25, -73.5], [54.75, -73.5], [54.75, -75.0], [53.25, -75.0]]]}, "properties": {"cell_id": "36_10", "lon": 54.0, "lat": -74.25}}, {"type": "Feature", "geometry": {"type": "Polygon", "coordinates": [[[53.25, -73.5], [53.25, -72.0], [54.75, -72.0], [54.75, -73.5], [53.25, -73.5]]]}, "properties": {"cell_id": "36_11", "lon": 54.0, "lat": -72.75}}, {"type": "Feature", "geometry": {"type": "Polygon", "coordinates": [[[53.25, -72.0], [53.25, -70.5], [54.75, -70.5], [54.75, -72.0], [53.25, -72.0]]]}, "properties": {"cell_id": "36_12", "lon": 54.0, "lat": -71.25}}, {"type": "Feature", "geometry": {"type": "Polygon", "coordinates": [[[53.25, -70.5], [53.25, -69.0], [54.75, -69.0], [54.75, -70.5], [53.25, -70.5]]]}, "properties": {"cell_id": "36_13", "lon": 54.0, "lat": -69.75}}, {"type": "Feature", "geometry": {"type": "Polygon", "coordinates": [[[54.75, -79.5], [54.75, -78.0], [56.25, -78.0], [56.25, -79.5], [54.75, -79.5]]]}, "properties": {"cell_id": "37_7", "lon": 55.5, "lat": -78.75}}, {"type": "Feature", "geometry": {"type": "Polygon", "coordinates": [[[54.75, -78.0], [54.75, -76.5], [56.25, -76.5], [56.25, -78.0], [54.75, -78.0]]]}, "properties": {"cell_id": "37_8", "lon": 55.5, "lat": -77.25}}, {"type": "Feature", "geometry": {"type": "Polygon", "coordinates": [[[54.75, -76.5], [54.75, -75.0], [56.25, -75.0], [56.25, -76.5], [54.75, -76.5]]]}, "properties": {"cell_id": "37_9", "lon": 55.5, "lat": -75.75}}, {"type": "Feature", "geometry": {"type": "Polygon", "coordinates": [[[54.75, -75.0], [54.75, -73.5], [56.25, -73.5], [56.25, -75.0], [54.75, -75.0]]]}, "properties": {"cell_id": "37_10", "lon": 55.5, "lat": -74.25}}, {"type": "Feature", "geometry": {"type": "Polygon", "coordinates": [[[54.75, -73.5], [54.75, -72.0], [56.25, -72.0], [56.25, -73.5], [54.75, -73.5]]]}, "properties": {"cell_id": "37_11", "lon": 55.5, "lat": -72.75}}, {"type": "Feature", "geometry": {"type": "Polygon", "coordinates": [[[54.75, -72.0], [54.75, -70.5], [56.25, -70.5], [56.25, -72.0], [54.75, -72.0]]]}, "properties": {"cell_id": "37_12", "lon": 55.5, "lat": -71.25}}, {"type": "Feature", "geometry": {"type": "Polygon", "coordinates": [[[54.75, -70.5], [54.75, -69.0], [56.25, -69.0], [56.25, -70.5], [54.75, -70.5]]]}, "properties": {"cell_id": "37_13", "lon": 55.5, "lat": -69.75}}, {"type": "Feature", "geometry": {"type": "Polygon", "coordinates": [[[56.25, -79.5], [56.25, -78.0], [57.75, -78.0], [57.75, -79.5], [56.25, -79.5]]]}, "properties": {"cell_id": "38_7", "lon": 57.0, "lat": -78.75}}, {"type": "Feature", "geometry": {"type": "Polygon", "coordinates": [[[56.25, -78.0], [56.25, -76.5], [57.75, -76.5], [57.75, -78.0], [56.25, -78.0]]]}, "properties": {"cell_id": "38_8", "lon": 57.0, "lat": -77.25}}, {"type": "Feature", "geometry": {"type": "Polygon", "coordinates": [[[56.25, -76.5], [56.25, -75.0], [57.75, -75.0], [57.75, -76.5], [56.25, -76.5]]]}, "properties": {"cell_id": "38_9", "lon": 57.0, "lat": -75.75}}, {"type": "Feature", "geometry": {"type": "Polygon", "coordinates": [[[56.25, -75.0], [56.25, -73.5], [57.75, -73.5], [57.75, -75.0], [56.25, -75.0]]]}, "properties": {"cell_id": "38_10", "lon": 57.0, "lat": -74.25}}, {"type": "Feature", "geometry": {"type": "Polygon", "coordinates": [[[56.25, -73.5], [56.25, -72.0], [57.75, -72.0], [57.75, -73.5], [56.25, -73.5]]]}, "properties": {"cell_id": "38_11", "lon": 57.0, "lat": -72.75}}, {"type": "Feature", "geometry": {"type": "Polygon", "coordinates": [[[56.25, -72.0], [56.25, -70.5], [57.75, -70.5], [57.75, -72.0], [56.25, -72.0]]]}, "properties": {"cell_id": "38_12", "lon": 57.0, "lat": -71.25}}, {"type": "Feature", "geometry": {"type": "Polygon", "coordinates": [[[56.25, -70.5], [56.25, -69.0], [57.75, -69.0], [57.75, -70.5], [56.25, -70.5]]]}, "properties": {"cell_id": "38_13", "lon": 57.0, "lat": -69.75}}, {"type": "Feature", "geometry": {"type": "Polygon", "coordinates": [[[57.75, -79.5], [57.75, -78.0], [59.25, -78.0], [59.25, -79.5], [57.75, -79.5]]]}, "properties": {"cell_id": "39_7", "lon": 58.5, "lat": -78.75}}, {"type": "Feature", "geometry": {"type": "Polygon", "coordinates": [[[57.75, -78.0], [57.75, -76.5], [59.25, -76.5], [59.25, -78.0], [57.75, -78.0]]]}, "properties": {"cell_id": "39_8", "lon": 58.5, "lat": -77.25}}, {"type": "Feature", "geometry": {"type": "Polygon", "coordinates": [[[57.75, -76.5], [57.75, -75.0], [59.25, -75.0], [59.25, -76.5], [57.75, -76.5]]]}, "properties": {"cell_id": "39_9", "lon": 58.5, "lat": -75.75}}, {"type": "Feature", "geometry": {"type": "Polygon", "coordinates": [[[57.75, -75.0], [57.75, -73.5], [59.25, -73.5], [59.25, -75.0], [57.75, -75.0]]]}, "properties": {"cell_id": "39_10", "lon": 58.5, "lat": -74.25}}, {"type": "Feature", "geometry": {"type": "Polygon", "coordinates": [[[57.75, -73.5], [57.75, -72.0], [59.25, -72.0], [59.25, -73.5], [57.75, -73.5]]]}, "properties": {"cell_id": "39_11", "lon": 58.5, "lat": -72.75}}, {"type": "Feature", "geometry": {"type": "Polygon", "coordinates": [[[57.75, -72.0], [57.75, -70.5], [59.25, -70.5], [59.25, -72.0], [57.75, -72.0]]]}, "properties": {"cell_id": "39_12", "lon": 58.5, "lat": -71.25}}, {"type": "Feature", "geometry": {"type": "Polygon", "coordinates": [[[57.75, -70.5], [57.75, -69.0], [59.25, -69.0], [59.25, -70.5], [57.75, -70.5]]]}, "properties": {"cell_id": "39_13", "lon": 58.5, "lat": -69.75}}, {"type": "Feature", "geometry": {"type": "Polygon", "coordinates": [[[59.25, -79.5], [59.25, -78.0], [60.75, -78.0], [60.75, -79.5], [59.25, -79.5]]]}, "properties": {"cell_id": "40_7", "lon": 60.0, "lat": -78.75}}, {"type": "Feature", "geometry": {"type": "Polygon", "coordinates": [[[59.25, -78.0], [59.25, -76.5], [60.75, -76.5], [60.75, -78.0], [59.25, -78.0]]]}, "properties": {"cell_id": "40_8", "lon": 60.0, "lat": -77.25}}, {"type": "Feature", "geometry": {"type": "Polygon", "coordinates": [[[59.25, -76.5], [59.25, -75.0], [60.75, -75.0], [60.75, -76.5], [59.25, -76.5]]]}, "properties": {"cell_id": "40_9", "lon": 60.0, "lat": -75.75}}, {"type": "Feature", "geometry": {"type": "Polygon", "coordinates": [[[59.25, -75.0], [59.25, -73.5], [60.75, -73.5], [60.75, -75.0], [59.25, -75.0]]]}, "properties": {"cell_id": "40_10", "lon": 60.0, "lat": -74.25}}, {"type": "Feature", "geometry": {"type": "Polygon", "coordinates": [[[59.25, -73.5], [59.25, -72.0], [60.75, -72.0], [60.75, -73.5], [59.25, -73.5]]]}, "properties": {"cell_id": "40_11", "lon": 60.0, "lat": -72.75}}, {"type": "Feature", "geometry": {"type": "Polygon", "coordinates": [[[59.25, -72.0], [59.25, -70.5], [60.75, -70.5], [60.75, -72.0], [59.25, -72.0]]]}, "properties": {"cell_id": "40_12", "lon": 60.0, "lat": -71.25}}, {"type": "Feature", "geometry": {"type": "Polygon", "coordinates": [[[59.25, -70.5], [59.25, -69.0], [60.75, -69.0], [60.75, -70.5], [59.25, -70.5]]]}, "properties": {"cell_id": "40_13", "lon": 60.0, "lat": -69.75}}]}