{"type": "FeatureCollection", "features": [{"type": "Feature", "geometry": {"type": "Polygon", "coordinates": [[[-66.75, -69.0], [-66.75, -67.5], [-65.25, -67.5], [-65.25, -69.0], [-66.75, -69.0]]]}, "properties": {"cell_id": "196_14", "lon": -66.0, "lat": -68.25}}, {"type": "Feature", "geometry": {"type": "Polygon", "coordinates": [[[-66.75, -67.5], [-66.75, -66.0], [-65.25, -66.0], [-65.25, -67.5], [-66.75, -67.5]]]}, "properties": {"cell_id": "196_15", "lon": -66.0, "lat": -66.75}}, {"type": "Feature", "geometry": {"type": "Polygon", "coordinates": [[[-65.25, -69.0], [-65.25, -67.5], [-63.75, -67.5], [-63.75, -69.0], [-65.25, -69.0]]]}, "properties": {"cell_id": "197_14", "lon": -64.5, "lat": -68.25}}, {"type": "Feature", "geometry": {"type": "Polygon", "coordinates": [[[-65.25, -67.5], [-65.25, -66.0], [-63.75, -66.0], [-63.75, -67.5], [-65.25, -67.5]]]}, "properties": {"cell_id": "197_15", "lon": -64.5, "lat": -66.75}}, {"type": "Feature", "geometry": {"type": "Polygon", "coordinates": [[[-63.75, -69.0], [-63.75, -67.5], [-62.25, -67.5], [-62.25, -69.0], [-63.75, -69.0]]]}, "properties": {"cell_id": "198_14", "lon": -63.0, "lat": -68.25}}, {"type": "Feature", "geometry": {"type": "Polygon", "coordinates": [[[-63.75, -67.5], [-63.75, -66.0], [-62.25, -66.0], [-62.25, -67.5], [-63.75, -67.5]]]}, "properties": {"cell_id": "198_15", "lon": -63.0, "lat": -66.75}}, {"type": "Feature", "geometry": {"type": "Polygon", "coordinates": [[[-63.75, -66.0], [-63.75, -64.5], [-62.25, -64.5], [-62.25, -66.0], [-63.75, -66.0]]]}, "properties": {"cell_id": "198_16", "lon": -63.0, "lat": -65.25}}, {"type": "Feature", "geometry": {"type": "Polygon", "coordinates": [[[-63.75, -64.5], [-63.75, -63.0], [-62.25, -63.0], [-62.25, -64.5], [-63.75, -64.5]]]}, "properties": {"cell_id": "198_17", "lon": -63.0, "lat": -63.75}}, {"type": "Feature", "geometry": {"type": "Polygon", "coordinates": [[[-62.25, -69.0], [-62.25, -67.5], [-60.75, -67.5], [-60.75, -69.0], [-62.25, -69.0]]]}, "properties": {"cell_id": "199_14", "lon": -61.5, "lat": -68.25}}, {"type": "Feature", "geometry": {"type": "Polygon", "coordinates": [[[-62.25, -67.5], [-62.25, -66.0], [-60.75, -66.0], [-60.75, -67.5], [-62.25, -67.5]]]}, "properties": {"cell_id": "199_15", "lon": -61.5, "lat": -66.75}}, {"type": "Feature", "geometry": {"type": "Polygon", "coordinates": [[[-62.25, -66.0], [-62.25, -64.5], [-60.75, -64.5], [-60.75, -66.0], [-62.25, -66.0]]]}, "properties": {"cell_id": "199_16", "lon": -61.5, "lat": -65.25}}, {"type": "Feature", "geometry": {"type": "Polygon", "coordinates": [[[-62.25, -64.5], [-62.25, -63.0], [-60.75, -63.0], [-60.75, -64.5], [-62.25, -64.5]]]}, "properties": {"cell_id": "199_17", "lon": -61.5, "lat": -63.75}}, {"type": "Feature", "geometry": {"type": "Polygon", "coordinates": [[[-60.75, -69.0], [-60.75, -67.5], [-59.25, -67.5], [-59.25, -69.0], [-60.75, -69.0]]]}, "properties": {"cell_id": "200_14", "lon": -60.0, "lat": -68.25}}, {"type": "Feature", "geometry": {"type": "Polygon", "coordinates": [[[-60.75, -67.5], [-60.75, -66.0], [-59.25, -66.0], [-59.25, -67.5], [-60.75, -67.5]]]}, "properties": {"cell_id": "200_15", "lon": -60.0, "lat": -66.75}}, {"type": "Feature", "geometry": {"type": "Polygon", "coordinates": [[[-60.75, -66.0], [-60.75, -64.5], [-59.25, -64.5], [-59.25, -66.0], [-60.75, -66.0]]]}, "properties": {"cell_id": "200_16", "lon": -60.0, "lat": -65.25}}, {"type": "Feature", "geometry": {"type": "Polygon", "coordinates": [[[-60.75, -64.5], [-60.75, -63.0], [-59.25, -63.0], [-59.25, -64.5], [-60.75, -64.5]]]}, "properties": {"cell_id": "200_17", "lon": -60.0, "lat": -63.75}}]}