{"type": "FeatureCollection", "features": [{"type": "Feature", "geometry": {"type": "Polygon", "coordinates": [[[-138.75, 60.0], [-138.75, 61.5], [-137.25, 61.5], [-137.25, 60.0], [-138.75, 60.0]]]}, "properties": {"cell_id": "148_100", "lon": -138.0, "lat": 60.75}}, {"type": "Feature", "geometry": {"type": "Polygon", "coordinates": [[[-138.75, 61.5], [-138.75, 63.0], [-137.25, 63.0], [-137.25, 61.5], [-138.75, 61.5]]]}, "properties": {"cell_id": "148_101", "lon": -138.0, "lat": 62.25}}, {"type": "Feature", "geometry": {"type": "Polygon", "coordinates": [[[-138.75, 63.0], [-138.75, 64.5], [-137.25, 64.5], [-137.25, 63.0], [-138.75, 63.0]]]}, "properties": {"cell_id": "148_102", "lon": -138.0, "lat": 63.75}}, {"type": "Feature", "geometry": {"type": "Polygon", "coordinates": [[[-138.75, 64.5], [-138.75, 66.0], [-137.25, 66.0], [-137.25, 64.5], [-138.75, 64.5]]]}, "properties": {"cell_id": "148_103", "lon": -138.0, "lat": 65.25}}, {"type": "Feature", "geometry": {"type": "Polygon", "coordinates": [[[-138.75, 66.0], [-138.75, 67.5], [-137.25, 67.5], [-137.25, 66.0], [-138.75, 66.0]]]}, "properties": {"cell_id": "148_104", "lon": -138.0, "lat": 66.75}}, {"type": "Feature", "geometry": {"type": "Polygon", "coordinates": [[[-138.75, 67.5], [-138.75, 69.0], [-137.25, 69.0], [-137.25, 67.5], [-138.75, 67.5]]]}, "properties": {"cell_id": "148_105", "lon": -138.0, "lat": 68.25}}, {"type": "Feature", "geometry": {"type": "Polygon", "coordinates": [[[-138.75, 69.0], [-138.75, 70.5], [-137.25, 70.5], [-137.25, 69.0], [-138.75, 69.0]]]}, "properties": {"cell_id": "148_106", "lon": -138.0, "lat": 69.75}}, {"type": "Feature", "geometry": {"type": "Polygon", "coordinates": [[[-137.25, 60.0], [-137.25, 61.5], [-135.75, 61.5], [-135.75, 60.0], [-137.25, 60.0]]]}, "properties": {"cell_id": "149_100", "lon": -136.5, "lat": 60.75}}, {"type": "Feature", "geometry": {"type": "Polygon", "coordinates": [[[-137.25, 61.5], [-137.25, 63.0], [-135.75, 63.0], [-135.75, 61.5], [-137.25, 61.5]]]}, "properties": {"cell_id": "149_101", "lon": -136.5, "lat": 62.25}}, {"type": "Feature", "geometry": {"type": "Polygon", "coordinates": [[[-137.25, 63.0], [-137.25, 64.5], [-135.75, 64.5], [-135.75, 63.0], [-137.25, 63.0]]]}, "properties": {"cell_id": "149_102", "lon": -136.5, "lat": 63.75}}, {"type": "Feature", "geometry": {"type": "Polygon", "coordinates": [[[-137.25, 64.5], [-137.25, 66.0], [-135.75, 66.0], [-135.75, 64.5], [-137.25, 64.5]]]}, "properties": {"cell_id": "149_103", "lon": -136.5, "lat": 65.25}}, {"type": "Feature", "geometry": {"type": "Polygon", "coordinates": [[[-137.25, 66.0], [-137.25, 67.5], [-135.75, 67.5], [-135.75, 66.0], [-137.25, 66.0]]]}, "properties": {"cell_id": "149_104", "lon": -136.5, "lat": 66.75}}, {"type": "Feature", "geometry": {"type": "Polygon", "coordinates": [[[-137.25, 67.5], [-137.25, 69.0], [-135.75, 69.0], [-135.75, 67.5], [-137.25, 67.5]]]}, "properties": {"cell_id": "149_105", "lon": -136.5, "lat": 68.25}}, {"type": "Feature", "geometry": {"type": "Polygon", "coordinates": [[[-137.25, 69.0], [-137.25, 70.5], [-135.75, 70.5], [-135.75, 69.0], [-137.25, 69.0]]]}, "properties": {"cell_id": "149_106", "lon": -136.5, "lat": 69.75}}, {"type": "Feature", "geometry": {"type": "Polygon", "coordinates": [[[-135.75, 60.0], [-135.75, 61.5], [-134.25, 61.5], [-134.25, 60.0], [-135.75, 60.0]]]}, "properties": {"cell_id": "150_100", "lon": -135.0, "lat": 60.75}}, {"type": "Feature", "geometry": {"type": "Polygon", "coordinates": [[[-135.75, 61.5], [-135.75, 63.0], [-134.25, 63.0], [-134.25, 61.5], [-135.75, 61.5]]]}, "properties": {"cell_id": "150_101", "lon": -135.0, "lat": 62.25}}, {"type": "Feature", "geometry": {"type": "Polygon", "coordinates": [[[-135.75, 63.0], [-135.75, 64.5], [-134.25, 64.5], [-134.25, 63.0], [-135.75, 63.0]]]}, "properties": {"cell_id": "150_102", "lon": -135.0, "lat": 63.75}}, {"type": "Feature", "geometry": {"type": "Polygon", "coordinates": [[[-135.75, 64.5], [-135.75, 66.0], [-134.25, 66.0], [-134.25, 64.5], [-135.75, 64.5]]]}, "properties": {"cell_id": "150_103", "lon": -135.0, "lat": 65.25}}, {"type": "Feature", "geometry": {"type": "Polygon", "coordinates": [[[-135.75, 66.0], [-135.75, 67.5], [-134.25, 67.5], [-134.25, 66.0], [-135.75, 66.0]]]}, "properties": {"cell_id": "150_104", "lon": -135.0, "lat": 66.75}}, {"type": "Feature", "geometry": {"type": "Polygon", "coordinates": [[[-135.75, 67.5], [-135.75, 69.0], [-134.25, 69.0], [-134.25, 67.5], [-135.75, 67.5]]]}, "properties": {"cell_id": "150_105", "lon": -135.0, "lat": 68.25}}, {"type": "Feature", "geometry": {"type": "Polygon", "coordinates": [[[-135.75, 69.0], [-135.75, 70.5], [-134.25, 70.5], [-134.25, 69.0], [-135.75, 69.0]]]}, "properties": {"cell_id": "150_106", "lon": -135.0, "lat": 69.75}}, {"type": "Feature", "geometry": {"type": "Polygon", "coordinates": [[[-134.25, 60.0], [-134.25, 61.5], [-132.75, 61.5], [-132.75, 60.0], [-134.25, 60.0]]]}, "properties": {"cell_id": "151_100", "lon": -133.5, "lat": 60.75}}, {"type": "Feature", "geometry": {"type": "Polygon", "coordinates": [[[-134.25, 61.5], [-134.25, 63.0], [-132.75, 63.0], [-132.75, 61.5], [-134.25, 61.5]]]}, "properties": {"cell_id": "151_101", "lon": -133.5, "lat": 62.25}}, {"type": "Feature", "geometry": {"type": "Polygon", "coordinates": [[[-134.25, 63.0], [-134.25, 64.5], [-132.75, 64.5], [-132.75, 63.0], [-134.25, 63.0]]]}, "properties": {"cell_id": "151_102", "lon": -133.5, "lat": 63.75}}, {"type": "Feature", "geometry": {"type": "Polygon", "coordinates": [[[-134.25, 64.5], [-134.25, 66.0], [-132.75, 66.0], [-132.75, 64.5], [-134.25, 64.5]]]}, "properties": {"cell_id": "151_103", "lon": -133.5, "lat": 65.25}}, {"type": "Feature", "geometry": {"type": "Polygon", "coordinates": [[[-134.25, 66.0], [-134.25, 67.5], [-132.75, 67.5], [-132.75, 66.0], [-134.25, 66.0]]]}, "properties": {"cell_id": "151_104", "lon": -133.5, "lat": 66.75}}, {"type": "Feature", "geometry": {"type": "Polygon", "coordinates": [[[-134.25, 67.5], [-134.25, 69.0], [-132.75, 69.0], [-132.75, 67.5], [-134.25, 67.5]]]}, "properties": {"cell_id": "151_105", "lon": -133.5, "lat": 68.25}}, {"type": "Feature", "geometry": {"type": "Polygon", "coordinates": [[[-134.25, 69.0], [-134.25, 70.5], [-132.75, 70.5], [-132.75, 69.0], [-134.25, 69.0]]]}, "properties": {"cell_id": "151_106", "lon": -133.5, "lat": 69.75}}, {"type": "Feature", "geometry": {"type": "Polygon", "coordinates": [[[-132.75, 60.0], [-132.75, 61.5], [-131.25, 61.5], [-131.25, 60.0], [-132.75, 60.0]]]}, "properties": {"cell_id": "152_100", "lon": -132.0, "lat": 60.75}}, {"type": "Feature", "geometry": {"type": "Polygon", "coordinates": [[[-132.75, 61.5], [-132.75, 63.0], [-131.25, 63.0], [-131.25, 61.5], [-132.75, 61.5]]]}, "properties": {"cell_id": "152_101", "lon": -132.0, "lat": 62.25}}, {"type": "Feature", "geometry": {"type": "Polygon", "coordinates": [[[-132.75, 63.0], [-132.75, 64.5], [-131.25, 64.5], [-131.25, 63.0], [-132.75, 63.0]]]}, "properties": {"cell_id": "152_102", "lon": -132.0, "lat": 63.75}}, {"type": "Feature", "geometry": {"type": "Polygon", "coordinates": [[[-132.75, 64.5], [-132.75, 66.0], [-131.25, 66.0], [-131.25, 64.5], [-132.75, 64.5]]]}, "properties": {"cell_id": "152_103", "lon": -132.0, "lat": 65.25}}, {"type": "Feature", "geometry": {"type": "Polygon", "coordinates": [[[-132.75, 66.0], [-132.75, 67.5], [-131.25, 67.5], [-131.25, 66.0], [-132.75, 66.0]]]}, "properties": {"cell_id": "152_104", "lon": -132.0, "lat": 66.75}}, {"type": "Feature", "geometry": {"type": "Polygon", "coordinates": [[[-132.75, 67.5], [-132.75, 69.0], [-131.25, 69.0], [-131.25, 67.5], [-132.75, 67.5]]]}, "properties": {"cell_id": "152_105", "lon": -132.0, "lat": 68.25}}, {"type": "Feature", "geometry": {"type": "Polygon", "coordinates": [[[-132.75, 69.0], [-132.75, 70.5], [-131.25, 70.5], [-131.25, 69.0], [-132.75, 69.0]]]}, "properties": {"cell_id": "152_106", "lon": -132.0, "lat": 69.75}}, {"type": "Feature", "geometry": {"type": "Polygon", "coordinates": [[[-131.25, 60.0], [-131.25, 61.5], [-129.75, 61.5], [-129.75, 60.0], [-131.25, 60.0]]]}, "properties": {"cell_id": "153_100", "lon": -130.5, "lat": 60.75}}, {"type": "Feature", "geometry": {"type": "Polygon", "coordinates": [[[-131.25, 61.5], [-131.25, 63.0], [-129.75, 63.0], [-129.75, 61.5], [-131.25, 61.5]]]}, "properties": {"cell_id": "153_101", "lon": -130.5, "lat": 62.25}}, {"type": "Feature", "geometry": {"type": "Polygon", "coordinates": [[[-131.25, 63.0], [-131.25, 64.5], [-129.75, 64.5], [-129.75, 63.0], [-131.25, 63.0]]]}, "properties": {"cell_id": "153_102", "lon": -130.5, "lat": 63.75}}, {"type": "Feature", "geometry": {"type": "Polygon", "coordinates": [[[-131.25, 64.5], [-131.25, 66.0], [-129.75, 66.0], [-129.75, 64.5], [-131.25, 64.5]]]}, "properties": {"cell_id": "153_103", "lon": -130.5, "lat": 65.25}}, {"type": "Feature", "geometry": {"type": "Polygon", "coordinates": [[[-131.25, 66.0], [-131.25, 67.5], [-129.75, 67.5], [-129.75, 66.0], [-131.25, 66.0]]]}, "properties": {"cell_id": "153_104", "lon": -130.5, "lat": 66.75}}, {"type": "Feature", "geometry": {"type": "Polygon", "coordinates": [[[-131.25, 67.5], [-131.25, 69.0], [-129.75, 69.0], [-129.75, 67.5], [-131.25, 67.5]]]}, "properties": {"cell_id": "153_105", "lon": -130.5, "lat": 68.25}}, {"type": "Feature", "geometry": {"type": "Polygon", "coordinates": [[[-131.25, 69.0], [-131.25, 70.5], [-129.75, 70.5], [-129.75, 69.0], [-131.25, 69.0]]]}, "properties": {"cell_id": "153_106", "lon": -130.5, "lat": 69.75}}]}