{"type": "FeatureCollection", "features": [{"type": "Feature", "geometry": {"type": "Polygon", "coordinates": [[[50.25, 10.5], [50.25, 12.0], [51.75, 12.0], [51.75, 10.5], [50.25, 10.5]]]}, "properties": {"cell_id": "34_67", "lon": 51.0, "lat": 11.25}}, {"type": "Feature", "geometry": {"type": "Polygon", "coordinates": [[[50.25, 13.5], [50.25, 15.0], [51.75, 15.0], [51.75, 13.5], [50.25, 13.5]]]}, "properties": {"cell_id": "34_69", "lon": 51.0, "lat": 14.25}}, {"type": "Feature", "geometry": {"type": "Polygon", "coordinates": [[[50.25, 15.0], [50.25, 16.5], [51.75, 16.5], [51.75, 15.0], [50.25, 15.0]]]}, "properties": {"cell_id": "34_70", "lon": 51.0, "lat": 15.75}}, {"type": "Feature", "geometry": {"type": "Polygon", "coordinates": [[[50.25, 16.5], [50.25, 18.0], [51.75, 18.0], [51.75, 16.5], [50.25, 16.5]]]}, "properties": {"cell_id": "34_71", "lon": 51.0, "lat": 17.25}}, {"type": "Feature", "geometry": {"type": "Polygon", "coordinates": [[[50.25, 18.0], [50.25, 19.5], [51.75, 19.5], [51.75, 18.0], [50.25, 18.0]]]}, "properties": {"cell_id": "34_72", "lon": 51.0, "lat": 18.75}}, {"type": "Feature", "geometry": {"type": "Polygon", "coordinates": [[[50.25, 19.5], [50.25, 21.0], [51.75, 21.0], [51.75, 19.5], [50.25, 19.5]]]}, "properties": {"cell_id": "34_73", "lon": 51.0, "lat": 20.25}}, {"type": "Feature", "geometry": {"type": "Polygon", "coordinates": [[[51.75, 10.5], [51.75, 12.0], [53.25, 12.0], [53.25, 10.5], [51.75, 10.5]]]}, "properties": {"cell_id": "35_67", "lon": 52.5, "lat": 11.25}}, {"type": "Feature", "geometry": {"type": "Polygon", "coordinates": [[[51.75, 13.5], [51.75, 15.0], [53.25, 15.0], [53.25, 13.5], [51.75, 13.5]]]}, "properties": {"cell_id": "35_69", "lon": 52.5, "lat": 14.25}}, {"type": "Feature", "geometry": {"type": "Polygon", "coordinates": [[[51.75, 15.0], [51.75, 16.5], [53.25, 16.5], [53.25, 15.0], [51.75, 15.0]]]}, "properties": {"cell_id": "35_70", "lon": 52.5, "lat": 15.75}}, {"type": "Feature", "geometry": {"type": "Polygon", "coordinates": [[[51.75, 16.5], [51.75, 18.0], [53.25, 18.0], [53.25, 16.5], [51.75, 16.5]]]}, "properties": {"cell_id": "35_71", "lon": 52.5, "lat": 17.25}}, {"type": "Feature", "geometry": {"type": "Polygon", "coordinates": [[[51.75, 18.0], [51.75, 19.5], [53.25, 19.5], [53.25, 18.0], [51.75, 18.0]]]}, "properties": {"cell_id": "35_72", "lon": 52.5, "lat": 18.75}}, {"type": "Feature", "geometry": {"type": "Polygon", "coordinates": [[[51.75, 19.5], [51.75, 21.0], [53.25, 21.0], [53.25, 19.5], [51.75, 19.5]]]}, "properties": {"cell_id": "35_73", "lon": 52.5, "lat": 20.25}}, {"type": "Feature", "geometry": {"type": "Polygon", "coordinates": [[[53.25, 16.5], [53.25, 18.0], [54.75, 18.0], [54.75, 16.5], [53.25, 16.5]]]}, "properties": {"cell_id": "36_71", "lon": 54.0, "lat": 17.25}}, {"type": "Feature", "geometry": {"type": "Polygon", "coordinates": [[[53.25, 18.0], [53.25, 19.5], [54.75, 19.5], [54.75, 18.0], [53.25, 18.0]]]}, "properties": {"cell_id": "36_72", "lon": 54.0, "lat": 18.75}}, {"type": "Feature", "geometry": {"type": "Polygon", "coordinates": [[[53.25, 19.5], [53.25, 21.0], [54.75, 21.0], [54.75, 19.5], [53.25, 19.5]]]}, "properties": {"cell_id": "36_73", "lon": 54.0, "lat": 20.25}}, {"type": "Feature", "geometry": {"type": "Polygon", "coordinates": [[[54.75, 16.5], [54.75, 18.0], [56.25, 18.0], [56.25, 16.5], [54.75, 16.5]]]}, "properties": {"cell_id": "37_71", "lon": 55.5, "lat": 17.25}}, {"type": "Feature", "geometry": {"type": "Polygon", "coordinates": [[[54.75, 18.0], [54.75, 19.5], [56.25, 19.5], [56.25, 18.0], [54.75, 18.0]]]}, "properties": {"cell_id": "37_72", "lon": 55.5, "lat": 18.75}}, {"type": "Feature", "geometry": {"type": "Polygon", "coordinates": [[[54.75, 19.5], [54.75, 21.0], [56.25, 21.0], [56.25, 19.5], [54.75, 19.5]]]}, "properties": {"cell_id": "37_73", "lon": 55.5, "lat": 20.25}}, {"type": "Feature", "geometry": {"type": "Polygon", "coordinates": [[[56.25, 19.5], [56.25, 21.0], [57.75, 21.0], [57.75, 19.5], [56.25, 19.5]]]}, "properties": {"cell_id": "38_73", "lon": 57.0, "lat": 20.25}}]}