{"type": "FeatureCollection", "features": [{"type": "Feature", "geometry": {"type": "Polygon", "coordinates": [[[-69.75, 10.5], [-69.75, 12.0], [-68.25, 12.0], [-68.25, 10.5], [-69.75, 10.5]]]}, "properties": {"cell_id": "194_67", "lon": -69.0, "lat": 11.25}}, {"type": "Feature", "geometry": {"type": "Polygon", "coordinates": [[[-68.25, 10.5], [-68.25, 12.0], [-66.75, 12.0], [-66.75, 10.5], [-68.25, 10.5]]]}, "properties": {"cell_id": "195_67", "lon": -67.5, "lat": 11.25}}, {"type": "Feature", "geometry": {"type": "Polygon", "coordinates": [[[-66.75, 10.5], [-66.75, 12.0], [-65.25, 12.0], [-65.25, 10.5], [-66.75, 10.5]]]}, "properties": {"cell_id": "196_67", "lon": -66.0, "lat": 11.25}}, {"type": "Feature", "geometry": {"type": "Polygon", "coordinates": [[[-65.25, 10.5], [-65.25, 12.0], [-63.75, 12.0], [-63.75, 10.5], [-65.25, 10.5]]]}, "properties": {"cell_id": "197_67", "lon": -64.5, "lat": 11.25}}, {"type": "Feature", "geometry": {"type": "Polygon", "coordinates": [[[-63.75, 10.5], [-63.75, 12.0], [-62.25, 12.0], [-62.25, 10.5], [-63.75, 10.5]]]}, "properties": {"cell_id": "198_67", "lon": -63.0, "lat": 11.25}}]}