{"type": "FeatureCollection", "features": [{"type": "Feature", "geometry": {"type": "Polygon", "coordinates": [[[-39.75, -90.0], [-39.75, -88.5], [-38.25, -88.5], [-38.25, -90.0], [-39.75, -90.0]]]}, "properties": {"cell_id": "214_0", "lon": -39.0, "lat": -89.25}}, {"type": "Feature", "geometry": {"type": "Polygon", "coordinates": [[[-39.75, -88.5], [-39.75, -87.0], [-38.25, -87.0], [-38.25, -88.5], [-39.75, -88.5]]]}, "properties": {"cell_id": "214_1", "lon": -39.0, "lat": -87.75}}, {"type": "Feature", "geometry": {"type": "Polygon", "coordinates": [[[-39.75, -87.0], [-39.75, -85.5], [-38.25, -85.5], [-38.25, -87.0], [-39.75, -87.0]]]}, "properties": {"cell_id": "214_2", "lon": -39.0, "lat": -86.25}}, {"type": "Feature", "geometry": {"type": "Polygon", "coordinates": [[[-39.75, -85.5], [-39.75, -84.0], [-38.25, -84.0], [-38.25, -85.5], [-39.75, -85.5]]]}, "properties": {"cell_id": "214_3", "lon": -39.0, "lat": -84.75}}, {"type": "Feature", "geometry": {"type": "Polygon", "coordinates": [[[-39.75, -84.0], [-39.75, -82.5], [-38.25, -82.5], [-38.25, -84.0], [-39.75, -84.0]]]}, "properties": {"cell_id": "214_4", "lon": -39.0, "lat": -83.25}}, {"type": "Feature", "geometry": {"type": "Polygon", "coordinates": [[[-39.75, -82.5], [-39.75, -81.0], [-38.25, -81.0], [-38.25, -82.5], [-39.75, -82.5]]]}, "properties": {"cell_id": "214_5", "lon": -39.0, "lat": -81.75}}, {"type": "Feature", "geometry": {"type": "Polygon", "coordinates": [[[-39.75, -81.0], [-39.75, -79.5], [-38.25, -79.5], [-38.25, -81.0], [-39.75, -81.0]]]}, "properties": {"cell_id": "214_6", "lon": -39.0, "lat": -80.25}}, {"type": "Feature", "geometry": {"type": "Polygon", "coordinates": [[[-38.25, -90.0], [-38.25, -88.5], [-36.75, -88.5], [-36.75, -90.0], [-38.25, -90.0]]]}, "properties": {"cell_id": "215_0", "lon": -37.5, "lat": -89.25}}, {"type": "Feature", "geometry": {"type": "Polygon", "coordinates": [[[-38.25, -88.5], [-38.25, -87.0], [-36.75, -87.0], [-36.75, -88.5], [-38.25, -88.5]]]}, "properties": {"cell_id": "215_1", "lon": -37.5, "lat": -87.75}}, {"type": "Feature", "geometry": {"type": "Polygon", "coordinates": [[[-38.25, -87.0], [-38.25, -85.5], [-36.75, -85.5], [-36.75, -87.0], [-38.25, -87.0]]]}, "properties": {"cell_id": "215_2", "lon": -37.5, "lat": -86.25}}, {"type": "Feature", "geometry": {"type": "Polygon", "coordinates": [[[-38.25, -85.5], [-38.25, -84.0], [-36.75, -84.0], [-36.75, -85.5], [-38.25, -85.5]]]}, "properties": {"cell_id": "215_3", "lon": -37.5, "lat": -84.75}}, {"type": "Feature", "geometry": {"type": "Polygon", "coordinates": [[[-38.25, -84.0], [-38.25, -82.5], [-36.75, -82.5], [-36.75, -84.0], [-38.25, -84.0]]]}, "properties": {"cell_id": "215_4", "lon": -37.5, "lat": -83.25}}, {"type": "Feature", "geometry": {"type": "Polygon", "coordinates": [[[-38.25, -82.5], [-38.25, -81.0], [-36.75, -81.0], [-36.75, -82.5], [-38.25, -82.5]]]}, "properties": {"cell_id": "215_5", "lon": -37.5, "lat": -81.75}}, {"type": "Feature", "geometry": {"type": "Polygon", "coordinates": [[[-38.25, -81.0], [-38.25, -79.5], [-36.75, -79.5], [-36.75, -81.0], [-38.25, -81.0]]]}, "properties": {"cell_id": "215_6", "lon": -37.5, "lat": -80.25}}, {"type": "Feature", "geometry": {"type": "Polygon", "coordinates": [[[-36.75, -90.0], [-36.75, -88.5], [-35.25, -88.5], [-35.25, -90.0], [-36.75, -90.0]]]}, "properties": {"cell_id": "216_0", "lon": -36.0, "lat": -89.25}}, {"type": "Feature", "geometry": {"type": "Polygon", "coordinates": [[[-36.75, -88.5], [-36.75, -87.0], [-35.25, -87.0], [-35.25, -88.5], [-36.75, -88.5]]]}, "properties": {"cell_id": "216_1", "lon": -36.0, "lat": -87.75}}, {"type": "Feature", "geometry": {"type": "Polygon", "coordinates": [[[-36.75, -87.0], [-36.75, -85.5], [-35.25, -85.5], [-35.25, -87.0], [-36.75, -87.0]]]}, "properties": {"cell_id": "216_2", "lon": -36.0, "lat": -86.25}}, {"type": "Feature", "geometry": {"type": "Polygon", "coordinates": [[[-36.75, -85.5], [-36.75, -84.0], [-35.25, -84.0], [-35.25, -85.5], [-36.75, -85.5]]]}, "properties": {"cell_id": "216_3", "lon": -36.0, "lat": -84.75}}, {"type": "Feature", "geometry": {"type": "Polygon", "coordinates": [[[-36.75, -84.0], [-36.75, -82.5], [-35.25, -82.5], [-35.25, -84.0], [-36.75, -84.0]]]}, "properties": {"cell_id": "216_4", "lon": -36.0, "lat": -83.25}}, {"type": "Feature", "geometry": {"type": "Polygon", "coordinates": [[[-36.75, -82.5], [-36.75, -81.0], [-35.25, -81.0], [-35.25, -82.5], [-36.75, -82.5]]]}, "properties": {"cell_id": "216_5", "lon": -36.0, "lat": -81.75}}, {"type": "Feature", "geometry": {"type": "Polygon", "coordinates": [[[-36.75, -81.0], [-36.75, -79.5], [-35.25, -79.5], [-35.25, -81.0], [-36.75, -81.0]]]}, "properties": {"cell_id": "216_6", "lon": -36.0, "lat": -80.25}}, {"type": "Feature", "geometry": {"type": "Polygon", "coordinates": [[[-35.25, -90.0], [-35.25, -88.5], [-33.75, -88.5], [-33.75, -90.0], [-35.25, -90.0]]]}, "properties": {"cell_id": "217_0", "lon": -34.5, "lat": -89.25}}, {"type": "Feature", "geometry": {"type": "Polygon", "coordinates": [[[-35.25, -88.5], [-35.25, -87.0], [-33.75, -87.0], [-33.75, -88.5], [-35.25, -88.5]]]}, "properties": {"cell_id": "217_1", "lon": -34.5, "lat": -87.75}}, {"type": "Feature", "geometry": {"type": "Polygon", "coordinates": [[[-35.25, -87.0], [-35.25, -85.5], [-33.75, -85.5], [-33.75, -87.0], [-35.25, -87.0]]]}, "properties": {"cell_id": "217_2", "lon": -34.5, "lat": -86.25}}, {"type": "Feature", "geometry": {"type": "Polygon", "coordinates": [[[-35.25, -85.5], [-35.25, -84.0], [-33.75, -84.0], [-33.75, -85.5], [-35.25, -85.5]]]}, "properties": {"cell_id": "217_3", "lon": -34.5, "lat": -84.75}}, {"type": "Feature", "geometry": {"type": "Polygon", "coordinates": [[[-35.25, -84.0], [-35.25, -82.5], [-33.75, -82.5], [-33.75, -84.0], [-35.25, -84.0]]]}, "properties": {"cell_id": "217_4", "lon": -34.5, "lat": -83.25}}, {"type": "Feature", "geometry": {"type": "Polygon", "coordinates": [[[-35.25, -82.5], [-35.25, -81.0], [-33.75, -81.0], [-33.75, -82.5], [-35.25, -82.5]]]}, "properties": {"cell_id": "217_5", "lon": -34.5, "lat": -81.75}}, {"type": "Feature", "geometry": {"type": "Polygon", "coordinates": [[[-35.25, -81.0], [-35.25, -79.5], [-33.75, -79.5], [-33.75, -81.0], [-35.25, -81.0]]]}, "properties": {"cell_id": "217_6", "lon": -34.5, "lat": -80.25}}, {"type": "Feature", "geometry": {"type": "Polygon", "coordinates": [[[-33.75, -90.0], [-33.75, -88.5], [-32.25, -88.5], [-32.25, -90.0], [-33.75, -90.0]]]}, "properties": {"cell_id": "218_0", "lon": -33.0, "lat": -89.25}}, {"type": "Feature", "geometry": {"type": "Polygon", "coordinates": [[[-33.75, -88.5], [-33.75, -87.0], [-32.25, -87.0], [-32.25, -88.5], [-33.75, -88.5]]]}, "properties": {"cell_id": "218_1", "lon": -33.0, "lat": -87.75}}, {"type": "Feature", "geometry": {"type": "Polygon", "coordinates": [[[-33.75, -87.0], [-33.75, -85.5], [-32.25, -85.5], [-32.25, -87.0], [-33.75, -87.0]]]}, "properties": {"cell_id": "218_2", "lon": -33.0, "lat": -86.25}}, {"type": "Feature", "geometry": {"type": "Polygon", "coordinates": [[[-33.75, -85.5], [-33.75, -84.0], [-32.25, -84.0], [-32.25, -85.5], [-33.75, -85.5]]]}, "properties": {"cell_id": "218_3", "lon": -33.0, "lat": -84.75}}, {"type": "Feature", "geometry": {"type": "Polygon", "coordinates": [[[-33.75, -84.0], [-33.75, -82.5], [-32.25, -82.5], [-32.25, -84.0], [-33.75, -84.0]]]}, "properties": {"cell_id": "218_4", "lon": -33.0, "lat": -83.25}}, {"type": "Feature", "geometry": {"type": "Polygon", "coordinates": [[[-33.75, -82.5], [-33.75, -81.0], [-32.25, -81.0], [-32.25, -82.5], [-33.75, -82.5]]]}, "properties": {"cell_id": "218_5", "lon": -33.0, "lat": -81.75}}, {"type": "Feature", "geometry": {"type": "Polygon", "coordinates": [[[-33.75, -81.0], [-33.75, -79.5], [-32.25, -79.5], [-32.25, -81.0], [-33.75, -81.0]]]}, "properties": {"cell_id": "218_6", "lon": -33.0, "lat": -80.25}}, {"type": "Feature", "geometry": {"type": "Polygon", "coordinates": [[[-32.25, -90.0], [-32.25, -88.5], [-30.75, -88.5], [-30.75, -90.0], [-32.25, -90.0]]]}, "properties": {"cell_id": "219_0", "lon": -31.5, "lat": -89.25}}, {"type": "Feature", "geometry": {"type": "Polygon", "coordinates": [[[-32.25, -88.5], [-32.25, -87.0], [-30.75, -87.0], [-30.75, -88.5], [-32.25, -88.5]]]}, "properties": {"cell_id": "219_1", "lon": -31.5, "lat": -87.75}}, {"type": "Feature", "geometry": {"type": "Polygon", "coordinates": [[[-32.25, -87.0], [-32.25, -85.5], [-30.75, -85.5], [-30.75, -87.0], [-32.25, -87.0]]]}, "properties": {"cell_id": "219_2", "lon": -31.5, "lat": -86.25}}, {"type": "Feature", "geometry": {"type": "Polygon", "coordinates": [[[-32.25, -85.5], [-32.25, -84.0], [-30.75, -84.0], [-30.75, -85.5], [-32.25, -85.5]]]}, "properties": {"cell_id": "219_3", "lon": -31.5, "lat": -84.75}}, {"type": "Feature", "geometry": {"type": "Polygon", "coordinates": [[[-32.25, -84.0], [-32.25, -82.5], [-30.75, -82.5], [-30.75, -84.0], [-32.25, -84.0]]]}, "properties": {"cell_id": "219_4", "lon": -31.5, "lat": -83.25}}, {"type": "Feature", "geometry": {"type": "Polygon", "coordinates": [[[-32.25, -82.5], [-32.25, -81.0], [-30.75, -81.0], [-30.75, -82.5], [-32.25, -82.5]]]}, "properties": {"cell_id": "219_5", "lon": -31.5, "lat": -81.75}}, {"type": "Feature", "geometry": {"type": "Polygon", "coordinates": [[[-32.25, -81.0], [-32.25, -79.5], [-30.75, -79.5], [-30.75, -81.0], [-32.25, -81.0]]]}, "properties": {"cell_id": "219_6", "lon": -31.5, "lat": -80.25}}, {"type": "Feature", "geometry": {"type": "Polygon", "coordinates": [[[-30.75, -90.0], [-30.75, -88.5], [-29.25, -88.5], [-29.25, -90.0], [-30.75, -90.0]]]}, "properties": {"cell_id": "220_0", "lon": -30.0, "lat": -89.25}}, {"type": "Feature", "geometry": {"type": "Polygon", "coordinates": [[[-30.75, -88.5], [-30.75, -87.0], [-29.25, -87.0], [-29.25, -88.5], [-30.75, -88.5]]]}, "properties": {"cell_id": "220_1", "lon": -30.0, "lat": -87.75}}, {"type": "Feature", "geometry": {"type": "Polygon", "coordinates": [[[-30.75, -87.0], [-30.75, -85.5], [-29.25, -85.5], [-29.25, -87.0], [-30.75, -87.0]]]}, "properties": {"cell_id": "220_2", "lon": -30.0, "lat": -86.25}}, {"type": "Feature", "geometry": {"type": "Polygon", "coordinates": [[[-30.75, -85.5], [-30.75, -84.0], [-29.25, -84.0], [-29.25, -85.5], [-30.75, -85.5]]]}, "properties": {"cell_id": "220_3", "lon": -30.0, "lat": -84.75}}, {"type": "Feature", "geometry": {"type": "Polygon", "coordinates": [[[-30.75, -84.0], [-30.75, -82.5], [-29.25, -82.5], [-29.25, -84.0], [-30.75, -84.0]]]}, "properties": {"cell_id": "220_4", "lon": -30.0, "lat": -83.25}}, {"type": "Feature", "geometry": {"type": "Polygon", "coordinates": [[[-30.75, -82.5], [-30.75, -81.0], [-29.25, -81.0], [-29.25, -82.5], [-30.75, -82.5]]]}, "properties": {"cell_id": "220_5", "lon": -30.0, "lat": -81.75}}, {"type": "Feature", "geometry": {"type": "Polygon", "coordinates": [[[-30.75, -81.0], [-30.75, -79.5], [-29.25, -79.5], [-29.25, -81.0], [-30.75, -81.0]]]}, "properties": {"cell_id": "220_6", "lon": -30.0, "lat": -80.25}}]}