{"type": "FeatureCollection", "features": [{"type": "Feature", "geometry": {"type": "Polygon", "coordinates": [[[-29.25, 70.5], [-29.25, 72.0], [-27.75, 72.0], [-27.75, 70.5], [-29.25, 70.5]]]}, "properties": {"cell_id": "221_107", "lon": -28.5, "lat": 71.25}}, {"type": "Feature", "geometry": {"type": "Polygon", "coordinates": [[[-29.25, 72.0], [-29.25, 73.5], [-27.75, 73.5], [-27.75, 72.0], [-29.25, 72.0]]]}, "properties": {"cell_id": "221_108", "lon": -28.5, "lat": 72.75}}, {"type": "Feature", "geometry": {"type": "Polygon", "coordinates": [[[-29.25, 73.5], [-29.25, 75.0], [-27.75, 75.0], [-27.75, 73.5], [-29.25, 73.5]]]}, "properties": {"cell_id": "221_109", "lon": -28.5, "lat": 74.25}}, {"type": "Feature", "geometry": {"type": "Polygon", "coordinates": [[[-29.25, 75.0], [-29.25, 76.5], [-27.75, 76.5], [-27.75, 75.0], [-29.25, 75.0]]]}, "properties": {"cell_id": "221_110", "lon": -28.5, "lat": 75.75}}, {"type": "Feature", "geometry": {"type": "Polygon", "coordinates": [[[-29.25, 76.5], [-29.25, 78.0], [-27.75, 78.0], [-27.75, 76.5], [-29.25, 76.5]]]}, "properties": {"cell_id": "221_111", "lon": -28.5, "lat": 77.25}}, {"type": "Feature", "geometry": {"type": "Polygon", "coordinates": [[[-29.25, 78.0], [-29.25, 79.5], [-27.75, 79.5], [-27.75, 78.0], [-29.25, 78.0]]]}, "properties": {"cell_id": "221_112", "lon": -28.5, "lat": 78.75}}, {"type": "Feature", "geometry": {"type": "Polygon", "coordinates": [[[-29.25, 79.5], [-29.25, 81.0], [-27.75, 81.0], [-27.75, 79.5], [-29.25, 79.5]]]}, "properties": {"cell_id": "221_113", "lon": -28.5, "lat": 80.25}}, {"type": "Feature", "geometry": {"type": "Polygon", "coordinates": [[[-27.75, 70.5], [-27.75, 72.0], [-26.25, 72.0], [-26.25, 70.5], [-27.75, 70.5]]]}, "properties": {"cell_id": "222_107", "lon": -27.0, "lat": 71.25}}, {"type": "Feature", "geometry": {"type": "Polygon", "coordinates": [[[-27.75, 72.0], [-27.75, 73.5], [-26.25, 73.5], [-26.25, 72.0], [-27.75, 72.0]]]}, "properties": {"cell_id": "222_108", "lon": -27.0, "lat": 72.75}}, {"type": "Feature", "geometry": {"type": "Polygon", "coordinates": [[[-27.75, 73.5], [-27.75, 75.0], [-26.25, 75.0], [-26.25, 73.5], [-27.75, 73.5]]]}, "properties": {"cell_id": "222_109", "lon": -27.0, "lat": 74.25}}, {"type": "Feature", "geometry": {"type": "Polygon", "coordinates": [[[-27.75, 75.0], [-27.75, 76.5], [-26.25, 76.5], [-26.25, 75.0], [-27.75, 75.0]]]}, "properties": {"cell_id": "222_110", "lon": -27.0, "lat": 75.75}}, {"type": "Feature", "geometry": {"type": "Polygon", "coordinates": [[[-27.75, 76.5], [-27.75, 78.0], [-26.25, 78.0], [-26.25, 76.5], [-27.75, 76.5]]]}, "properties": {"cell_id": "222_111", "lon": -27.0, "lat": 77.25}}, {"type": "Feature", "geometry": {"type": "Polygon", "coordinates": [[[-27.75, 78.0], [-27.75, 79.5], [-26.25, 79.5], [-26.25, 78.0], [-27.75, 78.0]]]}, "properties": {"cell_id": "222_112", "lon": -27.0, "lat": 78.75}}, {"type": "Feature", "geometry": {"type": "Polygon", "coordinates": [[[-27.75, 79.5], [-27.75, 81.0], [-26.25, 81.0], [-26.25, 79.5], [-27.75, 79.5]]]}, "properties": {"cell_id": "222_113", "lon": -27.0, "lat": 80.25}}, {"type": "Feature", "geometry": {"type": "Polygon", "coordinates": [[[-26.25, 70.5], [-26.25, 72.0], [-24.75, 72.0], [-24.75, 70.5], [-26.25, 70.5]]]}, "properties": {"cell_id": "223_107", "lon": -25.5, "lat": 71.25}}, {"type": "Feature", "geometry": {"type": "Polygon", "coordinates": [[[-26.25, 72.0], [-26.25, 73.5], [-24.75, 73.5], [-24.75, 72.0], [-26.25, 72.0]]]}, "properties": {"cell_id": "223_108", "lon": -25.5, "lat": 72.75}}, {"type": "Feature", "geometry": {"type": "Polygon", "coordinates": [[[-26.25, 73.5], [-26.25, 75.0], [-24.75, 75.0], [-24.75, 73.5], [-26.25, 73.5]]]}, "properties": {"cell_id": "223_109", "lon": -25.5, "lat": 74.25}}, {"type": "Feature", "geometry": {"type": "Polygon", "coordinates": [[[-26.25, 75.0], [-26.25, 76.5], [-24.75, 76.5], [-24.75, 75.0], [-26.25, 75.0]]]}, "properties": {"cell_id": "223_110", "lon": -25.5, "lat": 75.75}}, {"type": "Feature", "geometry": {"type": "Polygon", "coordinates": [[[-26.25, 76.5], [-26.25, 78.0], [-24.75, 78.0], [-24.75, 76.5], [-26.25, 76.5]]]}, "properties": {"cell_id": "223_111", "lon": -25.5, "lat": 77.25}}, {"type": "Feature", "geometry": {"type": "Polygon", "coordinates": [[[-26.25, 78.0], [-26.25, 79.5], [-24.75, 79.5], [-24.75, 78.0], [-26.25, 78.0]]]}, "properties": {"cell_id": "223_112", "lon": -25.5, "lat": 78.75}}, {"type": "Feature", "geometry": {"type": "Polygon", "coordinates": [[[-26.25, 79.5], [-26.25, 81.0], [-24.75, 81.0], [-24.75, 79.5], [-26.25, 79.5]]]}, "properties": {"cell_id": "223_113", "lon": -25.5, "lat": 80.25}}, {"type": "Feature", "geometry": {"type": "Polygon", "coordinates": [[[-24.75, 70.5], [-24.75, 72.0], [-23.25, 72.0], [-23.25, 70.5], [-24.75, 70.5]]]}, "properties": {"cell_id": "224_107", "lon": -24.0, "lat": 71.25}}, {"type": "Feature", "geometry": {"type": "Polygon", "coordinates": [[[-24.75, 72.0], [-24.75, 73.5], [-23.25, 73.5], [-23.25, 72.0], [-24.75, 72.0]]]}, "properties": {"cell_id": "224_108", "lon": -24.0, "lat": 72.75}}, {"type": "Feature", "geometry": {"type": "Polygon", "coordinates": [[[-24.75, 73.5], [-24.75, 75.0], [-23.25, 75.0], [-23.25, 73.5], [-24.75, 73.5]]]}, "properties": {"cell_id": "224_109", "lon": -24.0, "lat": 74.25}}, {"type": "Feature", "geometry": {"type": "Polygon", "coordinates": [[[-24.75, 75.0], [-24.75, 76.5], [-23.25, 76.5], [-23.25, 75.0], [-24.75, 75.0]]]}, "properties": {"cell_id": "224_110", "lon": -24.0, "lat": 75.75}}, {"type": "Feature", "geometry": {"type": "Polygon", "coordinates": [[[-24.75, 76.5], [-24.75, 78.0], [-23.25, 78.0], [-23.25, 76.5], [-24.75, 76.5]]]}, "properties": {"cell_id": "224_111", "lon": -24.0, "lat": 77.25}}, {"type": "Feature", "geometry": {"type": "Polygon", "coordinates": [[[-24.75, 78.0], [-24.75, 79.5], [-23.25, 79.5], [-23.25, 78.0], [-24.75, 78.0]]]}, "properties": {"cell_id": "224_112", "lon": -24.0, "lat": 78.75}}, {"type": "Feature", "geometry": {"type": "Polygon", "coordinates": [[[-24.75, 79.5], [-24.75, 81.0], [-23.25, 81.0], [-23.25, 79.5], [-24.75, 79.5]]]}, "properties": {"cell_id": "224_113", "lon": -24.0, "lat": 80.25}}, {"type": "Feature", "geometry": {"type": "Polygon", "coordinates": [[[-23.25, 72.0], [-23.25, 73.5], [-21.75, 73.5], [-21.75, 72.0], [-23.25, 72.0]]]}, "properties": {"cell_id": "225_108", "lon": -22.5, "lat": 72.75}}, {"type": "Feature", "geometry": {"type": "Polygon", "coordinates": [[[-23.25, 73.5], [-23.25, 75.0], [-21.75, 75.0], [-21.75, 73.5], [-23.25, 73.5]]]}, "properties": {"cell_id": "225_109", "lon": -22.5, "lat": 74.25}}, {"type": "Feature", "geometry": {"type": "Polygon", "coordinates": [[[-23.25, 75.0], [-23.25, 76.5], [-21.75, 76.5], [-21.75, 75.0], [-23.25, 75.0]]]}, "properties": {"cell_id": "225_110", "lon": -22.5, "lat": 75.75}}, {"type": "Feature", "geometry": {"type": "Polygon", "coordinates": [[[-23.25, 76.5], [-23.25, 78.0], [-21.75, 78.0], [-21.75, 76.5], [-23.25, 76.5]]]}, "properties": {"cell_id": "225_111", "lon": -22.5, "lat": 77.25}}, {"type": "Feature", "geometry": {"type": "Polygon", "coordinates": [[[-23.25, 78.0], [-23.25, 79.5], [-21.75, 79.5], [-21.75, 78.0], [-23.25, 78.0]]]}, "properties": {"cell_id": "225_112", "lon": -22.5, "lat": 78.75}}, {"type": "Feature", "geometry": {"type": "Polygon", "coordinates": [[[-23.25, 79.5], [-23.25, 81.0], [-21.75, 81.0], [-21.75, 79.5], [-23.25, 79.5]]]}, "properties": {"cell_id": "225_113", "lon": -22.5, "lat": 80.25}}, {"type": "Feature", "geometry": {"type": "Polygon", "coordinates": [[[-21.75, 72.0], [-21.75, 73.5], [-20.25, 73.5], [-20.25, 72.0], [-21.75, 72.0]]]}, "properties": {"cell_id": "226_108", "lon": -21.0, "lat": 72.75}}, {"type": "Feature", "geometry": {"type": "Polygon", "coordinates": [[[-21.75, 73.5], [-21.75, 75.0], [-20.25, 75.0], [-20.25, 73.5], [-21.75, 73.5]]]}, "properties": {"cell_id": "226_109", "lon": -21.0, "lat": 74.25}}, {"type": "Feature", "geometry": {"type": "Polygon", "coordinates": [[[-21.75, 75.0], [-21.75, 76.5], [-20.25, 76.5], [-20.25, 75.0], [-21.75, 75.0]]]}, "properties": {"cell_id": "226_110", "lon": -21.0, "lat": 75.75}}, {"type": "Feature", "geometry": {"type": "Polygon", "coordinates": [[[-21.75, 76.5], [-21.75, 78.0], [-20.25, 78.0], [-20.25, 76.5], [-21.75, 76.5]]]}, "properties": {"cell_id": "226_111", "lon": -21.0, "lat": 77.25}}, {"type": "Feature", "geometry": {"type": "Polygon", "coordinates": [[[-21.75, 78.0], [-21.75, 79.5], [-20.25, 79.5], [-20.25, 78.0], [-21.75, 78.0]]]}, "properties": {"cell_id": "226_112", "lon": -21.0, "lat": 78.75}}, {"type": "Feature", "geometry": {"type": "Polygon", "coordinates": [[[-21.75, 79.5], [-21.75, 81.0], [-20.25, 81.0], [-20.25, 79.5], [-21.75, 79.5]]]}, "properties": {"cell_id": "226_113", "lon": -21.0, "lat": 80.25}}, {"type": "Feature", "geometry": {"type": "Polygon", "coordinates": [[[-20.25, 75.0], [-20.25, 76.5], [-18.75, 76.5], [-18.75, 75.0], [-20.25, 75.0]]]}, "properties": {"cell_id": "227_110", "lon": -19.5, "lat": 75.75}}, {"type": "Feature", "geometry": {"type": "Polygon", "coordinates": [[[-20.25, 76.5], [-20.25, 78.0], [-18.75, 78.0], [-18.75, 76.5], [-20.25, 76.5]]]}, "properties": {"cell_id": "227_111", "lon": -19.5, "lat": 77.25}}, {"type": "Feature", "geometry": {"type": "Polygon", "coordinates": [[[-20.25, 78.0], [-20.25, 79.5], [-18.75, 79.5], [-18.75, 78.0], [-20.25, 78.0]]]}, "properties": {"cell_id": "227_112", "lon": -19.5, "lat": 78.75}}, {"type": "Feature", "geometry": {"type": "Polygon", "coordinates": [[[-20.25, 79.5], [-20.25, 81.0], [-18.75, 81.0], [-18.75, 79.5], [-20.25, 79.5]]]}, "properties": {"cell_id": "227_113", "lon": -19.5, "lat": 80.25}}]}