{"type": "FeatureCollection", "features": [{"type": "Feature", "geometry": {"type": "Polygon", "coordinates": [[[141.75, -40.5], [141.75, -39.0], [143.25, -39.0], [143.25, -40.5], [141.75, -40.5]]]}, "properties": {"cell_id": "95_33", "lon": 142.5, "lat": -39.75}}, {"type": "Feature", "geometry": {"type": "Polygon", "coordinates": [[[143.25, -40.5], [143.25, -39.0], [144.75, -39.0], [144.75, -40.5], [143.25, -40.5]]]}, "properties": {"cell_id": "96_33", "lon": 144.0, "lat": -39.75}}, {"type": "Feature", "geometry": {"type": "Polygon", "coordinates": [[[144.75, -40.5], [144.75, -39.0], [146.25, -39.0], [146.25, -40.5], [144.75, -40.5]]]}, "properties": {"cell_id": "97_33", "lon": 145.5, "lat": -39.75}}, {"type": "Feature", "geometry": {"type": "Polygon", "coordinates": [[[146.25, -40.5], [146.25, -39.0], [147.75, -39.0], [147.75, -40.5], [146.25, -40.5]]]}, "properties": {"cell_id": "98_33", "lon": 147.0, "lat": -39.75}}]}