{"type": "FeatureCollection", "features": [{"type": "Feature", "geometry": {"type": "Polygon", "coordinates": [[[-129.75, -90.0], [-129.75, -88.5], [-128.25, -88.5], [-128.25, -90.0], [-129.75, -90.0]]]}, "properties": {"cell_id": "154_0", "lon": -129.0, "lat": -89.25}}, {"type": "Feature", "geometry": {"type": "Polygon", "coordinates": [[[-129.75, -88.5], [-129.75, -87.0], [-128.25, -87.0], [-128.25, -88.5], [-129.75, -88.5]]]}, "properties": {"cell_id": "154_1", "lon": -129.0, "lat": -87.75}}, {"type": "Feature", "geometry": {"type": "Polygon", "coordinates": [[[-129.75, -87.0], [-129.75, -85.5], [-128.25, -85.5], [-128.25, -87.0], [-129.75, -87.0]]]}, "properties": {"cell_id": "154_2", "lon": -129.0, "lat": -86.25}}, {"type": "Feature", "geometry": {"type": "Polygon", "coordinates": [[[-129.75, -85.5], [-129.75, -84.0], [-128.25, -84.0], [-128.25, -85.5], [-129.75, -85.5]]]}, "properties": {"cell_id": "154_3", "lon": -129.0, "lat": -84.75}}, {"type": "Feature", "geometry": {"type": "Polygon", "coordinates": [[[-129.75, -84.0], [-129.75, -82.5], [-128.25, -82.5], [-128.25, -84.0], [-129.75, -84.0]]]}, "properties": {"cell_id": "154_4", "lon": -129.0, "lat": -83.25}}, {"type": "Feature", "geometry": {"type": "Polygon", "coordinates": [[[-129.75, -82.5], [-129.75, -81.0], [-128.25, -81.0], [-128.25, -82.5], [-129.75, -82.5]]]}, "properties": {"cell_id": "154_5", "lon": -129.0, "lat": -81.75}}, {"type": "Feature", "geometry": {"type": "Polygon", "coordinates": [[[-129.75, -81.0], [-129.75, -79.5], [-128.25, -79.5], [-128.25, -81.0], [-129.75, -81.0]]]}, "properties": {"cell_id": "154_6", "lon": -129.0, "lat": -80.25}}, {"type": "Feature", "geometry": {"type": "Polygon", "coordinates": [[[-128.25, -90.0], [-128.25, -88.5], [-126.75, -88.5], [-126.75, -90.0], [-128.25, -90.0]]]}, "properties": {"cell_id": "155_0", "lon": -127.5, "lat": -89.25}}, {"type": "Feature", "geometry": {"type": "Polygon", "coordinates": [[[-128.25, -88.5], [-128.25, -87.0], [-126.75, -87.0], [-126.75, -88.5], [-128.25, -88.5]]]}, "properties": {"cell_id": "155_1", "lon": -127.5, "lat": -87.75}}, {"type": "Feature", "geometry": {"type": "Polygon", "coordinates": [[[-128.25, -87.0], [-128.25, -85.5], [-126.75, -85.5], [-126.75, -87.0], [-128.25, -87.0]]]}, "properties": {"cell_id": "155_2", "lon": -127.5, "lat": -86.25}}, {"type": "Feature", "geometry": {"type": "Polygon", "coordinates": [[[-128.25, -85.5], [-128.25, -84.0], [-126.75, -84.0], [-126.75, -85.5], [-128.25, -85.5]]]}, "properties": {"cell_id": "155_3", "lon": -127.5, "lat": -84.75}}, {"type": "Feature", "geometry": {"type": "Polygon", "coordinates": [[[-128.25, -84.0], [-128.25, -82.5], [-126.75, -82.5], [-126.75, -84.0], [-128.25, -84.0]]]}, "properties": {"cell_id": "155_4", "lon": -127.5, "lat": -83.25}}, {"type": "Feature", "geometry": {"type": "Polygon", "coordinates": [[[-128.25, -82.5], [-128.25, -81.0], [-126.75, -81.0], [-126.75, -82.5], [-128.25, -82.5]]]}, "properties": {"cell_id": "155_5", "lon": -127.5, "lat": -81.75}}, {"type": "Feature", "geometry": {"type": "Polygon", "coordinates": [[[-128.25, -81.0], [-128.25, -79.5], [-126.75, -79.5], [-126.75, -81.0], [-128.25, -81.0]]]}, "properties": {"cell_id": "155_6", "lon": -127.5, "lat": -80.25}}, {"type": "Feature", "geometry": {"type": "Polygon", "coordinates": [[[-126.75, -90.0], [-126.75, -88.5], [-125.25, -88.5], [-125.25, -90.0], [-126.75, -90.0]]]}, "properties": {"cell_id": "156_0", "lon": -126.0, "lat": -89.25}}, {"type": "Feature", "geometry": {"type": "Polygon", "coordinates": [[[-126.75, -88.5], [-126.75, -87.0], [-125.25, -87.0], [-125.25, -88.5], [-126.75, -88.5]]]}, "properties": {"cell_id": "156_1", "lon": -126.0, "lat": -87.75}}, {"type": "Feature", "geometry": {"type": "Polygon", "coordinates": [[[-126.75, -87.0], [-126.75, -85.5], [-125.25, -85.5], [-125.25, -87.0], [-126.75, -87.0]]]}, "properties": {"cell_id": "156_2", "lon": -126.0, "lat": -86.25}}, {"type": "Feature", "geometry": {"type": "Polygon", "coordinates": [[[-126.75, -85.5], [-126.75, -84.0], [-125.25, -84.0], [-125.25, -85.5], [-126.75, -85.5]]]}, "properties": {"cell_id": "156_3", "lon": -126.0, "lat": -84.75}}, {"type": "Feature", "geometry": {"type": "Polygon", "coordinates": [[[-126.75, -84.0], [-126.75, -82.5], [-125.25, -82.5], [-125.25, -84.0], [-126.75, -84.0]]]}, "properties": {"cell_id": "156_4", "lon": -126.0, "lat": -83.25}}, {"type": "Feature", "geometry": {"type": "Polygon", "coordinates": [[[-126.75, -82.5], [-126.75, -81.0], [-125.25, -81.0], [-125.25, -82.5], [-126.75, -82.5]]]}, "properties": {"cell_id": "156_5", "lon": -126.0, "lat": -81.75}}, {"type": "Feature", "geometry": {"type": "Polygon", "coordinates": [[[-126.75, -81.0], [-126.75, -79.5], [-125.25, -79.5], [-125.25, -81.0], [-126.75, -81.0]]]}, "properties": {"cell_id": "156_6", "lon": -126.0, "lat": -80.25}}, {"type": "Feature", "geometry": {"type": "Polygon", "coordinates": [[[-125.25, -90.0], [-125.25, -88.5], [-123.75, -88.5], [-123.75, -90.0], [-125.25, -90.0]]]}, "properties": {"cell_id": "157_0", "lon": -124.5, "lat": -89.25}}, {"type": "Feature", "geometry": {"type": "Polygon", "coordinates": [[[-125.25, -88.5], [-125.25, -87.0], [-123.75, -87.0], [-123.75, -88.5], [-125.25, -88.5]]]}, "properties": {"cell_id": "157_1", "lon": -124.5, "lat": -87.75}}, {"type": "Feature", "geometry": {"type": "Polygon", "coordinates": [[[-125.25, -87.0], [-125.25, -85.5], [-123.75, -85.5], [-123.75, -87.0], [-125.25, -87.0]]]}, "properties": {"cell_id": "157_2", "lon": -124.5, "lat": -86.25}}, {"type": "Feature", "geometry": {"type": "Polygon", "coordinates": [[[-125.25, -85.5], [-125.25, -84.0], [-123.75, -84.0], [-123.75, -85.5], [-125.25, -85.5]]]}, "properties": {"cell_id": "157_3", "lon": -124.5, "lat": -84.75}}, {"type": "Feature", "geometry": {"type": "Polygon", "coordinates": [[[-125.25, -84.0], [-125.25, -82.5], [-123.75, -82.5], [-123.75, -84.0], [-125.25, -84.0]]]}, "properties": {"cell_id": "157_4", "lon": -124.5, "lat": -83.25}}, {"type": "Feature", "geometry": {"type": "Polygon", "coordinates": [[[-125.25, -82.5], [-125.25, -81.0], [-123.75, -81.0], [-123.75, -82.5], [-125.25, -82.5]]]}, "properties": {"cell_id": "157_5", "lon": -124.5, "lat": -81.75}}, {"type": "Feature", "geometry": {"type": "Polygon", "coordinates": [[[-125.25, -81.0], [-125.25, -79.5], [-123.75, -79.5], [-123.75, -81.0], [-125.25, -81.0]]]}, "properties": {"cell_id": "157_6", "lon": -124.5, "lat": -80.25}}, {"type": "Feature", "geometry": {"type": "Polygon", "coordinates": [[[-123.75, -90.0], [-123.75, -88.5], [-122.25, -88.5], [-122.25, -90.0], [-123.75, -90.0]]]}, "properties": {"cell_id": "158_0", "lon": -123.0, "lat": -89.25}}, {"type": "Feature", "geometry": {"type": "Polygon", "coordinates": [[[-123.75, -88.5], [-123.75, -87.0], [-122.25, -87.0], [-122.25, -88.5], [-123.75, -88.5]]]}, "properties": {"cell_id": "158_1", "lon": -123.0, "lat": -87.75}}, {"type": "Feature", "geometry": {"type": "Polygon", "coordinates": [[[-123.75, -87.0], [-123.75, -85.5], [-122.25, -85.5], [-122.25, -87.0], [-123.75, -87.0]]]}, "properties": {"cell_id": "158_2", "lon": -123.0, "lat": -86.25}}, {"type": "Feature", "geometry": {"type": "Polygon", "coordinates": [[[-123.75, -85.5], [-123.75, -84.0], [-122.25, -84.0], [-122.25, -85.5], [-123.75, -85.5]]]}, "properties": {"cell_id": "158_3", "lon": -123.0, "lat": -84.75}}, {"type": "Feature", "geometry": {"type": "Polygon", "coordinates": [[[-123.75, -84.0], [-123.75, -82.5], [-122.25, -82.5], [-122.25, -84.0], [-123.75, -84.0]]]}, "properties": {"cell_id": "158_4", "lon": -123.0, "lat": -83.25}}, {"type": "Feature", "geometry": {"type": "Polygon", "coordinates": [[[-123.75, -82.5], [-123.75, -81.0], [-122.25, -81.0], [-122.25, -82.5], [-123.75, -82.5]]]}, "properties": {"cell_id": "158_5", "lon": -123.0, "lat": -81.75}}, {"type": "Feature", "geometry": {"type": "Polygon", "coordinates": [[[-123.75, -81.0], [-123.75, -79.5], [-122.25, -79.5], [-122.25, -81.0], [-123.75, -81.0]]]}, "properties": {"cell_id": "158_6", "lon": -123.0, "lat": -80.25}}, {"type": "Feature", "geometry": {"type": "Polygon", "coordinates": [[[-122.25, -90.0], [-122.25, -88.5], [-120.75, -88.5], [-120.75, -90.0], [-122.25, -90.0]]]}, "properties": {"cell_id": "159_0", "lon": -121.5, "lat": -89.25}}, {"type": "Feature", "geometry": {"type": "Polygon", "coordinates": [[[-122.25, -88.5], [-122.25, -87.0], [-120.75, -87.0], [-120.75, -88.5], [-122.25, -88.5]]]}, "properties": {"cell_id": "159_1", "lon": -121.5, "lat": -87.75}}, {"type": "Feature", "geometry": {"type": "Polygon", "coordinates": [[[-122.25, -87.0], [-122.25, -85.5], [-120.75, -85.5], [-120.75, -87.0], [-122.25, -87.0]]]}, "properties": {"cell_id": "159_2", "lon": -121.5, "lat": -86.25}}, {"type": "Feature", "geometry": {"type": "Polygon", "coordinates": [[[-122.25, -85.5], [-122.25, -84.0], [-120.75, -84.0], [-120.75, -85.5], [-122.25, -85.5]]]}, "properties": {"cell_id": "159_3", "lon": -121.5, "lat": -84.75}}, {"type": "Feature", "geometry": {"type": "Polygon", "coordinates": [[[-122.25, -84.0], [-122.25, -82.5], [-120.75, -82.5], [-120.75, -84.0], [-122.25, -84.0]]]}, "properties": {"cell_id": "159_4", "lon": -121.5, "lat": -83.25}}, {"type": "Feature", "geometry": {"type": "Polygon", "coordinates": [[[-122.25, -82.5], [-122.25, -81.0], [-120.75, -81.0], [-120.75, -82.5], [-122.25, -82.5]]]}, "properties": {"cell_id": "159_5", "lon": -121.5, "lat": -81.75}}, {"type": "Feature", "geometry": {"type": "Polygon", "coordinates": [[[-122.25, -81.0], [-122.25, -79.5], [-120.75, -79.5], [-120.75, -81.0], [-122.25, -81.0]]]}, "properties": {"cell_id": "159_6", "lon": -121.5, "lat": -80.25}}, {"type": "Feature", "geometry": {"type": "Polygon", "coordinates": [[[-120.75, -90.0], [-120.75, -88.5], [-119.25, -88.5], [-119.25, -90.0], [-120.75, -90.0]]]}, "properties": {"cell_id": "160_0", "lon": -120.0, "lat": -89.25}}, {"type": "Feature", "geometry": {"type": "Polygon", "coordinates": [[[-120.75, -88.5], [-120.75, -87.0], [-119.25, -87.0], [-119.25, -88.5], [-120.75, -88.5]]]}, "properties": {"cell_id": "160_1", "lon": -120.0, "lat": -87.75}}, {"type": "Feature", "geometry": {"type": "Polygon", "coordinates": [[[-120.75, -87.0], [-120.75, -85.5], [-119.25, -85.5], [-119.25, -87.0], [-120.75, -87.0]]]}, "properties": {"cell_id": "160_2", "lon": -120.0, "lat": -86.25}}, {"type": "Feature", "geometry": {"type": "Polygon", "coordinates": [[[-120.75, -85.5], [-120.75, -84.0], [-119.25, -84.0], [-119.25, -85.5], [-120.75, -85.5]]]}, "properties": {"cell_id": "160_3", "lon": -120.0, "lat": -84.75}}, {"type": "Feature", "geometry": {"type": "Polygon", "coordinates": [[[-120.75, -84.0], [-120.75, -82.5], [-119.25, -82.5], [-119.25, -84.0], [-120.75, -84.0]]]}, "properties": {"cell_id": "160_4", "lon": -120.0, "lat": -83.25}}, {"type": "Feature", "geometry": {"type": "Polygon", "coordinates": [[[-120.75, -82.5], [-120.75, -81.0], [-119.25, -81.0], [-119.25, -82.5], [-120.75, -82.5]]]}, "properties": {"cell_id": "160_5", "lon": -120.0, "lat": -81.75}}, {"type": "Feature", "geometry": {"type": "Polygon", "coordinates": [[[-120.75, -81.0], [-120.75, -79.5], [-119.25, -79.5], [-119.25, -81.0], [-120.75, -81.0]]]}, "properties": {"cell_id": "160_6", "lon": -120.0, "lat": -80.25}}]}