{"type": "FeatureCollection", "features": [{"type": "Feature", "geometry": {"type": "Polygon", "coordinates": [[[140.25, 51.0], [140.25, 52.5], [141.75, 52.5], [141.75, 51.0], [140.25, 51.0]]]}, "properties": {"cell_id": "94_94", "lon": 141.0, "lat": 51.75}}, {"type": "Feature", "geometry": {"type": "Polygon", "coordinates": [[[140.25, 52.5], [140.25, 54.0], [141.75, 54.0], [141.75, 52.5], [140.25, 52.5]]]}, "properties": {"cell_id": "94_95", "lon": 141.0, "lat": 53.25}}, {"type": "Feature", "geometry": {"type": "Polygon", "coordinates": [[[140.25, 58.5], [140.25, 60.0], [141.75, 60.0], [141.75, 58.5], [140.25, 58.5]]]}, "properties": {"cell_id": "94_99", "lon": 141.0, "lat": 59.25}}, {"type": "Feature", "geometry": {"type": "Polygon", "coordinates": [[[141.75, 51.0], [141.75, 52.5], [143.25, 52.5], [143.25, 51.0], [141.75, 51.0]]]}, "properties": {"cell_id": "95_94", "lon": 142.5, "lat": 51.75}}, {"type": "Feature", "geometry": {"type": "Polygon", "coordinates": [[[141.75, 52.5], [141.75, 54.0], [143.25, 54.0], [143.25, 52.5], [141.75, 52.5]]]}, "properties": {"cell_id": "95_95", "lon": 142.5, "lat": 53.25}}, {"type": "Feature", "geometry": {"type": "Polygon", "coordinates": [[[141.75, 58.5], [141.75, 60.0], [143.25, 60.0], [143.25, 58.5], [141.75, 58.5]]]}, "properties": {"cell_id": "95_99", "lon": 142.5, "lat": 59.25}}, {"type": "Feature", "geometry": {"type": "Polygon", "coordinates": [[[143.25, 58.5], [143.25, 60.0], [144.75, 60.0], [144.75, 58.5], [143.25, 58.5]]]}, "properties": {"cell_id": "96_99", "lon": 144.0, "lat": 59.25}}, {"type": "Feature", "geometry": {"type": "Polygon", "coordinates": [[[144.75, 58.5], [144.75, 60.0], [146.25, 60.0], [146.25, 58.5], [144.75, 58.5]]]}, "properties": {"cell_id": "97_99", "lon": 145.5, "lat": 59.25}}, {"type": "Feature", "geometry": {"type": "Polygon", "coordinates": [[[146.25, 58.5], [146.25, 60.0], [147.75, 60.0], [147.75, 58.5], [146.25, 58.5]]]}, "properties": {"cell_id": "98_99", "lon": 147.0, "lat": 59.25}}, {"type": "Feature", "geometry": {"type": "Polygon", "coordinates": [[[147.75, 58.5], [147.75, 60.0], [149.25, 60.0], [149.25, 58.5], [147.75, 58.5]]]}, "properties": {"cell_id": "99_99", "lon": 148.5, "lat": 59.25}}, {"type": "Feature", "geometry": {"type": "Polygon", "coordinates": [[[149.25, 58.5], [149.25, 60.0], [150.75, 60.0], [150.75, 58.5], [149.25, 58.5]]]}, "properties": {"cell_id": "100_99", "lon": 150.0, "lat": 59.25}}]}