{"type": "FeatureCollection", "features": [{"type": "Feature", "geometry": {"type": "Polygon", "coordinates": [[[101.25, -79.5], [101.25, -78.0], [102.75, -78.0], [102.75, -79.5], [101.25, -79.5]]]}, "properties": {"cell_id": "68_7", "lon": 102.0, "lat": -78.75}}, {"type": "Feature", "geometry": {"type": "Polygon", "coordinates": [[[101.25, -78.0], [101.25, -76.5], [102.75, -76.5], [102.75, -78.0], [101.25, -78.0]]]}, "properties": {"cell_id": "68_8", "lon": 102.0, "lat": -77.25}}, {"type": "Feature", "geometry": {"type": "Polygon", "coordinates": [[[101.25, -76.5], [101.25, -75.0], [102.75, -75.0], [102.75, -76.5], [101.25, -76.5]]]}, "properties": {"cell_id": "68_9", "lon": 102.0, "lat": -75.75}}, {"type": "Feature", "geometry": {"type": "Polygon", "coordinates": [[[101.25, -75.0], [101.25, -73.5], [102.75, -73.5], [102.75, -75.0], [101.25, -75.0]]]}, "properties": {"cell_id": "68_10", "lon": 102.0, "lat": -74.25}}, {"type": "Feature", "geometry": {"type": "Polygon", "coordinates": [[[101.25, -73.5], [101.25, -72.0], [102.75, -72.0], [102.75, -73.5], [101.25, -73.5]]]}, "properties": {"cell_id": "68_11", "lon": 102.0, "lat": -72.75}}, {"type": "Feature", "geometry": {"type": "Polygon", "coordinates": [[[101.25, -72.0], [101.25, -70.5], [102.75, -70.5], [102.75, -72.0], [101.25, -72.0]]]}, "properties": {"cell_id": "68_12", "lon": 102.0, "lat": -71.25}}, {"type": "Feature", "geometry": {"type": "Polygon", "coordinates": [[[101.25, -70.5], [101.25, -69.0], [102.75, -69.0], [102.75, -70.5], [101.25, -70.5]]]}, "properties": {"cell_id": "68_13", "lon": 102.0, "lat": -69.75}}, {"type": "Feature", "geometry": {"type": "Polygon", "coordinates": [[[102.75, -79.5], [102.75, -78.0], [104.25, -78.0], [104.25, -79.5], [102.75, -79.5]]]}, "properties": {"cell_id": "69_7", "lon": 103.5, "lat": -78.75}}, {"type": "Feature", "geometry": {"type": "Polygon", "coordinates": [[[102.75, -78.0], [102.75, -76.5], [104.25, -76.5], [104.25, -78.0], [102.75, -78.0]]]}, "properties": {"cell_id": "69_8", "lon": 103.5, "lat": -77.25}}, {"type": "Feature", "geometry": {"type": "Polygon", "coordinates": [[[102.75, -76.5], [102.75, -75.0], [104.25, -75.0], [104.25, -76.5], [102.75, -76.5]]]}, "properties": {"cell_id": "69_9", "lon": 103.5, "lat": -75.75}}, {"type": "Feature", "geometry": {"type": "Polygon", "coordinates": [[[102.75, -75.0], [102.75, -73.5], [104.25, -73.5], [104.25, -75.0], [102.75, -75.0]]]}, "properties": {"cell_id": "69_10", "lon": 103.5, "lat": -74.25}}, {"type": "Feature", "geometry": {"type": "Polygon", "coordinates": [[[102.75, -73.5], [102.75, -72.0], [104.25, -72.0], [104.25, -73.5], [102.75, -73.5]]]}, "properties": {"cell_id": "69_11", "lon": 103.5, "lat": -72.75}}, {"type": "Feature", "geometry": {"type": "Polygon", "coordinates": [[[102.75, -72.0], [102.75, -70.5], [104.25, -70.5], [104.25, -72.0], [102.75, -72.0]]]}, "properties": {"cell_id": "69_12", "lon": 103.5, "lat": -71.25}}, {"type": "Feature", "geometry": {"type": "Polygon", "coordinates": [[[102.75, -70.5], [102.75, -69.0], [104.25, -69.0], [104.25, -70.5], [102.75, -70.5]]]}, "properties": {"cell_id": "69_13", "lon": 103.5, "lat": -69.75}}, {"type": "Feature", "geometry": {"type": "Polygon", "coordinates": [[[104.25, -79.5], [104.25, -78.0], [105.75, -78.0], [105.75, -79.5], [104.25, -79.5]]]}, "properties": {"cell_id": "70_7", "lon": 105.0, "lat": -78.75}}, {"type": "Feature", "geometry": {"type": "Polygon", "coordinates": [[[104.25, -78.0], [104.25, -76.5], [105.75, -76.5], [105.75, -78.0], [104.25, -78.0]]]}, "properties": {"cell_id": "70_8", "lon": 105.0, "lat": -77.25}}, {"type": "Feature", "geometry": {"type": "Polygon", "coordinates": [[[104.25, -76.5], [104.25, -75.0], [105.75, -75.0], [105.75, -76.5], [104.25, -76.5]]]}, "properties": {"cell_id": "70_9", "lon": 105.0, "lat": -75.75}}, {"type": "Feature", "geometry": {"type": "Polygon", "coordinates": [[[104.25, -75.0], [104.25, -73.5], [105.75, -73.5], [105.75, -75.0], [104.25, -75.0]]]}, "properties": {"cell_id": "70_10", "lon": 105.0, "lat": -74.25}}, {"type": "Feature", "geometry": {"type": "Polygon", "coordinates": [[[104.25, -73.5], [104.25, -72.0], [105.75, -72.0], [105.75, -73.5], [104.25, -73.5]]]}, "properties": {"cell_id": "70_11", "lon": 105.0, "lat": -72.75}}, {"type": "Feature", "geometry": {"type": "Polygon", "coordinates": [[[104.25, -72.0], [104.25, -70.5], [105.75, -70.5], [105.75, -72.0], [104.25, -72.0]]]}, "properties": {"cell_id": "70_12", "lon": 105.0, "lat": -71.25}}, {"type": "Feature", "geometry": {"type": "Polygon", "coordinates": [[[104.25, -70.5], [104.25, -69.0], [105.75, -69.0], [105.75, -70.5], [104.25, -70.5]]]}, "properties": {"cell_id": "70_13", "lon": 105.0, "lat": -69.75}}, {"type": "Feature", "geometry": {"type": "Polygon", "coordinates": [[[105.75, -79.5], [105.75, -78.0], [107.25, -78.0], [107.25, -79.5], [105.75, -79.5]]]}, "properties": {"cell_id": "71_7", "lon": 106.5, "lat": -78.75}}, {"type": "Feature", "geometry": {"type": "Polygon", "coordinates": [[[105.75, -78.0], [105.75, -76.5], [107.25, -76.5], [107.25, -78.0], [105.75, -78.0]]]}, "properties": {"cell_id": "71_8", "lon": 106.5, "lat": -77.25}}, {"type": "Feature", "geometry": {"type": "Polygon", "coordinates": [[[105.75, -76.5], [105.75, -75.0], [107.25, -75.0], [107.25, -76.5], [105.75, -76.5]]]}, "properties": {"cell_id": "71_9", "lon": 106.5, "lat": -75.75}}, {"type": "Feature", "geometry": {"type": "Polygon", "coordinates": [[[105.75, -75.0], [105.75, -73.5], [107.25, -73.5], [107.25, -75.0], [105.75, -75.0]]]}, "properties": {"cell_id": "71_10", "lon": 106.5, "lat": -74.25}}, {"type": "Feature", "geometry": {"type": "Polygon", "coordinates": [[[105.75, -73.5], [105.75, -72.0], [107.25, -72.0], [107.25, -73.5], [105.75, -73.5]]]}, "properties": {"cell_id": "71_11", "lon": 106.5, "lat": -72.75}}, {"type": "Feature", "geometry": {"type": "Polygon", "coordinates": [[[105.75, -72.0], [105.75, -70.5], [107.25, -70.5], [107.25, -72.0], [105.75, -72.0]]]}, "properties": {"cell_id": "71_12", "lon": 106.5, "lat": -71.25}}, {"type": "Feature", "geometry": {"type": "Polygon", "coordinates": [[[105.75, -70.5], [105.75, -69.0], [107.25, -69.0], [107.25, -70.5], [105.75, -70.5]]]}, "properties": {"cell_id": "71_13", "lon": 106.5, "lat": -69.75}}, {"type": "Feature", "geometry": {"type": "Polygon", "coordinates": [[[107.25, -79.5], [107.25, -78.0], [108.75, -78.0], [108.75, -79.5], [107.25, -79.5]]]}, "properties": {"cell_id": "72_7", "lon": 108.0, "lat": -78.75}}, {"type": "Feature", "geometry": {"type": "Polygon", "coordinates": [[[107.25, -78.0], [107.25, -76.5], [108.75, -76.5], [108.75, -78.0], [107.25, -78.0]]]}, "properties": {"cell_id": "72_8", "lon": 108.0, "lat": -77.25}}, {"type": "Feature", "geometry": {"type": "Polygon", "coordinates": [[[107.25, -76.5], [107.25, -75.0], [108.75, -75.0], [108.75, -76.5], [107.25, -76.5]]]}, "properties": {"cell_id": "72_9", "lon": 108.0, "lat": -75.75}}, {"type": "Feature", "geometry": {"type": "Polygon", "coordinates": [[[107.25, -75.0], [107.25, -73.5], [108.75, -73.5], [108.75, -75.0], [107.25, -75.0]]]}, "properties": {"cell_id": "72_10", "lon": 108.0, "lat": -74.25}}, {"type": "Feature", "geometry": {"type": "Polygon", "coordinates": [[[107.25, -73.5], [107.25, -72.0], [108.75, -72.0], [108.75, -73.5], [107.25, -73.5]]]}, "properties": {"cell_id": "72_11", "lon": 108.0, "lat": -72.75}}, {"type": "Feature", "geometry": {"type": "Polygon", "coordinates": [[[107.25, -72.0], [107.25, -70.5], [108.75, -70.5], [108.75, -72.0], [107.25, -72.0]]]}, "properties": {"cell_id": "72_12", "lon": 108.0, "lat": -71.25}}, {"type": "Feature", "geometry": {"type": "Polygon", "coordinates": [[[107.25, -70.5], [107.25, -69.0], [108.75, -69.0], [108.75, -70.5], [107.25, -70.5]]]}, "properties": {"cell_id": "72_13", "lon": 108.0, "lat": -69.75}}, {"type": "Feature", "geometry": {"type": "Polygon", "coordinates": [[[108.75, -79.5], [108.75, -78.0], [110.25, -78.0], [110.25, -79.5], [108.75, -79.5]]]}, "properties": {"cell_id": "73_7", "lon": 109.5, "lat": -78.75}}, {"type": "Feature", "geometry": {"type": "Polygon", "coordinates": [[[108.75, -78.0], [108.75, -76.5], [110.25, -76.5], [110.25, -78.0], [108.75, -78.0]]]}, "properties": {"cell_id": "73_8", "lon": 109.5, "lat": -77.25}}, {"type": "Feature", "geometry": {"type": "Polygon", "coordinates": [[[108.75, -76.5], [108.75, -75.0], [110.25, -75.0], [110.25, -76.5], [108.75, -76.5]]]}, "properties": {"cell_id": "73_9", "lon": 109.5, "lat": -75.75}}, {"type": "Feature", "geometry": {"type": "Polygon", "coordinates": [[[108.75, -75.0], [108.75, -73.5], [110.25, -73.5], [110.25, -75.0], [108.75, -75.0]]]}, "properties": {"cell_id": "73_10", "lon": 109.5, "lat": -74.25}}, {"type": "Feature", "geometry": {"type": "Polygon", "coordinates": [[[108.75, -73.5], [108.75, -72.0], [110.25, -72.0], [110.25, -73.5], [108.75, -73.5]]]}, "properties": {"cell_id": "73_11", "lon": 109.5, "lat": -72.75}}, {"type": "Feature", "geometry": {"type": "Polygon", "coordinates": [[[108.75, -72.0], [108.75, -70.5], [110.25, -70.5], [110.25, -72.0], [108.75, -72.0]]]}, "properties": {"cell_id": "73_12", "lon": 109.5, "lat": -71.25}}, {"type": "Feature", "geometry": {"type": "Polygon", "coordinates": [[[108.75, -70.5], [108.75, -69.0], [110.25, -69.0], [110.25, -70.5], [108.75, -70.5]]]}, "properties": {"cell_id": "73_13", "lon": 109.5, "lat": -69.75}}]}