{"type": "FeatureCollection", "features": [{"type": "Feature", "geometry": {"type": "Polygon", "coordinates": [[[60.75, -79.5], [60.75, -78.0], [62.25, -78.0], [62.25, -79.5], [60.75, -79.5]]]}, "properties": {"cell_id": "41_7", "lon": 61.5, "lat": -78.75}}, {"type": "Feature", "geometry": {"type": "Polygon", "coordinates": [[[60.75, -78.0], [60.75, -76.5], [62.25, -76.5], [62.25, -78.0], [60.75, -78.0]]]}, "properties": {"cell_id": "41_8", "lon": 61.5, "lat": -77.25}}, {"type": "Feature", "geometry": {"type": "Polygon", "coordinates": [[[60.75, -76.5], [60.75, -75.0], [62.25, -75.0], [62.25, -76.5], [60.75, -76.5]]]}, "properties": {"cell_id": "41_9", "lon": 61.5, "lat": -75.75}}, {"type": "Feature", "geometry": {"type": "Polygon", "coordinates": [[[60.75, -75.0], [60.75, -73.5], [62.25, -73.5], [62.25, -75.0], [60.75, -75.0]]]}, "properties": {"cell_id": "41_10", "lon": 61.5, "lat": -74.25}}, {"type": "Feature", "geometry": {"type": "Polygon", "coordinates": [[[60.75, -73.5], [60.75, -72.0], [62.25, -72.0], [62.25, -73.5], [60.75, -73.5]]]}, "properties": {"cell_id": "41_11", "lon": 61.5, "lat": -72.75}}, {"type": "Feature", "geometry": {"type": "Polygon", "coordinates": [[[60.75, -72.0], [60.75, -70.5], [62.25, -70.5], [62.25, -72.0], [60.75, -72.0]]]}, "properties": {"cell_id": "41_12", "lon": 61.5, "lat": -71.25}}, {"type": "Feature", "geometry": {"type": "Polygon", "coordinates": [[[60.75, -70.5], [60.75, -69.0], [62.25, -69.0], [62.25, -70.5], [60.75, -70.5]]]}, "properties": {"cell_id": "41_13", "lon": 61.5, "lat": -69.75}}, {"type": "Feature", "geometry": {"type": "Polygon", "coordinates": [[[62.25, -79.5], [62.25, -78.0], [63.75, -78.0], [63.75, -79.5], [62.25, -79.5]]]}, "properties": {"cell_id": "42_7", "lon": 63.0, "lat": -78.75}}, {"type": "Feature", "geometry": {"type": "Polygon", "coordinates": [[[62.25, -78.0], [62.25, -76.5], [63.75, -76.5], [63.75, -78.0], [62.25, -78.0]]]}, "properties": {"cell_id": "42_8", "lon": 63.0, "lat": -77.25}}, {"type": "Feature", "geometry": {"type": "Polygon", "coordinates": [[[62.25, -76.5], [62.25, -75.0], [63.75, -75.0], [63.75, -76.5], [62.25, -76.5]]]}, "properties": {"cell_id": "42_9", "lon": 63.0, "lat": -75.75}}, {"type": "Feature", "geometry": {"type": "Polygon", "coordinates": [[[62.25, -75.0], [62.25, -73.5], [63.75, -73.5], [63.75, -75.0], [62.25, -75.0]]]}, "properties": {"cell_id": "42_10", "lon": 63.0, "lat": -74.25}}, {"type": "Feature", "geometry": {"type": "Polygon", "coordinates": [[[62.25, -73.5], [62.25, -72.0], [63.75, -72.0], [63.75, -73.5], [62.25, -73.5]]]}, "properties": {"cell_id": "42_11", "lon": 63.0, "lat": -72.75}}, {"type": "Feature", "geometry": {"type": "Polygon", "coordinates": [[[62.25, -72.0], [62.25, -70.5], [63.75, -70.5], [63.75, -72.0], [62.25, -72.0]]]}, "properties": {"cell_id": "42_12", "lon": 63.0, "lat": -71.25}}, {"type": "Feature", "geometry": {"type": "Polygon", "coordinates": [[[62.25, -70.5], [62.25, -69.0], [63.75, -69.0], [63.75, -70.5], [62.25, -70.5]]]}, "properties": {"cell_id": "42_13", "lon": 63.0, "lat": -69.75}}, {"type": "Feature", "geometry": {"type": "Polygon", "coordinates": [[[63.75, -79.5], [63.75, -78.0], [65.25, -78.0], [65.25, -79.5], [63.75, -79.5]]]}, "properties": {"cell_id": "43_7", "lon": 64.5, "lat": -78.75}}, {"type": "Feature", "geometry": {"type": "Polygon", "coordinates": [[[63.75, -78.0], [63.75, -76.5], [65.25, -76.5], [65.25, -78.0], [63.75, -78.0]]]}, "properties": {"cell_id": "43_8", "lon": 64.5, "lat": -77.25}}, {"type": "Feature", "geometry": {"type": "Polygon", "coordinates": [[[63.75, -76.5], [63.75, -75.0], [65.25, -75.0], [65.25, -76.5], [63.75, -76.5]]]}, "properties": {"cell_id": "43_9", "lon": 64.5, "lat": -75.75}}, {"type": "Feature", "geometry": {"type": "Polygon", "coordinates": [[[63.75, -75.0], [63.75, -73.5], [65.25, -73.5], [65.25, -75.0], [63.75, -75.0]]]}, "properties": {"cell_id": "43_10", "lon": 64.5, "lat": -74.25}}, {"type": "Feature", "geometry": {"type": "Polygon", "coordinates": [[[63.75, -73.5], [63.75, -72.0], [65.25, -72.0], [65.25, -73.5], [63.75, -73.5]]]}, "properties": {"cell_id": "43_11", "lon": 64.5, "lat": -72.75}}, {"type": "Feature", "geometry": {"type": "Polygon", "coordinates": [[[63.75, -72.0], [63.75, -70.5], [65.25, -70.5], [65.25, -72.0], [63.75, -72.0]]]}, "properties": {"cell_id": "43_12", "lon": 64.5, "lat": -71.25}}, {"type": "Feature", "geometry": {"type": "Polygon", "coordinates": [[[63.75, -70.5], [63.75, -69.0], [65.25, -69.0], [65.25, -70.5], [63.75, -70.5]]]}, "properties": {"cell_id": "43_13", "lon": 64.5, "lat": -69.75}}, {"type": "Feature", "geometry": {"type": "Polygon", "coordinates": [[[65.25, -79.5], [65.25, -78.0], [66.75, -78.0], [66.75, -79.5], [65.25, -79.5]]]}, "properties": {"cell_id": "44_7", "lon": 66.0, "lat": -78.75}}, {"type": "Feature", "geometry": {"type": "Polygon", "coordinates": [[[65.25, -78.0], [65.25, -76.5], [66.75, -76.5], [66.75, -78.0], [65.25, -78.0]]]}, "properties": {"cell_id": "44_8", "lon": 66.0, "lat": -77.25}}, {"type": "Feature", "geometry": {"type": "Polygon", "coordinates": [[[65.25, -76.5], [65.25, -75.0], [66.75, -75.0], [66.75, -76.5], [65.25, -76.5]]]}, "properties": {"cell_id": "44_9", "lon": 66.0, "lat": -75.75}}, {"type": "Feature", "geometry": {"type": "Polygon", "coordinates": [[[65.25, -75.0], [65.25, -73.5], [66.75, -73.5], [66.75, -75.0], [65.25, -75.0]]]}, "properties": {"cell_id": "44_10", "lon": 66.0, "lat": -74.25}}, {"type": "Feature", "geometry": {"type": "Polygon", "coordinates": [[[65.25, -73.5], [65.25, -72.0], [66.75, -72.0], [66.75, -73.5], [65.25, -73.5]]]}, "properties": {"cell_id": "44_11", "lon": 66.0, "lat": -72.75}}, {"type": "Feature", "geometry": {"type": "Polygon", "coordinates": [[[65.25, -72.0], [65.25, -70.5], [66.75, -70.5], [66.75, -72.0], [65.25, -72.0]]]}, "properties": {"cell_id": "44_12", "lon": 66.0, "lat": -71.25}}, {"type": "Feature", "geometry": {"type": "Polygon", "coordinates": [[[65.25, -70.5], [65.25, -69.0], [66.75, -69.0], [66.75, -70.5], [65.25, -70.5]]]}, "properties": {"cell_id": "44_13", "lon": 66.0, "lat": -69.75}}, {"type": "Feature", "geometry": {"type": "Polygon", "coordinates": [[[66.75, -79.5], [66.75, -78.0], [68.25, -78.0], [68.25, -79.5], [66.75, -79.5]]]}, "properties": {"cell_id": "45_7", "lon": 67.5, "lat": -78.75}}, {"type": "Feature", "geometry": {"type": "Polygon", "coordinates": [[[66.75, -78.0], [66.75, -76.5], [68.25, -76.5], [68.25, -78.0], [66.75, -78.0]]]}, "properties": {"cell_id": "45_8", "lon": 67.5, "lat": -77.25}}, {"type": "Feature", "geometry": {"type": "Polygon", "coordinates": [[[66.75, -76.5], [66.75, -75.0], [68.25, -75.0], [68.25, -76.5], [66.75, -76.5]]]}, "properties": {"cell_id": "45_9", "lon": 67.5, "lat": -75.75}}, {"type": "Feature", "geometry": {"type": "Polygon", "coordinates": [[[66.75, -75.0], [66.75, -73.5], [68.25, -73.5], [68.25, -75.0], [66.75, -75.0]]]}, "properties": {"cell_id": "45_10", "lon": 67.5, "lat": -74.25}}, {"type": "Feature", "geometry": {"type": "Polygon", "coordinates": [[[66.75, -73.5], [66.75, -72.0], [68.25, -72.0], [68.25, -73.5], [66.75, -73.5]]]}, "properties": {"cell_id": "45_11", "lon": 67.5, "lat": -72.75}}, {"type": "Feature", "geometry": {"type": "Polygon", "coordinates": [[[66.75, -72.0], [66.75, -70.5], [68.25, -70.5], [68.25, -72.0], [66.75, -72.0]]]}, "properties": {"cell_id": "45_12", "lon": 67.5, "lat": -71.25}}, {"type": "Feature", "geometry": {"type": "Polygon", "coordinates": [[[66.75, -70.5], [66.75, -69.0], [68.25, -69.0], [68.25, -70.5], [66.75, -70.5]]]}, "properties": {"cell_id": "45_13", "lon": 67.5, "lat": -69.75}}, {"type": "Feature", "geometry": {"type": "Polygon", "coordinates": [[[68.25, -79.5], [68.25, -78.0], [69.75, -78.0], [69.75, -79.5], [68.25, -79.5]]]}, "properties": {"cell_id": "46_7", "lon": 69.0, "lat": -78.75}}, {"type": "Feature", "geometry": {"type": "Polygon", "coordinates": [[[68.25, -78.0], [68.25, -76.5], [69.75, -76.5], [69.75, -78.0], [68.25, -78.0]]]}, "properties": {"cell_id": "46_8", "lon": 69.0, "lat": -77.25}}, {"type": "Feature", "geometry": {"type": "Polygon", "coordinates": [[[68.25, -76.5], [68.25, -75.0], [69.75, -75.0], [69.75, -76.5], [68.25, -76.5]]]}, "properties": {"cell_id": "46_9", "lon": 69.0, "lat": -75.75}}, {"type": "Feature", "geometry": {"type": "Polygon", "coordinates": [[[68.25, -75.0], [68.25, -73.5], [69.75, -73.5], [69.75, -75.0], [68.25, -75.0]]]}, "properties": {"cell_id": "46_10", "lon": 69.0, "lat": -74.25}}, {"type": "Feature", "geometry": {"type": "Polygon", "coordinates": [[[68.25, -73.5], [68.25, -72.0], [69.75, -72.0], [69.75, -73.5], [68.25, -73.5]]]}, "properties": {"cell_id": "46_11", "lon": 69.0, "lat": -72.75}}, {"type": "Feature", "geometry": {"type": "Polygon", "coordinates": [[[68.25, -72.0], [68.25, -70.5], [69.75, -70.5], [69.75, -72.0], [68.25, -72.0]]]}, "properties": {"cell_id": "46_12", "lon": 69.0, "lat": -71.25}}, {"type": "Feature", "geometry": {"type": "Polygon", "coordinates": [[[68.25, -70.5], [68.25, -69.0], [69.75, -69.0], [69.75, -70.5], [68.25, -70.5]]]}, "properties": {"cell_id": "46_13", "lon": 69.0, "lat": -69.75}}, {"type": "Feature", "geometry": {"type": "Polygon", "coordinates": [[[69.75, -79.5], [69.75, -78.0], [71.25, -78.0], [71.25, -79.5], [69.75, -79.5]]]}, "properties": {"cell_id": "47_7", "lon": 70.5, "lat": -78.75}}, {"type": "Feature", "geometry": {"type": "Polygon", "coordinates": [[[69.75, -78.0], [69.75, -76.5], [71.25, -76.5], [71.25, -78.0], [69.75, -78.0]]]}, "properties": {"cell_id": "47_8", "lon": 70.5, "lat": -77.25}}, {"type": "Feature", "geometry": {"type": "Polygon", "coordinates": [[[69.75, -76.5], [69.75, -75.0], [71.25, -75.0], [71.25, -76.5], [69.75, -76.5]]]}, "properties": {"cell_id": "47_9", "lon": 70.5, "lat": -75.75}}, {"type": "Feature", "geometry": {"type": "Polygon", "coordinates": [[[69.75, -75.0], [69.75, -73.5], [71.25, -73.5], [71.25, -75.0], [69.75, -75.0]]]}, "properties": {"cell_id": "47_10", "lon": 70.5, "lat": -74.25}}, {"type": "Feature", "geometry": {"type": "Polygon", "coordinates": [[[69.75, -73.5], [69.75, -72.0], [71.25, -72.0], [71.25, -73.5], [69.75, -73.5]]]}, "properties": {"cell_id": "47_11", "lon": 70.5, "lat": -72.75}}, {"type": "Feature", "geometry": {"type": "Polygon", "coordinates": [[[69.75, -72.0], [69.75, -70.5], [71.25, -70.5], [71.25, -72.0], [69.75, -72.0]]]}, "properties": {"cell_id": "47_12", "lon": 70.5, "lat": -71.25}}, {"type": "Feature", "geometry": {"type": "Polygon", "coordinates": [[[69.75, -70.5], [69.75, -69.0], [71.25, -69.0], [71.25, -70.5], [69.75, -70.5]]]}, "properties": {"cell_id": "47_13", "lon": 70.5, "lat": -69.75}}]}