{"type": "FeatureCollection", "features": [{"type": "Feature", "geometry": {"type": "Polygon", "coordinates": [[[11.25, 0.0], [11.25, 1.5], [12.75, 1.5], [12.75, 0.0], [11.25, 0.0]]]}, "properties": {"cell_id": "8_60", "lon": 12.0, "lat": 0.75}}, {"type": "Feature", "geometry": {"type": "Polygon", "coordinates": [[[11.25, 1.5], [11.25, 3.0], [12.75, 3.0], [12.75, 1.5], [11.25, 1.5]]]}, "properties": {"cell_id": "8_61", "lon": 12.0, "lat": 2.25}}, {"type": "Feature", "geometry": {"type": "Polygon", "coordinates": [[[11.25, 3.0], [11.25, 4.5], [12.75, 4.5], [12.75, 3.0], [11.25, 3.0]]]}, "properties": {"cell_id": "8_62", "lon": 12.0, "lat": 3.75}}, {"type": "Feature", "geometry": {"type": "Polygon", "coordinates": [[[11.25, 4.5], [11.25, 6.0], [12.75, 6.0], [12.75, 4.5], [11.25, 4.5]]]}, "properties": {"cell_id": "8_63", "lon": 12.0, "lat": 5.25}}, {"type": "Feature", "geometry": {"type": "Polygon", "coordinates": [[[11.25, 6.0], [11.25, 7.5], [12.75, 7.5], [12.75, 6.0], [11.25, 6.0]]]}, "properties": {"cell_id": "8_64", "lon": 12.0, "lat": 6.75}}, {"type": "Feature", "geometry": {"type": "Polygon", "coordinates": [[[11.25, 7.5], [11.25, 9.0], [12.75, 9.0], [12.75, 7.5], [11.25, 7.5]]]}, "properties": {"cell_id": "8_65", "lon": 12.0, "lat": 8.25}}, {"type": "Feature", "geometry": {"type": "Polygon", "coordinates": [[[11.25, 9.0], [11.25, 10.5], [12.75, 10.5], [12.75, 9.0], [11.25, 9.0]]]}, "properties": {"cell_id": "8_66", "lon": 12.0, "lat": 9.75}}, {"type": "Feature", "geometry": {"type": "Polygon", "coordinates": [[[12.75, 0.0], [12.75, 1.5], [14.25, 1.5], [14.25, 0.0], [12.75, 0.0]]]}, "properties": {"cell_id": "9_60", "lon": 13.5, "lat": 0.75}}, {"type": "Feature", "geometry": {"type": "Polygon", "coordinates": [[[12.75, 1.5], [12.75, 3.0], [14.25, 3.0], [14.25, 1.5], [12.75, 1.5]]]}, "properties": {"cell_id": "9_61", "lon": 13.5, "lat": 2.25}}, {"type": "Feature", "geometry": {"type": "Polygon", "coordinates": [[[12.75, 3.0], [12.75, 4.5], [14.25, 4.5], [14.25, 3.0], [12.75, 3.0]]]}, "properties": {"cell_id": "9_62", "lon": 13.5, "lat": 3.75}}, {"type": "Feature", "geometry": {"type": "Polygon", "coordinates": [[[12.75, 4.5], [12.75, 6.0], [14.25, 6.0], [14.25, 4.5], [12.75, 4.5]]]}, "properties": {"cell_id": "9_63", "lon": 13.5, "lat": 5.25}}, {"type": "Feature", "geometry": {"type": "Polygon", "coordinates": [[[12.75, 6.0], [12.75, 7.5], [14.25, 7.5], [14.25, 6.0], [12.75, 6.0]]]}, "properties": {"cell_id": "9_64", "lon": 13.5, "lat": 6.75}}, {"type": "Feature", "geometry": {"type": "Polygon", "coordinates": [[[12.75, 7.5], [12.75, 9.0], [14.25, 9.0], [14.25, 7.5], [12.75, 7.5]]]}, "properties": {"cell_id": "9_65", "lon": 13.5, "lat": 8.25}}, {"type": "Feature", "geometry": {"type": "Polygon", "coordinates": [[[12.75, 9.0], [12.75, 10.5], [14.25, 10.5], [14.25, 9.0], [12.75, 9.0]]]}, "properties": {"cell_id": "9_66", "lon": 13.5, "lat": 9.75}}, {"type": "Feature", "geometry": {"type": "Polygon", "coordinates": [[[14.25, 0.0], [14.25, 1.5], [15.75, 1.5], [15.75, 0.0], [14.25, 0.0]]]}, "properties": {"cell_id": "10_60", "lon": 15.0, "lat": 0.75}}, {"type": "Feature", "geometry": {"type": "Polygon", "coordinates": [[[14.25, 1.5], [14.25, 3.0], [15.75, 3.0], [15.75, 1.5], [14.25, 1.5]]]}, "properties": {"cell_id": "10_61", "lon": 15.0, "lat": 2.25}}, {"type": "Feature", "geometry": {"type": "Polygon", "coordinates": [[[14.25, 3.0], [14.25, 4.5], [15.75, 4.5], [15.75, 3.0], [14.25, 3.0]]]}, "properties": {"cell_id": "10_62", "lon": 15.0, "lat": 3.75}}, {"type": "Feature", "geometry": {"type": "Polygon", "coordinates": [[[14.25, 4.5], [14.25, 6.0], [15.75, 6.0], [15.75, 4.5], [14.25, 4.5]]]}, "properties": {"cell_id": "10_63", "lon": 15.0, "lat": 5.25}}, {"type": "Feature", "geometry": {"type": "Polygon", "coordinates": [[[14.25, 6.0], [14.25, 7.5], [15.75, 7.5], [15.75, 6.0], [14.25, 6.0]]]}, "properties": {"cell_id": "10_64", "lon": 15.0, "lat": 6.75}}, {"type": "Feature", "geometry": {"type": "Polygon", "coordinates": [[[14.25, 7.5], [14.25, 9.0], [15.75, 9.0], [15.75, 7.5], [14.25, 7.5]]]}, "properties": {"cell_id": "10_65", "lon": 15.0, "lat": 8.25}}, {"type": "Feature", "geometry": {"type": "Polygon", "coordinates": [[[14.25, 9.0], [14.25, 10.5], [15.75, 10.5], [15.75, 9.0], [14.25, 9.0]]]}, "properties": {"cell_id": "10_66", "lon": 15.0, "lat": 9.75}}, {"type": "Feature", "geometry": {"type": "Polygon", "coordinates": [[[15.75, 0.0], [15.75, 1.5], [17.25, 1.5], [17.25, 0.0], [15.75, 0.0]]]}, "properties": {"cell_id": "11_60", "lon": 16.5, "lat": 0.75}}, {"type": "Feature", "geometry": {"type": "Polygon", "coordinates": [[[15.75, 1.5], [15.75, 3.0], [17.25, 3.0], [17.25, 1.5], [15.75, 1.5]]]}, "properties": {"cell_id": "11_61", "lon": 16.5, "lat": 2.25}}, {"type": "Feature", "geometry": {"type": "Polygon", "coordinates": [[[15.75, 3.0], [15.75, 4.5], [17.25, 4.5], [17.25, 3.0], [15.75, 3.0]]]}, "properties": {"cell_id": "11_62", "lon": 16.5, "lat": 3.75}}, {"type": "Feature", "geometry": {"type": "Polygon", "coordinates": [[[15.75, 4.5], [15.75, 6.0], [17.25, 6.0], [17.25, 4.5], [15.75, 4.5]]]}, "properties": {"cell_id": "11_63", "lon": 16.5, "lat": 5.25}}, {"type": "Feature", "geometry": {"type": "Polygon", "coordinates": [[[15.75, 6.0], [15.75, 7.5], [17.25, 7.5], [17.25, 6.0], [15.75, 6.0]]]}, "properties": {"cell_id": "11_64", "lon": 16.5, "lat": 6.75}}, {"type": "Feature", "geometry": {"type": "Polygon", "coordinates": [[[15.75, 7.5], [15.75, 9.0], [17.25, 9.0], [17.25, 7.5], [15.75, 7.5]]]}, "properties": {"cell_id": "11_65", "lon": 16.5, "lat": 8.25}}, {"type": "Feature", "geometry": {"type": "Polygon", "coordinates": [[[15.75, 9.0], [15.75, 10.5], [17.25, 10.5], [17.25, 9.0], [15.75, 9.0]]]}, "properties": {"cell_id": "11_66", "lon": 16.5, "lat": 9.75}}, {"type": "Feature", "geometry": {"type": "Polygon", "coordinates": [[[17.25, 0.0], [17.25, 1.5], [18.75, 1.5], [18.75, 0.0], [17.25, 0.0]]]}, "properties": {"cell_id": "12_60", "lon": 18.0, "lat": 0.75}}, {"type": "Feature", "geometry": {"type": "Polygon", "coordinates": [[[17.25, 1.5], [17.25, 3.0], [18.75, 3.0], [18.75, 1.5], [17.25, 1.5]]]}, "properties": {"cell_id": "12_61", "lon": 18.0, "lat": 2.25}}, {"type": "Feature", "geometry": {"type": "Polygon", "coordinates": [[[17.25, 3.0], [17.25, 4.5], [18.75, 4.5], [18.75, 3.0], [17.25, 3.0]]]}, "properties": {"cell_id": "12_62", "lon": 18.0, "lat": 3.75}}, {"type": "Feature", "geometry": {"type": "Polygon", "coordinates": [[[17.25, 4.5], [17.25, 6.0], [18.75, 6.0], [18.75, 4.5], [17.25, 4.5]]]}, "properties": {"cell_id": "12_63", "lon": 18.0, "lat": 5.25}}, {"type": "Feature", "geometry": {"type": "Polygon", "coordinates": [[[17.25, 6.0], [17.25, 7.5], [18.75, 7.5], [18.75, 6.0], [17.25, 6.0]]]}, "properties": {"cell_id": "12_64", "lon": 18.0, "lat": 6.75}}, {"type": "Feature", "geometry": {"type": "Polygon", "coordinates": [[[17.25, 7.5], [17.25, 9.0], [18.75, 9.0], [18.75, 7.5], [17.25, 7.5]]]}, "properties": {"cell_id": "12_65", "lon": 18.0, "lat": 8.25}}, {"type": "Feature", "geometry": {"type": "Polygon", "coordinates": [[[17.25, 9.0], [17.25, 10.5], [18.75, 10.5], [18.75, 9.0], [17.25, 9.0]]]}, "properties": {"cell_id": "12_66", "lon": 18.0, "lat": 9.75}}, {"type": "Feature", "geometry": {"type": "Polygon", "coordinates": [[[18.75, 0.0], [18.75, 1.5], [20.25, 1.5], [20.25, 0.0], [18.75, 0.0]]]}, "properties": {"cell_id": "13_60", "lon": 19.5, "lat": 0.75}}, {"type": "Feature", "geometry": {"type": "Polygon", "coordinates": [[[18.75, 1.5], [18.75, 3.0], [20.25, 3.0], [20.25, 1.5], [18.75, 1.5]]]}, "properties": {"cell_id": "13_61", "lon": 19.5, "lat": 2.25}}, {"type": "Feature", "geometry": {"type": "Polygon", "coordinates": [[[18.75, 3.0], [18.75, 4.5], [20.25, 4.5], [20.25, 3.0], [18.75, 3.0]]]}, "properties": {"cell_id": "13_62", "lon": 19.5, "lat": 3.75}}, {"type": "Feature", "geometry": {"type": "Polygon", "coordinates": [[[18.75, 4.5], [18.75, 6.0], [20.25, 6.0], [20.25, 4.5], [18.75, 4.5]]]}, "properties": {"cell_id": "13_63", "lon": 19.5, "lat": 5.25}}, {"type": "Feature", "geometry": {"type": "Polygon", "coordinates": [[[18.75, 6.0], [18.75, 7.5], [20.25, 7.5], [20.25, 6.0], [18.75, 6.0]]]}, "properties": {"cell_id": "13_64", "lon": 19.5, "lat": 6.75}}, {"type": "Feature", "geometry": {"type": "Polygon", "coordinates": [[[18.75, 7.5], [18.75, 9.0], [20.25, 9.0], [20.25, 7.5], [18.75, 7.5]]]}, "properties": {"cell_id": "13_65", "lon": 19.5, "lat": 8.25}}, {"type": "Feature", "geometry": {"type": "Polygon", "coordinates": [[[18.75, 9.0], [18.75, 10.5], [20.25, 10.5], [20.25, 9.0], [18.75, 9.0]]]}, "properties": {"cell_id": "13_66", "lon": 19.5, "lat": 9.75}}]}