{"type": "FeatureCollection", "features": [{"type": "Feature", "geometry": {"type": "Polygon", "coordinates": [[[80.25, 60.0], [80.25, 61.5], [81.75, 61.5], [81.75, 60.0], [80.25, 60.0]]]}, "properties": {"cell_id": "54_100", "lon": 81.0, "lat": 60.75}}, {"type": "Feature", "geometry": {"type": "Polygon", "coordinates": [[[80.25, 61.5], [80.25, 63.0], [81.75, 63.0], [81.75, 61.5], [80.25, 61.5]]]}, "properties": {"cell_id": "54_101", "lon": 81.0, "lat": 62.25}}, {"type": "Feature", "geometry": {"type": "Polygon", "coordinates": [[[80.25, 63.0], [80.25, 64.5], [81.75, 64.5], [81.75, 63.0], [80.25, 63.0]]]}, "properties": {"cell_id": "54_102", "lon": 81.0, "lat": 63.75}}, {"type": "Feature", "geometry": {"type": "Polygon", "coordinates": [[[80.25, 64.5], [80.25, 66.0], [81.75, 66.0], [81.75, 64.5], [80.25, 64.5]]]}, "properties": {"cell_id": "54_103", "lon": 81.0, "lat": 65.25}}, {"type": "Feature", "geometry": {"type": "Polygon", "coordinates": [[[80.25, 66.0], [80.25, 67.5], [81.75, 67.5], [81.75, 66.0], [80.25, 66.0]]]}, "properties": {"cell_id": "54_104", "lon": 81.0, "lat": 66.75}}, {"type": "Feature", "geometry": {"type": "Polygon", "coordinates": [[[80.25, 67.5], [80.25, 69.0], [81.75, 69.0], [81.75, 67.5], [80.25, 67.5]]]}, "properties": {"cell_id": "54_105", "lon": 81.0, "lat": 68.25}}, {"type": "Feature", "geometry": {"type": "Polygon", "coordinates": [[[80.25, 69.0], [80.25, 70.5], [81.75, 70.5], [81.75, 69.0], [80.25, 69.0]]]}, "properties": {"cell_id": "54_106", "lon": 81.0, "lat": 69.75}}, {"type": "Feature", "geometry": {"type": "Polygon", "coordinates": [[[81.75, 60.0], [81.75, 61.5], [83.25, 61.5], [83.25, 60.0], [81.75, 60.0]]]}, "properties": {"cell_id": "55_100", "lon": 82.5, "lat": 60.75}}, {"type": "Feature", "geometry": {"type": "Polygon", "coordinates": [[[81.75, 61.5], [81.75, 63.0], [83.25, 63.0], [83.25, 61.5], [81.75, 61.5]]]}, "properties": {"cell_id": "55_101", "lon": 82.5, "lat": 62.25}}, {"type": "Feature", "geometry": {"type": "Polygon", "coordinates": [[[81.75, 63.0], [81.75, 64.5], [83.25, 64.5], [83.25, 63.0], [81.75, 63.0]]]}, "properties": {"cell_id": "55_102", "lon": 82.5, "lat": 63.75}}, {"type": "Feature", "geometry": {"type": "Polygon", "coordinates": [[[81.75, 64.5], [81.75, 66.0], [83.25, 66.0], [83.25, 64.5], [81.75, 64.5]]]}, "properties": {"cell_id": "55_103", "lon": 82.5, "lat": 65.25}}, {"type": "Feature", "geometry": {"type": "Polygon", "coordinates": [[[81.75, 66.0], [81.75, 67.5], [83.25, 67.5], [83.25, 66.0], [81.75, 66.0]]]}, "properties": {"cell_id": "55_104", "lon": 82.5, "lat": 66.75}}, {"type": "Feature", "geometry": {"type": "Polygon", "coordinates": [[[81.75, 67.5], [81.75, 69.0], [83.25, 69.0], [83.25, 67.5], [81.75, 67.5]]]}, "properties": {"cell_id": "55_105", "lon": 82.5, "lat": 68.25}}, {"type": "Feature", "geometry": {"type": "Polygon", "coordinates": [[[81.75, 69.0], [81.75, 70.5], [83.25, 70.5], [83.25, 69.0], [81.75, 69.0]]]}, "properties": {"cell_id": "55_106", "lon": 82.5, "lat": 69.75}}, {"type": "Feature", "geometry": {"type": "Polygon", "coordinates": [[[83.25, 60.0], [83.25, 61.5], [84.75, 61.5], [84.75, 60.0], [83.25, 60.0]]]}, "properties": {"cell_id": "56_100", "lon": 84.0, "lat": 60.75}}, {"type": "Feature", "geometry": {"type": "Polygon", "coordinates": [[[83.25, 61.5], [83.25, 63.0], [84.75, 63.0], [84.75, 61.5], [83.25, 61.5]]]}, "properties": {"cell_id": "56_101", "lon": 84.0, "lat": 62.25}}, {"type": "Feature", "geometry": {"type": "Polygon", "coordinates": [[[83.25, 63.0], [83.25, 64.5], [84.75, 64.5], [84.75, 63.0], [83.25, 63.0]]]}, "properties": {"cell_id": "56_102", "lon": 84.0, "lat": 63.75}}, {"type": "Feature", "geometry": {"type": "Polygon", "coordinates": [[[83.25, 64.5], [83.25, 66.0], [84.75, 66.0], [84.75, 64.5], [83.25, 64.5]]]}, "properties": {"cell_id": "56_103", "lon": 84.0, "lat": 65.25}}, {"type": "Feature", "geometry": {"type": "Polygon", "coordinates": [[[83.25, 66.0], [83.25, 67.5], [84.75, 67.5], [84.75, 66.0], [83.25, 66.0]]]}, "properties": {"cell_id": "56_104", "lon": 84.0, "lat": 66.75}}, {"type": "Feature", "geometry": {"type": "Polygon", "coordinates": [[[83.25, 67.5], [83.25, 69.0], [84.75, 69.0], [84.75, 67.5], [83.25, 67.5]]]}, "properties": {"cell_id": "56_105", "lon": 84.0, "lat": 68.25}}, {"type": "Feature", "geometry": {"type": "Polygon", "coordinates": [[[83.25, 69.0], [83.25, 70.5], [84.75, 70.5], [84.75, 69.0], [83.25, 69.0]]]}, "properties": {"cell_id": "56_106", "lon": 84.0, "lat": 69.75}}, {"type": "Feature", "geometry": {"type": "Polygon", "coordinates": [[[84.75, 60.0], [84.75, 61.5], [86.25, 61.5], [86.25, 60.0], [84.75, 60.0]]]}, "properties": {"cell_id": "57_100", "lon": 85.5, "lat": 60.75}}, {"type": "Feature", "geometry": {"type": "Polygon", "coordinates": [[[84.75, 61.5], [84.75, 63.0], [86.25, 63.0], [86.25, 61.5], [84.75, 61.5]]]}, "properties": {"cell_id": "57_101", "lon": 85.5, "lat": 62.25}}, {"type": "Feature", "geometry": {"type": "Polygon", "coordinates": [[[84.75, 63.0], [84.75, 64.5], [86.25, 64.5], [86.25, 63.0], [84.75, 63.0]]]}, "properties": {"cell_id": "57_102", "lon": 85.5, "lat": 63.75}}, {"type": "Feature", "geometry": {"type": "Polygon", "coordinates": [[[84.75, 64.5], [84.75, 66.0], [86.25, 66.0], [86.25, 64.5], [84.75, 64.5]]]}, "properties": {"cell_id": "57_103", "lon": 85.5, "lat": 65.25}}, {"type": "Feature", "geometry": {"type": "Polygon", "coordinates": [[[84.75, 66.0], [84.75, 67.5], [86.25, 67.5], [86.25, 66.0], [84.75, 66.0]]]}, "properties": {"cell_id": "57_104", "lon": 85.5, "lat": 66.75}}, {"type": "Feature", "geometry": {"type": "Polygon", "coordinates": [[[84.75, 67.5], [84.75, 69.0], [86.25, 69.0], [86.25, 67.5], [84.75, 67.5]]]}, "properties": {"cell_id": "57_105", "lon": 85.5, "lat": 68.25}}, {"type": "Feature", "geometry": {"type": "Polygon", "coordinates": [[[84.75, 69.0], [84.75, 70.5], [86.25, 70.5], [86.25, 69.0], [84.75, 69.0]]]}, "properties": {"cell_id": "57_106", "lon": 85.5, "lat": 69.75}}, {"type": "Feature", "geometry": {"type": "Polygon", "coordinates": [[[86.25, 60.0], [86.25, 61.5], [87.75, 61.5], [87.75, 60.0], [86.25, 60.0]]]}, "properties": {"cell_id": "58_100", "lon": 87.0, "lat": 60.75}}, {"type": "Feature", "geometry": {"type": "Polygon", "coordinates": [[[86.25, 61.5], [86.25, 63.0], [87.75, 63.0], [87.75, 61.5], [86.25, 61.5]]]}, "properties": {"cell_id": "58_101", "lon": 87.0, "lat": 62.25}}, {"type": "Feature", "geometry": {"type": "Polygon", "coordinates": [[[86.25, 63.0], [86.25, 64.5], [87.75, 64.5], [87.75, 63.0], [86.25, 63.0]]]}, "properties": {"cell_id": "58_102", "lon": 87.0, "lat": 63.75}}, {"type": "Feature", "geometry": {"type": "Polygon", "coordinates": [[[86.25, 64.5], [86.25, 66.0], [87.75, 66.0], [87.75, 64.5], [86.25, 64.5]]]}, "properties": {"cell_id": "58_103", "lon": 87.0, "lat": 65.25}}, {"type": "Feature", "geometry": {"type": "Polygon", "coordinates": [[[86.25, 66.0], [86.25, 67.5], [87.75, 67.5], [87.75, 66.0], [86.25, 66.0]]]}, "properties": {"cell_id": "58_104", "lon": 87.0, "lat": 66.75}}, {"type": "Feature", "geometry": {"type": "Polygon", "coordinates": [[[86.25, 67.5], [86.25, 69.0], [87.75, 69.0], [87.75, 67.5], [86.25, 67.5]]]}, "properties": {"cell_id": "58_105", "lon": 87.0, "lat": 68.25}}, {"type": "Feature", "geometry": {"type": "Polygon", "coordinates": [[[86.25, 69.0], [86.25, 70.5], [87.75, 70.5], [87.75, 69.0], [86.25, 69.0]]]}, "properties": {"cell_id": "58_106", "lon": 87.0, "lat": 69.75}}, {"type": "Feature", "geometry": {"type": "Polygon", "coordinates": [[[87.75, 60.0], [87.75, 61.5], [89.25, 61.5], [89.25, 60.0], [87.75, 60.0]]]}, "properties": {"cell_id": "59_100", "lon": 88.5, "lat": 60.75}}, {"type": "Feature", "geometry": {"type": "Polygon", "coordinates": [[[87.75, 61.5], [87.75, 63.0], [89.25, 63.0], [89.25, 61.5], [87.75, 61.5]]]}, "properties": {"cell_id": "59_101", "lon": 88.5, "lat": 62.25}}, {"type": "Feature", "geometry": {"type": "Polygon", "coordinates": [[[87.75, 63.0], [87.75, 64.5], [89.25, 64.5], [89.25, 63.0], [87.75, 63.0]]]}, "properties": {"cell_id": "59_102", "lon": 88.5, "lat": 63.75}}, {"type": "Feature", "geometry": {"type": "Polygon", "coordinates": [[[87.75, 64.5], [87.75, 66.0], [89.25, 66.0], [89.25, 64.5], [87.75, 64.5]]]}, "properties": {"cell_id": "59_103", "lon": 88.5, "lat": 65.25}}, {"type": "Feature", "geometry": {"type": "Polygon", "coordinates": [[[87.75, 66.0], [87.75, 67.5], [89.25, 67.5], [89.25, 66.0], [87.75, 66.0]]]}, "properties": {"cell_id": "59_104", "lon": 88.5, "lat": 66.75}}, {"type": "Feature", "geometry": {"type": "Polygon", "coordinates": [[[87.75, 67.5], [87.75, 69.0], [89.25, 69.0], [89.25, 67.5], [87.75, 67.5]]]}, "properties": {"cell_id": "59_105", "lon": 88.5, "lat": 68.25}}, {"type": "Feature", "geometry": {"type": "Polygon", "coordinates": [[[87.75, 69.0], [87.75, 70.5], [89.25, 70.5], [89.25, 69.0], [87.75, 69.0]]]}, "properties": {"cell_id": "59_106", "lon": 88.5, "lat": 69.75}}, {"type": "Feature", "geometry": {"type": "Polygon", "coordinates": [[[89.25, 60.0], [89.25, 61.5], [90.75, 61.5], [90.75, 60.0], [89.25, 60.0]]]}, "properties": {"cell_id": "60_100", "lon": 90.0, "lat": 60.75}}, {"type": "Feature", "geometry": {"type": "Polygon", "coordinates": [[[89.25, 61.5], [89.25, 63.0], [90.75, 63.0], [90.75, 61.5], [89.25, 61.5]]]}, "properties": {"cell_id": "60_101", "lon": 90.0, "lat": 62.25}}, {"type": "Feature", "geometry": {"type": "Polygon", "coordinates": [[[89.25, 63.0], [89.25, 64.5], [90.75, 64.5], [90.75, 63.0], [89.25, 63.0]]]}, "properties": {"cell_id": "60_102", "lon": 90.0, "lat": 63.75}}, {"type": "Feature", "geometry": {"type": "Polygon", "coordinates": [[[89.25, 64.5], [89.25, 66.0], [90.75, 66.0], [90.75, 64.5], [89.25, 64.5]]]}, "properties": {"cell_id": "60_103", "lon": 90.0, "lat": 65.25}}, {"type": "Feature", "geometry": {"type": "Polygon", "coordinates": [[[89.25, 66.0], [89.25, 67.5], [90.75, 67.5], [90.75, 66.0], [89.25, 66.0]]]}, "properties": {"cell_id": "60_104", "lon": 90.0, "lat": 66.75}}, {"type": "Feature", "geometry": {"type": "Polygon", "coordinates": [[[89.25, 67.5], [89.25, 69.0], [90.75, 69.0], [90.75, 67.5], [89.25, 67.5]]]}, "properties": {"cell_id": "60_105", "lon": 90.0, "lat": 68.25}}, {"type": "Feature", "geometry": {"type": "Polygon", "coordinates": [[[89.25, 69.0], [89.25, 70.5], [90.75, 70.5], [90.75, 69.0], [89.25, 69.0]]]}, "properties": {"cell_id": "60_106", "lon": 90.0, "lat": 69.75}}]}