{"type": "FeatureCollection", "features": [{"type": "Feature", "geometry": {"type": "Polygon", "coordinates": [[[-0.75, -90.0], [-0.75, -88.5], [0.75, -88.5], [0.75, -90.0], [-0.75, -90.0]]]}, "properties": {"cell_id": "0_0", "lon": 0.0, "lat": -89.25}}, {"type": "Feature", "geometry": {"type": "Polygon", "coordinates": [[[-0.75, -88.5], [-0.75, -87.0], [0.75, -87.0], [0.75, -88.5], [-0.75, -88.5]]]}, "properties": {"cell_id": "0_1", "lon": 0.0, "lat": -87.75}}, {"type": "Feature", "geometry": {"type": "Polygon", "coordinates": [[[-0.75, -87.0], [-0.75, -85.5], [0.75, -85.5], [0.75, -87.0], [-0.75, -87.0]]]}, "properties": {"cell_id": "0_2", "lon": 0.0, "lat": -86.25}}, {"type": "Feature", "geometry": {"type": "Polygon", "coordinates": [[[-0.75, -85.5], [-0.75, -84.0], [0.75, -84.0], [0.75, -85.5], [-0.75, -85.5]]]}, "properties": {"cell_id": "0_3", "lon": 0.0, "lat": -84.75}}, {"type": "Feature", "geometry": {"type": "Polygon", "coordinates": [[[-0.75, -84.0], [-0.75, -82.5], [0.75, -82.5], [0.75, -84.0], [-0.75, -84.0]]]}, "properties": {"cell_id": "0_4", "lon": 0.0, "lat": -83.25}}, {"type": "Feature", "geometry": {"type": "Polygon", "coordinates": [[[-0.75, -82.5], [-0.75, -81.0], [0.75, -81.0], [0.75, -82.5], [-0.75, -82.5]]]}, "properties": {"cell_id": "0_5", "lon": 0.0, "lat": -81.75}}, {"type": "Feature", "geometry": {"type": "Polygon", "coordinates": [[[-0.75, -81.0], [-0.75, -79.5], [0.75, -79.5], [0.75, -81.0], [-0.75, -81.0]]]}, "properties": {"cell_id": "0_6", "lon": 0.0, "lat": -80.25}}, {"type": "Feature", "geometry": {"type": "Polygon", "coordinates": [[[-9.75, -90.0], [-9.75, -88.5], [-8.25, -88.5], [-8.25, -90.0], [-9.75, -90.0]]]}, "properties": {"cell_id": "234_0", "lon": -9.0, "lat": -89.25}}, {"type": "Feature", "geometry": {"type": "Polygon", "coordinates": [[[-9.75, -88.5], [-9.75, -87.0], [-8.25, -87.0], [-8.25, -88.5], [-9.75, -88.5]]]}, "properties": {"cell_id": "234_1", "lon": -9.0, "lat": -87.75}}, {"type": "Feature", "geometry": {"type": "Polygon", "coordinates": [[[-9.75, -87.0], [-9.75, -85.5], [-8.25, -85.5], [-8.25, -87.0], [-9.75, -87.0]]]}, "properties": {"cell_id": "234_2", "lon": -9.0, "lat": -86.25}}, {"type": "Feature", "geometry": {"type": "Polygon", "coordinates": [[[-9.75, -85.5], [-9.75, -84.0], [-8.25, -84.0], [-8.25, -85.5], [-9.75, -85.5]]]}, "properties": {"cell_id": "234_3", "lon": -9.0, "lat": -84.75}}, {"type": "Feature", "geometry": {"type": "Polygon", "coordinates": [[[-9.75, -84.0], [-9.75, -82.5], [-8.25, -82.5], [-8.25, -84.0], [-9.75, -84.0]]]}, "properties": {"cell_id": "234_4", "lon": -9.0, "lat": -83.25}}, {"type": "Feature", "geometry": {"type": "Polygon", "coordinates": [[[-9.75, -82.5], [-9.75, -81.0], [-8.25, -81.0], [-8.25, -82.5], [-9.75, -82.5]]]}, "properties": {"cell_id": "234_5", "lon": -9.0, "lat": -81.75}}, {"type": "Feature", "geometry": {"type": "Polygon", "coordinates": [[[-9.75, -81.0], [-9.75, -79.5], [-8.25, -79.5], [-8.25, -81.0], [-9.75, -81.0]]]}, "properties": {"cell_id": "234_6", "lon": -9.0, "lat": -80.25}}, {"type": "Feature", "geometry": {"type": "Polygon", "coordinates": [[[-8.25, -90.0], [-8.25, -88.5], [-6.75, -88.5], [-6.75, -90.0], [-8.25, -90.0]]]}, "properties": {"cell_id": "235_0", "lon": -7.5, "lat": -89.25}}, {"type": "Feature", "geometry": {"type": "Polygon", "coordinates": [[[-8.25, -88.5], [-8.25, -87.0], [-6.75, -87.0], [-6.75, -88.5], [-8.25, -88.5]]]}, "properties": {"cell_id": "235_1", "lon": -7.5, "lat": -87.75}}, {"type": "Feature", "geometry": {"type": "Polygon", "coordinates": [[[-8.25, -87.0], [-8.25, -85.5], [-6.75, -85.5], [-6.75, -87.0], [-8.25, -87.0]]]}, "properties": {"cell_id": "235_2", "lon": -7.5, "lat": -86.25}}, {"type": "Feature", "geometry": {"type": "Polygon", "coordinates": [[[-8.25, -85.5], [-8.25, -84.0], [-6.75, -84.0], [-6.75, -85.5], [-8.25, -85.5]]]}, "properties": {"cell_id": "235_3", "lon": -7.5, "lat": -84.75}}, {"type": "Feature", "geometry": {"type": "Polygon", "coordinates": [[[-8.25, -84.0], [-8.25, -82.5], [-6.75, -82.5], [-6.75, -84.0], [-8.25, -84.0]]]}, "properties": {"cell_id": "235_4", "lon": -7.5, "lat": -83.25}}, {"type": "Feature", "geometry": {"type": "Polygon", "coordinates": [[[-8.25, -82.5], [-8.25, -81.0], [-6.75, -81.0], [-6.75, -82.5], [-8.25, -82.5]]]}, "properties": {"cell_id": "235_5", "lon": -7.5, "lat": -81.75}}, {"type": "Feature", "geometry": {"type": "Polygon", "coordinates": [[[-8.25, -81.0], [-8.25, -79.5], [-6.75, -79.5], [-6.75, -81.0], [-8.25, -81.0]]]}, "properties": {"cell_id": "235_6", "lon": -7.5, "lat": -80.25}}, {"type": "Feature", "geometry": {"type": "Polygon", "coordinates": [[[-6.75, -90.0], [-6.75, -88.5], [-5.25, -88.5], [-5.25, -90.0], [-6.75, -90.0]]]}, "properties": {"cell_id": "236_0", "lon": -6.0, "lat": -89.25}}, {"type": "Feature", "geometry": {"type": "Polygon", "coordinates": [[[-6.75, -88.5], [-6.75, -87.0], [-5.25, -87.0], [-5.25, -88.5], [-6.75, -88.5]]]}, "properties": {"cell_id": "236_1", "lon": -6.0, "lat": -87.75}}, {"type": "Feature", "geometry": {"type": "Polygon", "coordinates": [[[-6.75, -87.0], [-6.75, -85.5], [-5.25, -85.5], [-5.25, -87.0], [-6.75, -87.0]]]}, "properties": {"cell_id": "236_2", "lon": -6.0, "lat": -86.25}}, {"type": "Feature", "geometry": {"type": "Polygon", "coordinates": [[[-6.75, -85.5], [-6.75, -84.0], [-5.25, -84.0], [-5.25, -85.5], [-6.75, -85.5]]]}, "properties": {"cell_id": "236_3", "lon": -6.0, "lat": -84.75}}, {"type": "Feature", "geometry": {"type": "Polygon", "coordinates": [[[-6.75, -84.0], [-6.75, -82.5], [-5.25, -82.5], [-5.25, -84.0], [-6.75, -84.0]]]}, "properties": {"cell_id": "236_4", "lon": -6.0, "lat": -83.25}}, {"type": "Feature", "geometry": {"type": "Polygon", "coordinates": [[[-6.75, -82.5], [-6.75, -81.0], [-5.25, -81.0], [-5.25, -82.5], [-6.75, -82.5]]]}, "properties": {"cell_id": "236_5", "lon": -6.0, "lat": -81.75}}, {"type": "Feature", "geometry": {"type": "Polygon", "coordinates": [[[-6.75, -81.0], [-6.75, -79.5], [-5.25, -79.5], [-5.25, -81.0], [-6.75, -81.0]]]}, "properties": {"cell_id": "236_6", "lon": -6.0, "lat": -80.25}}, {"type": "Feature", "geometry": {"type": "Polygon", "coordinates": [[[-5.25, -90.0], [-5.25, -88.5], [-3.75, -88.5], [-3.75, -90.0], [-5.25, -90.0]]]}, "properties": {"cell_id": "237_0", "lon": -4.5, "lat": -89.25}}, {"type": "Feature", "geometry": {"type": "Polygon", "coordinates": [[[-5.25, -88.5], [-5.25, -87.0], [-3.75, -87.0], [-3.75, -88.5], [-5.25, -88.5]]]}, "properties": {"cell_id": "237_1", "lon": -4.5, "lat": -87.75}}, {"type": "Feature", "geometry": {"type": "Polygon", "coordinates": [[[-5.25, -87.0], [-5.25, -85.5], [-3.75, -85.5], [-3.75, -87.0], [-5.25, -87.0]]]}, "properties": {"cell_id": "237_2", "lon": -4.5, "lat": -86.25}}, {"type": "Feature", "geometry": {"type": "Polygon", "coordinates": [[[-5.25, -85.5], [-5.25, -84.0], [-3.75, -84.0], [-3.75, -85.5], [-5.25, -85.5]]]}, "properties": {"cell_id": "237_3", "lon": -4.5, "lat": -84.75}}, {"type": "Feature", "geometry": {"type": "Polygon", "coordinates": [[[-5.25, -84.0], [-5.25, -82.5], [-3.75, -82.5], [-3.75, -84.0], [-5.25, -84.0]]]}, "properties": {"cell_id": "237_4", "lon": -4.5, "lat": -83.25}}, {"type": "Feature", "geometry": {"type": "Polygon", "coordinates": [[[-5.25, -82.5], [-5.25, -81.0], [-3.75, -81.0], [-3.75, -82.5], [-5.25, -82.5]]]}, "properties": {"cell_id": "237_5", "lon": -4.5, "lat": -81.75}}, {"type": "Feature", "geometry": {"type": "Polygon", "coordinates": [[[-5.25, -81.0], [-5.25, -79.5], [-3.75, -79.5], [-3.75, -81.0], [-5.25, -81.0]]]}, "properties": {"cell_id": "237_6", "lon": -4.5, "lat": -80.25}}, {"type": "Feature", "geometry": {"type": "Polygon", "coordinates": [[[-3.75, -90.0], [-3.75, -88.5], [-2.25, -88.5], [-2.25, -90.0], [-3.75, -90.0]]]}, "properties": {"cell_id": "238_0", "lon": -3.0, "lat": -89.25}}, {"type": "Feature", "geometry": {"type": "Polygon", "coordinates": [[[-3.75, -88.5], [-3.75, -87.0], [-2.25, -87.0], [-2.25, -88.5], [-3.75, -88.5]]]}, "properties": {"cell_id": "238_1", "lon": -3.0, "lat": -87.75}}, {"type": "Feature", "geometry": {"type": "Polygon", "coordinates": [[[-3.75, -87.0], [-3.75, -85.5], [-2.25, -85.5], [-2.25, -87.0], [-3.75, -87.0]]]}, "properties": {"cell_id": "238_2", "lon": -3.0, "lat": -86.25}}, {"type": "Feature", "geometry": {"type": "Polygon", "coordinates": [[[-3.75, -85.5], [-3.75, -84.0], [-2.25, -84.0], [-2.25, -85.5], [-3.75, -85.5]]]}, "properties": {"cell_id": "238_3", "lon": -3.0, "lat": -84.75}}, {"type": "Feature", "geometry": {"type": "Polygon", "coordinates": [[[-3.75, -84.0], [-3.75, -82.5], [-2.25, -82.5], [-2.25, -84.0], [-3.75, -84.0]]]}, "properties": {"cell_id": "238_4", "lon": -3.0, "lat": -83.25}}, {"type": "Feature", "geometry": {"type": "Polygon", "coordinates": [[[-3.75, -82.5], [-3.75, -81.0], [-2.25, -81.0], [-2.25, -82.5], [-3.75, -82.5]]]}, "properties": {"cell_id": "238_5", "lon": -3.0, "lat": -81.75}}, {"type": "Feature", "geometry": {"type": "Polygon", "coordinates": [[[-3.75, -81.0], [-3.75, -79.5], [-2.25, -79.5], [-2.25, -81.0], [-3.75, -81.0]]]}, "properties": {"cell_id": "238_6", "lon": -3.0, "lat": -80.25}}, {"type": "Feature", "geometry": {"type": "Polygon", "coordinates": [[[-2.25, -90.0], [-2.25, -88.5], [-0.75, -88.5], [-0.75, -90.0], [-2.25, -90.0]]]}, "properties": {"cell_id": "239_0", "lon": -1.5, "lat": -89.25}}, {"type": "Feature", "geometry": {"type": "Polygon", "coordinates": [[[-2.25, -88.5], [-2.25, -87.0], [-0.75, -87.0], [-0.75, -88.5], [-2.25, -88.5]]]}, "properties": {"cell_id": "239_1", "lon": -1.5, "lat": -87.75}}, {"type": "Feature", "geometry": {"type": "Polygon", "coordinates": [[[-2.25, -87.0], [-2.25, -85.5], [-0.75, -85.5], [-0.75, -87.0], [-2.25, -87.0]]]}, "properties": {"cell_id": "239_2", "lon": -1.5, "lat": -86.25}}, {"type": "Feature", "geometry": {"type": "Polygon", "coordinates": [[[-2.25, -85.5], [-2.25, -84.0], [-0.75, -84.0], [-0.75, -85.5], [-2.25, -85.5]]]}, "properties": {"cell_id": "239_3", "lon": -1.5, "lat": -84.75}}, {"type": "Feature", "geometry": {"type": "Polygon", "coordinates": [[[-2.25, -84.0], [-2.25, -82.5], [-0.75, -82.5], [-0.75, -84.0], [-2.25, -84.0]]]}, "properties": {"cell_id": "239_4", "lon": -1.5, "lat": -83.25}}, {"type": "Feature", "geometry": {"type": "Polygon", "coordinates": [[[-2.25, -82.5], [-2.25, -81.0], [-0.75, -81.0], [-0.75, -82.5], [-2.25, -82.5]]]}, "properties": {"cell_id": "239_5", "lon": -1.5, "lat": -81.75}}, {"type": "Feature", "geometry": {"type": "Polygon", "coordinates": [[[-2.25, -81.0], [-2.25, -79.5], [-0.75, -79.5], [-0.75, -81.0], [-2.25, -81.0]]]}, "properties": {"cell_id": "239_6", "lon": -1.5, "lat": -80.25}}]}