{"type": "FeatureCollection", "features": [{"type": "Feature", "geometry": {"type": "Polygon", "coordinates": [[[11.25, -79.5], [11.25, -78.0], [12.75, -78.0], [12.75, -79.5], [11.25, -79.5]]]}, "properties": {"cell_id": "8_7", "lon": 12.0, "lat": -78.75}}, {"type": "Feature", "geometry": {"type": "Polygon", "coordinates": [[[11.25, -78.0], [11.25, -76.5], [12.75, -76.5], [12.75, -78.0], [11.25, -78.0]]]}, "properties": {"cell_id": "8_8", "lon": 12.0, "lat": -77.25}}, {"type": "Feature", "geometry": {"type": "Polygon", "coordinates": [[[11.25, -76.5], [11.25, -75.0], [12.75, -75.0], [12.75, -76.5], [11.25, -76.5]]]}, "properties": {"cell_id": "8_9", "lon": 12.0, "lat": -75.75}}, {"type": "Feature", "geometry": {"type": "Polygon", "coordinates": [[[11.25, -75.0], [11.25, -73.5], [12.75, -73.5], [12.75, -75.0], [11.25, -75.0]]]}, "properties": {"cell_id": "8_10", "lon": 12.0, "lat": -74.25}}, {"type": "Feature", "geometry": {"type": "Polygon", "coordinates": [[[11.25, -73.5], [11.25, -72.0], [12.75, -72.0], [12.75, -73.5], [11.25, -73.5]]]}, "properties": {"cell_id": "8_11", "lon": 12.0, "lat": -72.75}}, {"type": "Feature", "geometry": {"type": "Polygon", "coordinates": [[[11.25, -72.0], [11.25, -70.5], [12.75, -70.5], [12.75, -72.0], [11.25, -72.0]]]}, "properties": {"cell_id": "8_12", "lon": 12.0, "lat": -71.25}}, {"type": "Feature", "geometry": {"type": "Polygon", "coordinates": [[[11.25, -70.5], [11.25, -69.0], [12.75, -69.0], [12.75, -70.5], [11.25, -70.5]]]}, "properties": {"cell_id": "8_13", "lon": 12.0, "lat": -69.75}}, {"type": "Feature", "geometry": {"type": "Polygon", "coordinates": [[[12.75, -79.5], [12.75, -78.0], [14.25, -78.0], [14.25, -79.5], [12.75, -79.5]]]}, "properties": {"cell_id": "9_7", "lon": 13.5, "lat": -78.75}}, {"type": "Feature", "geometry": {"type": "Polygon", "coordinates": [[[12.75, -78.0], [12.75, -76.5], [14.25, -76.5], [14.25, -78.0], [12.75, -78.0]]]}, "properties": {"cell_id": "9_8", "lon": 13.5, "lat": -77.25}}, {"type": "Feature", "geometry": {"type": "Polygon", "coordinates": [[[12.75, -76.5], [12.75, -75.0], [14.25, -75.0], [14.25, -76.5], [12.75, -76.5]]]}, "properties": {"cell_id": "9_9", "lon": 13.5, "lat": -75.75}}, {"type": "Feature", "geometry": {"type": "Polygon", "coordinates": [[[12.75, -75.0], [12.75, -73.5], [14.25, -73.5], [14.25, -75.0], [12.75, -75.0]]]}, "properties": {"cell_id": "9_10", "lon": 13.5, "lat": -74.25}}, {"type": "Feature", "geometry": {"type": "Polygon", "coordinates": [[[12.75, -73.5], [12.75, -72.0], [14.25, -72.0], [14.25, -73.5], [12.75, -73.5]]]}, "properties": {"cell_id": "9_11", "lon": 13.5, "lat": -72.75}}, {"type": "Feature", "geometry": {"type": "Polygon", "coordinates": [[[12.75, -72.0], [12.75, -70.5], [14.25, -70.5], [14.25, -72.0], [12.75, -72.0]]]}, "properties": {"cell_id": "9_12", "lon": 13.5, "lat": -71.25}}, {"type": "Feature", "geometry": {"type": "Polygon", "coordinates": [[[12.75, -70.5], [12.75, -69.0], [14.25, -69.0], [14.25, -70.5], [12.75, -70.5]]]}, "properties": {"cell_id": "9_13", "lon": 13.5, "lat": -69.75}}, {"type": "Feature", "geometry": {"type": "Polygon", "coordinates": [[[14.25, -79.5], [14.25, -78.0], [15.75, -78.0], [15.75, -79.5], [14.25, -79.5]]]}, "properties": {"cell_id": "10_7", "lon": 15.0, "lat": -78.75}}, {"type": "Feature", "geometry": {"type": "Polygon", "coordinates": [[[14.25, -78.0], [14.25, -76.5], [15.75, -76.5], [15.75, -78.0], [14.25, -78.0]]]}, "properties": {"cell_id": "10_8", "lon": 15.0, "lat": -77.25}}, {"type": "Feature", "geometry": {"type": "Polygon", "coordinates": [[[14.25, -76.5], [14.25, -75.0], [15.75, -75.0], [15.75, -76.5], [14.25, -76.5]]]}, "properties": {"cell_id": "10_9", "lon": 15.0, "lat": -75.75}}, {"type": "Feature", "geometry": {"type": "Polygon", "coordinates": [[[14.25, -75.0], [14.25, -73.5], [15.75, -73.5], [15.75, -75.0], [14.25, -75.0]]]}, "properties": {"cell_id": "10_10", "lon": 15.0, "lat": -74.25}}, {"type": "Feature", "geometry": {"type": "Polygon", "coordinates": [[[14.25, -73.5], [14.25, -72.0], [15.75, -72.0], [15.75, -73.5], [14.25, -73.5]]]}, "properties": {"cell_id": "10_11", "lon": 15.0, "lat": -72.75}}, {"type": "Feature", "geometry": {"type": "Polygon", "coordinates": [[[14.25, -72.0], [14.25, -70.5], [15.75, -70.5], [15.75, -72.0], [14.25, -72.0]]]}, "properties": {"cell_id": "10_12", "lon": 15.0, "lat": -71.25}}, {"type": "Feature", "geometry": {"type": "Polygon", "coordinates": [[[14.25, -70.5], [14.25, -69.0], [15.75, -69.0], [15.75, -70.5], [14.25, -70.5]]]}, "properties": {"cell_id": "10_13", "lon": 15.0, "lat": -69.75}}, {"type": "Feature", "geometry": {"type": "Polygon", "coordinates": [[[15.75, -79.5], [15.75, -78.0], [17.25, -78.0], [17.25, -79.5], [15.75, -79.5]]]}, "properties": {"cell_id": "11_7", "lon": 16.5, "lat": -78.75}}, {"type": "Feature", "geometry": {"type": "Polygon", "coordinates": [[[15.75, -78.0], [15.75, -76.5], [17.25, -76.5], [17.25, -78.0], [15.75, -78.0]]]}, "properties": {"cell_id": "11_8", "lon": 16.5, "lat": -77.25}}, {"type": "Feature", "geometry": {"type": "Polygon", "coordinates": [[[15.75, -76.5], [15.75, -75.0], [17.25, -75.0], [17.25, -76.5], [15.75, -76.5]]]}, "properties": {"cell_id": "11_9", "lon": 16.5, "lat": -75.75}}, {"type": "Feature", "geometry": {"type": "Polygon", "coordinates": [[[15.75, -75.0], [15.75, -73.5], [17.25, -73.5], [17.25, -75.0], [15.75, -75.0]]]}, "properties": {"cell_id": "11_10", "lon": 16.5, "lat": -74.25}}, {"type": "Feature", "geometry": {"type": "Polygon", "coordinates": [[[15.75, -73.5], [15.75, -72.0], [17.25, -72.0], [17.25, -73.5], [15.75, -73.5]]]}, "properties": {"cell_id": "11_11", "lon": 16.5, "lat": -72.75}}, {"type": "Feature", "geometry": {"type": "Polygon", "coordinates": [[[15.75, -72.0], [15.75, -70.5], [17.25, -70.5], [17.25, -72.0], [15.75, -72.0]]]}, "properties": {"cell_id": "11_12", "lon": 16.5, "lat": -71.25}}, {"type": "Feature", "geometry": {"type": "Polygon", "coordinates": [[[15.75, -70.5], [15.75, -69.0], [17.25, -69.0], [17.25, -70.5], [15.75, -70.5]]]}, "properties": {"cell_id": "11_13", "lon": 16.5, "lat": -69.75}}, {"type": "Feature", "geometry": {"type": "Polygon", "coordinates": [[[17.25, -79.5], [17.25, -78.0], [18.75, -78.0], [18.75, -79.5], [17.25, -79.5]]]}, "properties": {"cell_id": "12_7", "lon": 18.0, "lat": -78.75}}, {"type": "Feature", "geometry": {"type": "Polygon", "coordinates": [[[17.25, -78.0], [17.25, -76.5], [18.75, -76.5], [18.75, -78.0], [17.25, -78.0]]]}, "properties": {"cell_id": "12_8", "lon": 18.0, "lat": -77.25}}, {"type": "Feature", "geometry": {"type": "Polygon", "coordinates": [[[17.25, -76.5], [17.25, -75.0], [18.75, -75.0], [18.75, -76.5], [17.25, -76.5]]]}, "properties": {"cell_id": "12_9", "lon": 18.0, "lat": -75.75}}, {"type": "Feature", "geometry": {"type": "Polygon", "coordinates": [[[17.25, -75.0], [17.25, -73.5], [18.75, -73.5], [18.75, -75.0], [17.25, -75.0]]]}, "properties": {"cell_id": "12_10", "lon": 18.0, "lat": -74.25}}, {"type": "Feature", "geometry": {"type": "Polygon", "coordinates": [[[17.25, -73.5], [17.25, -72.0], [18.75, -72.0], [18.75, -73.5], [17.25, -73.5]]]}, "properties": {"cell_id": "12_11", "lon": 18.0, "lat": -72.75}}, {"type": "Feature", "geometry": {"type": "Polygon", "coordinates": [[[17.25, -72.0], [17.25, -70.5], [18.75, -70.5], [18.75, -72.0], [17.25, -72.0]]]}, "properties": {"cell_id": "12_12", "lon": 18.0, "lat": -71.25}}, {"type": "Feature", "geometry": {"type": "Polygon", "coordinates": [[[17.25, -70.5], [17.25, -69.0], [18.75, -69.0], [18.75, -70.5], [17.25, -70.5]]]}, "properties": {"cell_id": "12_13", "lon": 18.0, "lat": -69.75}}, {"type": "Feature", "geometry": {"type": "Polygon", "coordinates": [[[18.75, -79.5], [18.75, -78.0], [20.25, -78.0], [20.25, -79.5], [18.75, -79.5]]]}, "properties": {"cell_id": "13_7", "lon": 19.5, "lat": -78.75}}, {"type": "Feature", "geometry": {"type": "Polygon", "coordinates": [[[18.75, -78.0], [18.75, -76.5], [20.25, -76.5], [20.25, -78.0], [18.75, -78.0]]]}, "properties": {"cell_id": "13_8", "lon": 19.5, "lat": -77.25}}, {"type": "Feature", "geometry": {"type": "Polygon", "coordinates": [[[18.75, -76.5], [18.75, -75.0], [20.25, -75.0], [20.25, -76.5], [18.75, -76.5]]]}, "properties": {"cell_id": "13_9", "lon": 19.5, "lat": -75.75}}, {"type": "Feature", "geometry": {"type": "Polygon", "coordinates": [[[18.75, -75.0], [18.75, -73.5], [20.25, -73.5], [20.25, -75.0], [18.75, -75.0]]]}, "properties": {"cell_id": "13_10", "lon": 19.5, "lat": -74.25}}, {"type": "Feature", "geometry": {"type": "Polygon", "coordinates": [[[18.75, -73.5], [18.75, -72.0], [20.25, -72.0], [20.25, -73.5], [18.75, -73.5]]]}, "properties": {"cell_id": "13_11", "lon": 19.5, "lat": -72.75}}, {"type": "Feature", "geometry": {"type": "Polygon", "coordinates": [[[18.75, -72.0], [18.75, -70.5], [20.25, -70.5], [20.25, -72.0], [18.75, -72.0]]]}, "properties": {"cell_id": "13_12", "lon": 19.5, "lat": -71.25}}, {"type": "Feature", "geometry": {"type": "Polygon", "coordinates": [[[18.75, -70.5], [18.75, -69.0], [20.25, -69.0], [20.25, -70.5], [18.75, -70.5]]]}, "properties": {"cell_id": "13_13", "lon": 19.5, "lat": -69.75}}]}