{"type": "FeatureCollection", "features": [{"type": "Feature", "geometry": {"type": "Polygon", "coordinates": [[[20.25, 0.0], [20.25, 1.5], [21.75, 1.5], [21.75, 0.0], [20.25, 0.0]]]}, "properties": {"cell_id": "14_60", "lon": 21.0, "lat": 0.75}}, {"type": "Feature", "geometry": {"type": "Polygon", "coordinates": [[[20.25, 1.5], [20.25, 3.0], [21.75, 3.0], [21.75, 1.5], [20.25, 1.5]]]}, "properties": {"cell_id": "14_61", "lon": 21.0, "lat": 2.25}}, {"type": "Feature", "geometry": {"type": "Polygon", "coordinates": [[[20.25, 3.0], [20.25, 4.5], [21.75, 4.5], [21.75, 3.0], [20.25, 3.0]]]}, "properties": {"cell_id": "14_62", "lon": 21.0, "lat": 3.75}}, {"type": "Feature", "geometry": {"type": "Polygon", "coordinates": [[[20.25, 4.5], [20.25, 6.0], [21.75, 6.0], [21.75, 4.5], [20.25, 4.5]]]}, "properties": {"cell_id": "14_63", "lon": 21.0, "lat": 5.25}}, {"type": "Feature", "geometry": {"type": "Polygon", "coordinates": [[[20.25, 6.0], [20.25, 7.5], [21.75, 7.5], [21.75, 6.0], [20.25, 6.0]]]}, "properties": {"cell_id": "14_64", "lon": 21.0, "lat": 6.75}}, {"type": "Feature", "geometry": {"type": "Polygon", "coordinates": [[[20.25, 7.5], [20.25, 9.0], [21.75, 9.0], [21.75, 7.5], [20.25, 7.5]]]}, "properties": {"cell_id": "14_65", "lon": 21.0, "lat": 8.25}}, {"type": "Feature", "geometry": {"type": "Polygon", "coordinates": [[[20.25, 9.0], [20.25, 10.5], [21.75, 10.5], [21.75, 9.0], [20.25, 9.0]]]}, "properties": {"cell_id": "14_66", "lon": 21.0, "lat": 9.75}}, {"type": "Feature", "geometry": {"type": "Polygon", "coordinates": [[[21.75, 0.0], [21.75, 1.5], [23.25, 1.5], [23.25, 0.0], [21.75, 0.0]]]}, "properties": {"cell_id": "15_60", "lon": 22.5, "lat": 0.75}}, {"type": "Feature", "geometry": {"type": "Polygon", "coordinates": [[[21.75, 1.5], [21.75, 3.0], [23.25, 3.0], [23.25, 1.5], [21.75, 1.5]]]}, "properties": {"cell_id": "15_61", "lon": 22.5, "lat": 2.25}}, {"type": "Feature", "geometry": {"type": "Polygon", "coordinates": [[[21.75, 3.0], [21.75, 4.5], [23.25, 4.5], [23.25, 3.0], [21.75, 3.0]]]}, "properties": {"cell_id": "15_62", "lon": 22.5, "lat": 3.75}}, {"type": "Feature", "geometry": {"type": "Polygon", "coordinates": [[[21.75, 4.5], [21.75, 6.0], [23.25, 6.0], [23.25, 4.5], [21.75, 4.5]]]}, "properties": {"cell_id": "15_63", "lon": 22.5, "lat": 5.25}}, {"type": "Feature", "geometry": {"type": "Polygon", "coordinates": [[[21.75, 6.0], [21.75, 7.5], [23.25, 7.5], [23.25, 6.0], [21.75, 6.0]]]}, "properties": {"cell_id": "15_64", "lon": 22.5, "lat": 6.75}}, {"type": "Feature", "geometry": {"type": "Polygon", "coordinates": [[[21.75, 7.5], [21.75, 9.0], [23.25, 9.0], [23.25, 7.5], [21.75, 7.5]]]}, "properties": {"cell_id": "15_65", "lon": 22.5, "lat": 8.25}}, {"type": "Feature", "geometry": {"type": "Polygon", "coordinates": [[[21.75, 9.0], [21.75, 10.5], [23.25, 10.5], [23.25, 9.0], [21.75, 9.0]]]}, "properties": {"cell_id": "15_66", "lon": 22.5, "lat": 9.75}}, {"type": "Feature", "geometry": {"type": "Polygon", "coordinates": [[[23.25, 0.0], [23.25, 1.5], [24.75, 1.5], [24.75, 0.0], [23.25, 0.0]]]}, "properties": {"cell_id": "16_60", "lon": 24.0, "lat": 0.75}}, {"type": "Feature", "geometry": {"type": "Polygon", "coordinates": [[[23.25, 1.5], [23.25, 3.0], [24.75, 3.0], [24.75, 1.5], [23.25, 1.5]]]}, "properties": {"cell_id": "16_61", "lon": 24.0, "lat": 2.25}}, {"type": "Feature", "geometry": {"type": "Polygon", "coordinates": [[[23.25, 3.0], [23.25, 4.5], [24.75, 4.5], [24.75, 3.0], [23.25, 3.0]]]}, "properties": {"cell_id": "16_62", "lon": 24.0, "lat": 3.75}}, {"type": "Feature", "geometry": {"type": "Polygon", "coordinates": [[[23.25, 4.5], [23.25, 6.0], [24.75, 6.0], [24.75, 4.5], [23.25, 4.5]]]}, "properties": {"cell_id": "16_63", "lon": 24.0, "lat": 5.25}}, {"type": "Feature", "geometry": {"type": "Polygon", "coordinates": [[[23.25, 6.0], [23.25, 7.5], [24.75, 7.5], [24.75, 6.0], [23.25, 6.0]]]}, "properties": {"cell_id": "16_64", "lon": 24.0, "lat": 6.75}}, {"type": "Feature", "geometry": {"type": "Polygon", "coordinates": [[[23.25, 7.5], [23.25, 9.0], [24.75, 9.0], [24.75, 7.5], [23.25, 7.5]]]}, "properties": {"cell_id": "16_65", "lon": 24.0, "lat": 8.25}}, {"type": "Feature", "geometry": {"type": "Polygon", "coordinates": [[[23.25, 9.0], [23.25, 10.5], [24.75, 10.5], [24.75, 9.0], [23.25, 9.0]]]}, "properties": {"cell_id": "16_66", "lon": 24.0, "lat": 9.75}}, {"type": "Feature", "geometry": {"type": "Polygon", "coordinates": [[[24.75, 0.0], [24.75, 1.5], [26.25, 1.5], [26.25, 0.0], [24.75, 0.0]]]}, "properties": {"cell_id": "17_60", "lon": 25.5, "lat": 0.75}}, {"type": "Feature", "geometry": {"type": "Polygon", "coordinates": [[[24.75, 1.5], [24.75, 3.0], [26.25, 3.0], [26.25, 1.5], [24.75, 1.5]]]}, "properties": {"cell_id": "17_61", "lon": 25.5, "lat": 2.25}}, {"type": "Feature", "geometry": {"type": "Polygon", "coordinates": [[[24.75, 3.0], [24.75, 4.5], [26.25, 4.5], [26.25, 3.0], [24.75, 3.0]]]}, "properties": {"cell_id": "17_62", "lon": 25.5, "lat": 3.75}}, {"type": "Feature", "geometry": {"type": "Polygon", "coordinates": [[[24.75, 4.5], [24.75, 6.0], [26.25, 6.0], [26.25, 4.5], [24.75, 4.5]]]}, "properties": {"cell_id": "17_63", "lon": 25.5, "lat": 5.25}}, {"type": "Feature", "geometry": {"type": "Polygon", "coordinates": [[[24.75, 6.0], [24.75, 7.5], [26.25, 7.5], [26.25, 6.0], [24.75, 6.0]]]}, "properties": {"cell_id": "17_64", "lon": 25.5, "lat": 6.75}}, {"type": "Feature", "geometry": {"type": "Polygon", "coordinates": [[[24.75, 7.5], [24.75, 9.0], [26.25, 9.0], [26.25, 7.5], [24.75, 7.5]]]}, "properties": {"cell_id": "17_65", "lon": 25.5, "lat": 8.25}}, {"type": "Feature", "geometry": {"type": "Polygon", "coordinates": [[[24.75, 9.0], [24.75, 10.5], [26.25, 10.5], [26.25, 9.0], [24.75, 9.0]]]}, "properties": {"cell_id": "17_66", "lon": 25.5, "lat": 9.75}}, {"type": "Feature", "geometry": {"type": "Polygon", "coordinates": [[[26.25, 0.0], [26.25, 1.5], [27.75, 1.5], [27.75, 0.0], [26.25, 0.0]]]}, "properties": {"cell_id": "18_60", "lon": 27.0, "lat": 0.75}}, {"type": "Feature", "geometry": {"type": "Polygon", "coordinates": [[[26.25, 1.5], [26.25, 3.0], [27.75, 3.0], [27.75, 1.5], [26.25, 1.5]]]}, "properties": {"cell_id": "18_61", "lon": 27.0, "lat": 2.25}}, {"type": "Feature", "geometry": {"type": "Polygon", "coordinates": [[[26.25, 3.0], [26.25, 4.5], [27.75, 4.5], [27.75, 3.0], [26.25, 3.0]]]}, "properties": {"cell_id": "18_62", "lon": 27.0, "lat": 3.75}}, {"type": "Feature", "geometry": {"type": "Polygon", "coordinates": [[[26.25, 4.5], [26.25, 6.0], [27.75, 6.0], [27.75, 4.5], [26.25, 4.5]]]}, "properties": {"cell_id": "18_63", "lon": 27.0, "lat": 5.25}}, {"type": "Feature", "geometry": {"type": "Polygon", "coordinates": [[[26.25, 6.0], [26.25, 7.5], [27.75, 7.5], [27.75, 6.0], [26.25, 6.0]]]}, "properties": {"cell_id": "18_64", "lon": 27.0, "lat": 6.75}}, {"type": "Feature", "geometry": {"type": "Polygon", "coordinates": [[[26.25, 7.5], [26.25, 9.0], [27.75, 9.0], [27.75, 7.5], [26.25, 7.5]]]}, "properties": {"cell_id": "18_65", "lon": 27.0, "lat": 8.25}}, {"type": "Feature", "geometry": {"type": "Polygon", "coordinates": [[[26.25, 9.0], [26.25, 10.5], [27.75, 10.5], [27.75, 9.0], [26.25, 9.0]]]}, "properties": {"cell_id": "18_66", "lon": 27.0, "lat": 9.75}}, {"type": "Feature", "geometry": {"type": "Polygon", "coordinates": [[[27.75, 0.0], [27.75, 1.5], [29.25, 1.5], [29.25, 0.0], [27.75, 0.0]]]}, "properties": {"cell_id": "19_60", "lon": 28.5, "lat": 0.75}}, {"type": "Feature", "geometry": {"type": "Polygon", "coordinates": [[[27.75, 1.5], [27.75, 3.0], [29.25, 3.0], [29.25, 1.5], [27.75, 1.5]]]}, "properties": {"cell_id": "19_61", "lon": 28.5, "lat": 2.25}}, {"type": "Feature", "geometry": {"type": "Polygon", "coordinates": [[[27.75, 3.0], [27.75, 4.5], [29.25, 4.5], [29.25, 3.0], [27.75, 3.0]]]}, "properties": {"cell_id": "19_62", "lon": 28.5, "lat": 3.75}}, {"type": "Feature", "geometry": {"type": "Polygon", "coordinates": [[[27.75, 4.5], [27.75, 6.0], [29.25, 6.0], [29.25, 4.5], [27.75, 4.5]]]}, "properties": {"cell_id": "19_63", "lon": 28.5, "lat": 5.25}}, {"type": "Feature", "geometry": {"type": "Polygon", "coordinates": [[[27.75, 6.0], [27.75, 7.5], [29.25, 7.5], [29.25, 6.0], [27.75, 6.0]]]}, "properties": {"cell_id": "19_64", "lon": 28.5, "lat": 6.75}}, {"type": "Feature", "geometry": {"type": "Polygon", "coordinates": [[[27.75, 7.5], [27.75, 9.0], [29.25, 9.0], [29.25, 7.5], [27.75, 7.5]]]}, "properties": {"cell_id": "19_65", "lon": 28.5, "lat": 8.25}}, {"type": "Feature", "geometry": {"type": "Polygon", "coordinates": [[[27.75, 9.0], [27.75, 10.5], [29.25, 10.5], [29.25, 9.0], [27.75, 9.0]]]}, "properties": {"cell_id": "19_66", "lon": 28.5, "lat": 9.75}}, {"type": "Feature", "geometry": {"type": "Polygon", "coordinates": [[[29.25, 0.0], [29.25, 1.5], [30.75, 1.5], [30.75, 0.0], [29.25, 0.0]]]}, "properties": {"cell_id": "20_60", "lon": 30.0, "lat": 0.75}}, {"type": "Feature", "geometry": {"type": "Polygon", "coordinates": [[[29.25, 1.5], [29.25, 3.0], [30.75, 3.0], [30.75, 1.5], [29.25, 1.5]]]}, "properties": {"cell_id": "20_61", "lon": 30.0, "lat": 2.25}}, {"type": "Feature", "geometry": {"type": "Polygon", "coordinates": [[[29.25, 3.0], [29.25, 4.5], [30.75, 4.5], [30.75, 3.0], [29.25, 3.0]]]}, "properties": {"cell_id": "20_62", "lon": 30.0, "lat": 3.75}}, {"type": "Feature", "geometry": {"type": "Polygon", "coordinates": [[[29.25, 4.5], [29.25, 6.0], [30.75, 6.0], [30.75, 4.5], [29.25, 4.5]]]}, "properties": {"cell_id": "20_63", "lon": 30.0, "lat": 5.25}}, {"type": "Feature", "geometry": {"type": "Polygon", "coordinates": [[[29.25, 6.0], [29.25, 7.5], [30.75, 7.5], [30.75, 6.0], [29.25, 6.0]]]}, "properties": {"cell_id": "20_64", "lon": 30.0, "lat": 6.75}}, {"type": "Feature", "geometry": {"type": "Polygon", "coordinates": [[[29.25, 7.5], [29.25, 9.0], [30.75, 9.0], [30.75, 7.5], [29.25, 7.5]]]}, "properties": {"cell_id": "20_65", "lon": 30.0, "lat": 8.25}}, {"type": "Feature", "geometry": {"type": "Polygon", "coordinates": [[[29.25, 9.0], [29.25, 10.5], [30.75, 10.5], [30.75, 9.0], [29.25, 9.0]]]}, "properties": {"cell_id": "20_66", "lon": 30.0, "lat": 9.75}}]}