{"type": "FeatureCollection", "features": [{"type": "Feature", "geometry": {"type": "Polygon", "coordinates": [[[-123.75, 72.0], [-123.75, 73.5], [-122.25, 73.5], [-122.25, 72.0], [-123.75, 72.0]]]}, "properties": {"cell_id": "158_108", "lon": -123.0, "lat": 72.75}}, {"type": "Feature", "geometry": {"type": "Polygon", "coordinates": [[[-123.75, 73.5], [-123.75, 75.0], [-122.25, 75.0], [-122.25, 73.5], [-123.75, 73.5]]]}, "properties": {"cell_id": "158_109", "lon": -123.0, "lat": 74.25}}, {"type": "Feature", "geometry": {"type": "Polygon", "coordinates": [[[-123.75, 75.0], [-123.75, 76.5], [-122.25, 76.5], [-122.25, 75.0], [-123.75, 75.0]]]}, "properties": {"cell_id": "158_110", "lon": -123.0, "lat": 75.75}}, {"type": "Feature", "geometry": {"type": "Polygon", "coordinates": [[[-122.25, 72.0], [-122.25, 73.5], [-120.75, 73.5], [-120.75, 72.0], [-122.25, 72.0]]]}, "properties": {"cell_id": "159_108", "lon": -121.5, "lat": 72.75}}, {"type": "Feature", "geometry": {"type": "Polygon", "coordinates": [[[-122.25, 73.5], [-122.25, 75.0], [-120.75, 75.0], [-120.75, 73.5], [-122.25, 73.5]]]}, "properties": {"cell_id": "159_109", "lon": -121.5, "lat": 74.25}}, {"type": "Feature", "geometry": {"type": "Polygon", "coordinates": [[[-122.25, 75.0], [-122.25, 76.5], [-120.75, 76.5], [-120.75, 75.0], [-122.25, 75.0]]]}, "properties": {"cell_id": "159_110", "lon": -121.5, "lat": 75.75}}, {"type": "Feature", "geometry": {"type": "Polygon", "coordinates": [[[-120.75, 72.0], [-120.75, 73.5], [-119.25, 73.5], [-119.25, 72.0], [-120.75, 72.0]]]}, "properties": {"cell_id": "160_108", "lon": -120.0, "lat": 72.75}}, {"type": "Feature", "geometry": {"type": "Polygon", "coordinates": [[[-120.75, 73.5], [-120.75, 75.0], [-119.25, 75.0], [-119.25, 73.5], [-120.75, 73.5]]]}, "properties": {"cell_id": "160_109", "lon": -120.0, "lat": 74.25}}, {"type": "Feature", "geometry": {"type": "Polygon", "coordinates": [[[-120.75, 75.0], [-120.75, 76.5], [-119.25, 76.5], [-119.25, 75.0], [-120.75, 75.0]]]}, "properties": {"cell_id": "160_110", "lon": -120.0, "lat": 75.75}}]}