{"type": "FeatureCollection", "features": [{"type": "Feature", "geometry": {"type": "Polygon", "coordinates": [[[161.25, -90.0], [161.25, -88.5], [162.75, -88.5], [162.75, -90.0], [161.25, -90.0]]]}, "properties": {"cell_id": "108_0", "lon": 162.0, "lat": -89.25}}, {"type": "Feature", "geometry": {"type": "Polygon", "coordinates": [[[161.25, -88.5], [161.25, -87.0], [162.75, -87.0], [162.75, -88.5], [161.25, -88.5]]]}, "properties": {"cell_id": "108_1", "lon": 162.0, "lat": -87.75}}, {"type": "Feature", "geometry": {"type": "Polygon", "coordinates": [[[161.25, -87.0], [161.25, -85.5], [162.75, -85.5], [162.75, -87.0], [161.25, -87.0]]]}, "properties": {"cell_id": "108_2", "lon": 162.0, "lat": -86.25}}, {"type": "Feature", "geometry": {"type": "Polygon", "coordinates": [[[161.25, -85.5], [161.25, -84.0], [162.75, -84.0], [162.75, -85.5], [161.25, -85.5]]]}, "properties": {"cell_id": "108_3", "lon": 162.0, "lat": -84.75}}, {"type": "Feature", "geometry": {"type": "Polygon", "coordinates": [[[161.25, -84.0], [161.25, -82.5], [162.75, -82.5], [162.75, -84.0], [161.25, -84.0]]]}, "properties": {"cell_id": "108_4", "lon": 162.0, "lat": -83.25}}, {"type": "Feature", "geometry": {"type": "Polygon", "coordinates": [[[161.25, -82.5], [161.25, -81.0], [162.75, -81.0], [162.75, -82.5], [161.25, -82.5]]]}, "properties": {"cell_id": "108_5", "lon": 162.0, "lat": -81.75}}, {"type": "Feature", "geometry": {"type": "Polygon", "coordinates": [[[161.25, -81.0], [161.25, -79.5], [162.75, -79.5], [162.75, -81.0], [161.25, -81.0]]]}, "properties": {"cell_id": "108_6", "lon": 162.0, "lat": -80.25}}, {"type": "Feature", "geometry": {"type": "Polygon", "coordinates": [[[162.75, -90.0], [162.75, -88.5], [164.25, -88.5], [164.25, -90.0], [162.75, -90.0]]]}, "properties": {"cell_id": "109_0", "lon": 163.5, "lat": -89.25}}, {"type": "Feature", "geometry": {"type": "Polygon", "coordinates": [[[162.75, -88.5], [162.75, -87.0], [164.25, -87.0], [164.25, -88.5], [162.75, -88.5]]]}, "properties": {"cell_id": "109_1", "lon": 163.5, "lat": -87.75}}, {"type": "Feature", "geometry": {"type": "Polygon", "coordinates": [[[162.75, -87.0], [162.75, -85.5], [164.25, -85.5], [164.25, -87.0], [162.75, -87.0]]]}, "properties": {"cell_id": "109_2", "lon": 163.5, "lat": -86.25}}, {"type": "Feature", "geometry": {"type": "Polygon", "coordinates": [[[162.75, -85.5], [162.75, -84.0], [164.25, -84.0], [164.25, -85.5], [162.75, -85.5]]]}, "properties": {"cell_id": "109_3", "lon": 163.5, "lat": -84.75}}, {"type": "Feature", "geometry": {"type": "Polygon", "coordinates": [[[162.75, -84.0], [162.75, -82.5], [164.25, -82.5], [164.25, -84.0], [162.75, -84.0]]]}, "properties": {"cell_id": "109_4", "lon": 163.5, "lat": -83.25}}, {"type": "Feature", "geometry": {"type": "Polygon", "coordinates": [[[162.75, -82.5], [162.75, -81.0], [164.25, -81.0], [164.25, -82.5], [162.75, -82.5]]]}, "properties": {"cell_id": "109_5", "lon": 163.5, "lat": -81.75}}, {"type": "Feature", "geometry": {"type": "Polygon", "coordinates": [[[162.75, -81.0], [162.75, -79.5], [164.25, -79.5], [164.25, -81.0], [162.75, -81.0]]]}, "properties": {"cell_id": "109_6", "lon": 163.5, "lat": -80.25}}, {"type": "Feature", "geometry": {"type": "Polygon", "coordinates": [[[164.25, -90.0], [164.25, -88.5], [165.75, -88.5], [165.75, -90.0], [164.25, -90.0]]]}, "properties": {"cell_id": "110_0", "lon": 165.0, "lat": -89.25}}, {"type": "Feature", "geometry": {"type": "Polygon", "coordinates": [[[164.25, -88.5], [164.25, -87.0], [165.75, -87.0], [165.75, -88.5], [164.25, -88.5]]]}, "properties": {"cell_id": "110_1", "lon": 165.0, "lat": -87.75}}, {"type": "Feature", "geometry": {"type": "Polygon", "coordinates": [[[164.25, -87.0], [164.25, -85.5], [165.75, -85.5], [165.75, -87.0], [164.25, -87.0]]]}, "properties": {"cell_id": "110_2", "lon": 165.0, "lat": -86.25}}, {"type": "Feature", "geometry": {"type": "Polygon", "coordinates": [[[164.25, -85.5], [164.25, -84.0], [165.75, -84.0], [165.75, -85.5], [164.25, -85.5]]]}, "properties": {"cell_id": "110_3", "lon": 165.0, "lat": -84.75}}, {"type": "Feature", "geometry": {"type": "Polygon", "coordinates": [[[164.25, -84.0], [164.25, -82.5], [165.75, -82.5], [165.75, -84.0], [164.25, -84.0]]]}, "properties": {"cell_id": "110_4", "lon": 165.0, "lat": -83.25}}, {"type": "Feature", "geometry": {"type": "Polygon", "coordinates": [[[164.25, -82.5], [164.25, -81.0], [165.75, -81.0], [165.75, -82.5], [164.25, -82.5]]]}, "properties": {"cell_id": "110_5", "lon": 165.0, "lat": -81.75}}, {"type": "Feature", "geometry": {"type": "Polygon", "coordinates": [[[164.25, -81.0], [164.25, -79.5], [165.75, -79.5], [165.75, -81.0], [164.25, -81.0]]]}, "properties": {"cell_id": "110_6", "lon": 165.0, "lat": -80.25}}, {"type": "Feature", "geometry": {"type": "Polygon", "coordinates": [[[165.75, -90.0], [165.75, -88.5], [167.25, -88.5], [167.25, -90.0], [165.75, -90.0]]]}, "properties": {"cell_id": "111_0", "lon": 166.5, "lat": -89.25}}, {"type": "Feature", "geometry": {"type": "Polygon", "coordinates": [[[165.75, -88.5], [165.75, -87.0], [167.25, -87.0], [167.25, -88.5], [165.75, -88.5]]]}, "properties": {"cell_id": "111_1", "lon": 166.5, "lat": -87.75}}, {"type": "Feature", "geometry": {"type": "Polygon", "coordinates": [[[165.75, -87.0], [165.75, -85.5], [167.25, -85.5], [167.25, -87.0], [165.75, -87.0]]]}, "properties": {"cell_id": "111_2", "lon": 166.5, "lat": -86.25}}, {"type": "Feature", "geometry": {"type": "Polygon", "coordinates": [[[165.75, -85.5], [165.75, -84.0], [167.25, -84.0], [167.25, -85.5], [165.75, -85.5]]]}, "properties": {"cell_id": "111_3", "lon": 166.5, "lat": -84.75}}, {"type": "Feature", "geometry": {"type": "Polygon", "coordinates": [[[165.75, -84.0], [165.75, -82.5], [167.25, -82.5], [167.25, -84.0], [165.75, -84.0]]]}, "properties": {"cell_id": "111_4", "lon": 166.5, "lat": -83.25}}, {"type": "Feature", "geometry": {"type": "Polygon", "coordinates": [[[165.75, -82.5], [165.75, -81.0], [167.25, -81.0], [167.25, -82.5], [165.75, -82.5]]]}, "properties": {"cell_id": "111_5", "lon": 166.5, "lat": -81.75}}, {"type": "Feature", "geometry": {"type": "Polygon", "coordinates": [[[165.75, -81.0], [165.75, -79.5], [167.25, -79.5], [167.25, -81.0], [165.75, -81.0]]]}, "properties": {"cell_id": "111_6", "lon": 166.5, "lat": -80.25}}, {"type": "Feature", "geometry": {"type": "Polygon", "coordinates": [[[167.25, -90.0], [167.25, -88.5], [168.75, -88.5], [168.75, -90.0], [167.25, -90.0]]]}, "properties": {"cell_id": "112_0", "lon": 168.0, "lat": -89.25}}, {"type": "Feature", "geometry": {"type": "Polygon", "coordinates": [[[167.25, -88.5], [167.25, -87.0], [168.75, -87.0], [168.75, -88.5], [167.25, -88.5]]]}, "properties": {"cell_id": "112_1", "lon": 168.0, "lat": -87.75}}, {"type": "Feature", "geometry": {"type": "Polygon", "coordinates": [[[167.25, -87.0], [167.25, -85.5], [168.75, -85.5], [168.75, -87.0], [167.25, -87.0]]]}, "properties": {"cell_id": "112_2", "lon": 168.0, "lat": -86.25}}, {"type": "Feature", "geometry": {"type": "Polygon", "coordinates": [[[167.25, -85.5], [167.25, -84.0], [168.75, -84.0], [168.75, -85.5], [167.25, -85.5]]]}, "properties": {"cell_id": "112_3", "lon": 168.0, "lat": -84.75}}, {"type": "Feature", "geometry": {"type": "Polygon", "coordinates": [[[167.25, -84.0], [167.25, -82.5], [168.75, -82.5], [168.75, -84.0], [167.25, -84.0]]]}, "properties": {"cell_id": "112_4", "lon": 168.0, "lat": -83.25}}, {"type": "Feature", "geometry": {"type": "Polygon", "coordinates": [[[167.25, -82.5], [167.25, -81.0], [168.75, -81.0], [168.75, -82.5], [167.25, -82.5]]]}, "properties": {"cell_id": "112_5", "lon": 168.0, "lat": -81.75}}, {"type": "Feature", "geometry": {"type": "Polygon", "coordinates": [[[167.25, -81.0], [167.25, -79.5], [168.75, -79.5], [168.75, -81.0], [167.25, -81.0]]]}, "properties": {"cell_id": "112_6", "lon": 168.0, "lat": -80.25}}, {"type": "Feature", "geometry": {"type": "Polygon", "coordinates": [[[168.75, -90.0], [168.75, -88.5], [170.25, -88.5], [170.25, -90.0], [168.75, -90.0]]]}, "properties": {"cell_id": "113_0", "lon": 169.5, "lat": -89.25}}, {"type": "Feature", "geometry": {"type": "Polygon", "coordinates": [[[168.75, -88.5], [168.75, -87.0], [170.25, -87.0], [170.25, -88.5], [168.75, -88.5]]]}, "properties": {"cell_id": "113_1", "lon": 169.5, "lat": -87.75}}, {"type": "Feature", "geometry": {"type": "Polygon", "coordinates": [[[168.75, -87.0], [168.75, -85.5], [170.25, -85.5], [170.25, -87.0], [168.75, -87.0]]]}, "properties": {"cell_id": "113_2", "lon": 169.5, "lat": -86.25}}, {"type": "Feature", "geometry": {"type": "Polygon", "coordinates": [[[168.75, -85.5], [168.75, -84.0], [170.25, -84.0], [170.25, -85.5], [168.75, -85.5]]]}, "properties": {"cell_id": "113_3", "lon": 169.5, "lat": -84.75}}, {"type": "Feature", "geometry": {"type": "Polygon", "coordinates": [[[168.75, -84.0], [168.75, -82.5], [170.25, -82.5], [170.25, -84.0], [168.75, -84.0]]]}, "properties": {"cell_id": "113_4", "lon": 169.5, "lat": -83.25}}, {"type": "Feature", "geometry": {"type": "Polygon", "coordinates": [[[168.75, -82.5], [168.75, -81.0], [170.25, -81.0], [170.25, -82.5], [168.75, -82.5]]]}, "properties": {"cell_id": "113_5", "lon": 169.5, "lat": -81.75}}, {"type": "Feature", "geometry": {"type": "Polygon", "coordinates": [[[168.75, -81.0], [168.75, -79.5], [170.25, -79.5], [170.25, -81.0], [168.75, -81.0]]]}, "properties": {"cell_id": "113_6", "lon": 169.5, "lat": -80.25}}]}