{"type": "FeatureCollection", "features": [{"type": "Feature", "geometry": {"type": "Polygon", "coordinates": [[[-29.25, -79.5], [-29.25, -78.0], [-27.75, -78.0], [-27.75, -79.5], [-29.25, -79.5]]]}, "properties": {"cell_id": "221_7", "lon": -28.5, "lat": -78.75}}, {"type": "Feature", "geometry": {"type": "Polygon", "coordinates": [[[-29.25, -78.0], [-29.25, -76.5], [-27.75, -76.5], [-27.75, -78.0], [-29.25, -78.0]]]}, "properties": {"cell_id": "221_8", "lon": -28.5, "lat": -77.25}}, {"type": "Feature", "geometry": {"type": "Polygon", "coordinates": [[[-29.25, -76.5], [-29.25, -75.0], [-27.75, -75.0], [-27.75, -76.5], [-29.25, -76.5]]]}, "properties": {"cell_id": "221_9", "lon": -28.5, "lat": -75.75}}, {"type": "Feature", "geometry": {"type": "Polygon", "coordinates": [[[-27.75, -79.5], [-27.75, -78.0], [-26.25, -78.0], [-26.25, -79.5], [-27.75, -79.5]]]}, "properties": {"cell_id": "222_7", "lon": -27.0, "lat": -78.75}}, {"type": "Feature", "geometry": {"type": "Polygon", "coordinates": [[[-27.75, -78.0], [-27.75, -76.5], [-26.25, -76.5], [-26.25, -78.0], [-27.75, -78.0]]]}, "properties": {"cell_id": "222_8", "lon": -27.0, "lat": -77.25}}, {"type": "Feature", "geometry": {"type": "Polygon", "coordinates": [[[-27.75, -76.5], [-27.75, -75.0], [-26.25, -75.0], [-26.25, -76.5], [-27.75, -76.5]]]}, "properties": {"cell_id": "222_9", "lon": -27.0, "lat": -75.75}}, {"type": "Feature", "geometry": {"type": "Polygon", "coordinates": [[[-26.25, -79.5], [-26.25, -78.0], [-24.75, -78.0], [-24.75, -79.5], [-26.25, -79.5]]]}, "properties": {"cell_id": "223_7", "lon": -25.5, "lat": -78.75}}, {"type": "Feature", "geometry": {"type": "Polygon", "coordinates": [[[-26.25, -78.0], [-26.25, -76.5], [-24.75, -76.5], [-24.75, -78.0], [-26.25, -78.0]]]}, "properties": {"cell_id": "223_8", "lon": -25.5, "lat": -77.25}}, {"type": "Feature", "geometry": {"type": "Polygon", "coordinates": [[[-26.25, -76.5], [-26.25, -75.0], [-24.75, -75.0], [-24.75, -76.5], [-26.25, -76.5]]]}, "properties": {"cell_id": "223_9", "lon": -25.5, "lat": -75.75}}, {"type": "Feature", "geometry": {"type": "Polygon", "coordinates": [[[-24.75, -79.5], [-24.75, -78.0], [-23.25, -78.0], [-23.25, -79.5], [-24.75, -79.5]]]}, "properties": {"cell_id": "224_7", "lon": -24.0, "lat": -78.75}}, {"type": "Feature", "geometry": {"type": "Polygon", "coordinates": [[[-24.75, -78.0], [-24.75, -76.5], [-23.25, -76.5], [-23.25, -78.0], [-24.75, -78.0]]]}, "properties": {"cell_id": "224_8", "lon": -24.0, "lat": -77.25}}, {"type": "Feature", "geometry": {"type": "Polygon", "coordinates": [[[-24.75, -76.5], [-24.75, -75.0], [-23.25, -75.0], [-23.25, -76.5], [-24.75, -76.5]]]}, "properties": {"cell_id": "224_9", "lon": -24.0, "lat": -75.75}}, {"type": "Feature", "geometry": {"type": "Polygon", "coordinates": [[[-23.25, -79.5], [-23.25, -78.0], [-21.75, -78.0], [-21.75, -79.5], [-23.25, -79.5]]]}, "properties": {"cell_id": "225_7", "lon": -22.5, "lat": -78.75}}, {"type": "Feature", "geometry": {"type": "Polygon", "coordinates": [[[-23.25, -78.0], [-23.25, -76.5], [-21.75, -76.5], [-21.75, -78.0], [-23.25, -78.0]]]}, "properties": {"cell_id": "225_8", "lon": -22.5, "lat": -77.25}}, {"type": "Feature", "geometry": {"type": "Polygon", "coordinates": [[[-23.25, -76.5], [-23.25, -75.0], [-21.75, -75.0], [-21.75, -76.5], [-23.25, -76.5]]]}, "properties": {"cell_id": "225_9", "lon": -22.5, "lat": -75.75}}, {"type": "Feature", "geometry": {"type": "Polygon", "coordinates": [[[-21.75, -79.5], [-21.75, -78.0], [-20.25, -78.0], [-20.25, -79.5], [-21.75, -79.5]]]}, "properties": {"cell_id": "226_7", "lon": -21.0, "lat": -78.75}}, {"type": "Feature", "geometry": {"type": "Polygon", "coordinates": [[[-21.75, -78.0], [-21.75, -76.5], [-20.25, -76.5], [-20.25, -78.0], [-21.75, -78.0]]]}, "properties": {"cell_id": "226_8", "lon": -21.0, "lat": -77.25}}, {"type": "Feature", "geometry": {"type": "Polygon", "coordinates": [[[-21.75, -76.5], [-21.75, -75.0], [-20.25, -75.0], [-20.25, -76.5], [-21.75, -76.5]]]}, "properties": {"cell_id": "226_9", "lon": -21.0, "lat": -75.75}}, {"type": "Feature", "geometry": {"type": "Polygon", "coordinates": [[[-21.75, -75.0], [-21.75, -73.5], [-20.25, -73.5], [-20.25, -75.0], [-21.75, -75.0]]]}, "properties": {"cell_id": "226_10", "lon": -21.0, "lat": -74.25}}, {"type": "Feature", "geometry": {"type": "Polygon", "coordinates": [[[-21.75, -73.5], [-21.75, -72.0], [-20.25, -72.0], [-20.25, -73.5], [-21.75, -73.5]]]}, "properties": {"cell_id": "226_11", "lon": -21.0, "lat": -72.75}}, {"type": "Feature", "geometry": {"type": "Polygon", "coordinates": [[[-20.25, -79.5], [-20.25, -78.0], [-18.75, -78.0], [-18.75, -79.5], [-20.25, -79.5]]]}, "properties": {"cell_id": "227_7", "lon": -19.5, "lat": -78.75}}, {"type": "Feature", "geometry": {"type": "Polygon", "coordinates": [[[-20.25, -78.0], [-20.25, -76.5], [-18.75, -76.5], [-18.75, -78.0], [-20.25, -78.0]]]}, "properties": {"cell_id": "227_8", "lon": -19.5, "lat": -77.25}}, {"type": "Feature", "geometry": {"type": "Polygon", "coordinates": [[[-20.25, -76.5], [-20.25, -75.0], [-18.75, -75.0], [-18.75, -76.5], [-20.25, -76.5]]]}, "properties": {"cell_id": "227_9", "lon": -19.5, "lat": -75.75}}, {"type": "Feature", "geometry": {"type": "Polygon", "coordinates": [[[-20.25, -75.0], [-20.25, -73.5], [-18.75, -73.5], [-18.75, -75.0], [-20.25, -75.0]]]}, "properties": {"cell_id": "227_10", "lon": -19.5, "lat": -74.25}}, {"type": "Feature", "geometry": {"type": "Polygon", "coordinates": [[[-20.25, -73.5], [-20.25, -72.0], [-18.75, -72.0], [-18.75, -73.5], [-20.25, -73.5]]]}, "properties": {"cell_id": "227_11", "lon": -19.5, "lat": -72.75}}]}