{"type": "FeatureCollection", "features": [{"type": "Feature", "geometry": {"type": "Polygon", "coordinates": [[[-149.25, 60.0], [-149.25, 61.5], [-147.75, 61.5], [-147.75, 60.0], [-149.25, 60.0]]]}, "properties": {"cell_id": "141_100", "lon": -148.5, "lat": 60.75}}, {"type": "Feature", "geometry": {"type": "Polygon", "coordinates": [[[-149.25, 61.5], [-149.25, 63.0], [-147.75, 63.0], [-147.75, 61.5], [-149.25, 61.5]]]}, "properties": {"cell_id": "141_101", "lon": -148.5, "lat": 62.25}}, {"type": "Feature", "geometry": {"type": "Polygon", "coordinates": [[[-149.25, 63.0], [-149.25, 64.5], [-147.75, 64.5], [-147.75, 63.0], [-149.25, 63.0]]]}, "properties": {"cell_id": "141_102", "lon": -148.5, "lat": 63.75}}, {"type": "Feature", "geometry": {"type": "Polygon", "coordinates": [[[-149.25, 64.5], [-149.25, 66.0], [-147.75, 66.0], [-147.75, 64.5], [-149.25, 64.5]]]}, "properties": {"cell_id": "141_103", "lon": -148.5, "lat": 65.25}}, {"type": "Feature", "geometry": {"type": "Polygon", "coordinates": [[[-149.25, 66.0], [-149.25, 67.5], [-147.75, 67.5], [-147.75, 66.0], [-149.25, 66.0]]]}, "properties": {"cell_id": "141_104", "lon": -148.5, "lat": 66.75}}, {"type": "Feature", "geometry": {"type": "Polygon", "coordinates": [[[-149.25, 67.5], [-149.25, 69.0], [-147.75, 69.0], [-147.75, 67.5], [-149.25, 67.5]]]}, "properties": {"cell_id": "141_105", "lon": -148.5, "lat": 68.25}}, {"type": "Feature", "geometry": {"type": "Polygon", "coordinates": [[[-149.25, 69.0], [-149.25, 70.5], [-147.75, 70.5], [-147.75, 69.0], [-149.25, 69.0]]]}, "properties": {"cell_id": "141_106", "lon": -148.5, "lat": 69.75}}, {"type": "Feature", "geometry": {"type": "Polygon", "coordinates": [[[-147.75, 60.0], [-147.75, 61.5], [-146.25, 61.5], [-146.25, 60.0], [-147.75, 60.0]]]}, "properties": {"cell_id": "142_100", "lon": -147.0, "lat": 60.75}}, {"type": "Feature", "geometry": {"type": "Polygon", "coordinates": [[[-147.75, 61.5], [-147.75, 63.0], [-146.25, 63.0], [-146.25, 61.5], [-147.75, 61.5]]]}, "properties": {"cell_id": "142_101", "lon": -147.0, "lat": 62.25}}, {"type": "Feature", "geometry": {"type": "Polygon", "coordinates": [[[-147.75, 63.0], [-147.75, 64.5], [-146.25, 64.5], [-146.25, 63.0], [-147.75, 63.0]]]}, "properties": {"cell_id": "142_102", "lon": -147.0, "lat": 63.75}}, {"type": "Feature", "geometry": {"type": "Polygon", "coordinates": [[[-147.75, 64.5], [-147.75, 66.0], [-146.25, 66.0], [-146.25, 64.5], [-147.75, 64.5]]]}, "properties": {"cell_id": "142_103", "lon": -147.0, "lat": 65.25}}, {"type": "Feature", "geometry": {"type": "Polygon", "coordinates": [[[-147.75, 66.0], [-147.75, 67.5], [-146.25, 67.5], [-146.25, 66.0], [-147.75, 66.0]]]}, "properties": {"cell_id": "142_104", "lon": -147.0, "lat": 66.75}}, {"type": "Feature", "geometry": {"type": "Polygon", "coordinates": [[[-147.75, 67.5], [-147.75, 69.0], [-146.25, 69.0], [-146.25, 67.5], [-147.75, 67.5]]]}, "properties": {"cell_id": "142_105", "lon": -147.0, "lat": 68.25}}, {"type": "Feature", "geometry": {"type": "Polygon", "coordinates": [[[-147.75, 69.0], [-147.75, 70.5], [-146.25, 70.5], [-146.25, 69.0], [-147.75, 69.0]]]}, "properties": {"cell_id": "142_106", "lon": -147.0, "lat": 69.75}}, {"type": "Feature", "geometry": {"type": "Polygon", "coordinates": [[[-146.25, 60.0], [-146.25, 61.5], [-144.75, 61.5], [-144.75, 60.0], [-146.25, 60.0]]]}, "properties": {"cell_id": "143_100", "lon": -145.5, "lat": 60.75}}, {"type": "Feature", "geometry": {"type": "Polygon", "coordinates": [[[-146.25, 61.5], [-146.25, 63.0], [-144.75, 63.0], [-144.75, 61.5], [-146.25, 61.5]]]}, "properties": {"cell_id": "143_101", "lon": -145.5, "lat": 62.25}}, {"type": "Feature", "geometry": {"type": "Polygon", "coordinates": [[[-146.25, 63.0], [-146.25, 64.5], [-144.75, 64.5], [-144.75, 63.0], [-146.25, 63.0]]]}, "properties": {"cell_id": "143_102", "lon": -145.5, "lat": 63.75}}, {"type": "Feature", "geometry": {"type": "Polygon", "coordinates": [[[-146.25, 64.5], [-146.25, 66.0], [-144.75, 66.0], [-144.75, 64.5], [-146.25, 64.5]]]}, "properties": {"cell_id": "143_103", "lon": -145.5, "lat": 65.25}}, {"type": "Feature", "geometry": {"type": "Polygon", "coordinates": [[[-146.25, 66.0], [-146.25, 67.5], [-144.75, 67.5], [-144.75, 66.0], [-146.25, 66.0]]]}, "properties": {"cell_id": "143_104", "lon": -145.5, "lat": 66.75}}, {"type": "Feature", "geometry": {"type": "Polygon", "coordinates": [[[-146.25, 67.5], [-146.25, 69.0], [-144.75, 69.0], [-144.75, 67.5], [-146.25, 67.5]]]}, "properties": {"cell_id": "143_105", "lon": -145.5, "lat": 68.25}}, {"type": "Feature", "geometry": {"type": "Polygon", "coordinates": [[[-146.25, 69.0], [-146.25, 70.5], [-144.75, 70.5], [-144.75, 69.0], [-146.25, 69.0]]]}, "properties": {"cell_id": "143_106", "lon": -145.5, "lat": 69.75}}, {"type": "Feature", "geometry": {"type": "Polygon", "coordinates": [[[-144.75, 60.0], [-144.75, 61.5], [-143.25, 61.5], [-143.25, 60.0], [-144.75, 60.0]]]}, "properties": {"cell_id": "144_100", "lon": -144.0, "lat": 60.75}}, {"type": "Feature", "geometry": {"type": "Polygon", "coordinates": [[[-144.75, 61.5], [-144.75, 63.0], [-143.25, 63.0], [-143.25, 61.5], [-144.75, 61.5]]]}, "properties": {"cell_id": "144_101", "lon": -144.0, "lat": 62.25}}, {"type": "Feature", "geometry": {"type": "Polygon", "coordinates": [[[-144.75, 63.0], [-144.75, 64.5], [-143.25, 64.5], [-143.25, 63.0], [-144.75, 63.0]]]}, "properties": {"cell_id": "144_102", "lon": -144.0, "lat": 63.75}}, {"type": "Feature", "geometry": {"type": "Polygon", "coordinates": [[[-144.75, 64.5], [-144.75, 66.0], [-143.25, 66.0], [-143.25, 64.5], [-144.75, 64.5]]]}, "properties": {"cell_id": "144_103", "lon": -144.0, "lat": 65.25}}, {"type": "Feature", "geometry": {"type": "Polygon", "coordinates": [[[-144.75, 66.0], [-144.75, 67.5], [-143.25, 67.5], [-143.25, 66.0], [-144.75, 66.0]]]}, "properties": {"cell_id": "144_104", "lon": -144.0, "lat": 66.75}}, {"type": "Feature", "geometry": {"type": "Polygon", "coordinates": [[[-144.75, 67.5], [-144.75, 69.0], [-143.25, 69.0], [-143.25, 67.5], [-144.75, 67.5]]]}, "properties": {"cell_id": "144_105", "lon": -144.0, "lat": 68.25}}, {"type": "Feature", "geometry": {"type": "Polygon", "coordinates": [[[-144.75, 69.0], [-144.75, 70.5], [-143.25, 70.5], [-143.25, 69.0], [-144.75, 69.0]]]}, "properties": {"cell_id": "144_106", "lon": -144.0, "lat": 69.75}}, {"type": "Feature", "geometry": {"type": "Polygon", "coordinates": [[[-143.25, 60.0], [-143.25, 61.5], [-141.75, 61.5], [-141.75, 60.0], [-143.25, 60.0]]]}, "properties": {"cell_id": "145_100", "lon": -142.5, "lat": 60.75}}, {"type": "Feature", "geometry": {"type": "Polygon", "coordinates": [[[-143.25, 61.5], [-143.25, 63.0], [-141.75, 63.0], [-141.75, 61.5], [-143.25, 61.5]]]}, "properties": {"cell_id": "145_101", "lon": -142.5, "lat": 62.25}}, {"type": "Feature", "geometry": {"type": "Polygon", "coordinates": [[[-143.25, 63.0], [-143.25, 64.5], [-141.75, 64.5], [-141.75, 63.0], [-143.25, 63.0]]]}, "properties": {"cell_id": "145_102", "lon": -142.5, "lat": 63.75}}, {"type": "Feature", "geometry": {"type": "Polygon", "coordinates": [[[-143.25, 64.5], [-143.25, 66.0], [-141.75, 66.0], [-141.75, 64.5], [-143.25, 64.5]]]}, "properties": {"cell_id": "145_103", "lon": -142.5, "lat": 65.25}}, {"type": "Feature", "geometry": {"type": "Polygon", "coordinates": [[[-143.25, 66.0], [-143.25, 67.5], [-141.75, 67.5], [-141.75, 66.0], [-143.25, 66.0]]]}, "properties": {"cell_id": "145_104", "lon": -142.5, "lat": 66.75}}, {"type": "Feature", "geometry": {"type": "Polygon", "coordinates": [[[-143.25, 67.5], [-143.25, 69.0], [-141.75, 69.0], [-141.75, 67.5], [-143.25, 67.5]]]}, "properties": {"cell_id": "145_105", "lon": -142.5, "lat": 68.25}}, {"type": "Feature", "geometry": {"type": "Polygon", "coordinates": [[[-143.25, 69.0], [-143.25, 70.5], [-141.75, 70.5], [-141.75, 69.0], [-143.25, 69.0]]]}, "properties": {"cell_id": "145_106", "lon": -142.5, "lat": 69.75}}, {"type": "Feature", "geometry": {"type": "Polygon", "coordinates": [[[-141.75, 60.0], [-141.75, 61.5], [-140.25, 61.5], [-140.25, 60.0], [-141.75, 60.0]]]}, "properties": {"cell_id": "146_100", "lon": -141.0, "lat": 60.75}}, {"type": "Feature", "geometry": {"type": "Polygon", "coordinates": [[[-141.75, 61.5], [-141.75, 63.0], [-140.25, 63.0], [-140.25, 61.5], [-141.75, 61.5]]]}, "properties": {"cell_id": "146_101", "lon": -141.0, "lat": 62.25}}, {"type": "Feature", "geometry": {"type": "Polygon", "coordinates": [[[-141.75, 63.0], [-141.75, 64.5], [-140.25, 64.5], [-140.25, 63.0], [-141.75, 63.0]]]}, "properties": {"cell_id": "146_102", "lon": -141.0, "lat": 63.75}}, {"type": "Feature", "geometry": {"type": "Polygon", "coordinates": [[[-141.75, 64.5], [-141.75, 66.0], [-140.25, 66.0], [-140.25, 64.5], [-141.75, 64.5]]]}, "properties": {"cell_id": "146_103", "lon": -141.0, "lat": 65.25}}, {"type": "Feature", "geometry": {"type": "Polygon", "coordinates": [[[-141.75, 66.0], [-141.75, 67.5], [-140.25, 67.5], [-140.25, 66.0], [-141.75, 66.0]]]}, "properties": {"cell_id": "146_104", "lon": -141.0, "lat": 66.75}}, {"type": "Feature", "geometry": {"type": "Polygon", "coordinates": [[[-141.75, 67.5], [-141.75, 69.0], [-140.25, 69.0], [-140.25, 67.5], [-141.75, 67.5]]]}, "properties": {"cell_id": "146_105", "lon": -141.0, "lat": 68.25}}, {"type": "Feature", "geometry": {"type": "Polygon", "coordinates": [[[-141.75, 69.0], [-141.75, 70.5], [-140.25, 70.5], [-140.25, 69.0], [-141.75, 69.0]]]}, "properties": {"cell_id": "146_106", "lon": -141.0, "lat": 69.75}}, {"type": "Feature", "geometry": {"type": "Polygon", "coordinates": [[[-140.25, 60.0], [-140.25, 61.5], [-138.75, 61.5], [-138.75, 60.0], [-140.25, 60.0]]]}, "properties": {"cell_id": "147_100", "lon": -139.5, "lat": 60.75}}, {"type": "Feature", "geometry": {"type": "Polygon", "coordinates": [[[-140.25, 61.5], [-140.25, 63.0], [-138.75, 63.0], [-138.75, 61.5], [-140.25, 61.5]]]}, "properties": {"cell_id": "147_101", "lon": -139.5, "lat": 62.25}}, {"type": "Feature", "geometry": {"type": "Polygon", "coordinates": [[[-140.25, 63.0], [-140.25, 64.5], [-138.75, 64.5], [-138.75, 63.0], [-140.25, 63.0]]]}, "properties": {"cell_id": "147_102", "lon": -139.5, "lat": 63.75}}, {"type": "Feature", "geometry": {"type": "Polygon", "coordinates": [[[-140.25, 64.5], [-140.25, 66.0], [-138.75, 66.0], [-138.75, 64.5], [-140.25, 64.5]]]}, "properties": {"cell_id": "147_103", "lon": -139.5, "lat": 65.25}}, {"type": "Feature", "geometry": {"type": "Polygon", "coordinates": [[[-140.25, 66.0], [-140.25, 67.5], [-138.75, 67.5], [-138.75, 66.0], [-140.25, 66.0]]]}, "properties": {"cell_id": "147_104", "lon": -139.5, "lat": 66.75}}, {"type": "Feature", "geometry": {"type": "Polygon", "coordinates": [[[-140.25, 67.5], [-140.25, 69.0], [-138.75, 69.0], [-138.75, 67.5], [-140.25, 67.5]]]}, "properties": {"cell_id": "147_105", "lon": -139.5, "lat": 68.25}}, {"type": "Feature", "geometry": {"type": "Polygon", "coordinates": [[[-140.25, 69.0], [-140.25, 70.5], [-138.75, 70.5], [-138.75, 69.0], [-140.25, 69.0]]]}, "properties": {"cell_id": "147_106", "lon": -139.5, "lat": 69.75}}]}