{"type": "FeatureCollection", "features": [{"type": "Feature", "geometry": {"type": "Polygon", "coordinates": [[[30.75, 51.0], [30.75, 52.5], [32.25, 52.5], [32.25, 51.0], [30.75, 51.0]]]}, "properties": {"cell_id": "21_94", "lon": 31.5, "lat": 51.75}}, {"type": "Feature", "geometry": {"type": "Polygon", "coordinates": [[[30.75, 52.5], [30.75, 54.0], [32.25, 54.0], [32.25, 52.5], [30.75, 52.5]]]}, "properties": {"cell_id": "21_95", "lon": 31.5, "lat": 53.25}}, {"type": "Feature", "geometry": {"type": "Polygon", "coordinates": [[[30.75, 54.0], [30.75, 55.5], [32.25, 55.5], [32.25, 54.0], [30.75, 54.0]]]}, "properties": {"cell_id": "21_96", "lon": 31.5, "lat": 54.75}}, {"type": "Feature", "geometry": {"type": "Polygon", "coordinates": [[[30.75, 55.5], [30.75, 57.0], [32.25, 57.0], [32.25, 55.5], [30.75, 55.5]]]}, "properties": {"cell_id": "21_97", "lon": 31.5, "lat": 56.25}}, {"type": "Feature", "geometry": {"type": "Polygon", "coordinates": [[[30.75, 57.0], [30.75, 58.5], [32.25, 58.5], [32.25, 57.0], [30.75, 57.0]]]}, "properties": {"cell_id": "21_98", "lon": 31.5, "lat": 57.75}}, {"type": "Feature", "geometry": {"type": "Polygon", "coordinates": [[[30.75, 58.5], [30.75, 60.0], [32.25, 60.0], [32.25, 58.5], [30.75, 58.5]]]}, "properties": {"cell_id": "21_99", "lon": 31.5, "lat": 59.25}}, {"type": "Feature", "geometry": {"type": "Polygon", "coordinates": [[[32.25, 51.0], [32.25, 52.5], [33.75, 52.5], [33.75, 51.0], [32.25, 51.0]]]}, "properties": {"cell_id": "22_94", "lon": 33.0, "lat": 51.75}}, {"type": "Feature", "geometry": {"type": "Polygon", "coordinates": [[[32.25, 52.5], [32.25, 54.0], [33.75, 54.0], [33.75, 52.5], [32.25, 52.5]]]}, "properties": {"cell_id": "22_95", "lon": 33.0, "lat": 53.25}}, {"type": "Feature", "geometry": {"type": "Polygon", "coordinates": [[[32.25, 54.0], [32.25, 55.5], [33.75, 55.5], [33.75, 54.0], [32.25, 54.0]]]}, "properties": {"cell_id": "22_96", "lon": 33.0, "lat": 54.75}}, {"type": "Feature", "geometry": {"type": "Polygon", "coordinates": [[[32.25, 55.5], [32.25, 57.0], [33.75, 57.0], [33.75, 55.5], [32.25, 55.5]]]}, "properties": {"cell_id": "22_97", "lon": 33.0, "lat": 56.25}}, {"type": "Feature", "geometry": {"type": "Polygon", "coordinates": [[[32.25, 57.0], [32.25, 58.5], [33.75, 58.5], [33.75, 57.0], [32.25, 57.0]]]}, "properties": {"cell_id": "22_98", "lon": 33.0, "lat": 57.75}}, {"type": "Feature", "geometry": {"type": "Polygon", "coordinates": [[[32.25, 58.5], [32.25, 60.0], [33.75, 60.0], [33.75, 58.5], [32.25, 58.5]]]}, "properties": {"cell_id": "22_99", "lon": 33.0, "lat": 59.25}}, {"type": "Feature", "geometry": {"type": "Polygon", "coordinates": [[[33.75, 51.0], [33.75, 52.5], [35.25, 52.5], [35.25, 51.0], [33.75, 51.0]]]}, "properties": {"cell_id": "23_94", "lon": 34.5, "lat": 51.75}}, {"type": "Feature", "geometry": {"type": "Polygon", "coordinates": [[[33.75, 52.5], [33.75, 54.0], [35.25, 54.0], [35.25, 52.5], [33.75, 52.5]]]}, "properties": {"cell_id": "23_95", "lon": 34.5, "lat": 53.25}}, {"type": "Feature", "geometry": {"type": "Polygon", "coordinates": [[[33.75, 54.0], [33.75, 55.5], [35.25, 55.5], [35.25, 54.0], [33.75, 54.0]]]}, "properties": {"cell_id": "23_96", "lon": 34.5, "lat": 54.75}}, {"type": "Feature", "geometry": {"type": "Polygon", "coordinates": [[[33.75, 55.5], [33.75, 57.0], [35.25, 57.0], [35.25, 55.5], [33.75, 55.5]]]}, "properties": {"cell_id": "23_97", "lon": 34.5, "lat": 56.25}}, {"type": "Feature", "geometry": {"type": "Polygon", "coordinates": [[[33.75, 57.0], [33.75, 58.5], [35.25, 58.5], [35.25, 57.0], [33.75, 57.0]]]}, "properties": {"cell_id": "23_98", "lon": 34.5, "lat": 57.75}}, {"type": "Feature", "geometry": {"type": "Polygon", "coordinates": [[[33.75, 58.5], [33.75, 60.0], [35.25, 60.0], [35.25, 58.5], [33.75, 58.5]]]}, "properties": {"cell_id": "23_99", "lon": 34.5, "lat": 59.25}}, {"type": "Feature", "geometry": {"type": "Polygon", "coordinates": [[[35.25, 51.0], [35.25, 52.5], [36.75, 52.5], [36.75, 51.0], [35.25, 51.0]]]}, "properties": {"cell_id": "24_94", "lon": 36.0, "lat": 51.75}}, {"type": "Feature", "geometry": {"type": "Polygon", "coordinates": [[[35.25, 52.5], [35.25, 54.0], [36.75, 54.0], [36.75, 52.5], [35.25, 52.5]]]}, "properties": {"cell_id": "24_95", "lon": 36.0, "lat": 53.25}}, {"type": "Feature", "geometry": {"type": "Polygon", "coordinates": [[[35.25, 54.0], [35.25, 55.5], [36.75, 55.5], [36.75, 54.0], [35.25, 54.0]]]}, "properties": {"cell_id": "24_96", "lon": 36.0, "lat": 54.75}}, {"type": "Feature", "geometry": {"type": "Polygon", "coordinates": [[[35.25, 55.5], [35.25, 57.0], [36.75, 57.0], [36.75, 55.5], [35.25, 55.5]]]}, "properties": {"cell_id": "24_97", "lon": 36.0, "lat": 56.25}}, {"type": "Feature", "geometry": {"type": "Polygon", "coordinates": [[[35.25, 57.0], [35.25, 58.5], [36.75, 58.5], [36.75, 57.0], [35.25, 57.0]]]}, "properties": {"cell_id": "24_98", "lon": 36.0, "lat": 57.75}}, {"type": "Feature", "geometry": {"type": "Polygon", "coordinates": [[[35.25, 58.5], [35.25, 60.0], [36.75, 60.0], [36.75, 58.5], [35.25, 58.5]]]}, "properties": {"cell_id": "24_99", "lon": 36.0, "lat": 59.25}}, {"type": "Feature", "geometry": {"type": "Polygon", "coordinates": [[[36.75, 51.0], [36.75, 52.5], [38.25, 52.5], [38.25, 51.0], [36.75, 51.0]]]}, "properties": {"cell_id": "25_94", "lon": 37.5, "lat": 51.75}}, {"type": "Feature", "geometry": {"type": "Polygon", "coordinates": [[[36.75, 52.5], [36.75, 54.0], [38.25, 54.0], [38.25, 52.5], [36.75, 52.5]]]}, "properties": {"cell_id": "25_95", "lon": 37.5, "lat": 53.25}}, {"type": "Feature", "geometry": {"type": "Polygon", "coordinates": [[[36.75, 54.0], [36.75, 55.5], [38.25, 55.5], [38.25, 54.0], [36.75, 54.0]]]}, "properties": {"cell_id": "25_96", "lon": 37.5, "lat": 54.75}}, {"type": "Feature", "geometry": {"type": "Polygon", "coordinates": [[[36.75, 55.5], [36.75, 57.0], [38.25, 57.0], [38.25, 55.5], [36.75, 55.5]]]}, "properties": {"cell_id": "25_97", "lon": 37.5, "lat": 56.25}}, {"type": "Feature", "geometry": {"type": "Polygon", "coordinates": [[[36.75, 57.0], [36.75, 58.5], [38.25, 58.5], [38.25, 57.0], [36.75, 57.0]]]}, "properties": {"cell_id": "25_98", "lon": 37.5, "lat": 57.75}}, {"type": "Feature", "geometry": {"type": "Polygon", "coordinates": [[[36.75, 58.5], [36.75, 60.0], [38.25, 60.0], [38.25, 58.5], [36.75, 58.5]]]}, "properties": {"cell_id": "25_99", "lon": 37.5, "lat": 59.25}}, {"type": "Feature", "geometry": {"type": "Polygon", "coordinates": [[[38.25, 51.0], [38.25, 52.5], [39.75, 52.5], [39.75, 51.0], [38.25, 51.0]]]}, "properties": {"cell_id": "26_94", "lon": 39.0, "lat": 51.75}}, {"type": "Feature", "geometry": {"type": "Polygon", "coordinates": [[[38.25, 52.5], [38.25, 54.0], [39.75, 54.0], [39.75, 52.5], [38.25, 52.5]]]}, "properties": {"cell_id": "26_95", "lon": 39.0, "lat": 53.25}}, {"type": "Feature", "geometry": {"type": "Polygon", "coordinates": [[[38.25, 54.0], [38.25, 55.5], [39.75, 55.5], [39.75, 54.0], [38.25, 54.0]]]}, "properties": {"cell_id": "26_96", "lon": 39.0, "lat": 54.75}}, {"type": "Feature", "geometry": {"type": "Polygon", "coordinates": [[[38.25, 55.5], [38.25, 57.0], [39.75, 57.0], [39.75, 55.5], [38.25, 55.5]]]}, "properties": {"cell_id": "26_97", "lon": 39.0, "lat": 56.25}}, {"type": "Feature", "geometry": {"type": "Polygon", "coordinates": [[[38.25, 57.0], [38.25, 58.5], [39.75, 58.5], [39.75, 57.0], [38.25, 57.0]]]}, "properties": {"cell_id": "26_98", "lon": 39.0, "lat": 57.75}}, {"type": "Feature", "geometry": {"type": "Polygon", "coordinates": [[[38.25, 58.5], [38.25, 60.0], [39.75, 60.0], [39.75, 58.5], [38.25, 58.5]]]}, "properties": {"cell_id": "26_99", "lon": 39.0, "lat": 59.25}}, {"type": "Feature", "geometry": {"type": "Polygon", "coordinates": [[[39.75, 51.0], [39.75, 52.5], [41.25, 52.5], [41.25, 51.0], [39.75, 51.0]]]}, "properties": {"cell_id": "27_94", "lon": 40.5, "lat": 51.75}}, {"type": "Feature", "geometry": {"type": "Polygon", "coordinates": [[[39.75, 52.5], [39.75, 54.0], [41.25, 54.0], [41.25, 52.5], [39.75, 52.5]]]}, "properties": {"cell_id": "27_95", "lon": 40.5, "lat": 53.25}}, {"type": "Feature", "geometry": {"type": "Polygon", "coordinates": [[[39.75, 54.0], [39.75, 55.5], [41.25, 55.5], [41.25, 54.0], [39.75, 54.0]]]}, "properties": {"cell_id": "27_96", "lon": 40.5, "lat": 54.75}}, {"type": "Feature", "geometry": {"type": "Polygon", "coordinates": [[[39.75, 55.5], [39.75, 57.0], [41.25, 57.0], [41.25, 55.5], [39.75, 55.5]]]}, "properties": {"cell_id": "27_97", "lon": 40.5, "lat": 56.25}}, {"type": "Feature", "geometry": {"type": "Polygon", "coordinates": [[[39.75, 57.0], [39.75, 58.5], [41.25, 58.5], [41.25, 57.0], [39.75, 57.0]]]}, "properties": {"cell_id": "27_98", "lon": 40.5, "lat": 57.75}}, {"type": "Feature", "geometry": {"type": "Polygon", "coordinates": [[[39.75, 58.5], [39.75, 60.0], [41.25, 60.0], [41.25, 58.5], [39.75, 58.5]]]}, "properties": {"cell_id": "27_99", "lon": 40.5, "lat": 59.25}}]}