{"type": "FeatureCollection", "features": [{"type": "Feature", "geometry": {"type": "Polygon", "coordinates": [[[20.25, -30.0], [20.25, -28.5], [21.75, -28.5], [21.75, -30.0], [20.25, -30.0]]]}, "properties": {"cell_id": "14_40", "lon": 21.0, "lat": -29.25}}, {"type": "Feature", "geometry": {"type": "Polygon", "coordinates": [[[20.25, -28.5], [20.25, -27.0], [21.75, -27.0], [21.75, -28.5], [20.25, -28.5]]]}, "properties": {"cell_id": "14_41", "lon": 21.0, "lat": -27.75}}, {"type": "Feature", "geometry": {"type": "Polygon", "coordinates": [[[20.25, -27.0], [20.25, -25.5], [21.75, -25.5], [21.75, -27.0], [20.25, -27.0]]]}, "properties": {"cell_id": "14_42", "lon": 21.0, "lat": -26.25}}, {"type": "Feature", "geometry": {"type": "Polygon", "coordinates": [[[20.25, -25.5], [20.25, -24.0], [21.75, -24.0], [21.75, -25.5], [20.25, -25.5]]]}, "properties": {"cell_id": "14_43", "lon": 21.0, "lat": -24.75}}, {"type": "Feature", "geometry": {"type": "Polygon", "coordinates": [[[20.25, -24.0], [20.25, -22.5], [21.75, -22.5], [21.75, -24.0], [20.25, -24.0]]]}, "properties": {"cell_id": "14_44", "lon": 21.0, "lat": -23.25}}, {"type": "Feature", "geometry": {"type": "Polygon", "coordinates": [[[20.25, -22.5], [20.25, -21.0], [21.75, -21.0], [21.75, -22.5], [20.25, -22.5]]]}, "properties": {"cell_id": "14_45", "lon": 21.0, "lat": -21.75}}, {"type": "Feature", "geometry": {"type": "Polygon", "coordinates": [[[20.25, -21.0], [20.25, -19.5], [21.75, -19.5], [21.75, -21.0], [20.25, -21.0]]]}, "properties": {"cell_id": "14_46", "lon": 21.0, "lat": -20.25}}, {"type": "Feature", "geometry": {"type": "Polygon", "coordinates": [[[21.75, -30.0], [21.75, -28.5], [23.25, -28.5], [23.25, -30.0], [21.75, -30.0]]]}, "properties": {"cell_id": "15_40", "lon": 22.5, "lat": -29.25}}, {"type": "Feature", "geometry": {"type": "Polygon", "coordinates": [[[21.75, -28.5], [21.75, -27.0], [23.25, -27.0], [23.25, -28.5], [21.75, -28.5]]]}, "properties": {"cell_id": "15_41", "lon": 22.5, "lat": -27.75}}, {"type": "Feature", "geometry": {"type": "Polygon", "coordinates": [[[21.75, -27.0], [21.75, -25.5], [23.25, -25.5], [23.25, -27.0], [21.75, -27.0]]]}, "properties": {"cell_id": "15_42", "lon": 22.5, "lat": -26.25}}, {"type": "Feature", "geometry": {"type": "Polygon", "coordinates": [[[21.75, -25.5], [21.75, -24.0], [23.25, -24.0], [23.25, -25.5], [21.75, -25.5]]]}, "properties": {"cell_id": "15_43", "lon": 22.5, "lat": -24.75}}, {"type": "Feature", "geometry": {"type": "Polygon", "coordinates": [[[21.75, -24.0], [21.75, -22.5], [23.25, -22.5], [23.25, -24.0], [21.75, -24.0]]]}, "properties": {"cell_id": "15_44", "lon": 22.5, "lat": -23.25}}, {"type": "Feature", "geometry": {"type": "Polygon", "coordinates": [[[21.75, -22.5], [21.75, -21.0], [23.25, -21.0], [23.25, -22.5], [21.75, -22.5]]]}, "properties": {"cell_id": "15_45", "lon": 22.5, "lat": -21.75}}, {"type": "Feature", "geometry": {"type": "Polygon", "coordinates": [[[21.75, -21.0], [21.75, -19.5], [23.25, -19.5], [23.25, -21.0], [21.75, -21.0]]]}, "properties": {"cell_id": "15_46", "lon": 22.5, "lat": -20.25}}, {"type": "Feature", "geometry": {"type": "Polygon", "coordinates": [[[23.25, -30.0], [23.25, -28.5], [24.75, -28.5], [24.75, -30.0], [23.25, -30.0]]]}, "properties": {"cell_id": "16_40", "lon": 24.0, "lat": -29.25}}, {"type": "Feature", "geometry": {"type": "Polygon", "coordinates": [[[23.25, -28.5], [23.25, -27.0], [24.75, -27.0], [24.75, -28.5], [23.25, -28.5]]]}, "properties": {"cell_id": "16_41", "lon": 24.0, "lat": -27.75}}, {"type": "Feature", "geometry": {"type": "Polygon", "coordinates": [[[23.25, -27.0], [23.25, -25.5], [24.75, -25.5], [24.75, -27.0], [23.25, -27.0]]]}, "properties": {"cell_id": "16_42", "lon": 24.0, "lat": -26.25}}, {"type": "Feature", "geometry": {"type": "Polygon", "coordinates": [[[23.25, -25.5], [23.25, -24.0], [24.75, -24.0], [24.75, -25.5], [23.25, -25.5]]]}, "properties": {"cell_id": "16_43", "lon": 24.0, "lat": -24.75}}, {"type": "Feature", "geometry": {"type": "Polygon", "coordinates": [[[23.25, -24.0], [23.25, -22.5], [24.75, -22.5], [24.75, -24.0], [23.25, -24.0]]]}, "properties": {"cell_id": "16_44", "lon": 24.0, "lat": -23.25}}, {"type": "Feature", "geometry": {"type": "Polygon", "coordinates": [[[23.25, -22.5], [23.25, -21.0], [24.75, -21.0], [24.75, -22.5], [23.25, -22.5]]]}, "properties": {"cell_id": "16_45", "lon": 24.0, "lat": -21.75}}, {"type": "Feature", "geometry": {"type": "Polygon", "coordinates": [[[23.25, -21.0], [23.25, -19.5], [24.75, -19.5], [24.75, -21.0], [23.25, -21.0]]]}, "properties": {"cell_id": "16_46", "lon": 24.0, "lat": -20.25}}, {"type": "Feature", "geometry": {"type": "Polygon", "coordinates": [[[24.75, -30.0], [24.75, -28.5], [26.25, -28.5], [26.25, -30.0], [24.75, -30.0]]]}, "properties": {"cell_id": "17_40", "lon": 25.5, "lat": -29.25}}, {"type": "Feature", "geometry": {"type": "Polygon", "coordinates": [[[24.75, -28.5], [24.75, -27.0], [26.25, -27.0], [26.25, -28.5], [24.75, -28.5]]]}, "properties": {"cell_id": "17_41", "lon": 25.5, "lat": -27.75}}, {"type": "Feature", "geometry": {"type": "Polygon", "coordinates": [[[24.75, -27.0], [24.75, -25.5], [26.25, -25.5], [26.25, -27.0], [24.75, -27.0]]]}, "properties": {"cell_id": "17_42", "lon": 25.5, "lat": -26.25}}, {"type": "Feature", "geometry": {"type": "Polygon", "coordinates": [[[24.75, -25.5], [24.75, -24.0], [26.25, -24.0], [26.25, -25.5], [24.75, -25.5]]]}, "properties": {"cell_id": "17_43", "lon": 25.5, "lat": -24.75}}, {"type": "Feature", "geometry": {"type": "Polygon", "coordinates": [[[24.75, -24.0], [24.75, -22.5], [26.25, -22.5], [26.25, -24.0], [24.75, -24.0]]]}, "properties": {"cell_id": "17_44", "lon": 25.5, "lat": -23.25}}, {"type": "Feature", "geometry": {"type": "Polygon", "coordinates": [[[24.75, -22.5], [24.75, -21.0], [26.25, -21.0], [26.25, -22.5], [24.75, -22.5]]]}, "properties": {"cell_id": "17_45", "lon": 25.5, "lat": -21.75}}, {"type": "Feature", "geometry": {"type": "Polygon", "coordinates": [[[24.75, -21.0], [24.75, -19.5], [26.25, -19.5], [26.25, -21.0], [24.75, -21.0]]]}, "properties": {"cell_id": "17_46", "lon": 25.5, "lat": -20.25}}, {"type": "Feature", "geometry": {"type": "Polygon", "coordinates": [[[26.25, -30.0], [26.25, -28.5], [27.75, -28.5], [27.75, -30.0], [26.25, -30.0]]]}, "properties": {"cell_id": "18_40", "lon": 27.0, "lat": -29.25}}, {"type": "Feature", "geometry": {"type": "Polygon", "coordinates": [[[26.25, -28.5], [26.25, -27.0], [27.75, -27.0], [27.75, -28.5], [26.25, -28.5]]]}, "properties": {"cell_id": "18_41", "lon": 27.0, "lat": -27.75}}, {"type": "Feature", "geometry": {"type": "Polygon", "coordinates": [[[26.25, -27.0], [26.25, -25.5], [27.75, -25.5], [27.75, -27.0], [26.25, -27.0]]]}, "properties": {"cell_id": "18_42", "lon": 27.0, "lat": -26.25}}, {"type": "Feature", "geometry": {"type": "Polygon", "coordinates": [[[26.25, -25.5], [26.25, -24.0], [27.75, -24.0], [27.75, -25.5], [26.25, -25.5]]]}, "properties": {"cell_id": "18_43", "lon": 27.0, "lat": -24.75}}, {"type": "Feature", "geometry": {"type": "Polygon", "coordinates": [[[26.25, -24.0], [26.25, -22.5], [27.75, -22.5], [27.75, -24.0], [26.25, -24.0]]]}, "properties": {"cell_id": "18_44", "lon": 27.0, "lat": -23.25}}, {"type": "Feature", "geometry": {"type": "Polygon", "coordinates": [[[26.25, -22.5], [26.25, -21.0], [27.75, -21.0], [27.75, -22.5], [26.25, -22.5]]]}, "properties": {"cell_id": "18_45", "lon": 27.0, "lat": -21.75}}, {"type": "Feature", "geometry": {"type": "Polygon", "coordinates": [[[26.25, -21.0], [26.25, -19.5], [27.75, -19.5], [27.75, -21.0], [26.25, -21.0]]]}, "properties": {"cell_id": "18_46", "lon": 27.0, "lat": -20.25}}, {"type": "Feature", "geometry": {"type": "Polygon", "coordinates": [[[27.75, -30.0], [27.75, -28.5], [29.25, -28.5], [29.25, -30.0], [27.75, -30.0]]]}, "properties": {"cell_id": "19_40", "lon": 28.5, "lat": -29.25}}, {"type": "Feature", "geometry": {"type": "Polygon", "coordinates": [[[27.75, -28.5], [27.75, -27.0], [29.25, -27.0], [29.25, -28.5], [27.75, -28.5]]]}, "properties": {"cell_id": "19_41", "lon": 28.5, "lat": -27.75}}, {"type": "Feature", "geometry": {"type": "Polygon", "coordinates": [[[27.75, -27.0], [27.75, -25.5], [29.25, -25.5], [29.25, -27.0], [27.75, -27.0]]]}, "properties": {"cell_id": "19_42", "lon": 28.5, "lat": -26.25}}, {"type": "Feature", "geometry": {"type": "Polygon", "coordinates": [[[27.75, -25.5], [27.75, -24.0], [29.25, -24.0], [29.25, -25.5], [27.75, -25.5]]]}, "properties": {"cell_id": "19_43", "lon": 28.5, "lat": -24.75}}, {"type": "Feature", "geometry": {"type": "Polygon", "coordinates": [[[27.75, -24.0], [27.75, -22.5], [29.25, -22.5], [29.25, -24.0], [27.75, -24.0]]]}, "properties": {"cell_id": "19_44", "lon": 28.5, "lat": -23.25}}, {"type": "Feature", "geometry": {"type": "Polygon", "coordinates": [[[27.75, -22.5], [27.75, -21.0], [29.25, -21.0], [29.25, -22.5], [27.75, -22.5]]]}, "properties": {"cell_id": "19_45", "lon": 28.5, "lat": -21.75}}, {"type": "Feature", "geometry": {"type": "Polygon", "coordinates": [[[27.75, -21.0], [27.75, -19.5], [29.25, -19.5], [29.25, -21.0], [27.75, -21.0]]]}, "properties": {"cell_id": "19_46", "lon": 28.5, "lat": -20.25}}, {"type": "Feature", "geometry": {"type": "Polygon", "coordinates": [[[29.25, -30.0], [29.25, -28.5], [30.75, -28.5], [30.75, -30.0], [29.25, -30.0]]]}, "properties": {"cell_id": "20_40", "lon": 30.0, "lat": -29.25}}, {"type": "Feature", "geometry": {"type": "Polygon", "coordinates": [[[29.25, -28.5], [29.25, -27.0], [30.75, -27.0], [30.75, -28.5], [29.25, -28.5]]]}, "properties": {"cell_id": "20_41", "lon": 30.0, "lat": -27.75}}, {"type": "Feature", "geometry": {"type": "Polygon", "coordinates": [[[29.25, -27.0], [29.25, -25.5], [30.75, -25.5], [30.75, -27.0], [29.25, -27.0]]]}, "properties": {"cell_id": "20_42", "lon": 30.0, "lat": -26.25}}, {"type": "Feature", "geometry": {"type": "Polygon", "coordinates": [[[29.25, -25.5], [29.25, -24.0], [30.75, -24.0], [30.75, -25.5], [29.25, -25.5]]]}, "properties": {"cell_id": "20_43", "lon": 30.0, "lat": -24.75}}, {"type": "Feature", "geometry": {"type": "Polygon", "coordinates": [[[29.25, -24.0], [29.25, -22.5], [30.75, -22.5], [30.75, -24.0], [29.25, -24.0]]]}, "properties": {"cell_id": "20_44", "lon": 30.0, "lat": -23.25}}, {"type": "Feature", "geometry": {"type": "Polygon", "coordinates": [[[29.25, -22.5], [29.25, -21.0], [30.75, -21.0], [30.75, -22.5], [29.25, -22.5]]]}, "properties": {"cell_id": "20_45", "lon": 30.0, "lat": -21.75}}, {"type": "Feature", "geometry": {"type": "Polygon", "coordinates": [[[29.25, -21.0], [29.25, -19.5], [30.75, -19.5], [30.75, -21.0], [29.25, -21.0]]]}, "properties": {"cell_id": "20_46", "lon": 30.0, "lat": -20.25}}]}