{"type": "FeatureCollection", "features": [{"type": "Feature", "geometry": {"type": "Polygon", "coordinates": [[[20.25, 51.0], [20.25, 52.5], [21.75, 52.5], [21.75, 51.0], [20.25, 51.0]]]}, "properties": {"cell_id": "14_94", "lon": 21.0, "lat": 51.75}}, {"type": "Feature", "geometry": {"type": "Polygon", "coordinates": [[[20.25, 52.5], [20.25, 54.0], [21.75, 54.0], [21.75, 52.5], [20.25, 52.5]]]}, "properties": {"cell_id": "14_95", "lon": 21.0, "lat": 53.25}}, {"type": "Feature", "geometry": {"type": "Polygon", "coordinates": [[[20.25, 54.0], [20.25, 55.5], [21.75, 55.5], [21.75, 54.0], [20.25, 54.0]]]}, "properties": {"cell_id": "14_96", "lon": 21.0, "lat": 54.75}}, {"type": "Feature", "geometry": {"type": "Polygon", "coordinates": [[[20.25, 55.5], [20.25, 57.0], [21.75, 57.0], [21.75, 55.5], [20.25, 55.5]]]}, "properties": {"cell_id": "14_97", "lon": 21.0, "lat": 56.25}}, {"type": "Feature", "geometry": {"type": "Polygon", "coordinates": [[[20.25, 57.0], [20.25, 58.5], [21.75, 58.5], [21.75, 57.0], [20.25, 57.0]]]}, "properties": {"cell_id": "14_98", "lon": 21.0, "lat": 57.75}}, {"type": "Feature", "geometry": {"type": "Polygon", "coordinates": [[[20.25, 58.5], [20.25, 60.0], [21.75, 60.0], [21.75, 58.5], [20.25, 58.5]]]}, "properties": {"cell_id": "14_99", "lon": 21.0, "lat": 59.25}}, {"type": "Feature", "geometry": {"type": "Polygon", "coordinates": [[[21.75, 51.0], [21.75, 52.5], [23.25, 52.5], [23.25, 51.0], [21.75, 51.0]]]}, "properties": {"cell_id": "15_94", "lon": 22.5, "lat": 51.75}}, {"type": "Feature", "geometry": {"type": "Polygon", "coordinates": [[[21.75, 52.5], [21.75, 54.0], [23.25, 54.0], [23.25, 52.5], [21.75, 52.5]]]}, "properties": {"cell_id": "15_95", "lon": 22.5, "lat": 53.25}}, {"type": "Feature", "geometry": {"type": "Polygon", "coordinates": [[[21.75, 54.0], [21.75, 55.5], [23.25, 55.5], [23.25, 54.0], [21.75, 54.0]]]}, "properties": {"cell_id": "15_96", "lon": 22.5, "lat": 54.75}}, {"type": "Feature", "geometry": {"type": "Polygon", "coordinates": [[[21.75, 55.5], [21.75, 57.0], [23.25, 57.0], [23.25, 55.5], [21.75, 55.5]]]}, "properties": {"cell_id": "15_97", "lon": 22.5, "lat": 56.25}}, {"type": "Feature", "geometry": {"type": "Polygon", "coordinates": [[[21.75, 57.0], [21.75, 58.5], [23.25, 58.5], [23.25, 57.0], [21.75, 57.0]]]}, "properties": {"cell_id": "15_98", "lon": 22.5, "lat": 57.75}}, {"type": "Feature", "geometry": {"type": "Polygon", "coordinates": [[[21.75, 58.5], [21.75, 60.0], [23.25, 60.0], [23.25, 58.5], [21.75, 58.5]]]}, "properties": {"cell_id": "15_99", "lon": 22.5, "lat": 59.25}}, {"type": "Feature", "geometry": {"type": "Polygon", "coordinates": [[[23.25, 51.0], [23.25, 52.5], [24.75, 52.5], [24.75, 51.0], [23.25, 51.0]]]}, "properties": {"cell_id": "16_94", "lon": 24.0, "lat": 51.75}}, {"type": "Feature", "geometry": {"type": "Polygon", "coordinates": [[[23.25, 52.5], [23.25, 54.0], [24.75, 54.0], [24.75, 52.5], [23.25, 52.5]]]}, "properties": {"cell_id": "16_95", "lon": 24.0, "lat": 53.25}}, {"type": "Feature", "geometry": {"type": "Polygon", "coordinates": [[[23.25, 54.0], [23.25, 55.5], [24.75, 55.5], [24.75, 54.0], [23.25, 54.0]]]}, "properties": {"cell_id": "16_96", "lon": 24.0, "lat": 54.75}}, {"type": "Feature", "geometry": {"type": "Polygon", "coordinates": [[[23.25, 55.5], [23.25, 57.0], [24.75, 57.0], [24.75, 55.5], [23.25, 55.5]]]}, "properties": {"cell_id": "16_97", "lon": 24.0, "lat": 56.25}}, {"type": "Feature", "geometry": {"type": "Polygon", "coordinates": [[[23.25, 57.0], [23.25, 58.5], [24.75, 58.5], [24.75, 57.0], [23.25, 57.0]]]}, "properties": {"cell_id": "16_98", "lon": 24.0, "lat": 57.75}}, {"type": "Feature", "geometry": {"type": "Polygon", "coordinates": [[[23.25, 58.5], [23.25, 60.0], [24.75, 60.0], [24.75, 58.5], [23.25, 58.5]]]}, "properties": {"cell_id": "16_99", "lon": 24.0, "lat": 59.25}}, {"type": "Feature", "geometry": {"type": "Polygon", "coordinates": [[[24.75, 51.0], [24.75, 52.5], [26.25, 52.5], [26.25, 51.0], [24.75, 51.0]]]}, "properties": {"cell_id": "17_94", "lon": 25.5, "lat": 51.75}}, {"type": "Feature", "geometry": {"type": "Polygon", "coordinates": [[[24.75, 52.5], [24.75, 54.0], [26.25, 54.0], [26.25, 52.5], [24.75, 52.5]]]}, "properties": {"cell_id": "17_95", "lon": 25.5, "lat": 53.25}}, {"type": "Feature", "geometry": {"type": "Polygon", "coordinates": [[[24.75, 54.0], [24.75, 55.5], [26.25, 55.5], [26.25, 54.0], [24.75, 54.0]]]}, "properties": {"cell_id": "17_96", "lon": 25.5, "lat": 54.75}}, {"type": "Feature", "geometry": {"type": "Polygon", "coordinates": [[[24.75, 55.5], [24.75, 57.0], [26.25, 57.0], [26.25, 55.5], [24.75, 55.5]]]}, "properties": {"cell_id": "17_97", "lon": 25.5, "lat": 56.25}}, {"type": "Feature", "geometry": {"type": "Polygon", "coordinates": [[[24.75, 57.0], [24.75, 58.5], [26.25, 58.5], [26.25, 57.0], [24.75, 57.0]]]}, "properties": {"cell_id": "17_98", "lon": 25.5, "lat": 57.75}}, {"type": "Feature", "geometry": {"type": "Polygon", "coordinates": [[[24.75, 58.5], [24.75, 60.0], [26.25, 60.0], [26.25, 58.5], [24.75, 58.5]]]}, "properties": {"cell_id": "17_99", "lon": 25.5, "lat": 59.25}}, {"type": "Feature", "geometry": {"type": "Polygon", "coordinates": [[[26.25, 51.0], [26.25, 52.5], [27.75, 52.5], [27.75, 51.0], [26.25, 51.0]]]}, "properties": {"cell_id": "18_94", "lon": 27.0, "lat": 51.75}}, {"type": "Feature", "geometry": {"type": "Polygon", "coordinates": [[[26.25, 52.5], [26.25, 54.0], [27.75, 54.0], [27.75, 52.5], [26.25, 52.5]]]}, "properties": {"cell_id": "18_95", "lon": 27.0, "lat": 53.25}}, {"type": "Feature", "geometry": {"type": "Polygon", "coordinates": [[[26.25, 54.0], [26.25, 55.5], [27.75, 55.5], [27.75, 54.0], [26.25, 54.0]]]}, "properties": {"cell_id": "18_96", "lon": 27.0, "lat": 54.75}}, {"type": "Feature", "geometry": {"type": "Polygon", "coordinates": [[[26.25, 55.5], [26.25, 57.0], [27.75, 57.0], [27.75, 55.5], [26.25, 55.5]]]}, "properties": {"cell_id": "18_97", "lon": 27.0, "lat": 56.25}}, {"type": "Feature", "geometry": {"type": "Polygon", "coordinates": [[[26.25, 57.0], [26.25, 58.5], [27.75, 58.5], [27.75, 57.0], [26.25, 57.0]]]}, "properties": {"cell_id": "18_98", "lon": 27.0, "lat": 57.75}}, {"type": "Feature", "geometry": {"type": "Polygon", "coordinates": [[[26.25, 58.5], [26.25, 60.0], [27.75, 60.0], [27.75, 58.5], [26.25, 58.5]]]}, "properties": {"cell_id": "18_99", "lon": 27.0, "lat": 59.25}}, {"type": "Feature", "geometry": {"type": "Polygon", "coordinates": [[[27.75, 51.0], [27.75, 52.5], [29.25, 52.5], [29.25, 51.0], [27.75, 51.0]]]}, "properties": {"cell_id": "19_94", "lon": 28.5, "lat": 51.75}}, {"type": "Feature", "geometry": {"type": "Polygon", "coordinates": [[[27.75, 52.5], [27.75, 54.0], [29.25, 54.0], [29.25, 52.5], [27.75, 52.5]]]}, "properties": {"cell_id": "19_95", "lon": 28.5, "lat": 53.25}}, {"type": "Feature", "geometry": {"type": "Polygon", "coordinates": [[[27.75, 54.0], [27.75, 55.5], [29.25, 55.5], [29.25, 54.0], [27.75, 54.0]]]}, "properties": {"cell_id": "19_96", "lon": 28.5, "lat": 54.75}}, {"type": "Feature", "geometry": {"type": "Polygon", "coordinates": [[[27.75, 55.5], [27.75, 57.0], [29.25, 57.0], [29.25, 55.5], [27.75, 55.5]]]}, "properties": {"cell_id": "19_97", "lon": 28.5, "lat": 56.25}}, {"type": "Feature", "geometry": {"type": "Polygon", "coordinates": [[[27.75, 57.0], [27.75, 58.5], [29.25, 58.5], [29.25, 57.0], [27.75, 57.0]]]}, "properties": {"cell_id": "19_98", "lon": 28.5, "lat": 57.75}}, {"type": "Feature", "geometry": {"type": "Polygon", "coordinates": [[[27.75, 58.5], [27.75, 60.0], [29.25, 60.0], [29.25, 58.5], [27.75, 58.5]]]}, "properties": {"cell_id": "19_99", "lon": 28.5, "lat": 59.25}}, {"type": "Feature", "geometry": {"type": "Polygon", "coordinates": [[[29.25, 51.0], [29.25, 52.5], [30.75, 52.5], [30.75, 51.0], [29.25, 51.0]]]}, "properties": {"cell_id": "20_94", "lon": 30.0, "lat": 51.75}}, {"type": "Feature", "geometry": {"type": "Polygon", "coordinates": [[[29.25, 52.5], [29.25, 54.0], [30.75, 54.0], [30.75, 52.5], [29.25, 52.5]]]}, "properties": {"cell_id": "20_95", "lon": 30.0, "lat": 53.25}}, {"type": "Feature", "geometry": {"type": "Polygon", "coordinates": [[[29.25, 54.0], [29.25, 55.5], [30.75, 55.5], [30.75, 54.0], [29.25, 54.0]]]}, "properties": {"cell_id": "20_96", "lon": 30.0, "lat": 54.75}}, {"type": "Feature", "geometry": {"type": "Polygon", "coordinates": [[[29.25, 55.5], [29.25, 57.0], [30.75, 57.0], [30.75, 55.5], [29.25, 55.5]]]}, "properties": {"cell_id": "20_97", "lon": 30.0, "lat": 56.25}}, {"type": "Feature", "geometry": {"type": "Polygon", "coordinates": [[[29.25, 57.0], [29.25, 58.5], [30.75, 58.5], [30.75, 57.0], [29.25, 57.0]]]}, "properties": {"cell_id": "20_98", "lon": 30.0, "lat": 57.75}}, {"type": "Feature", "geometry": {"type": "Polygon", "coordinates": [[[29.25, 58.5], [29.25, 60.0], [30.75, 60.0], [30.75, 58.5], [29.25, 58.5]]]}, "properties": {"cell_id": "20_99", "lon": 30.0, "lat": 59.25}}]}