{"type": "FeatureCollection", "features": [{"type": "Feature", "geometry": {"type": "Polygon", "coordinates": [[[-69.75, 75.0], [-69.75, 76.5], [-68.25, 76.5], [-68.25, 75.0], [-69.75, 75.0]]]}, "properties": {"cell_id": "194_110", "lon": -69.0, "lat": 75.75}}, {"type": "Feature", "geometry": {"type": "Polygon", "coordinates": [[[-69.75, 76.5], [-69.75, 78.0], [-68.25, 78.0], [-68.25, 76.5], [-69.75, 76.5]]]}, "properties": {"cell_id": "194_111", "lon": -69.0, "lat": 77.25}}, {"type": "Feature", "geometry": {"type": "Polygon", "coordinates": [[[-69.75, 78.0], [-69.75, 79.5], [-68.25, 79.5], [-68.25, 78.0], [-69.75, 78.0]]]}, "properties": {"cell_id": "194_112", "lon": -69.0, "lat": 78.75}}, {"type": "Feature", "geometry": {"type": "Polygon", "coordinates": [[[-69.75, 79.5], [-69.75, 81.0], [-68.25, 81.0], [-68.25, 79.5], [-69.75, 79.5]]]}, "properties": {"cell_id": "194_113", "lon": -69.0, "lat": 80.25}}, {"type": "Feature", "geometry": {"type": "Polygon", "coordinates": [[[-68.25, 75.0], [-68.25, 76.5], [-66.75, 76.5], [-66.75, 75.0], [-68.25, 75.0]]]}, "properties": {"cell_id": "195_110", "lon": -67.5, "lat": 75.75}}, {"type": "Feature", "geometry": {"type": "Polygon", "coordinates": [[[-68.25, 76.5], [-68.25, 78.0], [-66.75, 78.0], [-66.75, 76.5], [-68.25, 76.5]]]}, "properties": {"cell_id": "195_111", "lon": -67.5, "lat": 77.25}}, {"type": "Feature", "geometry": {"type": "Polygon", "coordinates": [[[-68.25, 78.0], [-68.25, 79.5], [-66.75, 79.5], [-66.75, 78.0], [-68.25, 78.0]]]}, "properties": {"cell_id": "195_112", "lon": -67.5, "lat": 78.75}}, {"type": "Feature", "geometry": {"type": "Polygon", "coordinates": [[[-66.75, 75.0], [-66.75, 76.5], [-65.25, 76.5], [-65.25, 75.0], [-66.75, 75.0]]]}, "properties": {"cell_id": "196_110", "lon": -66.0, "lat": 75.75}}, {"type": "Feature", "geometry": {"type": "Polygon", "coordinates": [[[-66.75, 76.5], [-66.75, 78.0], [-65.25, 78.0], [-65.25, 76.5], [-66.75, 76.5]]]}, "properties": {"cell_id": "196_111", "lon": -66.0, "lat": 77.25}}, {"type": "Feature", "geometry": {"type": "Polygon", "coordinates": [[[-66.75, 78.0], [-66.75, 79.5], [-65.25, 79.5], [-65.25, 78.0], [-66.75, 78.0]]]}, "properties": {"cell_id": "196_112", "lon": -66.0, "lat": 78.75}}, {"type": "Feature", "geometry": {"type": "Polygon", "coordinates": [[[-66.75, 79.5], [-66.75, 81.0], [-65.25, 81.0], [-65.25, 79.5], [-66.75, 79.5]]]}, "properties": {"cell_id": "196_113", "lon": -66.0, "lat": 80.25}}, {"type": "Feature", "geometry": {"type": "Polygon", "coordinates": [[[-65.25, 75.0], [-65.25, 76.5], [-63.75, 76.5], [-63.75, 75.0], [-65.25, 75.0]]]}, "properties": {"cell_id": "197_110", "lon": -64.5, "lat": 75.75}}, {"type": "Feature", "geometry": {"type": "Polygon", "coordinates": [[[-65.25, 76.5], [-65.25, 78.0], [-63.75, 78.0], [-63.75, 76.5], [-65.25, 76.5]]]}, "properties": {"cell_id": "197_111", "lon": -64.5, "lat": 77.25}}, {"type": "Feature", "geometry": {"type": "Polygon", "coordinates": [[[-65.25, 78.0], [-65.25, 79.5], [-63.75, 79.5], [-63.75, 78.0], [-65.25, 78.0]]]}, "properties": {"cell_id": "197_112", "lon": -64.5, "lat": 78.75}}, {"type": "Feature", "geometry": {"type": "Polygon", "coordinates": [[[-65.25, 79.5], [-65.25, 81.0], [-63.75, 81.0], [-63.75, 79.5], [-65.25, 79.5]]]}, "properties": {"cell_id": "197_113", "lon": -64.5, "lat": 80.25}}, {"type": "Feature", "geometry": {"type": "Polygon", "coordinates": [[[-63.75, 75.0], [-63.75, 76.5], [-62.25, 76.5], [-62.25, 75.0], [-63.75, 75.0]]]}, "properties": {"cell_id": "198_110", "lon": -63.0, "lat": 75.75}}, {"type": "Feature", "geometry": {"type": "Polygon", "coordinates": [[[-63.75, 76.5], [-63.75, 78.0], [-62.25, 78.0], [-62.25, 76.5], [-63.75, 76.5]]]}, "properties": {"cell_id": "198_111", "lon": -63.0, "lat": 77.25}}, {"type": "Feature", "geometry": {"type": "Polygon", "coordinates": [[[-63.75, 78.0], [-63.75, 79.5], [-62.25, 79.5], [-62.25, 78.0], [-63.75, 78.0]]]}, "properties": {"cell_id": "198_112", "lon": -63.0, "lat": 78.75}}, {"type": "Feature", "geometry": {"type": "Polygon", "coordinates": [[[-63.75, 79.5], [-63.75, 81.0], [-62.25, 81.0], [-62.25, 79.5], [-63.75, 79.5]]]}, "properties": {"cell_id": "198_113", "lon": -63.0, "lat": 80.25}}, {"type": "Feature", "geometry": {"type": "Polygon", "coordinates": [[[-62.25, 75.0], [-62.25, 76.5], [-60.75, 76.5], [-60.75, 75.0], [-62.25, 75.0]]]}, "properties": {"cell_id": "199_110", "lon": -61.5, "lat": 75.75}}, {"type": "Feature", "geometry": {"type": "Polygon", "coordinates": [[[-62.25, 76.5], [-62.25, 78.0], [-60.75, 78.0], [-60.75, 76.5], [-62.25, 76.5]]]}, "properties": {"cell_id": "199_111", "lon": -61.5, "lat": 77.25}}, {"type": "Feature", "geometry": {"type": "Polygon", "coordinates": [[[-62.25, 78.0], [-62.25, 79.5], [-60.75, 79.5], [-60.75, 78.0], [-62.25, 78.0]]]}, "properties": {"cell_id": "199_112", "lon": -61.5, "lat": 78.75}}, {"type": "Feature", "geometry": {"type": "Polygon", "coordinates": [[[-62.25, 79.5], [-62.25, 81.0], [-60.75, 81.0], [-60.75, 79.5], [-62.25, 79.5]]]}, "properties": {"cell_id": "199_113", "lon": -61.5, "lat": 80.25}}, {"type": "Feature", "geometry": {"type": "Polygon", "coordinates": [[[-60.75, 75.0], [-60.75, 76.5], [-59.25, 76.5], [-59.25, 75.0], [-60.75, 75.0]]]}, "properties": {"cell_id": "200_110", "lon": -60.0, "lat": 75.75}}, {"type": "Feature", "geometry": {"type": "Polygon", "coordinates": [[[-60.75, 76.5], [-60.75, 78.0], [-59.25, 78.0], [-59.25, 76.5], [-60.75, 76.5]]]}, "properties": {"cell_id": "200_111", "lon": -60.0, "lat": 77.25}}, {"type": "Feature", "geometry": {"type": "Polygon", "coordinates": [[[-60.75, 78.0], [-60.75, 79.5], [-59.25, 79.5], [-59.25, 78.0], [-60.75, 78.0]]]}, "properties": {"cell_id": "200_112", "lon": -60.0, "lat": 78.75}}, {"type": "Feature", "geometry": {"type": "Polygon", "coordinates": [[[-60.75, 79.5], [-60.75, 81.0], [-59.25, 81.0], [-59.25, 79.5], [-60.75, 79.5]]]}, "properties": {"cell_id": "200_113", "lon": -60.0, "lat": 80.25}}]}