{"type": "FeatureCollection", "features": [{"type": "Feature", "geometry": {"type": "Polygon", "coordinates": [[[167.25, -48.0], [167.25, -46.5], [168.75, -46.5], [168.75, -48.0], [167.25, -48.0]]]}, "properties": {"cell_id": "112_28", "lon": 168.0, "lat": -47.25}}, {"type": "Feature", "geometry": {"type": "Polygon", "coordinates": [[[167.25, -46.5], [167.25, -45.0], [168.75, -45.0], [168.75, -46.5], [167.25, -46.5]]]}, "properties": {"cell_id": "112_29", "lon": 168.0, "lat": -45.75}}, {"type": "Feature", "geometry": {"type": "Polygon", "coordinates": [[[167.25, -45.0], [167.25, -43.5], [168.75, -43.5], [168.75, -45.0], [167.25, -45.0]]]}, "properties": {"cell_id": "112_30", "lon": 168.0, "lat": -44.25}}, {"type": "Feature", "geometry": {"type": "Polygon", "coordinates": [[[168.75, -48.0], [168.75, -46.5], [170.25, -46.5], [170.25, -48.0], [168.75, -48.0]]]}, "properties": {"cell_id": "113_28", "lon": 169.5, "lat": -47.25}}, {"type": "Feature", "geometry": {"type": "Polygon", "coordinates": [[[168.75, -46.5], [168.75, -45.0], [170.25, -45.0], [170.25, -46.5], [168.75, -46.5]]]}, "properties": {"cell_id": "113_29", "lon": 169.5, "lat": -45.75}}, {"type": "Feature", "geometry": {"type": "Polygon", "coordinates": [[[168.75, -45.0], [168.75, -43.5], [170.25, -43.5], [170.25, -45.0], [168.75, -45.0]]]}, "properties": {"cell_id": "113_30", "lon": 169.5, "lat": -44.25}}, {"type": "Feature", "geometry": {"type": "Polygon", "coordinates": [[[168.75, -43.5], [168.75, -42.0], [170.25, -42.0], [170.25, -43.5], [168.75, -43.5]]]}, "properties": {"cell_id": "113_31", "lon": 169.5, "lat": -42.75}}, {"type": "Feature", "geometry": {"type": "Polygon", "coordinates": [[[168.75, -42.0], [168.75, -40.5], [170.25, -40.5], [170.25, -42.0], [168.75, -42.0]]]}, "properties": {"cell_id": "113_32", "lon": 169.5, "lat": -41.25}}]}