{"type": "FeatureCollection", "features": [{"type": "Feature", "geometry": {"type": "Polygon", "coordinates": [[[80.25, 40.5], [80.25, 42.0], [81.75, 42.0], [81.75, 40.5], [80.25, 40.5]]]}, "properties": {"cell_id": "54_87", "lon": 81.0, "lat": 41.25}}, {"type": "Feature", "geometry": {"type": "Polygon", "coordinates": [[[80.25, 42.0], [80.25, 43.5], [81.75, 43.5], [81.75, 42.0], [80.25, 42.0]]]}, "properties": {"cell_id": "54_88", "lon": 81.0, "lat": 42.75}}, {"type": "Feature", "geometry": {"type": "Polygon", "coordinates": [[[80.25, 43.5], [80.25, 45.0], [81.75, 45.0], [81.75, 43.5], [80.25, 43.5]]]}, "properties": {"cell_id": "54_89", "lon": 81.0, "lat": 44.25}}, {"type": "Feature", "geometry": {"type": "Polygon", "coordinates": [[[80.25, 45.0], [80.25, 46.5], [81.75, 46.5], [81.75, 45.0], [80.25, 45.0]]]}, "properties": {"cell_id": "54_90", "lon": 81.0, "lat": 45.75}}, {"type": "Feature", "geometry": {"type": "Polygon", "coordinates": [[[80.25, 46.5], [80.25, 48.0], [81.75, 48.0], [81.75, 46.5], [80.25, 46.5]]]}, "properties": {"cell_id": "54_91", "lon": 81.0, "lat": 47.25}}, {"type": "Feature", "geometry": {"type": "Polygon", "coordinates": [[[80.25, 48.0], [80.25, 49.5], [81.75, 49.5], [81.75, 48.0], [80.25, 48.0]]]}, "properties": {"cell_id": "54_92", "lon": 81.0, "lat": 48.75}}, {"type": "Feature", "geometry": {"type": "Polygon", "coordinates": [[[80.25, 49.5], [80.25, 51.0], [81.75, 51.0], [81.75, 49.5], [80.25, 49.5]]]}, "properties": {"cell_id": "54_93", "lon": 81.0, "lat": 50.25}}, {"type": "Feature", "geometry": {"type": "Polygon", "coordinates": [[[81.75, 40.5], [81.75, 42.0], [83.25, 42.0], [83.25, 40.5], [81.75, 40.5]]]}, "properties": {"cell_id": "55_87", "lon": 82.5, "lat": 41.25}}, {"type": "Feature", "geometry": {"type": "Polygon", "coordinates": [[[81.75, 42.0], [81.75, 43.5], [83.25, 43.5], [83.25, 42.0], [81.75, 42.0]]]}, "properties": {"cell_id": "55_88", "lon": 82.5, "lat": 42.75}}, {"type": "Feature", "geometry": {"type": "Polygon", "coordinates": [[[81.75, 43.5], [81.75, 45.0], [83.25, 45.0], [83.25, 43.5], [81.75, 43.5]]]}, "properties": {"cell_id": "55_89", "lon": 82.5, "lat": 44.25}}, {"type": "Feature", "geometry": {"type": "Polygon", "coordinates": [[[81.75, 45.0], [81.75, 46.5], [83.25, 46.5], [83.25, 45.0], [81.75, 45.0]]]}, "properties": {"cell_id": "55_90", "lon": 82.5, "lat": 45.75}}, {"type": "Feature", "geometry": {"type": "Polygon", "coordinates": [[[81.75, 46.5], [81.75, 48.0], [83.25, 48.0], [83.25, 46.5], [81.75, 46.5]]]}, "properties": {"cell_id": "55_91", "lon": 82.5, "lat": 47.25}}, {"type": "Feature", "geometry": {"type": "Polygon", "coordinates": [[[81.75, 48.0], [81.75, 49.5], [83.25, 49.5], [83.25, 48.0], [81.75, 48.0]]]}, "properties": {"cell_id": "55_92", "lon": 82.5, "lat": 48.75}}, {"type": "Feature", "geometry": {"type": "Polygon", "coordinates": [[[81.75, 49.5], [81.75, 51.0], [83.25, 51.0], [83.25, 49.5], [81.75, 49.5]]]}, "properties": {"cell_id": "55_93", "lon": 82.5, "lat": 50.25}}, {"type": "Feature", "geometry": {"type": "Polygon", "coordinates": [[[83.25, 40.5], [83.25, 42.0], [84.75, 42.0], [84.75, 40.5], [83.25, 40.5]]]}, "properties": {"cell_id": "56_87", "lon": 84.0, "lat": 41.25}}, {"type": "Feature", "geometry": {"type": "Polygon", "coordinates": [[[83.25, 42.0], [83.25, 43.5], [84.75, 43.5], [84.75, 42.0], [83.25, 42.0]]]}, "properties": {"cell_id": "56_88", "lon": 84.0, "lat": 42.75}}, {"type": "Feature", "geometry": {"type": "Polygon", "coordinates": [[[83.25, 43.5], [83.25, 45.0], [84.75, 45.0], [84.75, 43.5], [83.25, 43.5]]]}, "properties": {"cell_id": "56_89", "lon": 84.0, "lat": 44.25}}, {"type": "Feature", "geometry": {"type": "Polygon", "coordinates": [[[83.25, 45.0], [83.25, 46.5], [84.75, 46.5], [84.75, 45.0], [83.25, 45.0]]]}, "properties": {"cell_id": "56_90", "lon": 84.0, "lat": 45.75}}, {"type": "Feature", "geometry": {"type": "Polygon", "coordinates": [[[83.25, 46.5], [83.25, 48.0], [84.75, 48.0], [84.75, 46.5], [83.25, 46.5]]]}, "properties": {"cell_id": "56_91", "lon": 84.0, "lat": 47.25}}, {"type": "Feature", "geometry": {"type": "Polygon", "coordinates": [[[83.25, 48.0], [83.25, 49.5], [84.75, 49.5], [84.75, 48.0], [83.25, 48.0]]]}, "properties": {"cell_id": "56_92", "lon": 84.0, "lat": 48.75}}, {"type": "Feature", "geometry": {"type": "Polygon", "coordinates": [[[83.25, 49.5], [83.25, 51.0], [84.75, 51.0], [84.75, 49.5], [83.25, 49.5]]]}, "properties": {"cell_id": "56_93", "lon": 84.0, "lat": 50.25}}, {"type": "Feature", "geometry": {"type": "Polygon", "coordinates": [[[84.75, 40.5], [84.75, 42.0], [86.25, 42.0], [86.25, 40.5], [84.75, 40.5]]]}, "properties": {"cell_id": "57_87", "lon": 85.5, "lat": 41.25}}, {"type": "Feature", "geometry": {"type": "Polygon", "coordinates": [[[84.75, 42.0], [84.75, 43.5], [86.25, 43.5], [86.25, 42.0], [84.75, 42.0]]]}, "properties": {"cell_id": "57_88", "lon": 85.5, "lat": 42.75}}, {"type": "Feature", "geometry": {"type": "Polygon", "coordinates": [[[84.75, 43.5], [84.75, 45.0], [86.25, 45.0], [86.25, 43.5], [84.75, 43.5]]]}, "properties": {"cell_id": "57_89", "lon": 85.5, "lat": 44.25}}, {"type": "Feature", "geometry": {"type": "Polygon", "coordinates": [[[84.75, 45.0], [84.75, 46.5], [86.25, 46.5], [86.25, 45.0], [84.75, 45.0]]]}, "properties": {"cell_id": "57_90", "lon": 85.5, "lat": 45.75}}, {"type": "Feature", "geometry": {"type": "Polygon", "coordinates": [[[84.75, 46.5], [84.75, 48.0], [86.25, 48.0], [86.25, 46.5], [84.75, 46.5]]]}, "properties": {"cell_id": "57_91", "lon": 85.5, "lat": 47.25}}, {"type": "Feature", "geometry": {"type": "Polygon", "coordinates": [[[84.75, 48.0], [84.75, 49.5], [86.25, 49.5], [86.25, 48.0], [84.75, 48.0]]]}, "properties": {"cell_id": "57_92", "lon": 85.5, "lat": 48.75}}, {"type": "Feature", "geometry": {"type": "Polygon", "coordinates": [[[84.75, 49.5], [84.75, 51.0], [86.25, 51.0], [86.25, 49.5], [84.75, 49.5]]]}, "properties": {"cell_id": "57_93", "lon": 85.5, "lat": 50.25}}, {"type": "Feature", "geometry": {"type": "Polygon", "coordinates": [[[86.25, 40.5], [86.25, 42.0], [87.75, 42.0], [87.75, 40.5], [86.25, 40.5]]]}, "properties": {"cell_id": "58_87", "lon": 87.0, "lat": 41.25}}, {"type": "Feature", "geometry": {"type": "Polygon", "coordinates": [[[86.25, 42.0], [86.25, 43.5], [87.75, 43.5], [87.75, 42.0], [86.25, 42.0]]]}, "properties": {"cell_id": "58_88", "lon": 87.0, "lat": 42.75}}, {"type": "Feature", "geometry": {"type": "Polygon", "coordinates": [[[86.25, 43.5], [86.25, 45.0], [87.75, 45.0], [87.75, 43.5], [86.25, 43.5]]]}, "properties": {"cell_id": "58_89", "lon": 87.0, "lat": 44.25}}, {"type": "Feature", "geometry": {"type": "Polygon", "coordinates": [[[86.25, 45.0], [86.25, 46.5], [87.75, 46.5], [87.75, 45.0], [86.25, 45.0]]]}, "properties": {"cell_id": "58_90", "lon": 87.0, "lat": 45.75}}, {"type": "Feature", "geometry": {"type": "Polygon", "coordinates": [[[86.25, 46.5], [86.25, 48.0], [87.75, 48.0], [87.75, 46.5], [86.25, 46.5]]]}, "properties": {"cell_id": "58_91", "lon": 87.0, "lat": 47.25}}, {"type": "Feature", "geometry": {"type": "Polygon", "coordinates": [[[86.25, 48.0], [86.25, 49.5], [87.75, 49.5], [87.75, 48.0], [86.25, 48.0]]]}, "properties": {"cell_id": "58_92", "lon": 87.0, "lat": 48.75}}, {"type": "Feature", "geometry": {"type": "Polygon", "coordinates": [[[86.25, 49.5], [86.25, 51.0], [87.75, 51.0], [87.75, 49.5], [86.25, 49.5]]]}, "properties": {"cell_id": "58_93", "lon": 87.0, "lat": 50.25}}, {"type": "Feature", "geometry": {"type": "Polygon", "coordinates": [[[87.75, 40.5], [87.75, 42.0], [89.25, 42.0], [89.25, 40.5], [87.75, 40.5]]]}, "properties": {"cell_id": "59_87", "lon": 88.5, "lat": 41.25}}, {"type": "Feature", "geometry": {"type": "Polygon", "coordinates": [[[87.75, 42.0], [87.75, 43.5], [89.25, 43.5], [89.25, 42.0], [87.75, 42.0]]]}, "properties": {"cell_id": "59_88", "lon": 88.5, "lat": 42.75}}, {"type": "Feature", "geometry": {"type": "Polygon", "coordinates": [[[87.75, 43.5], [87.75, 45.0], [89.25, 45.0], [89.25, 43.5], [87.75, 43.5]]]}, "properties": {"cell_id": "59_89", "lon": 88.5, "lat": 44.25}}, {"type": "Feature", "geometry": {"type": "Polygon", "coordinates": [[[87.75, 45.0], [87.75, 46.5], [89.25, 46.5], [89.25, 45.0], [87.75, 45.0]]]}, "properties": {"cell_id": "59_90", "lon": 88.5, "lat": 45.75}}, {"type": "Feature", "geometry": {"type": "Polygon", "coordinates": [[[87.75, 46.5], [87.75, 48.0], [89.25, 48.0], [89.25, 46.5], [87.75, 46.5]]]}, "properties": {"cell_id": "59_91", "lon": 88.5, "lat": 47.25}}, {"type": "Feature", "geometry": {"type": "Polygon", "coordinates": [[[87.75, 48.0], [87.75, 49.5], [89.25, 49.5], [89.25, 48.0], [87.75, 48.0]]]}, "properties": {"cell_id": "59_92", "lon": 88.5, "lat": 48.75}}, {"type": "Feature", "geometry": {"type": "Polygon", "coordinates": [[[87.75, 49.5], [87.75, 51.0], [89.25, 51.0], [89.25, 49.5], [87.75, 49.5]]]}, "properties": {"cell_id": "59_93", "lon": 88.5, "lat": 50.25}}, {"type": "Feature", "geometry": {"type": "Polygon", "coordinates": [[[89.25, 40.5], [89.25, 42.0], [90.75, 42.0], [90.75, 40.5], [89.25, 40.5]]]}, "properties": {"cell_id": "60_87", "lon": 90.0, "lat": 41.25}}, {"type": "Feature", "geometry": {"type": "Polygon", "coordinates": [[[89.25, 42.0], [89.25, 43.5], [90.75, 43.5], [90.75, 42.0], [89.25, 42.0]]]}, "properties": {"cell_id": "60_88", "lon": 90.0, "lat": 42.75}}, {"type": "Feature", "geometry": {"type": "Polygon", "coordinates": [[[89.25, 43.5], [89.25, 45.0], [90.75, 45.0], [90.75, 43.5], [89.25, 43.5]]]}, "properties": {"cell_id": "60_89", "lon": 90.0, "lat": 44.25}}, {"type": "Feature", "geometry": {"type": "Polygon", "coordinates": [[[89.25, 45.0], [89.25, 46.5], [90.75, 46.5], [90.75, 45.0], [89.25, 45.0]]]}, "properties": {"cell_id": "60_90", "lon": 90.0, "lat": 45.75}}, {"type": "Feature", "geometry": {"type": "Polygon", "coordinates": [[[89.25, 46.5], [89.25, 48.0], [90.75, 48.0], [90.75, 46.5], [89.25, 46.5]]]}, "properties": {"cell_id": "60_91", "lon": 90.0, "lat": 47.25}}, {"type": "Feature", "geometry": {"type": "Polygon", "coordinates": [[[89.25, 48.0], [89.25, 49.5], [90.75, 49.5], [90.75, 48.0], [89.25, 48.0]]]}, "properties": {"cell_id": "60_92", "lon": 90.0, "lat": 48.75}}, {"type": "Feature", "geometry": {"type": "Polygon", "coordinates": [[[89.25, 49.5], [89.25, 51.0], [90.75, 51.0], [90.75, 49.5], [89.25, 49.5]]]}, "properties": {"cell_id": "60_93", "lon": 90.0, "lat": 50.25}}]}