{"type": "FeatureCollection", "features": [{"type": "Feature", "geometry": {"type": "Polygon", "coordinates": [[[60.75, -90.0], [60.75, -88.5], [62.25, -88.5], [62.25, -90.0], [60.75, -90.0]]]}, "properties": {"cell_id": "41_0", "lon": 61.5, "lat": -89.25}}, {"type": "Feature", "geometry": {"type": "Polygon", "coordinates": [[[60.75, -88.5], [60.75, -87.0], [62.25, -87.0], [62.25, -88.5], [60.75, -88.5]]]}, "properties": {"cell_id": "41_1", "lon": 61.5, "lat": -87.75}}, {"type": "Feature", "geometry": {"type": "Polygon", "coordinates": [[[60.75, -87.0], [60.75, -85.5], [62.25, -85.5], [62.25, -87.0], [60.75, -87.0]]]}, "properties": {"cell_id": "41_2", "lon": 61.5, "lat": -86.25}}, {"type": "Feature", "geometry": {"type": "Polygon", "coordinates": [[[60.75, -85.5], [60.75, -84.0], [62.25, -84.0], [62.25, -85.5], [60.75, -85.5]]]}, "properties": {"cell_id": "41_3", "lon": 61.5, "lat": -84.75}}, {"type": "Feature", "geometry": {"type": "Polygon", "coordinates": [[[60.75, -84.0], [60.75, -82.5], [62.25, -82.5], [62.25, -84.0], [60.75, -84.0]]]}, "properties": {"cell_id": "41_4", "lon": 61.5, "lat": -83.25}}, {"type": "Feature", "geometry": {"type": "Polygon", "coordinates": [[[60.75, -82.5], [60.75, -81.0], [62.25, -81.0], [62.25, -82.5], [60.75, -82.5]]]}, "properties": {"cell_id": "41_5", "lon": 61.5, "lat": -81.75}}, {"type": "Feature", "geometry": {"type": "Polygon", "coordinates": [[[60.75, -81.0], [60.75, -79.5], [62.25, -79.5], [62.25, -81.0], [60.75, -81.0]]]}, "properties": {"cell_id": "41_6", "lon": 61.5, "lat": -80.25}}, {"type": "Feature", "geometry": {"type": "Polygon", "coordinates": [[[62.25, -90.0], [62.25, -88.5], [63.75, -88.5], [63.75, -90.0], [62.25, -90.0]]]}, "properties": {"cell_id": "42_0", "lon": 63.0, "lat": -89.25}}, {"type": "Feature", "geometry": {"type": "Polygon", "coordinates": [[[62.25, -88.5], [62.25, -87.0], [63.75, -87.0], [63.75, -88.5], [62.25, -88.5]]]}, "properties": {"cell_id": "42_1", "lon": 63.0, "lat": -87.75}}, {"type": "Feature", "geometry": {"type": "Polygon", "coordinates": [[[62.25, -87.0], [62.25, -85.5], [63.75, -85.5], [63.75, -87.0], [62.25, -87.0]]]}, "properties": {"cell_id": "42_2", "lon": 63.0, "lat": -86.25}}, {"type": "Feature", "geometry": {"type": "Polygon", "coordinates": [[[62.25, -85.5], [62.25, -84.0], [63.75, -84.0], [63.75, -85.5], [62.25, -85.5]]]}, "properties": {"cell_id": "42_3", "lon": 63.0, "lat": -84.75}}, {"type": "Feature", "geometry": {"type": "Polygon", "coordinates": [[[62.25, -84.0], [62.25, -82.5], [63.75, -82.5], [63.75, -84.0], [62.25, -84.0]]]}, "properties": {"cell_id": "42_4", "lon": 63.0, "lat": -83.25}}, {"type": "Feature", "geometry": {"type": "Polygon", "coordinates": [[[62.25, -82.5], [62.25, -81.0], [63.75, -81.0], [63.75, -82.5], [62.25, -82.5]]]}, "properties": {"cell_id": "42_5", "lon": 63.0, "lat": -81.75}}, {"type": "Feature", "geometry": {"type": "Polygon", "coordinates": [[[62.25, -81.0], [62.25, -79.5], [63.75, -79.5], [63.75, -81.0], [62.25, -81.0]]]}, "properties": {"cell_id": "42_6", "lon": 63.0, "lat": -80.25}}, {"type": "Feature", "geometry": {"type": "Polygon", "coordinates": [[[63.75, -90.0], [63.75, -88.5], [65.25, -88.5], [65.25, -90.0], [63.75, -90.0]]]}, "properties": {"cell_id": "43_0", "lon": 64.5, "lat": -89.25}}, {"type": "Feature", "geometry": {"type": "Polygon", "coordinates": [[[63.75, -88.5], [63.75, -87.0], [65.25, -87.0], [65.25, -88.5], [63.75, -88.5]]]}, "properties": {"cell_id": "43_1", "lon": 64.5, "lat": -87.75}}, {"type": "Feature", "geometry": {"type": "Polygon", "coordinates": [[[63.75, -87.0], [63.75, -85.5], [65.25, -85.5], [65.25, -87.0], [63.75, -87.0]]]}, "properties": {"cell_id": "43_2", "lon": 64.5, "lat": -86.25}}, {"type": "Feature", "geometry": {"type": "Polygon", "coordinates": [[[63.75, -85.5], [63.75, -84.0], [65.25, -84.0], [65.25, -85.5], [63.75, -85.5]]]}, "properties": {"cell_id": "43_3", "lon": 64.5, "lat": -84.75}}, {"type": "Feature", "geometry": {"type": "Polygon", "coordinates": [[[63.75, -84.0], [63.75, -82.5], [65.25, -82.5], [65.25, -84.0], [63.75, -84.0]]]}, "properties": {"cell_id": "43_4", "lon": 64.5, "lat": -83.25}}, {"type": "Feature", "geometry": {"type": "Polygon", "coordinates": [[[63.75, -82.5], [63.75, -81.0], [65.25, -81.0], [65.25, -82.5], [63.75, -82.5]]]}, "properties": {"cell_id": "43_5", "lon": 64.5, "lat": -81.75}}, {"type": "Feature", "geometry": {"type": "Polygon", "coordinates": [[[63.75, -81.0], [63.75, -79.5], [65.25, -79.5], [65.25, -81.0], [63.75, -81.0]]]}, "properties": {"cell_id": "43_6", "lon": 64.5, "lat": -80.25}}, {"type": "Feature", "geometry": {"type": "Polygon", "coordinates": [[[65.25, -90.0], [65.25, -88.5], [66.75, -88.5], [66.75, -90.0], [65.25, -90.0]]]}, "properties": {"cell_id": "44_0", "lon": 66.0, "lat": -89.25}}, {"type": "Feature", "geometry": {"type": "Polygon", "coordinates": [[[65.25, -88.5], [65.25, -87.0], [66.75, -87.0], [66.75, -88.5], [65.25, -88.5]]]}, "properties": {"cell_id": "44_1", "lon": 66.0, "lat": -87.75}}, {"type": "Feature", "geometry": {"type": "Polygon", "coordinates": [[[65.25, -87.0], [65.25, -85.5], [66.75, -85.5], [66.75, -87.0], [65.25, -87.0]]]}, "properties": {"cell_id": "44_2", "lon": 66.0, "lat": -86.25}}, {"type": "Feature", "geometry": {"type": "Polygon", "coordinates": [[[65.25, -85.5], [65.25, -84.0], [66.75, -84.0], [66.75, -85.5], [65.25, -85.5]]]}, "properties": {"cell_id": "44_3", "lon": 66.0, "lat": -84.75}}, {"type": "Feature", "geometry": {"type": "Polygon", "coordinates": [[[65.25, -84.0], [65.25, -82.5], [66.75, -82.5], [66.75, -84.0], [65.25, -84.0]]]}, "properties": {"cell_id": "44_4", "lon": 66.0, "lat": -83.25}}, {"type": "Feature", "geometry": {"type": "Polygon", "coordinates": [[[65.25, -82.5], [65.25, -81.0], [66.75, -81.0], [66.75, -82.5], [65.25, -82.5]]]}, "properties": {"cell_id": "44_5", "lon": 66.0, "lat": -81.75}}, {"type": "Feature", "geometry": {"type": "Polygon", "coordinates": [[[65.25, -81.0], [65.25, -79.5], [66.75, -79.5], [66.75, -81.0], [65.25, -81.0]]]}, "properties": {"cell_id": "44_6", "lon": 66.0, "lat": -80.25}}, {"type": "Feature", "geometry": {"type": "Polygon", "coordinates": [[[66.75, -90.0], [66.75, -88.5], [68.25, -88.5], [68.25, -90.0], [66.75, -90.0]]]}, "properties": {"cell_id": "45_0", "lon": 67.5, "lat": -89.25}}, {"type": "Feature", "geometry": {"type": "Polygon", "coordinates": [[[66.75, -88.5], [66.75, -87.0], [68.25, -87.0], [68.25, -88.5], [66.75, -88.5]]]}, "properties": {"cell_id": "45_1", "lon": 67.5, "lat": -87.75}}, {"type": "Feature", "geometry": {"type": "Polygon", "coordinates": [[[66.75, -87.0], [66.75, -85.5], [68.25, -85.5], [68.25, -87.0], [66.75, -87.0]]]}, "properties": {"cell_id": "45_2", "lon": 67.5, "lat": -86.25}}, {"type": "Feature", "geometry": {"type": "Polygon", "coordinates": [[[66.75, -85.5], [66.75, -84.0], [68.25, -84.0], [68.25, -85.5], [66.75, -85.5]]]}, "properties": {"cell_id": "45_3", "lon": 67.5, "lat": -84.75}}, {"type": "Feature", "geometry": {"type": "Polygon", "coordinates": [[[66.75, -84.0], [66.75, -82.5], [68.25, -82.5], [68.25, -84.0], [66.75, -84.0]]]}, "properties": {"cell_id": "45_4", "lon": 67.5, "lat": -83.25}}, {"type": "Feature", "geometry": {"type": "Polygon", "coordinates": [[[66.75, -82.5], [66.75, -81.0], [68.25, -81.0], [68.25, -82.5], [66.75, -82.5]]]}, "properties": {"cell_id": "45_5", "lon": 67.5, "lat": -81.75}}, {"type": "Feature", "geometry": {"type": "Polygon", "coordinates": [[[66.75, -81.0], [66.75, -79.5], [68.25, -79.5], [68.25, -81.0], [66.75, -81.0]]]}, "properties": {"cell_id": "45_6", "lon": 67.5, "lat": -80.25}}, {"type": "Feature", "geometry": {"type": "Polygon", "coordinates": [[[68.25, -90.0], [68.25, -88.5], [69.75, -88.5], [69.75, -90.0], [68.25, -90.0]]]}, "properties": {"cell_id": "46_0", "lon": 69.0, "lat": -89.25}}, {"type": "Feature", "geometry": {"type": "Polygon", "coordinates": [[[68.25, -88.5], [68.25, -87.0], [69.75, -87.0], [69.75, -88.5], [68.25, -88.5]]]}, "properties": {"cell_id": "46_1", "lon": 69.0, "lat": -87.75}}, {"type": "Feature", "geometry": {"type": "Polygon", "coordinates": [[[68.25, -87.0], [68.25, -85.5], [69.75, -85.5], [69.75, -87.0], [68.25, -87.0]]]}, "properties": {"cell_id": "46_2", "lon": 69.0, "lat": -86.25}}, {"type": "Feature", "geometry": {"type": "Polygon", "coordinates": [[[68.25, -85.5], [68.25, -84.0], [69.75, -84.0], [69.75, -85.5], [68.25, -85.5]]]}, "properties": {"cell_id": "46_3", "lon": 69.0, "lat": -84.75}}, {"type": "Feature", "geometry": {"type": "Polygon", "coordinates": [[[68.25, -84.0], [68.25, -82.5], [69.75, -82.5], [69.75, -84.0], [68.25, -84.0]]]}, "properties": {"cell_id": "46_4", "lon": 69.0, "lat": -83.25}}, {"type": "Feature", "geometry": {"type": "Polygon", "coordinates": [[[68.25, -82.5], [68.25, -81.0], [69.75, -81.0], [69.75, -82.5], [68.25, -82.5]]]}, "properties": {"cell_id": "46_5", "lon": 69.0, "lat": -81.75}}, {"type": "Feature", "geometry": {"type": "Polygon", "coordinates": [[[68.25, -81.0], [68.25, -79.5], [69.75, -79.5], [69.75, -81.0], [68.25, -81.0]]]}, "properties": {"cell_id": "46_6", "lon": 69.0, "lat": -80.25}}, {"type": "Feature", "geometry": {"type": "Polygon", "coordinates": [[[69.75, -90.0], [69.75, -88.5], [71.25, -88.5], [71.25, -90.0], [69.75, -90.0]]]}, "properties": {"cell_id": "47_0", "lon": 70.5, "lat": -89.25}}, {"type": "Feature", "geometry": {"type": "Polygon", "coordinates": [[[69.75, -88.5], [69.75, -87.0], [71.25, -87.0], [71.25, -88.5], [69.75, -88.5]]]}, "properties": {"cell_id": "47_1", "lon": 70.5, "lat": -87.75}}, {"type": "Feature", "geometry": {"type": "Polygon", "coordinates": [[[69.75, -87.0], [69.75, -85.5], [71.25, -85.5], [71.25, -87.0], [69.75, -87.0]]]}, "properties": {"cell_id": "47_2", "lon": 70.5, "lat": -86.25}}, {"type": "Feature", "geometry": {"type": "Polygon", "coordinates": [[[69.75, -85.5], [69.75, -84.0], [71.25, -84.0], [71.25, -85.5], [69.75, -85.5]]]}, "properties": {"cell_id": "47_3", "lon": 70.5, "lat": -84.75}}, {"type": "Feature", "geometry": {"type": "Polygon", "coordinates": [[[69.75, -84.0], [69.75, -82.5], [71.25, -82.5], [71.25, -84.0], [69.75, -84.0]]]}, "properties": {"cell_id": "47_4", "lon": 70.5, "lat": -83.25}}, {"type": "Feature", "geometry": {"type": "Polygon", "coordinates": [[[69.75, -82.5], [69.75, -81.0], [71.25, -81.0], [71.25, -82.5], [69.75, -82.5]]]}, "properties": {"cell_id": "47_5", "lon": 70.5, "lat": -81.75}}, {"type": "Feature", "geometry": {"type": "Polygon", "coordinates": [[[69.75, -81.0], [69.75, -79.5], [71.25, -79.5], [71.25, -81.0], [69.75, -81.0]]]}, "properties": {"cell_id": "47_6", "lon": 70.5, "lat": -80.25}}]}