{"type": "FeatureCollection", "features": [{"type": "Feature", "geometry": {"type": "Polygon", "coordinates": [[[140.25, -79.5], [140.25, -78.0], [141.75, -78.0], [141.75, -79.5], [140.25, -79.5]]]}, "properties": {"cell_id": "94_7", "lon": 141.0, "lat": -78.75}}, {"type": "Feature", "geometry": {"type": "Polygon", "coordinates": [[[140.25, -78.0], [140.25, -76.5], [141.75, -76.5], [141.75, -78.0], [140.25, -78.0]]]}, "properties": {"cell_id": "94_8", "lon": 141.0, "lat": -77.25}}, {"type": "Feature", "geometry": {"type": "Polygon", "coordinates": [[[140.25, -76.5], [140.25, -75.0], [141.75, -75.0], [141.75, -76.5], [140.25, -76.5]]]}, "properties": {"cell_id": "94_9", "lon": 141.0, "lat": -75.75}}, {"type": "Feature", "geometry": {"type": "Polygon", "coordinates": [[[140.25, -75.0], [140.25, -73.5], [141.75, -73.5], [141.75, -75.0], [140.25, -75.0]]]}, "properties": {"cell_id": "94_10", "lon": 141.0, "lat": -74.25}}, {"type": "Feature", "geometry": {"type": "Polygon", "coordinates": [[[140.25, -73.5], [140.25, -72.0], [141.75, -72.0], [141.75, -73.5], [140.25, -73.5]]]}, "properties": {"cell_id": "94_11", "lon": 141.0, "lat": -72.75}}, {"type": "Feature", "geometry": {"type": "Polygon", "coordinates": [[[140.25, -72.0], [140.25, -70.5], [141.75, -70.5], [141.75, -72.0], [140.25, -72.0]]]}, "properties": {"cell_id": "94_12", "lon": 141.0, "lat": -71.25}}, {"type": "Feature", "geometry": {"type": "Polygon", "coordinates": [[[140.25, -70.5], [140.25, -69.0], [141.75, -69.0], [141.75, -70.5], [140.25, -70.5]]]}, "properties": {"cell_id": "94_13", "lon": 141.0, "lat": -69.75}}, {"type": "Feature", "geometry": {"type": "Polygon", "coordinates": [[[141.75, -79.5], [141.75, -78.0], [143.25, -78.0], [143.25, -79.5], [141.75, -79.5]]]}, "properties": {"cell_id": "95_7", "lon": 142.5, "lat": -78.75}}, {"type": "Feature", "geometry": {"type": "Polygon", "coordinates": [[[141.75, -78.0], [141.75, -76.5], [143.25, -76.5], [143.25, -78.0], [141.75, -78.0]]]}, "properties": {"cell_id": "95_8", "lon": 142.5, "lat": -77.25}}, {"type": "Feature", "geometry": {"type": "Polygon", "coordinates": [[[141.75, -76.5], [141.75, -75.0], [143.25, -75.0], [143.25, -76.5], [141.75, -76.5]]]}, "properties": {"cell_id": "95_9", "lon": 142.5, "lat": -75.75}}, {"type": "Feature", "geometry": {"type": "Polygon", "coordinates": [[[141.75, -75.0], [141.75, -73.5], [143.25, -73.5], [143.25, -75.0], [141.75, -75.0]]]}, "properties": {"cell_id": "95_10", "lon": 142.5, "lat": -74.25}}, {"type": "Feature", "geometry": {"type": "Polygon", "coordinates": [[[141.75, -73.5], [141.75, -72.0], [143.25, -72.0], [143.25, -73.5], [141.75, -73.5]]]}, "properties": {"cell_id": "95_11", "lon": 142.5, "lat": -72.75}}, {"type": "Feature", "geometry": {"type": "Polygon", "coordinates": [[[141.75, -72.0], [141.75, -70.5], [143.25, -70.5], [143.25, -72.0], [141.75, -72.0]]]}, "properties": {"cell_id": "95_12", "lon": 142.5, "lat": -71.25}}, {"type": "Feature", "geometry": {"type": "Polygon", "coordinates": [[[141.75, -70.5], [141.75, -69.0], [143.25, -69.0], [143.25, -70.5], [141.75, -70.5]]]}, "properties": {"cell_id": "95_13", "lon": 142.5, "lat": -69.75}}, {"type": "Feature", "geometry": {"type": "Polygon", "coordinates": [[[143.25, -79.5], [143.25, -78.0], [144.75, -78.0], [144.75, -79.5], [143.25, -79.5]]]}, "properties": {"cell_id": "96_7", "lon": 144.0, "lat": -78.75}}, {"type": "Feature", "geometry": {"type": "Polygon", "coordinates": [[[143.25, -78.0], [143.25, -76.5], [144.75, -76.5], [144.75, -78.0], [143.25, -78.0]]]}, "properties": {"cell_id": "96_8", "lon": 144.0, "lat": -77.25}}, {"type": "Feature", "geometry": {"type": "Polygon", "coordinates": [[[143.25, -76.5], [143.25, -75.0], [144.75, -75.0], [144.75, -76.5], [143.25, -76.5]]]}, "properties": {"cell_id": "96_9", "lon": 144.0, "lat": -75.75}}, {"type": "Feature", "geometry": {"type": "Polygon", "coordinates": [[[143.25, -75.0], [143.25, -73.5], [144.75, -73.5], [144.75, -75.0], [143.25, -75.0]]]}, "properties": {"cell_id": "96_10", "lon": 144.0, "lat": -74.25}}, {"type": "Feature", "geometry": {"type": "Polygon", "coordinates": [[[143.25, -73.5], [143.25, -72.0], [144.75, -72.0], [144.75, -73.5], [143.25, -73.5]]]}, "properties": {"cell_id": "96_11", "lon": 144.0, "lat": -72.75}}, {"type": "Feature", "geometry": {"type": "Polygon", "coordinates": [[[143.25, -72.0], [143.25, -70.5], [144.75, -70.5], [144.75, -72.0], [143.25, -72.0]]]}, "properties": {"cell_id": "96_12", "lon": 144.0, "lat": -71.25}}, {"type": "Feature", "geometry": {"type": "Polygon", "coordinates": [[[143.25, -70.5], [143.25, -69.0], [144.75, -69.0], [144.75, -70.5], [143.25, -70.5]]]}, "properties": {"cell_id": "96_13", "lon": 144.0, "lat": -69.75}}, {"type": "Feature", "geometry": {"type": "Polygon", "coordinates": [[[144.75, -79.5], [144.75, -78.0], [146.25, -78.0], [146.25, -79.5], [144.75, -79.5]]]}, "properties": {"cell_id": "97_7", "lon": 145.5, "lat": -78.75}}, {"type": "Feature", "geometry": {"type": "Polygon", "coordinates": [[[144.75, -78.0], [144.75, -76.5], [146.25, -76.5], [146.25, -78.0], [144.75, -78.0]]]}, "properties": {"cell_id": "97_8", "lon": 145.5, "lat": -77.25}}, {"type": "Feature", "geometry": {"type": "Polygon", "coordinates": [[[144.75, -76.5], [144.75, -75.0], [146.25, -75.0], [146.25, -76.5], [144.75, -76.5]]]}, "properties": {"cell_id": "97_9", "lon": 145.5, "lat": -75.75}}, {"type": "Feature", "geometry": {"type": "Polygon", "coordinates": [[[144.75, -75.0], [144.75, -73.5], [146.25, -73.5], [146.25, -75.0], [144.75, -75.0]]]}, "properties": {"cell_id": "97_10", "lon": 145.5, "lat": -74.25}}, {"type": "Feature", "geometry": {"type": "Polygon", "coordinates": [[[144.75, -73.5], [144.75, -72.0], [146.25, -72.0], [146.25, -73.5], [144.75, -73.5]]]}, "properties": {"cell_id": "97_11", "lon": 145.5, "lat": -72.75}}, {"type": "Feature", "geometry": {"type": "Polygon", "coordinates": [[[144.75, -72.0], [144.75, -70.5], [146.25, -70.5], [146.25, -72.0], [144.75, -72.0]]]}, "properties": {"cell_id": "97_12", "lon": 145.5, "lat": -71.25}}, {"type": "Feature", "geometry": {"type": "Polygon", "coordinates": [[[144.75, -70.5], [144.75, -69.0], [146.25, -69.0], [146.25, -70.5], [144.75, -70.5]]]}, "properties": {"cell_id": "97_13", "lon": 145.5, "lat": -69.75}}, {"type": "Feature", "geometry": {"type": "Polygon", "coordinates": [[[146.25, -79.5], [146.25, -78.0], [147.75, -78.0], [147.75, -79.5], [146.25, -79.5]]]}, "properties": {"cell_id": "98_7", "lon": 147.0, "lat": -78.75}}, {"type": "Feature", "geometry": {"type": "Polygon", "coordinates": [[[146.25, -78.0], [146.25, -76.5], [147.75, -76.5], [147.75, -78.0], [146.25, -78.0]]]}, "properties": {"cell_id": "98_8", "lon": 147.0, "lat": -77.25}}, {"type": "Feature", "geometry": {"type": "Polygon", "coordinates": [[[146.25, -76.5], [146.25, -75.0], [147.75, -75.0], [147.75, -76.5], [146.25, -76.5]]]}, "properties": {"cell_id": "98_9", "lon": 147.0, "lat": -75.75}}, {"type": "Feature", "geometry": {"type": "Polygon", "coordinates": [[[146.25, -75.0], [146.25, -73.5], [147.75, -73.5], [147.75, -75.0], [146.25, -75.0]]]}, "properties": {"cell_id": "98_10", "lon": 147.0, "lat": -74.25}}, {"type": "Feature", "geometry": {"type": "Polygon", "coordinates": [[[146.25, -73.5], [146.25, -72.0], [147.75, -72.0], [147.75, -73.5], [146.25, -73.5]]]}, "properties": {"cell_id": "98_11", "lon": 147.0, "lat": -72.75}}, {"type": "Feature", "geometry": {"type": "Polygon", "coordinates": [[[146.25, -72.0], [146.25, -70.5], [147.75, -70.5], [147.75, -72.0], [146.25, -72.0]]]}, "properties": {"cell_id": "98_12", "lon": 147.0, "lat": -71.25}}, {"type": "Feature", "geometry": {"type": "Polygon", "coordinates": [[[146.25, -70.5], [146.25, -69.0], [147.75, -69.0], [147.75, -70.5], [146.25, -70.5]]]}, "properties": {"cell_id": "98_13", "lon": 147.0, "lat": -69.75}}, {"type": "Feature", "geometry": {"type": "Polygon", "coordinates": [[[147.75, -79.5], [147.75, -78.0], [149.25, -78.0], [149.25, -79.5], [147.75, -79.5]]]}, "properties": {"cell_id": "99_7", "lon": 148.5, "lat": -78.75}}, {"type": "Feature", "geometry": {"type": "Polygon", "coordinates": [[[147.75, -78.0], [147.75, -76.5], [149.25, -76.5], [149.25, -78.0], [147.75, -78.0]]]}, "properties": {"cell_id": "99_8", "lon": 148.5, "lat": -77.25}}, {"type": "Feature", "geometry": {"type": "Polygon", "coordinates": [[[147.75, -76.5], [147.75, -75.0], [149.25, -75.0], [149.25, -76.5], [147.75, -76.5]]]}, "properties": {"cell_id": "99_9", "lon": 148.5, "lat": -75.75}}, {"type": "Feature", "geometry": {"type": "Polygon", "coordinates": [[[147.75, -75.0], [147.75, -73.5], [149.25, -73.5], [149.25, -75.0], [147.75, -75.0]]]}, "properties": {"cell_id": "99_10", "lon": 148.5, "lat": -74.25}}, {"type": "Feature", "geometry": {"type": "Polygon", "coordinates": [[[147.75, -73.5], [147.75, -72.0], [149.25, -72.0], [149.25, -73.5], [147.75, -73.5]]]}, "properties": {"cell_id": "99_11", "lon": 148.5, "lat": -72.75}}, {"type": "Feature", "geometry": {"type": "Polygon", "coordinates": [[[147.75, -72.0], [147.75, -70.5], [149.25, -70.5], [149.25, -72.0], [147.75, -72.0]]]}, "properties": {"cell_id": "99_12", "lon": 148.5, "lat": -71.25}}, {"type": "Feature", "geometry": {"type": "Polygon", "coordinates": [[[147.75, -70.5], [147.75, -69.0], [149.25, -69.0], [149.25, -70.5], [147.75, -70.5]]]}, "properties": {"cell_id": "99_13", "lon": 148.5, "lat": -69.75}}, {"type": "Feature", "geometry": {"type": "Polygon", "coordinates": [[[149.25, -79.5], [149.25, -78.0], [150.75, -78.0], [150.75, -79.5], [149.25, -79.5]]]}, "properties": {"cell_id": "100_7", "lon": 150.0, "lat": -78.75}}, {"type": "Feature", "geometry": {"type": "Polygon", "coordinates": [[[149.25, -78.0], [149.25, -76.5], [150.75, -76.5], [150.75, -78.0], [149.25, -78.0]]]}, "properties": {"cell_id": "100_8", "lon": 150.0, "lat": -77.25}}, {"type": "Feature", "geometry": {"type": "Polygon", "coordinates": [[[149.25, -76.5], [149.25, -75.0], [150.75, -75.0], [150.75, -76.5], [149.25, -76.5]]]}, "properties": {"cell_id": "100_9", "lon": 150.0, "lat": -75.75}}, {"type": "Feature", "geometry": {"type": "Polygon", "coordinates": [[[149.25, -75.0], [149.25, -73.5], [150.75, -73.5], [150.75, -75.0], [149.25, -75.0]]]}, "properties": {"cell_id": "100_10", "lon": 150.0, "lat": -74.25}}, {"type": "Feature", "geometry": {"type": "Polygon", "coordinates": [[[149.25, -73.5], [149.25, -72.0], [150.75, -72.0], [150.75, -73.5], [149.25, -73.5]]]}, "properties": {"cell_id": "100_11", "lon": 150.0, "lat": -72.75}}, {"type": "Feature", "geometry": {"type": "Polygon", "coordinates": [[[149.25, -72.0], [149.25, -70.5], [150.75, -70.5], [150.75, -72.0], [149.25, -72.0]]]}, "properties": {"cell_id": "100_12", "lon": 150.0, "lat": -71.25}}, {"type": "Feature", "geometry": {"type": "Polygon", "coordinates": [[[149.25, -70.5], [149.25, -69.0], [150.75, -69.0], [150.75, -70.5], [149.25, -70.5]]]}, "properties": {"cell_id": "100_13", "lon": 150.0, "lat": -69.75}}]}