{"type": "FeatureCollection", "features": [{"type": "Feature", "geometry": {"type": "Polygon", "coordinates": [[[-129.75, -79.5], [-129.75, -78.0], [-128.25, -78.0], [-128.25, -79.5], [-129.75, -79.5]]]}, "properties": {"cell_id": "154_7", "lon": -129.0, "lat": -78.75}}, {"type": "Feature", "geometry": {"type": "Polygon", "coordinates": [[[-129.75, -78.0], [-129.75, -76.5], [-128.25, -76.5], [-128.25, -78.0], [-129.75, -78.0]]]}, "properties": {"cell_id": "154_8", "lon": -129.0, "lat": -77.25}}, {"type": "Feature", "geometry": {"type": "Polygon", "coordinates": [[[-129.75, -76.5], [-129.75, -75.0], [-128.25, -75.0], [-128.25, -76.5], [-129.75, -76.5]]]}, "properties": {"cell_id": "154_9", "lon": -129.0, "lat": -75.75}}, {"type": "Feature", "geometry": {"type": "Polygon", "coordinates": [[[-128.25, -79.5], [-128.25, -78.0], [-126.75, -78.0], [-126.75, -79.5], [-128.25, -79.5]]]}, "properties": {"cell_id": "155_7", "lon": -127.5, "lat": -78.75}}, {"type": "Feature", "geometry": {"type": "Polygon", "coordinates": [[[-128.25, -78.0], [-128.25, -76.5], [-126.75, -76.5], [-126.75, -78.0], [-128.25, -78.0]]]}, "properties": {"cell_id": "155_8", "lon": -127.5, "lat": -77.25}}, {"type": "Feature", "geometry": {"type": "Polygon", "coordinates": [[[-128.25, -76.5], [-128.25, -75.0], [-126.75, -75.0], [-126.75, -76.5], [-128.25, -76.5]]]}, "properties": {"cell_id": "155_9", "lon": -127.5, "lat": -75.75}}, {"type": "Feature", "geometry": {"type": "Polygon", "coordinates": [[[-128.25, -75.0], [-128.25, -73.5], [-126.75, -73.5], [-126.75, -75.0], [-128.25, -75.0]]]}, "properties": {"cell_id": "155_10", "lon": -127.5, "lat": -74.25}}, {"type": "Feature", "geometry": {"type": "Polygon", "coordinates": [[[-128.25, -73.5], [-128.25, -72.0], [-126.75, -72.0], [-126.75, -73.5], [-128.25, -73.5]]]}, "properties": {"cell_id": "155_11", "lon": -127.5, "lat": -72.75}}, {"type": "Feature", "geometry": {"type": "Polygon", "coordinates": [[[-126.75, -79.5], [-126.75, -78.0], [-125.25, -78.0], [-125.25, -79.5], [-126.75, -79.5]]]}, "properties": {"cell_id": "156_7", "lon": -126.0, "lat": -78.75}}, {"type": "Feature", "geometry": {"type": "Polygon", "coordinates": [[[-126.75, -78.0], [-126.75, -76.5], [-125.25, -76.5], [-125.25, -78.0], [-126.75, -78.0]]]}, "properties": {"cell_id": "156_8", "lon": -126.0, "lat": -77.25}}, {"type": "Feature", "geometry": {"type": "Polygon", "coordinates": [[[-126.75, -76.5], [-126.75, -75.0], [-125.25, -75.0], [-125.25, -76.5], [-126.75, -76.5]]]}, "properties": {"cell_id": "156_9", "lon": -126.0, "lat": -75.75}}, {"type": "Feature", "geometry": {"type": "Polygon", "coordinates": [[[-126.75, -75.0], [-126.75, -73.5], [-125.25, -73.5], [-125.25, -75.0], [-126.75, -75.0]]]}, "properties": {"cell_id": "156_10", "lon": -126.0, "lat": -74.25}}, {"type": "Feature", "geometry": {"type": "Polygon", "coordinates": [[[-126.75, -73.5], [-126.75, -72.0], [-125.25, -72.0], [-125.25, -73.5], [-126.75, -73.5]]]}, "properties": {"cell_id": "156_11", "lon": -126.0, "lat": -72.75}}, {"type": "Feature", "geometry": {"type": "Polygon", "coordinates": [[[-125.25, -79.5], [-125.25, -78.0], [-123.75, -78.0], [-123.75, -79.5], [-125.25, -79.5]]]}, "properties": {"cell_id": "157_7", "lon": -124.5, "lat": -78.75}}, {"type": "Feature", "geometry": {"type": "Polygon", "coordinates": [[[-125.25, -78.0], [-125.25, -76.5], [-123.75, -76.5], [-123.75, -78.0], [-125.25, -78.0]]]}, "properties": {"cell_id": "157_8", "lon": -124.5, "lat": -77.25}}, {"type": "Feature", "geometry": {"type": "Polygon", "coordinates": [[[-125.25, -76.5], [-125.25, -75.0], [-123.75, -75.0], [-123.75, -76.5], [-125.25, -76.5]]]}, "properties": {"cell_id": "157_9", "lon": -124.5, "lat": -75.75}}, {"type": "Feature", "geometry": {"type": "Polygon", "coordinates": [[[-125.25, -75.0], [-125.25, -73.5], [-123.75, -73.5], [-123.75, -75.0], [-125.25, -75.0]]]}, "properties": {"cell_id": "157_10", "lon": -124.5, "lat": -74.25}}, {"type": "Feature", "geometry": {"type": "Polygon", "coordinates": [[[-125.25, -73.5], [-125.25, -72.0], [-123.75, -72.0], [-123.75, -73.5], [-125.25, -73.5]]]}, "properties": {"cell_id": "157_11", "lon": -124.5, "lat": -72.75}}, {"type": "Feature", "geometry": {"type": "Polygon", "coordinates": [[[-123.75, -79.5], [-123.75, -78.0], [-122.25, -78.0], [-122.25, -79.5], [-123.75, -79.5]]]}, "properties": {"cell_id": "158_7", "lon": -123.0, "lat": -78.75}}, {"type": "Feature", "geometry": {"type": "Polygon", "coordinates": [[[-123.75, -78.0], [-123.75, -76.5], [-122.25, -76.5], [-122.25, -78.0], [-123.75, -78.0]]]}, "properties": {"cell_id": "158_8", "lon": -123.0, "lat": -77.25}}, {"type": "Feature", "geometry": {"type": "Polygon", "coordinates": [[[-123.75, -76.5], [-123.75, -75.0], [-122.25, -75.0], [-122.25, -76.5], [-123.75, -76.5]]]}, "properties": {"cell_id": "158_9", "lon": -123.0, "lat": -75.75}}, {"type": "Feature", "geometry": {"type": "Polygon", "coordinates": [[[-123.75, -75.0], [-123.75, -73.5], [-122.25, -73.5], [-122.25, -75.0], [-123.75, -75.0]]]}, "properties": {"cell_id": "158_10", "lon": -123.0, "lat": -74.25}}, {"type": "Feature", "geometry": {"type": "Polygon", "coordinates": [[[-123.75, -73.5], [-123.75, -72.0], [-122.25, -72.0], [-122.25, -73.5], [-123.75, -73.5]]]}, "properties": {"cell_id": "158_11", "lon": -123.0, "lat": -72.75}}, {"type": "Feature", "geometry": {"type": "Polygon", "coordinates": [[[-122.25, -79.5], [-122.25, -78.0], [-120.75, -78.0], [-120.75, -79.5], [-122.25, -79.5]]]}, "properties": {"cell_id": "159_7", "lon": -121.5, "lat": -78.75}}, {"type": "Feature", "geometry": {"type": "Polygon", "coordinates": [[[-122.25, -78.0], [-122.25, -76.5], [-120.75, -76.5], [-120.75, -78.0], [-122.25, -78.0]]]}, "properties": {"cell_id": "159_8", "lon": -121.5, "lat": -77.25}}, {"type": "Feature", "geometry": {"type": "Polygon", "coordinates": [[[-122.25, -76.5], [-122.25, -75.0], [-120.75, -75.0], [-120.75, -76.5], [-122.25, -76.5]]]}, "properties": {"cell_id": "159_9", "lon": -121.5, "lat": -75.75}}, {"type": "Feature", "geometry": {"type": "Polygon", "coordinates": [[[-122.25, -75.0], [-122.25, -73.5], [-120.75, -73.5], [-120.75, -75.0], [-122.25, -75.0]]]}, "properties": {"cell_id": "159_10", "lon": -121.5, "lat": -74.25}}, {"type": "Feature", "geometry": {"type": "Polygon", "coordinates": [[[-122.25, -73.5], [-122.25, -72.0], [-120.75, -72.0], [-120.75, -73.5], [-122.25, -73.5]]]}, "properties": {"cell_id": "159_11", "lon": -121.5, "lat": -72.75}}, {"type": "Feature", "geometry": {"type": "Polygon", "coordinates": [[[-120.75, -79.5], [-120.75, -78.0], [-119.25, -78.0], [-119.25, -79.5], [-120.75, -79.5]]]}, "properties": {"cell_id": "160_7", "lon": -120.0, "lat": -78.75}}, {"type": "Feature", "geometry": {"type": "Polygon", "coordinates": [[[-120.75, -78.0], [-120.75, -76.5], [-119.25, -76.5], [-119.25, -78.0], [-120.75, -78.0]]]}, "properties": {"cell_id": "160_8", "lon": -120.0, "lat": -77.25}}, {"type": "Feature", "geometry": {"type": "Polygon", "coordinates": [[[-120.75, -76.5], [-120.75, -75.0], [-119.25, -75.0], [-119.25, -76.5], [-120.75, -76.5]]]}, "properties": {"cell_id": "160_9", "lon": -120.0, "lat": -75.75}}, {"type": "Feature", "geometry": {"type": "Polygon", "coordinates": [[[-120.75, -75.0], [-120.75, -73.5], [-119.25, -73.5], [-119.25, -75.0], [-120.75, -75.0]]]}, "properties": {"cell_id": "160_10", "lon": -120.0, "lat": -74.25}}, {"type": "Feature", "geometry": {"type": "Polygon", "coordinates": [[[-120.75, -73.5], [-120.75, -72.0], [-119.25, -72.0], [-119.25, -73.5], [-120.75, -73.5]]]}, "properties": {"cell_id": "160_11", "lon": -120.0, "lat": -72.75}}]}