{"type": "FeatureCollection", "features": [{"type": "Feature", "geometry": {"type": "Polygon", "coordinates": [[[20.25, -9.0], [20.25, -7.5], [21.75, -7.5], [21.75, -9.0], [20.25, -9.0]]]}, "properties": {"cell_id": "14_54", "lon": 21.0, "lat": -8.25}}, {"type": "Feature", "geometry": {"type": "Polygon", "coordinates": [[[20.25, -7.5], [20.25, -6.0], [21.75, -6.0], [21.75, -7.5], [20.25, -7.5]]]}, "properties": {"cell_id": "14_55", "lon": 21.0, "lat": -6.75}}, {"type": "Feature", "geometry": {"type": "Polygon", "coordinates": [[[20.25, -6.0], [20.25, -4.5], [21.75, -4.5], [21.75, -6.0], [20.25, -6.0]]]}, "properties": {"cell_id": "14_56", "lon": 21.0, "lat": -5.25}}, {"type": "Feature", "geometry": {"type": "Polygon", "coordinates": [[[20.25, -4.5], [20.25, -3.0], [21.75, -3.0], [21.75, -4.5], [20.25, -4.5]]]}, "properties": {"cell_id": "14_57", "lon": 21.0, "lat": -3.75}}, {"type": "Feature", "geometry": {"type": "Polygon", "coordinates": [[[20.25, -3.0], [20.25, -1.5], [21.75, -1.5], [21.75, -3.0], [20.25, -3.0]]]}, "properties": {"cell_id": "14_58", "lon": 21.0, "lat": -2.25}}, {"type": "Feature", "geometry": {"type": "Polygon", "coordinates": [[[20.25, -1.5], [20.25, 0.0], [21.75, 0.0], [21.75, -1.5], [20.25, -1.5]]]}, "properties": {"cell_id": "14_59", "lon": 21.0, "lat": -0.75}}, {"type": "Feature", "geometry": {"type": "Polygon", "coordinates": [[[21.75, -9.0], [21.75, -7.5], [23.25, -7.5], [23.25, -9.0], [21.75, -9.0]]]}, "properties": {"cell_id": "15_54", "lon": 22.5, "lat": -8.25}}, {"type": "Feature", "geometry": {"type": "Polygon", "coordinates": [[[21.75, -7.5], [21.75, -6.0], [23.25, -6.0], [23.25, -7.5], [21.75, -7.5]]]}, "properties": {"cell_id": "15_55", "lon": 22.5, "lat": -6.75}}, {"type": "Feature", "geometry": {"type": "Polygon", "coordinates": [[[21.75, -6.0], [21.75, -4.5], [23.25, -4.5], [23.25, -6.0], [21.75, -6.0]]]}, "properties": {"cell_id": "15_56", "lon": 22.5, "lat": -5.25}}, {"type": "Feature", "geometry": {"type": "Polygon", "coordinates": [[[21.75, -4.5], [21.75, -3.0], [23.25, -3.0], [23.25, -4.5], [21.75, -4.5]]]}, "properties": {"cell_id": "15_57", "lon": 22.5, "lat": -3.75}}, {"type": "Feature", "geometry": {"type": "Polygon", "coordinates": [[[21.75, -3.0], [21.75, -1.5], [23.25, -1.5], [23.25, -3.0], [21.75, -3.0]]]}, "properties": {"cell_id": "15_58", "lon": 22.5, "lat": -2.25}}, {"type": "Feature", "geometry": {"type": "Polygon", "coordinates": [[[21.75, -1.5], [21.75, 0.0], [23.25, 0.0], [23.25, -1.5], [21.75, -1.5]]]}, "properties": {"cell_id": "15_59", "lon": 22.5, "lat": -0.75}}, {"type": "Feature", "geometry": {"type": "Polygon", "coordinates": [[[23.25, -9.0], [23.25, -7.5], [24.75, -7.5], [24.75, -9.0], [23.25, -9.0]]]}, "properties": {"cell_id": "16_54", "lon": 24.0, "lat": -8.25}}, {"type": "Feature", "geometry": {"type": "Polygon", "coordinates": [[[23.25, -7.5], [23.25, -6.0], [24.75, -6.0], [24.75, -7.5], [23.25, -7.5]]]}, "properties": {"cell_id": "16_55", "lon": 24.0, "lat": -6.75}}, {"type": "Feature", "geometry": {"type": "Polygon", "coordinates": [[[23.25, -6.0], [23.25, -4.5], [24.75, -4.5], [24.75, -6.0], [23.25, -6.0]]]}, "properties": {"cell_id": "16_56", "lon": 24.0, "lat": -5.25}}, {"type": "Feature", "geometry": {"type": "Polygon", "coordinates": [[[23.25, -4.5], [23.25, -3.0], [24.75, -3.0], [24.75, -4.5], [23.25, -4.5]]]}, "properties": {"cell_id": "16_57", "lon": 24.0, "lat": -3.75}}, {"type": "Feature", "geometry": {"type": "Polygon", "coordinates": [[[23.25, -3.0], [23.25, -1.5], [24.75, -1.5], [24.75, -3.0], [23.25, -3.0]]]}, "properties": {"cell_id": "16_58", "lon": 24.0, "lat": -2.25}}, {"type": "Feature", "geometry": {"type": "Polygon", "coordinates": [[[23.25, -1.5], [23.25, 0.0], [24.75, 0.0], [24.75, -1.5], [23.25, -1.5]]]}, "properties": {"cell_id": "16_59", "lon": 24.0, "lat": -0.75}}, {"type": "Feature", "geometry": {"type": "Polygon", "coordinates": [[[24.75, -9.0], [24.75, -7.5], [26.25, -7.5], [26.25, -9.0], [24.75, -9.0]]]}, "properties": {"cell_id": "17_54", "lon": 25.5, "lat": -8.25}}, {"type": "Feature", "geometry": {"type": "Polygon", "coordinates": [[[24.75, -7.5], [24.75, -6.0], [26.25, -6.0], [26.25, -7.5], [24.75, -7.5]]]}, "properties": {"cell_id": "17_55", "lon": 25.5, "lat": -6.75}}, {"type": "Feature", "geometry": {"type": "Polygon", "coordinates": [[[24.75, -6.0], [24.75, -4.5], [26.25, -4.5], [26.25, -6.0], [24.75, -6.0]]]}, "properties": {"cell_id": "17_56", "lon": 25.5, "lat": -5.25}}, {"type": "Feature", "geometry": {"type": "Polygon", "coordinates": [[[24.75, -4.5], [24.75, -3.0], [26.25, -3.0], [26.25, -4.5], [24.75, -4.5]]]}, "properties": {"cell_id": "17_57", "lon": 25.5, "lat": -3.75}}, {"type": "Feature", "geometry": {"type": "Polygon", "coordinates": [[[24.75, -3.0], [24.75, -1.5], [26.25, -1.5], [26.25, -3.0], [24.75, -3.0]]]}, "properties": {"cell_id": "17_58", "lon": 25.5, "lat": -2.25}}, {"type": "Feature", "geometry": {"type": "Polygon", "coordinates": [[[24.75, -1.5], [24.75, 0.0], [26.25, 0.0], [26.25, -1.5], [24.75, -1.5]]]}, "properties": {"cell_id": "17_59", "lon": 25.5, "lat": -0.75}}, {"type": "Feature", "geometry": {"type": "Polygon", "coordinates": [[[26.25, -9.0], [26.25, -7.5], [27.75, -7.5], [27.75, -9.0], [26.25, -9.0]]]}, "properties": {"cell_id": "18_54", "lon": 27.0, "lat": -8.25}}, {"type": "Feature", "geometry": {"type": "Polygon", "coordinates": [[[26.25, -7.5], [26.25, -6.0], [27.75, -6.0], [27.75, -7.5], [26.25, -7.5]]]}, "properties": {"cell_id": "18_55", "lon": 27.0, "lat": -6.75}}, {"type": "Feature", "geometry": {"type": "Polygon", "coordinates": [[[26.25, -6.0], [26.25, -4.5], [27.75, -4.5], [27.75, -6.0], [26.25, -6.0]]]}, "properties": {"cell_id": "18_56", "lon": 27.0, "lat": -5.25}}, {"type": "Feature", "geometry": {"type": "Polygon", "coordinates": [[[26.25, -4.5], [26.25, -3.0], [27.75, -3.0], [27.75, -4.5], [26.25, -4.5]]]}, "properties": {"cell_id": "18_57", "lon": 27.0, "lat": -3.75}}, {"type": "Feature", "geometry": {"type": "Polygon", "coordinates": [[[26.25, -3.0], [26.25, -1.5], [27.75, -1.5], [27.75, -3.0], [26.25, -3.0]]]}, "properties": {"cell_id": "18_58", "lon": 27.0, "lat": -2.25}}, {"type": "Feature", "geometry": {"type": "Polygon", "coordinates": [[[26.25, -1.5], [26.25, 0.0], [27.75, 0.0], [27.75, -1.5], [26.25, -1.5]]]}, "properties": {"cell_id": "18_59", "lon": 27.0, "lat": -0.75}}, {"type": "Feature", "geometry": {"type": "Polygon", "coordinates": [[[27.75, -9.0], [27.75, -7.5], [29.25, -7.5], [29.25, -9.0], [27.75, -9.0]]]}, "properties": {"cell_id": "19_54", "lon": 28.5, "lat": -8.25}}, {"type": "Feature", "geometry": {"type": "Polygon", "coordinates": [[[27.75, -7.5], [27.75, -6.0], [29.25, -6.0], [29.25, -7.5], [27.75, -7.5]]]}, "properties": {"cell_id": "19_55", "lon": 28.5, "lat": -6.75}}, {"type": "Feature", "geometry": {"type": "Polygon", "coordinates": [[[27.75, -6.0], [27.75, -4.5], [29.25, -4.5], [29.25, -6.0], [27.75, -6.0]]]}, "properties": {"cell_id": "19_56", "lon": 28.5, "lat": -5.25}}, {"type": "Feature", "geometry": {"type": "Polygon", "coordinates": [[[27.75, -4.5], [27.75, -3.0], [29.25, -3.0], [29.25, -4.5], [27.75, -4.5]]]}, "properties": {"cell_id": "19_57", "lon": 28.5, "lat": -3.75}}, {"type": "Feature", "geometry": {"type": "Polygon", "coordinates": [[[27.75, -3.0], [27.75, -1.5], [29.25, -1.5], [29.25, -3.0], [27.75, -3.0]]]}, "properties": {"cell_id": "19_58", "lon": 28.5, "lat": -2.25}}, {"type": "Feature", "geometry": {"type": "Polygon", "coordinates": [[[27.75, -1.5], [27.75, 0.0], [29.25, 0.0], [29.25, -1.5], [27.75, -1.5]]]}, "properties": {"cell_id": "19_59", "lon": 28.5, "lat": -0.75}}, {"type": "Feature", "geometry": {"type": "Polygon", "coordinates": [[[29.25, -9.0], [29.25, -7.5], [30.75, -7.5], [30.75, -9.0], [29.25, -9.0]]]}, "properties": {"cell_id": "20_54", "lon": 30.0, "lat": -8.25}}, {"type": "Feature", "geometry": {"type": "Polygon", "coordinates": [[[29.25, -7.5], [29.25, -6.0], [30.75, -6.0], [30.75, -7.5], [29.25, -7.5]]]}, "properties": {"cell_id": "20_55", "lon": 30.0, "lat": -6.75}}, {"type": "Feature", "geometry": {"type": "Polygon", "coordinates": [[[29.25, -6.0], [29.25, -4.5], [30.75, -4.5], [30.75, -6.0], [29.25, -6.0]]]}, "properties": {"cell_id": "20_56", "lon": 30.0, "lat": -5.25}}, {"type": "Feature", "geometry": {"type": "Polygon", "coordinates": [[[29.25, -4.5], [29.25, -3.0], [30.75, -3.0], [30.75, -4.5], [29.25, -4.5]]]}, "properties": {"cell_id": "20_57", "lon": 30.0, "lat": -3.75}}, {"type": "Feature", "geometry": {"type": "Polygon", "coordinates": [[[29.25, -3.0], [29.25, -1.5], [30.75, -1.5], [30.75, -3.0], [29.25, -3.0]]]}, "properties": {"cell_id": "20_58", "lon": 30.0, "lat": -2.25}}, {"type": "Feature", "geometry": {"type": "Polygon", "coordinates": [[[29.25, -1.5], [29.25, 0.0], [30.75, 0.0], [30.75, -1.5], [29.25, -1.5]]]}, "properties": {"cell_id": "20_59", "lon": 30.0, "lat": -0.75}}]}