{"type": "FeatureCollection", "features": [{"type": "Feature", "geometry": {"type": "Polygon", "coordinates": [[[-78.75, 33.0], [-78.75, 34.5], [-77.25, 34.5], [-77.25, 33.0], [-78.75, 33.0]]]}, "properties": {"cell_id": "188_82", "lon": -78.0, "lat": 33.75}}, {"type": "Feature", "geometry": {"type": "Polygon", "coordinates": [[[-78.75, 34.5], [-78.75, 36.0], [-77.25, 36.0], [-77.25, 34.5], [-78.75, 34.5]]]}, "properties": {"cell_id": "188_83", "lon": -78.0, "lat": 35.25}}, {"type": "Feature", "geometry": {"type": "Polygon", "coordinates": [[[-78.75, 36.0], [-78.75, 37.5], [-77.25, 37.5], [-77.25, 36.0], [-78.75, 36.0]]]}, "properties": {"cell_id": "188_84", "lon": -78.0, "lat": 36.75}}, {"type": "Feature", "geometry": {"type": "Polygon", "coordinates": [[[-78.75, 37.5], [-78.75, 39.0], [-77.25, 39.0], [-77.25, 37.5], [-78.75, 37.5]]]}, "properties": {"cell_id": "188_85", "lon": -78.0, "lat": 38.25}}, {"type": "Feature", "geometry": {"type": "Polygon", "coordinates": [[[-78.75, 39.0], [-78.75, 40.5], [-77.25, 40.5], [-77.25, 39.0], [-78.75, 39.0]]]}, "properties": {"cell_id": "188_86", "lon": -78.0, "lat": 39.75}}, {"type": "Feature", "geometry": {"type": "Polygon", "coordinates": [[[-77.25, 36.0], [-77.25, 37.5], [-75.75, 37.5], [-75.75, 36.0], [-77.25, 36.0]]]}, "properties": {"cell_id": "189_84", "lon": -76.5, "lat": 36.75}}, {"type": "Feature", "geometry": {"type": "Polygon", "coordinates": [[[-77.25, 37.5], [-77.25, 39.0], [-75.75, 39.0], [-75.75, 37.5], [-77.25, 37.5]]]}, "properties": {"cell_id": "189_85", "lon": -76.5, "lat": 38.25}}, {"type": "Feature", "geometry": {"type": "Polygon", "coordinates": [[[-77.25, 39.0], [-77.25, 40.5], [-75.75, 40.5], [-75.75, 39.0], [-77.25, 39.0]]]}, "properties": {"cell_id": "189_86", "lon": -76.5, "lat": 39.75}}, {"type": "Feature", "geometry": {"type": "Polygon", "coordinates": [[[-75.75, 36.0], [-75.75, 37.5], [-74.25, 37.5], [-74.25, 36.0], [-75.75, 36.0]]]}, "properties": {"cell_id": "190_84", "lon": -75.0, "lat": 36.75}}, {"type": "Feature", "geometry": {"type": "Polygon", "coordinates": [[[-75.75, 37.5], [-75.75, 39.0], [-74.25, 39.0], [-74.25, 37.5], [-75.75, 37.5]]]}, "properties": {"cell_id": "190_85", "lon": -75.0, "lat": 38.25}}, {"type": "Feature", "geometry": {"type": "Polygon", "coordinates": [[[-75.75, 39.0], [-75.75, 40.5], [-74.25, 40.5], [-74.25, 39.0], [-75.75, 39.0]]]}, "properties": {"cell_id": "190_86", "lon": -75.0, "lat": 39.75}}]}