{"type": "FeatureCollection", "features": [{"type": "Feature", "geometry": {"type": "Polygon", "coordinates": [[[-159.75, -90.0], [-159.75, -88.5], [-158.25, -88.5], [-158.25, -90.0], [-159.75, -90.0]]]}, "properties": {"cell_id": "134_0", "lon": -159.0, "lat": -89.25}}, {"type": "Feature", "geometry": {"type": "Polygon", "coordinates": [[[-159.75, -88.5], [-159.75, -87.0], [-158.25, -87.0], [-158.25, -88.5], [-159.75, -88.5]]]}, "properties": {"cell_id": "134_1", "lon": -159.0, "lat": -87.75}}, {"type": "Feature", "geometry": {"type": "Polygon", "coordinates": [[[-159.75, -87.0], [-159.75, -85.5], [-158.25, -85.5], [-158.25, -87.0], [-159.75, -87.0]]]}, "properties": {"cell_id": "134_2", "lon": -159.0, "lat": -86.25}}, {"type": "Feature", "geometry": {"type": "Polygon", "coordinates": [[[-159.75, -85.5], [-159.75, -84.0], [-158.25, -84.0], [-158.25, -85.5], [-159.75, -85.5]]]}, "properties": {"cell_id": "134_3", "lon": -159.0, "lat": -84.75}}, {"type": "Feature", "geometry": {"type": "Polygon", "coordinates": [[[-159.75, -84.0], [-159.75, -82.5], [-158.25, -82.5], [-158.25, -84.0], [-159.75, -84.0]]]}, "properties": {"cell_id": "134_4", "lon": -159.0, "lat": -83.25}}, {"type": "Feature", "geometry": {"type": "Polygon", "coordinates": [[[-159.75, -82.5], [-159.75, -81.0], [-158.25, -81.0], [-158.25, -82.5], [-159.75, -82.5]]]}, "properties": {"cell_id": "134_5", "lon": -159.0, "lat": -81.75}}, {"type": "Feature", "geometry": {"type": "Polygon", "coordinates": [[[-159.75, -81.0], [-159.75, -79.5], [-158.25, -79.5], [-158.25, -81.0], [-159.75, -81.0]]]}, "properties": {"cell_id": "134_6", "lon": -159.0, "lat": -80.25}}, {"type": "Feature", "geometry": {"type": "Polygon", "coordinates": [[[-158.25, -90.0], [-158.25, -88.5], [-156.75, -88.5], [-156.75, -90.0], [-158.25, -90.0]]]}, "properties": {"cell_id": "135_0", "lon": -157.5, "lat": -89.25}}, {"type": "Feature", "geometry": {"type": "Polygon", "coordinates": [[[-158.25, -88.5], [-158.25, -87.0], [-156.75, -87.0], [-156.75, -88.5], [-158.25, -88.5]]]}, "properties": {"cell_id": "135_1", "lon": -157.5, "lat": -87.75}}, {"type": "Feature", "geometry": {"type": "Polygon", "coordinates": [[[-158.25, -87.0], [-158.25, -85.5], [-156.75, -85.5], [-156.75, -87.0], [-158.25, -87.0]]]}, "properties": {"cell_id": "135_2", "lon": -157.5, "lat": -86.25}}, {"type": "Feature", "geometry": {"type": "Polygon", "coordinates": [[[-158.25, -85.5], [-158.25, -84.0], [-156.75, -84.0], [-156.75, -85.5], [-158.25, -85.5]]]}, "properties": {"cell_id": "135_3", "lon": -157.5, "lat": -84.75}}, {"type": "Feature", "geometry": {"type": "Polygon", "coordinates": [[[-158.25, -84.0], [-158.25, -82.5], [-156.75, -82.5], [-156.75, -84.0], [-158.25, -84.0]]]}, "properties": {"cell_id": "135_4", "lon": -157.5, "lat": -83.25}}, {"type": "Feature", "geometry": {"type": "Polygon", "coordinates": [[[-158.25, -82.5], [-158.25, -81.0], [-156.75, -81.0], [-156.75, -82.5], [-158.25, -82.5]]]}, "properties": {"cell_id": "135_5", "lon": -157.5, "lat": -81.75}}, {"type": "Feature", "geometry": {"type": "Polygon", "coordinates": [[[-158.25, -81.0], [-158.25, -79.5], [-156.75, -79.5], [-156.75, -81.0], [-158.25, -81.0]]]}, "properties": {"cell_id": "135_6", "lon": -157.5, "lat": -80.25}}, {"type": "Feature", "geometry": {"type": "Polygon", "coordinates": [[[-156.75, -90.0], [-156.75, -88.5], [-155.25, -88.5], [-155.25, -90.0], [-156.75, -90.0]]]}, "properties": {"cell_id": "136_0", "lon": -156.0, "lat": -89.25}}, {"type": "Feature", "geometry": {"type": "Polygon", "coordinates": [[[-156.75, -88.5], [-156.75, -87.0], [-155.25, -87.0], [-155.25, -88.5], [-156.75, -88.5]]]}, "properties": {"cell_id": "136_1", "lon": -156.0, "lat": -87.75}}, {"type": "Feature", "geometry": {"type": "Polygon", "coordinates": [[[-156.75, -87.0], [-156.75, -85.5], [-155.25, -85.5], [-155.25, -87.0], [-156.75, -87.0]]]}, "properties": {"cell_id": "136_2", "lon": -156.0, "lat": -86.25}}, {"type": "Feature", "geometry": {"type": "Polygon", "coordinates": [[[-156.75, -85.5], [-156.75, -84.0], [-155.25, -84.0], [-155.25, -85.5], [-156.75, -85.5]]]}, "properties": {"cell_id": "136_3", "lon": -156.0, "lat": -84.75}}, {"type": "Feature", "geometry": {"type": "Polygon", "coordinates": [[[-156.75, -84.0], [-156.75, -82.5], [-155.25, -82.5], [-155.25, -84.0], [-156.75, -84.0]]]}, "properties": {"cell_id": "136_4", "lon": -156.0, "lat": -83.25}}, {"type": "Feature", "geometry": {"type": "Polygon", "coordinates": [[[-156.75, -82.5], [-156.75, -81.0], [-155.25, -81.0], [-155.25, -82.5], [-156.75, -82.5]]]}, "properties": {"cell_id": "136_5", "lon": -156.0, "lat": -81.75}}, {"type": "Feature", "geometry": {"type": "Polygon", "coordinates": [[[-156.75, -81.0], [-156.75, -79.5], [-155.25, -79.5], [-155.25, -81.0], [-156.75, -81.0]]]}, "properties": {"cell_id": "136_6", "lon": -156.0, "lat": -80.25}}, {"type": "Feature", "geometry": {"type": "Polygon", "coordinates": [[[-155.25, -90.0], [-155.25, -88.5], [-153.75, -88.5], [-153.75, -90.0], [-155.25, -90.0]]]}, "properties": {"cell_id": "137_0", "lon": -154.5, "lat": -89.25}}, {"type": "Feature", "geometry": {"type": "Polygon", "coordinates": [[[-155.25, -88.5], [-155.25, -87.0], [-153.75, -87.0], [-153.75, -88.5], [-155.25, -88.5]]]}, "properties": {"cell_id": "137_1", "lon": -154.5, "lat": -87.75}}, {"type": "Feature", "geometry": {"type": "Polygon", "coordinates": [[[-155.25, -87.0], [-155.25, -85.5], [-153.75, -85.5], [-153.75, -87.0], [-155.25, -87.0]]]}, "properties": {"cell_id": "137_2", "lon": -154.5, "lat": -86.25}}, {"type": "Feature", "geometry": {"type": "Polygon", "coordinates": [[[-155.25, -85.5], [-155.25, -84.0], [-153.75, -84.0], [-153.75, -85.5], [-155.25, -85.5]]]}, "properties": {"cell_id": "137_3", "lon": -154.5, "lat": -84.75}}, {"type": "Feature", "geometry": {"type": "Polygon", "coordinates": [[[-155.25, -84.0], [-155.25, -82.5], [-153.75, -82.5], [-153.75, -84.0], [-155.25, -84.0]]]}, "properties": {"cell_id": "137_4", "lon": -154.5, "lat": -83.25}}, {"type": "Feature", "geometry": {"type": "Polygon", "coordinates": [[[-155.25, -82.5], [-155.25, -81.0], [-153.75, -81.0], [-153.75, -82.5], [-155.25, -82.5]]]}, "properties": {"cell_id": "137_5", "lon": -154.5, "lat": -81.75}}, {"type": "Feature", "geometry": {"type": "Polygon", "coordinates": [[[-155.25, -81.0], [-155.25, -79.5], [-153.75, -79.5], [-153.75, -81.0], [-155.25, -81.0]]]}, "properties": {"cell_id": "137_6", "lon": -154.5, "lat": -80.25}}, {"type": "Feature", "geometry": {"type": "Polygon", "coordinates": [[[-153.75, -90.0], [-153.75, -88.5], [-152.25, -88.5], [-152.25, -90.0], [-153.75, -90.0]]]}, "properties": {"cell_id": "138_0", "lon": -153.0, "lat": -89.25}}, {"type": "Feature", "geometry": {"type": "Polygon", "coordinates": [[[-153.75, -88.5], [-153.75, -87.0], [-152.25, -87.0], [-152.25, -88.5], [-153.75, -88.5]]]}, "properties": {"cell_id": "138_1", "lon": -153.0, "lat": -87.75}}, {"type": "Feature", "geometry": {"type": "Polygon", "coordinates": [[[-153.75, -87.0], [-153.75, -85.5], [-152.25, -85.5], [-152.25, -87.0], [-153.75, -87.0]]]}, "properties": {"cell_id": "138_2", "lon": -153.0, "lat": -86.25}}, {"type": "Feature", "geometry": {"type": "Polygon", "coordinates": [[[-153.75, -85.5], [-153.75, -84.0], [-152.25, -84.0], [-152.25, -85.5], [-153.75, -85.5]]]}, "properties": {"cell_id": "138_3", "lon": -153.0, "lat": -84.75}}, {"type": "Feature", "geometry": {"type": "Polygon", "coordinates": [[[-153.75, -84.0], [-153.75, -82.5], [-152.25, -82.5], [-152.25, -84.0], [-153.75, -84.0]]]}, "properties": {"cell_id": "138_4", "lon": -153.0, "lat": -83.25}}, {"type": "Feature", "geometry": {"type": "Polygon", "coordinates": [[[-153.75, -82.5], [-153.75, -81.0], [-152.25, -81.0], [-152.25, -82.5], [-153.75, -82.5]]]}, "properties": {"cell_id": "138_5", "lon": -153.0, "lat": -81.75}}, {"type": "Feature", "geometry": {"type": "Polygon", "coordinates": [[[-153.75, -81.0], [-153.75, -79.5], [-152.25, -79.5], [-152.25, -81.0], [-153.75, -81.0]]]}, "properties": {"cell_id": "138_6", "lon": -153.0, "lat": -80.25}}, {"type": "Feature", "geometry": {"type": "Polygon", "coordinates": [[[-152.25, -90.0], [-152.25, -88.5], [-150.75, -88.5], [-150.75, -90.0], [-152.25, -90.0]]]}, "properties": {"cell_id": "139_0", "lon": -151.5, "lat": -89.25}}, {"type": "Feature", "geometry": {"type": "Polygon", "coordinates": [[[-152.25, -88.5], [-152.25, -87.0], [-150.75, -87.0], [-150.75, -88.5], [-152.25, -88.5]]]}, "properties": {"cell_id": "139_1", "lon": -151.5, "lat": -87.75}}, {"type": "Feature", "geometry": {"type": "Polygon", "coordinates": [[[-152.25, -87.0], [-152.25, -85.5], [-150.75, -85.5], [-150.75, -87.0], [-152.25, -87.0]]]}, "properties": {"cell_id": "139_2", "lon": -151.5, "lat": -86.25}}, {"type": "Feature", "geometry": {"type": "Polygon", "coordinates": [[[-152.25, -85.5], [-152.25, -84.0], [-150.75, -84.0], [-150.75, -85.5], [-152.25, -85.5]]]}, "properties": {"cell_id": "139_3", "lon": -151.5, "lat": -84.75}}, {"type": "Feature", "geometry": {"type": "Polygon", "coordinates": [[[-152.25, -84.0], [-152.25, -82.5], [-150.75, -82.5], [-150.75, -84.0], [-152.25, -84.0]]]}, "properties": {"cell_id": "139_4", "lon": -151.5, "lat": -83.25}}, {"type": "Feature", "geometry": {"type": "Polygon", "coordinates": [[[-152.25, -82.5], [-152.25, -81.0], [-150.75, -81.0], [-150.75, -82.5], [-152.25, -82.5]]]}, "properties": {"cell_id": "139_5", "lon": -151.5, "lat": -81.75}}, {"type": "Feature", "geometry": {"type": "Polygon", "coordinates": [[[-152.25, -81.0], [-152.25, -79.5], [-150.75, -79.5], [-150.75, -81.0], [-152.25, -81.0]]]}, "properties": {"cell_id": "139_6", "lon": -151.5, "lat": -80.25}}, {"type": "Feature", "geometry": {"type": "Polygon", "coordinates": [[[-150.75, -90.0], [-150.75, -88.5], [-149.25, -88.5], [-149.25, -90.0], [-150.75, -90.0]]]}, "properties": {"cell_id": "140_0", "lon": -150.0, "lat": -89.25}}, {"type": "Feature", "geometry": {"type": "Polygon", "coordinates": [[[-150.75, -88.5], [-150.75, -87.0], [-149.25, -87.0], [-149.25, -88.5], [-150.75, -88.5]]]}, "properties": {"cell_id": "140_1", "lon": -150.0, "lat": -87.75}}, {"type": "Feature", "geometry": {"type": "Polygon", "coordinates": [[[-150.75, -87.0], [-150.75, -85.5], [-149.25, -85.5], [-149.25, -87.0], [-150.75, -87.0]]]}, "properties": {"cell_id": "140_2", "lon": -150.0, "lat": -86.25}}, {"type": "Feature", "geometry": {"type": "Polygon", "coordinates": [[[-150.75, -85.5], [-150.75, -84.0], [-149.25, -84.0], [-149.25, -85.5], [-150.75, -85.5]]]}, "properties": {"cell_id": "140_3", "lon": -150.0, "lat": -84.75}}, {"type": "Feature", "geometry": {"type": "Polygon", "coordinates": [[[-150.75, -84.0], [-150.75, -82.5], [-149.25, -82.5], [-149.25, -84.0], [-150.75, -84.0]]]}, "properties": {"cell_id": "140_4", "lon": -150.0, "lat": -83.25}}, {"type": "Feature", "geometry": {"type": "Polygon", "coordinates": [[[-150.75, -82.5], [-150.75, -81.0], [-149.25, -81.0], [-149.25, -82.5], [-150.75, -82.5]]]}, "properties": {"cell_id": "140_5", "lon": -150.0, "lat": -81.75}}, {"type": "Feature", "geometry": {"type": "Polygon", "coordinates": [[[-150.75, -81.0], [-150.75, -79.5], [-149.25, -79.5], [-149.25, -81.0], [-150.75, -81.0]]]}, "properties": {"cell_id": "140_6", "lon": -150.0, "lat": -80.25}}]}