{"type": "FeatureCollection", "features": [{"type": "Feature", "geometry": {"type": "Polygon", "coordinates": [[[113.25, -31.5], [113.25, -30.0], [114.75, -30.0], [114.75, -31.5], [113.25, -31.5]]]}, "properties": {"cell_id": "76_39", "lon": 114.0, "lat": -30.75}}, {"type": "Feature", "geometry": {"type": "Polygon", "coordinates": [[[114.75, -31.5], [114.75, -30.0], [116.25, -30.0], [116.25, -31.5], [114.75, -31.5]]]}, "properties": {"cell_id": "77_39", "lon": 115.5, "lat": -30.75}}, {"type": "Feature", "geometry": {"type": "Polygon", "coordinates": [[[116.25, -37.5], [116.25, -36.0], [117.75, -36.0], [117.75, -37.5], [116.25, -37.5]]]}, "properties": {"cell_id": "78_35", "lon": 117.0, "lat": -36.75}}, {"type": "Feature", "geometry": {"type": "Polygon", "coordinates": [[[116.25, -36.0], [116.25, -34.5], [117.75, -34.5], [117.75, -36.0], [116.25, -36.0]]]}, "properties": {"cell_id": "78_36", "lon": 117.0, "lat": -35.25}}, {"type": "Feature", "geometry": {"type": "Polygon", "coordinates": [[[116.25, -34.5], [116.25, -33.0], [117.75, -33.0], [117.75, -34.5], [116.25, -34.5]]]}, "properties": {"cell_id": "78_37", "lon": 117.0, "lat": -33.75}}, {"type": "Feature", "geometry": {"type": "Polygon", "coordinates": [[[116.25, -33.0], [116.25, -31.5], [117.75, -31.5], [117.75, -33.0], [116.25, -33.0]]]}, "properties": {"cell_id": "78_38", "lon": 117.0, "lat": -32.25}}, {"type": "Feature", "geometry": {"type": "Polygon", "coordinates": [[[116.25, -31.5], [116.25, -30.0], [117.75, -30.0], [117.75, -31.5], [116.25, -31.5]]]}, "properties": {"cell_id": "78_39", "lon": 117.0, "lat": -30.75}}, {"type": "Feature", "geometry": {"type": "Polygon", "coordinates": [[[117.75, -37.5], [117.75, -36.0], [119.25, -36.0], [119.25, -37.5], [117.75, -37.5]]]}, "properties": {"cell_id": "79_35", "lon": 118.5, "lat": -36.75}}, {"type": "Feature", "geometry": {"type": "Polygon", "coordinates": [[[117.75, -36.0], [117.75, -34.5], [119.25, -34.5], [119.25, -36.0], [117.75, -36.0]]]}, "properties": {"cell_id": "79_36", "lon": 118.5, "lat": -35.25}}, {"type": "Feature", "geometry": {"type": "Polygon", "coordinates": [[[117.75, -34.5], [117.75, -33.0], [119.25, -33.0], [119.25, -34.5], [117.75, -34.5]]]}, "properties": {"cell_id": "79_37", "lon": 118.5, "lat": -33.75}}, {"type": "Feature", "geometry": {"type": "Polygon", "coordinates": [[[117.75, -33.0], [117.75, -31.5], [119.25, -31.5], [119.25, -33.0], [117.75, -33.0]]]}, "properties": {"cell_id": "79_38", "lon": 118.5, "lat": -32.25}}, {"type": "Feature", "geometry": {"type": "Polygon", "coordinates": [[[117.75, -31.5], [117.75, -30.0], [119.25, -30.0], [119.25, -31.5], [117.75, -31.5]]]}, "properties": {"cell_id": "79_39", "lon": 118.5, "lat": -30.75}}, {"type": "Feature", "geometry": {"type": "Polygon", "coordinates": [[[119.25, -37.5], [119.25, -36.0], [120.75, -36.0], [120.75, -37.5], [119.25, -37.5]]]}, "properties": {"cell_id": "80_35", "lon": 120.0, "lat": -36.75}}, {"type": "Feature", "geometry": {"type": "Polygon", "coordinates": [[[119.25, -36.0], [119.25, -34.5], [120.75, -34.5], [120.75, -36.0], [119.25, -36.0]]]}, "properties": {"cell_id": "80_36", "lon": 120.0, "lat": -35.25}}, {"type": "Feature", "geometry": {"type": "Polygon", "coordinates": [[[119.25, -34.5], [119.25, -33.0], [120.75, -33.0], [120.75, -34.5], [119.25, -34.5]]]}, "properties": {"cell_id": "80_37", "lon": 120.0, "lat": -33.75}}, {"type": "Feature", "geometry": {"type": "Polygon", "coordinates": [[[119.25, -33.0], [119.25, -31.5], [120.75, -31.5], [120.75, -33.0], [119.25, -33.0]]]}, "properties": {"cell_id": "80_38", "lon": 120.0, "lat": -32.25}}, {"type": "Feature", "geometry": {"type": "Polygon", "coordinates": [[[119.25, -31.5], [119.25, -30.0], [120.75, -30.0], [120.75, -31.5], [119.25, -31.5]]]}, "properties": {"cell_id": "80_39", "lon": 120.0, "lat": -30.75}}]}