{"type": "FeatureCollection", "features": [{"type": "Feature", "geometry": {"type": "Polygon", "coordinates": [[[-48.75, -79.5], [-48.75, -78.0], [-47.25, -78.0], [-47.25, -79.5], [-48.75, -79.5]]]}, "properties": {"cell_id": "208_7", "lon": -48.0, "lat": -78.75}}, {"type": "Feature", "geometry": {"type": "Polygon", "coordinates": [[[-47.25, -79.5], [-47.25, -78.0], [-45.75, -78.0], [-45.75, -79.5], [-47.25, -79.5]]]}, "properties": {"cell_id": "209_7", "lon": -46.5, "lat": -78.75}}, {"type": "Feature", "geometry": {"type": "Polygon", "coordinates": [[[-45.75, -79.5], [-45.75, -78.0], [-44.25, -78.0], [-44.25, -79.5], [-45.75, -79.5]]]}, "properties": {"cell_id": "210_7", "lon": -45.0, "lat": -78.75}}, {"type": "Feature", "geometry": {"type": "Polygon", "coordinates": [[[-44.25, -79.5], [-44.25, -78.0], [-42.75, -78.0], [-42.75, -79.5], [-44.25, -79.5]]]}, "properties": {"cell_id": "211_7", "lon": -43.5, "lat": -78.75}}, {"type": "Feature", "geometry": {"type": "Polygon", "coordinates": [[[-42.75, -79.5], [-42.75, -78.0], [-41.25, -78.0], [-41.25, -79.5], [-42.75, -79.5]]]}, "properties": {"cell_id": "212_7", "lon": -42.0, "lat": -78.75}}, {"type": "Feature", "geometry": {"type": "Polygon", "coordinates": [[[-41.25, -79.5], [-41.25, -78.0], [-39.75, -78.0], [-39.75, -79.5], [-41.25, -79.5]]]}, "properties": {"cell_id": "213_7", "lon": -40.5, "lat": -78.75}}]}