{"type": "FeatureCollection", "features": [{"type": "Feature", "geometry": {"type": "Polygon", "coordinates": [[[-89.25, 51.0], [-89.25, 52.5], [-87.75, 52.5], [-87.75, 51.0], [-89.25, 51.0]]]}, "properties": {"cell_id": "181_94", "lon": -88.5, "lat": 51.75}}, {"type": "Feature", "geometry": {"type": "Polygon", "coordinates": [[[-89.25, 52.5], [-89.25, 54.0], [-87.75, 54.0], [-87.75, 52.5], [-89.25, 52.5]]]}, "properties": {"cell_id": "181_95", "lon": -88.5, "lat": 53.25}}, {"type": "Feature", "geometry": {"type": "Polygon", "coordinates": [[[-89.25, 54.0], [-89.25, 55.5], [-87.75, 55.5], [-87.75, 54.0], [-89.25, 54.0]]]}, "properties": {"cell_id": "181_96", "lon": -88.5, "lat": 54.75}}, {"type": "Feature", "geometry": {"type": "Polygon", "coordinates": [[[-89.25, 55.5], [-89.25, 57.0], [-87.75, 57.0], [-87.75, 55.5], [-89.25, 55.5]]]}, "properties": {"cell_id": "181_97", "lon": -88.5, "lat": 56.25}}, {"type": "Feature", "geometry": {"type": "Polygon", "coordinates": [[[-87.75, 51.0], [-87.75, 52.5], [-86.25, 52.5], [-86.25, 51.0], [-87.75, 51.0]]]}, "properties": {"cell_id": "182_94", "lon": -87.0, "lat": 51.75}}, {"type": "Feature", "geometry": {"type": "Polygon", "coordinates": [[[-87.75, 52.5], [-87.75, 54.0], [-86.25, 54.0], [-86.25, 52.5], [-87.75, 52.5]]]}, "properties": {"cell_id": "182_95", "lon": -87.0, "lat": 53.25}}, {"type": "Feature", "geometry": {"type": "Polygon", "coordinates": [[[-87.75, 54.0], [-87.75, 55.5], [-86.25, 55.5], [-86.25, 54.0], [-87.75, 54.0]]]}, "properties": {"cell_id": "182_96", "lon": -87.0, "lat": 54.75}}, {"type": "Feature", "geometry": {"type": "Polygon", "coordinates": [[[-87.75, 55.5], [-87.75, 57.0], [-86.25, 57.0], [-86.25, 55.5], [-87.75, 55.5]]]}, "properties": {"cell_id": "182_97", "lon": -87.0, "lat": 56.25}}, {"type": "Feature", "geometry": {"type": "Polygon", "coordinates": [[[-86.25, 51.0], [-86.25, 52.5], [-84.75, 52.5], [-84.75, 51.0], [-86.25, 51.0]]]}, "properties": {"cell_id": "183_94", "lon": -85.5, "lat": 51.75}}, {"type": "Feature", "geometry": {"type": "Polygon", "coordinates": [[[-86.25, 52.5], [-86.25, 54.0], [-84.75, 54.0], [-84.75, 52.5], [-86.25, 52.5]]]}, "properties": {"cell_id": "183_95", "lon": -85.5, "lat": 53.25}}, {"type": "Feature", "geometry": {"type": "Polygon", "coordinates": [[[-86.25, 54.0], [-86.25, 55.5], [-84.75, 55.5], [-84.75, 54.0], [-86.25, 54.0]]]}, "properties": {"cell_id": "183_96", "lon": -85.5, "lat": 54.75}}, {"type": "Feature", "geometry": {"type": "Polygon", "coordinates": [[[-86.25, 55.5], [-86.25, 57.0], [-84.75, 57.0], [-84.75, 55.5], [-86.25, 55.5]]]}, "properties": {"cell_id": "183_97", "lon": -85.5, "lat": 56.25}}, {"type": "Feature", "geometry": {"type": "Polygon", "coordinates": [[[-84.75, 51.0], [-84.75, 52.5], [-83.25, 52.5], [-83.25, 51.0], [-84.75, 51.0]]]}, "properties": {"cell_id": "184_94", "lon": -84.0, "lat": 51.75}}, {"type": "Feature", "geometry": {"type": "Polygon", "coordinates": [[[-84.75, 52.5], [-84.75, 54.0], [-83.25, 54.0], [-83.25, 52.5], [-84.75, 52.5]]]}, "properties": {"cell_id": "184_95", "lon": -84.0, "lat": 53.25}}, {"type": "Feature", "geometry": {"type": "Polygon", "coordinates": [[[-84.75, 54.0], [-84.75, 55.5], [-83.25, 55.5], [-83.25, 54.0], [-84.75, 54.0]]]}, "properties": {"cell_id": "184_96", "lon": -84.0, "lat": 54.75}}, {"type": "Feature", "geometry": {"type": "Polygon", "coordinates": [[[-84.75, 55.5], [-84.75, 57.0], [-83.25, 57.0], [-83.25, 55.5], [-84.75, 55.5]]]}, "properties": {"cell_id": "184_97", "lon": -84.0, "lat": 56.25}}, {"type": "Feature", "geometry": {"type": "Polygon", "coordinates": [[[-83.25, 51.0], [-83.25, 52.5], [-81.75, 52.5], [-81.75, 51.0], [-83.25, 51.0]]]}, "properties": {"cell_id": "185_94", "lon": -82.5, "lat": 51.75}}, {"type": "Feature", "geometry": {"type": "Polygon", "coordinates": [[[-83.25, 52.5], [-83.25, 54.0], [-81.75, 54.0], [-81.75, 52.5], [-83.25, 52.5]]]}, "properties": {"cell_id": "185_95", "lon": -82.5, "lat": 53.25}}, {"type": "Feature", "geometry": {"type": "Polygon", "coordinates": [[[-83.25, 54.0], [-83.25, 55.5], [-81.75, 55.5], [-81.75, 54.0], [-83.25, 54.0]]]}, "properties": {"cell_id": "185_96", "lon": -82.5, "lat": 54.75}}, {"type": "Feature", "geometry": {"type": "Polygon", "coordinates": [[[-83.25, 55.5], [-83.25, 57.0], [-81.75, 57.0], [-81.75, 55.5], [-83.25, 55.5]]]}, "properties": {"cell_id": "185_97", "lon": -82.5, "lat": 56.25}}, {"type": "Feature", "geometry": {"type": "Polygon", "coordinates": [[[-81.75, 51.0], [-81.75, 52.5], [-80.25, 52.5], [-80.25, 51.0], [-81.75, 51.0]]]}, "properties": {"cell_id": "186_94", "lon": -81.0, "lat": 51.75}}, {"type": "Feature", "geometry": {"type": "Polygon", "coordinates": [[[-81.75, 52.5], [-81.75, 54.0], [-80.25, 54.0], [-80.25, 52.5], [-81.75, 52.5]]]}, "properties": {"cell_id": "186_95", "lon": -81.0, "lat": 53.25}}, {"type": "Feature", "geometry": {"type": "Polygon", "coordinates": [[[-80.25, 51.0], [-80.25, 52.5], [-78.75, 52.5], [-78.75, 51.0], [-80.25, 51.0]]]}, "properties": {"cell_id": "187_94", "lon": -79.5, "lat": 51.75}}, {"type": "Feature", "geometry": {"type": "Polygon", "coordinates": [[[-80.25, 52.5], [-80.25, 54.0], [-78.75, 54.0], [-78.75, 52.5], [-80.25, 52.5]]]}, "properties": {"cell_id": "187_95", "lon": -79.5, "lat": 53.25}}]}