{"type": "FeatureCollection", "features": [{"type": "Feature", "geometry": {"type": "Polygon", "coordinates": [[[110.25, 0.0], [110.25, 1.5], [111.75, 1.5], [111.75, 0.0], [110.25, 0.0]]]}, "properties": {"cell_id": "74_60", "lon": 111.0, "lat": 0.75}}, {"type": "Feature", "geometry": {"type": "Polygon", "coordinates": [[[110.25, 1.5], [110.25, 3.0], [111.75, 3.0], [111.75, 1.5], [110.25, 1.5]]]}, "properties": {"cell_id": "74_61", "lon": 111.0, "lat": 2.25}}, {"type": "Feature", "geometry": {"type": "Polygon", "coordinates": [[[111.75, 0.0], [111.75, 1.5], [113.25, 1.5], [113.25, 0.0], [111.75, 0.0]]]}, "properties": {"cell_id": "75_60", "lon": 112.5, "lat": 0.75}}, {"type": "Feature", "geometry": {"type": "Polygon", "coordinates": [[[111.75, 1.5], [111.75, 3.0], [113.25, 3.0], [113.25, 1.5], [111.75, 1.5]]]}, "properties": {"cell_id": "75_61", "lon": 112.5, "lat": 2.25}}, {"type": "Feature", "geometry": {"type": "Polygon", "coordinates": [[[113.25, 0.0], [113.25, 1.5], [114.75, 1.5], [114.75, 0.0], [113.25, 0.0]]]}, "properties": {"cell_id": "76_60", "lon": 114.0, "lat": 0.75}}, {"type": "Feature", "geometry": {"type": "Polygon", "coordinates": [[[113.25, 1.5], [113.25, 3.0], [114.75, 3.0], [114.75, 1.5], [113.25, 1.5]]]}, "properties": {"cell_id": "76_61", "lon": 114.0, "lat": 2.25}}, {"type": "Feature", "geometry": {"type": "Polygon", "coordinates": [[[113.25, 3.0], [113.25, 4.5], [114.75, 4.5], [114.75, 3.0], [113.25, 3.0]]]}, "properties": {"cell_id": "76_62", "lon": 114.0, "lat": 3.75}}, {"type": "Feature", "geometry": {"type": "Polygon", "coordinates": [[[113.25, 4.5], [113.25, 6.0], [114.75, 6.0], [114.75, 4.5], [113.25, 4.5]]]}, "properties": {"cell_id": "76_63", "lon": 114.0, "lat": 5.25}}, {"type": "Feature", "geometry": {"type": "Polygon", "coordinates": [[[114.75, 0.0], [114.75, 1.5], [116.25, 1.5], [116.25, 0.0], [114.75, 0.0]]]}, "properties": {"cell_id": "77_60", "lon": 115.5, "lat": 0.75}}, {"type": "Feature", "geometry": {"type": "Polygon", "coordinates": [[[114.75, 1.5], [114.75, 3.0], [116.25, 3.0], [116.25, 1.5], [114.75, 1.5]]]}, "properties": {"cell_id": "77_61", "lon": 115.5, "lat": 2.25}}, {"type": "Feature", "geometry": {"type": "Polygon", "coordinates": [[[114.75, 3.0], [114.75, 4.5], [116.25, 4.5], [116.25, 3.0], [114.75, 3.0]]]}, "properties": {"cell_id": "77_62", "lon": 115.5, "lat": 3.75}}, {"type": "Feature", "geometry": {"type": "Polygon", "coordinates": [[[114.75, 4.5], [114.75, 6.0], [116.25, 6.0], [116.25, 4.5], [114.75, 4.5]]]}, "properties": {"cell_id": "77_63", "lon": 115.5, "lat": 5.25}}, {"type": "Feature", "geometry": {"type": "Polygon", "coordinates": [[[116.25, 0.0], [116.25, 1.5], [117.75, 1.5], [117.75, 0.0], [116.25, 0.0]]]}, "properties": {"cell_id": "78_60", "lon": 117.0, "lat": 0.75}}, {"type": "Feature", "geometry": {"type": "Polygon", "coordinates": [[[116.25, 1.5], [116.25, 3.0], [117.75, 3.0], [117.75, 1.5], [116.25, 1.5]]]}, "properties": {"cell_id": "78_61", "lon": 117.0, "lat": 2.25}}, {"type": "Feature", "geometry": {"type": "Polygon", "coordinates": [[[116.25, 3.0], [116.25, 4.5], [117.75, 4.5], [117.75, 3.0], [116.25, 3.0]]]}, "properties": {"cell_id": "78_62", "lon": 117.0, "lat": 3.75}}, {"type": "Feature", "geometry": {"type": "Polygon", "coordinates": [[[116.25, 4.5], [116.25, 6.0], [117.75, 6.0], [117.75, 4.5], [116.25, 4.5]]]}, "properties": {"cell_id": "78_63", "lon": 117.0, "lat": 5.25}}]}