{"type": "FeatureCollection", "features": [{"type": "Feature", "geometry": {"type": "Polygon", "coordinates": [[[80.25, 70.5], [80.25, 72.0], [81.75, 72.0], [81.75, 70.5], [80.25, 70.5]]]}, "properties": {"cell_id": "54_107", "lon": 81.0, "lat": 71.25}}, {"type": "Feature", "geometry": {"type": "Polygon", "coordinates": [[[80.25, 72.0], [80.25, 73.5], [81.75, 73.5], [81.75, 72.0], [80.25, 72.0]]]}, "properties": {"cell_id": "54_108", "lon": 81.0, "lat": 72.75}}, {"type": "Feature", "geometry": {"type": "Polygon", "coordinates": [[[81.75, 70.5], [81.75, 72.0], [83.25, 72.0], [83.25, 70.5], [81.75, 70.5]]]}, "properties": {"cell_id": "55_107", "lon": 82.5, "lat": 71.25}}, {"type": "Feature", "geometry": {"type": "Polygon", "coordinates": [[[81.75, 72.0], [81.75, 73.5], [83.25, 73.5], [83.25, 72.0], [81.75, 72.0]]]}, "properties": {"cell_id": "55_108", "lon": 82.5, "lat": 72.75}}, {"type": "Feature", "geometry": {"type": "Polygon", "coordinates": [[[83.25, 70.5], [83.25, 72.0], [84.75, 72.0], [84.75, 70.5], [83.25, 70.5]]]}, "properties": {"cell_id": "56_107", "lon": 84.0, "lat": 71.25}}, {"type": "Feature", "geometry": {"type": "Polygon", "coordinates": [[[83.25, 72.0], [83.25, 73.5], [84.75, 73.5], [84.75, 72.0], [83.25, 72.0]]]}, "properties": {"cell_id": "56_108", "lon": 84.0, "lat": 72.75}}, {"type": "Feature", "geometry": {"type": "Polygon", "coordinates": [[[84.75, 70.5], [84.75, 72.0], [86.25, 72.0], [86.25, 70.5], [84.75, 70.5]]]}, "properties": {"cell_id": "57_107", "lon": 85.5, "lat": 71.25}}, {"type": "Feature", "geometry": {"type": "Polygon", "coordinates": [[[84.75, 72.0], [84.75, 73.5], [86.25, 73.5], [86.25, 72.0], [84.75, 72.0]]]}, "properties": {"cell_id": "57_108", "lon": 85.5, "lat": 72.75}}, {"type": "Feature", "geometry": {"type": "Polygon", "coordinates": [[[84.75, 73.5], [84.75, 75.0], [86.25, 75.0], [86.25, 73.5], [84.75, 73.5]]]}, "properties": {"cell_id": "57_109", "lon": 85.5, "lat": 74.25}}, {"type": "Feature", "geometry": {"type": "Polygon", "coordinates": [[[84.75, 75.0], [84.75, 76.5], [86.25, 76.5], [86.25, 75.0], [84.75, 75.0]]]}, "properties": {"cell_id": "57_110", "lon": 85.5, "lat": 75.75}}, {"type": "Feature", "geometry": {"type": "Polygon", "coordinates": [[[86.25, 70.5], [86.25, 72.0], [87.75, 72.0], [87.75, 70.5], [86.25, 70.5]]]}, "properties": {"cell_id": "58_107", "lon": 87.0, "lat": 71.25}}, {"type": "Feature", "geometry": {"type": "Polygon", "coordinates": [[[86.25, 72.0], [86.25, 73.5], [87.75, 73.5], [87.75, 72.0], [86.25, 72.0]]]}, "properties": {"cell_id": "58_108", "lon": 87.0, "lat": 72.75}}, {"type": "Feature", "geometry": {"type": "Polygon", "coordinates": [[[86.25, 73.5], [86.25, 75.0], [87.75, 75.0], [87.75, 73.5], [86.25, 73.5]]]}, "properties": {"cell_id": "58_109", "lon": 87.0, "lat": 74.25}}, {"type": "Feature", "geometry": {"type": "Polygon", "coordinates": [[[86.25, 75.0], [86.25, 76.5], [87.75, 76.5], [87.75, 75.0], [86.25, 75.0]]]}, "properties": {"cell_id": "58_110", "lon": 87.0, "lat": 75.75}}, {"type": "Feature", "geometry": {"type": "Polygon", "coordinates": [[[87.75, 70.5], [87.75, 72.0], [89.25, 72.0], [89.25, 70.5], [87.75, 70.5]]]}, "properties": {"cell_id": "59_107", "lon": 88.5, "lat": 71.25}}, {"type": "Feature", "geometry": {"type": "Polygon", "coordinates": [[[87.75, 72.0], [87.75, 73.5], [89.25, 73.5], [89.25, 72.0], [87.75, 72.0]]]}, "properties": {"cell_id": "59_108", "lon": 88.5, "lat": 72.75}}, {"type": "Feature", "geometry": {"type": "Polygon", "coordinates": [[[87.75, 73.5], [87.75, 75.0], [89.25, 75.0], [89.25, 73.5], [87.75, 73.5]]]}, "properties": {"cell_id": "59_109", "lon": 88.5, "lat": 74.25}}, {"type": "Feature", "geometry": {"type": "Polygon", "coordinates": [[[87.75, 75.0], [87.75, 76.5], [89.25, 76.5], [89.25, 75.0], [87.75, 75.0]]]}, "properties": {"cell_id": "59_110", "lon": 88.5, "lat": 75.75}}, {"type": "Feature", "geometry": {"type": "Polygon", "coordinates": [[[89.25, 70.5], [89.25, 72.0], [90.75, 72.0], [90.75, 70.5], [89.25, 70.5]]]}, "properties": {"cell_id": "60_107", "lon": 90.0, "lat": 71.25}}, {"type": "Feature", "geometry": {"type": "Polygon", "coordinates": [[[89.25, 72.0], [89.25, 73.5], [90.75, 73.5], [90.75, 72.0], [89.25, 72.0]]]}, "properties": {"cell_id": "60_108", "lon": 90.0, "lat": 72.75}}, {"type": "Feature", "geometry": {"type": "Polygon", "coordinates": [[[89.25, 73.5], [89.25, 75.0], [90.75, 75.0], [90.75, 73.5], [89.25, 73.5]]]}, "properties": {"cell_id": "60_109", "lon": 90.0, "lat": 74.25}}, {"type": "Feature", "geometry": {"type": "Polygon", "coordinates": [[[89.25, 75.0], [89.25, 76.5], [90.75, 76.5], [90.75, 75.0], [89.25, 75.0]]]}, "properties": {"cell_id": "60_110", "lon": 90.0, "lat": 75.75}}]}