{"type": "FeatureCollection", "features": [{"type": "Feature", "geometry": {"type": "Polygon", "coordinates": [[[-69.75, -90.0], [-69.75, -88.5], [-68.25, -88.5], [-68.25, -90.0], [-69.75, -90.0]]]}, "properties": {"cell_id": "194_0", "lon": -69.0, "lat": -89.25}}, {"type": "Feature", "geometry": {"type": "Polygon", "coordinates": [[[-69.75, -88.5], [-69.75, -87.0], [-68.25, -87.0], [-68.25, -88.5], [-69.75, -88.5]]]}, "properties": {"cell_id": "194_1", "lon": -69.0, "lat": -87.75}}, {"type": "Feature", "geometry": {"type": "Polygon", "coordinates": [[[-69.75, -87.0], [-69.75, -85.5], [-68.25, -85.5], [-68.25, -87.0], [-69.75, -87.0]]]}, "properties": {"cell_id": "194_2", "lon": -69.0, "lat": -86.25}}, {"type": "Feature", "geometry": {"type": "Polygon", "coordinates": [[[-69.75, -85.5], [-69.75, -84.0], [-68.25, -84.0], [-68.25, -85.5], [-69.75, -85.5]]]}, "properties": {"cell_id": "194_3", "lon": -69.0, "lat": -84.75}}, {"type": "Feature", "geometry": {"type": "Polygon", "coordinates": [[[-69.75, -84.0], [-69.75, -82.5], [-68.25, -82.5], [-68.25, -84.0], [-69.75, -84.0]]]}, "properties": {"cell_id": "194_4", "lon": -69.0, "lat": -83.25}}, {"type": "Feature", "geometry": {"type": "Polygon", "coordinates": [[[-69.75, -82.5], [-69.75, -81.0], [-68.25, -81.0], [-68.25, -82.5], [-69.75, -82.5]]]}, "properties": {"cell_id": "194_5", "lon": -69.0, "lat": -81.75}}, {"type": "Feature", "geometry": {"type": "Polygon", "coordinates": [[[-69.75, -81.0], [-69.75, -79.5], [-68.25, -79.5], [-68.25, -81.0], [-69.75, -81.0]]]}, "properties": {"cell_id": "194_6", "lon": -69.0, "lat": -80.25}}, {"type": "Feature", "geometry": {"type": "Polygon", "coordinates": [[[-68.25, -90.0], [-68.25, -88.5], [-66.75, -88.5], [-66.75, -90.0], [-68.25, -90.0]]]}, "properties": {"cell_id": "195_0", "lon": -67.5, "lat": -89.25}}, {"type": "Feature", "geometry": {"type": "Polygon", "coordinates": [[[-68.25, -88.5], [-68.25, -87.0], [-66.75, -87.0], [-66.75, -88.5], [-68.25, -88.5]]]}, "properties": {"cell_id": "195_1", "lon": -67.5, "lat": -87.75}}, {"type": "Feature", "geometry": {"type": "Polygon", "coordinates": [[[-68.25, -87.0], [-68.25, -85.5], [-66.75, -85.5], [-66.75, -87.0], [-68.25, -87.0]]]}, "properties": {"cell_id": "195_2", "lon": -67.5, "lat": -86.25}}, {"type": "Feature", "geometry": {"type": "Polygon", "coordinates": [[[-68.25, -85.5], [-68.25, -84.0], [-66.75, -84.0], [-66.75, -85.5], [-68.25, -85.5]]]}, "properties": {"cell_id": "195_3", "lon": -67.5, "lat": -84.75}}, {"type": "Feature", "geometry": {"type": "Polygon", "coordinates": [[[-68.25, -84.0], [-68.25, -82.5], [-66.75, -82.5], [-66.75, -84.0], [-68.25, -84.0]]]}, "properties": {"cell_id": "195_4", "lon": -67.5, "lat": -83.25}}, {"type": "Feature", "geometry": {"type": "Polygon", "coordinates": [[[-68.25, -82.5], [-68.25, -81.0], [-66.75, -81.0], [-66.75, -82.5], [-68.25, -82.5]]]}, "properties": {"cell_id": "195_5", "lon": -67.5, "lat": -81.75}}, {"type": "Feature", "geometry": {"type": "Polygon", "coordinates": [[[-68.25, -81.0], [-68.25, -79.5], [-66.75, -79.5], [-66.75, -81.0], [-68.25, -81.0]]]}, "properties": {"cell_id": "195_6", "lon": -67.5, "lat": -80.25}}, {"type": "Feature", "geometry": {"type": "Polygon", "coordinates": [[[-66.75, -90.0], [-66.75, -88.5], [-65.25, -88.5], [-65.25, -90.0], [-66.75, -90.0]]]}, "properties": {"cell_id": "196_0", "lon": -66.0, "lat": -89.25}}, {"type": "Feature", "geometry": {"type": "Polygon", "coordinates": [[[-66.75, -88.5], [-66.75, -87.0], [-65.25, -87.0], [-65.25, -88.5], [-66.75, -88.5]]]}, "properties": {"cell_id": "196_1", "lon": -66.0, "lat": -87.75}}, {"type": "Feature", "geometry": {"type": "Polygon", "coordinates": [[[-66.75, -87.0], [-66.75, -85.5], [-65.25, -85.5], [-65.25, -87.0], [-66.75, -87.0]]]}, "properties": {"cell_id": "196_2", "lon": -66.0, "lat": -86.25}}, {"type": "Feature", "geometry": {"type": "Polygon", "coordinates": [[[-66.75, -85.5], [-66.75, -84.0], [-65.25, -84.0], [-65.25, -85.5], [-66.75, -85.5]]]}, "properties": {"cell_id": "196_3", "lon": -66.0, "lat": -84.75}}, {"type": "Feature", "geometry": {"type": "Polygon", "coordinates": [[[-66.75, -84.0], [-66.75, -82.5], [-65.25, -82.5], [-65.25, -84.0], [-66.75, -84.0]]]}, "properties": {"cell_id": "196_4", "lon": -66.0, "lat": -83.25}}, {"type": "Feature", "geometry": {"type": "Polygon", "coordinates": [[[-66.75, -82.5], [-66.75, -81.0], [-65.25, -81.0], [-65.25, -82.5], [-66.75, -82.5]]]}, "properties": {"cell_id": "196_5", "lon": -66.0, "lat": -81.75}}, {"type": "Feature", "geometry": {"type": "Polygon", "coordinates": [[[-66.75, -81.0], [-66.75, -79.5], [-65.25, -79.5], [-65.25, -81.0], [-66.75, -81.0]]]}, "properties": {"cell_id": "196_6", "lon": -66.0, "lat": -80.25}}, {"type": "Feature", "geometry": {"type": "Polygon", "coordinates": [[[-65.25, -90.0], [-65.25, -88.5], [-63.75, -88.5], [-63.75, -90.0], [-65.25, -90.0]]]}, "properties": {"cell_id": "197_0", "lon": -64.5, "lat": -89.25}}, {"type": "Feature", "geometry": {"type": "Polygon", "coordinates": [[[-65.25, -88.5], [-65.25, -87.0], [-63.75, -87.0], [-63.75, -88.5], [-65.25, -88.5]]]}, "properties": {"cell_id": "197_1", "lon": -64.5, "lat": -87.75}}, {"type": "Feature", "geometry": {"type": "Polygon", "coordinates": [[[-65.25, -87.0], [-65.25, -85.5], [-63.75, -85.5], [-63.75, -87.0], [-65.25, -87.0]]]}, "properties": {"cell_id": "197_2", "lon": -64.5, "lat": -86.25}}, {"type": "Feature", "geometry": {"type": "Polygon", "coordinates": [[[-65.25, -85.5], [-65.25, -84.0], [-63.75, -84.0], [-63.75, -85.5], [-65.25, -85.5]]]}, "properties": {"cell_id": "197_3", "lon": -64.5, "lat": -84.75}}, {"type": "Feature", "geometry": {"type": "Polygon", "coordinates": [[[-65.25, -84.0], [-65.25, -82.5], [-63.75, -82.5], [-63.75, -84.0], [-65.25, -84.0]]]}, "properties": {"cell_id": "197_4", "lon": -64.5, "lat": -83.25}}, {"type": "Feature", "geometry": {"type": "Polygon", "coordinates": [[[-65.25, -82.5], [-65.25, -81.0], [-63.75, -81.0], [-63.75, -82.5], [-65.25, -82.5]]]}, "properties": {"cell_id": "197_5", "lon": -64.5, "lat": -81.75}}, {"type": "Feature", "geometry": {"type": "Polygon", "coordinates": [[[-65.25, -81.0], [-65.25, -79.5], [-63.75, -79.5], [-63.75, -81.0], [-65.25, -81.0]]]}, "properties": {"cell_id": "197_6", "lon": -64.5, "lat": -80.25}}, {"type": "Feature", "geometry": {"type": "Polygon", "coordinates": [[[-63.75, -90.0], [-63.75, -88.5], [-62.25, -88.5], [-62.25, -90.0], [-63.75, -90.0]]]}, "properties": {"cell_id": "198_0", "lon": -63.0, "lat": -89.25}}, {"type": "Feature", "geometry": {"type": "Polygon", "coordinates": [[[-63.75, -88.5], [-63.75, -87.0], [-62.25, -87.0], [-62.25, -88.5], [-63.75, -88.5]]]}, "properties": {"cell_id": "198_1", "lon": -63.0, "lat": -87.75}}, {"type": "Feature", "geometry": {"type": "Polygon", "coordinates": [[[-63.75, -87.0], [-63.75, -85.5], [-62.25, -85.5], [-62.25, -87.0], [-63.75, -87.0]]]}, "properties": {"cell_id": "198_2", "lon": -63.0, "lat": -86.25}}, {"type": "Feature", "geometry": {"type": "Polygon", "coordinates": [[[-63.75, -85.5], [-63.75, -84.0], [-62.25, -84.0], [-62.25, -85.5], [-63.75, -85.5]]]}, "properties": {"cell_id": "198_3", "lon": -63.0, "lat": -84.75}}, {"type": "Feature", "geometry": {"type": "Polygon", "coordinates": [[[-63.75, -84.0], [-63.75, -82.5], [-62.25, -82.5], [-62.25, -84.0], [-63.75, -84.0]]]}, "properties": {"cell_id": "198_4", "lon": -63.0, "lat": -83.25}}, {"type": "Feature", "geometry": {"type": "Polygon", "coordinates": [[[-63.75, -82.5], [-63.75, -81.0], [-62.25, -81.0], [-62.25, -82.5], [-63.75, -82.5]]]}, "properties": {"cell_id": "198_5", "lon": -63.0, "lat": -81.75}}, {"type": "Feature", "geometry": {"type": "Polygon", "coordinates": [[[-63.75, -81.0], [-63.75, -79.5], [-62.25, -79.5], [-62.25, -81.0], [-63.75, -81.0]]]}, "properties": {"cell_id": "198_6", "lon": -63.0, "lat": -80.25}}, {"type": "Feature", "geometry": {"type": "Polygon", "coordinates": [[[-62.25, -90.0], [-62.25, -88.5], [-60.75, -88.5], [-60.75, -90.0], [-62.25, -90.0]]]}, "properties": {"cell_id": "199_0", "lon": -61.5, "lat": -89.25}}, {"type": "Feature", "geometry": {"type": "Polygon", "coordinates": [[[-62.25, -88.5], [-62.25, -87.0], [-60.75, -87.0], [-60.75, -88.5], [-62.25, -88.5]]]}, "properties": {"cell_id": "199_1", "lon": -61.5, "lat": -87.75}}, {"type": "Feature", "geometry": {"type": "Polygon", "coordinates": [[[-62.25, -87.0], [-62.25, -85.5], [-60.75, -85.5], [-60.75, -87.0], [-62.25, -87.0]]]}, "properties": {"cell_id": "199_2", "lon": -61.5, "lat": -86.25}}, {"type": "Feature", "geometry": {"type": "Polygon", "coordinates": [[[-62.25, -85.5], [-62.25, -84.0], [-60.75, -84.0], [-60.75, -85.5], [-62.25, -85.5]]]}, "properties": {"cell_id": "199_3", "lon": -61.5, "lat": -84.75}}, {"type": "Feature", "geometry": {"type": "Polygon", "coordinates": [[[-62.25, -84.0], [-62.25, -82.5], [-60.75, -82.5], [-60.75, -84.0], [-62.25, -84.0]]]}, "properties": {"cell_id": "199_4", "lon": -61.5, "lat": -83.25}}, {"type": "Feature", "geometry": {"type": "Polygon", "coordinates": [[[-62.25, -82.5], [-62.25, -81.0], [-60.75, -81.0], [-60.75, -82.5], [-62.25, -82.5]]]}, "properties": {"cell_id": "199_5", "lon": -61.5, "lat": -81.75}}, {"type": "Feature", "geometry": {"type": "Polygon", "coordinates": [[[-62.25, -81.0], [-62.25, -79.5], [-60.75, -79.5], [-60.75, -81.0], [-62.25, -81.0]]]}, "properties": {"cell_id": "199_6", "lon": -61.5, "lat": -80.25}}, {"type": "Feature", "geometry": {"type": "Polygon", "coordinates": [[[-60.75, -90.0], [-60.75, -88.5], [-59.25, -88.5], [-59.25, -90.0], [-60.75, -90.0]]]}, "properties": {"cell_id": "200_0", "lon": -60.0, "lat": -89.25}}, {"type": "Feature", "geometry": {"type": "Polygon", "coordinates": [[[-60.75, -88.5], [-60.75, -87.0], [-59.25, -87.0], [-59.25, -88.5], [-60.75, -88.5]]]}, "properties": {"cell_id": "200_1", "lon": -60.0, "lat": -87.75}}, {"type": "Feature", "geometry": {"type": "Polygon", "coordinates": [[[-60.75, -87.0], [-60.75, -85.5], [-59.25, -85.5], [-59.25, -87.0], [-60.75, -87.0]]]}, "properties": {"cell_id": "200_2", "lon": -60.0, "lat": -86.25}}, {"type": "Feature", "geometry": {"type": "Polygon", "coordinates": [[[-60.75, -85.5], [-60.75, -84.0], [-59.25, -84.0], [-59.25, -85.5], [-60.75, -85.5]]]}, "properties": {"cell_id": "200_3", "lon": -60.0, "lat": -84.75}}, {"type": "Feature", "geometry": {"type": "Polygon", "coordinates": [[[-60.75, -84.0], [-60.75, -82.5], [-59.25, -82.5], [-59.25, -84.0], [-60.75, -84.0]]]}, "properties": {"cell_id": "200_4", "lon": -60.0, "lat": -83.25}}, {"type": "Feature", "geometry": {"type": "Polygon", "coordinates": [[[-60.75, -82.5], [-60.75, -81.0], [-59.25, -81.0], [-59.25, -82.5], [-60.75, -82.5]]]}, "properties": {"cell_id": "200_5", "lon": -60.0, "lat": -81.75}}, {"type": "Feature", "geometry": {"type": "Polygon", "coordinates": [[[-60.75, -81.0], [-60.75, -79.5], [-59.25, -79.5], [-59.25, -81.0], [-60.75, -81.0]]]}, "properties": {"cell_id": "200_6", "lon": -60.0, "lat": -80.25}}]}