{"type": "FeatureCollection", "features": [{"type": "Feature", "geometry": {"type": "Polygon", "coordinates": [[[-89.25, 70.5], [-89.25, 72.0], [-87.75, 72.0], [-87.75, 70.5], [-89.25, 70.5]]]}, "properties": {"cell_id": "181_107", "lon": -88.5, "lat": 71.25}}, {"type": "Feature", "geometry": {"type": "Polygon", "coordinates": [[[-89.25, 72.0], [-89.25, 73.5], [-87.75, 73.5], [-87.75, 72.0], [-89.25, 72.0]]]}, "properties": {"cell_id": "181_108", "lon": -88.5, "lat": 72.75}}, {"type": "Feature", "geometry": {"type": "Polygon", "coordinates": [[[-89.25, 73.5], [-89.25, 75.0], [-87.75, 75.0], [-87.75, 73.5], [-89.25, 73.5]]]}, "properties": {"cell_id": "181_109", "lon": -88.5, "lat": 74.25}}, {"type": "Feature", "geometry": {"type": "Polygon", "coordinates": [[[-89.25, 75.0], [-89.25, 76.5], [-87.75, 76.5], [-87.75, 75.0], [-89.25, 75.0]]]}, "properties": {"cell_id": "181_110", "lon": -88.5, "lat": 75.75}}, {"type": "Feature", "geometry": {"type": "Polygon", "coordinates": [[[-89.25, 76.5], [-89.25, 78.0], [-87.75, 78.0], [-87.75, 76.5], [-89.25, 76.5]]]}, "properties": {"cell_id": "181_111", "lon": -88.5, "lat": 77.25}}, {"type": "Feature", "geometry": {"type": "Polygon", "coordinates": [[[-89.25, 78.0], [-89.25, 79.5], [-87.75, 79.5], [-87.75, 78.0], [-89.25, 78.0]]]}, "properties": {"cell_id": "181_112", "lon": -88.5, "lat": 78.75}}, {"type": "Feature", "geometry": {"type": "Polygon", "coordinates": [[[-89.25, 79.5], [-89.25, 81.0], [-87.75, 81.0], [-87.75, 79.5], [-89.25, 79.5]]]}, "properties": {"cell_id": "181_113", "lon": -88.5, "lat": 80.25}}, {"type": "Feature", "geometry": {"type": "Polygon", "coordinates": [[[-87.75, 70.5], [-87.75, 72.0], [-86.25, 72.0], [-86.25, 70.5], [-87.75, 70.5]]]}, "properties": {"cell_id": "182_107", "lon": -87.0, "lat": 71.25}}, {"type": "Feature", "geometry": {"type": "Polygon", "coordinates": [[[-87.75, 72.0], [-87.75, 73.5], [-86.25, 73.5], [-86.25, 72.0], [-87.75, 72.0]]]}, "properties": {"cell_id": "182_108", "lon": -87.0, "lat": 72.75}}, {"type": "Feature", "geometry": {"type": "Polygon", "coordinates": [[[-87.75, 73.5], [-87.75, 75.0], [-86.25, 75.0], [-86.25, 73.5], [-87.75, 73.5]]]}, "properties": {"cell_id": "182_109", "lon": -87.0, "lat": 74.25}}, {"type": "Feature", "geometry": {"type": "Polygon", "coordinates": [[[-87.75, 75.0], [-87.75, 76.5], [-86.25, 76.5], [-86.25, 75.0], [-87.75, 75.0]]]}, "properties": {"cell_id": "182_110", "lon": -87.0, "lat": 75.75}}, {"type": "Feature", "geometry": {"type": "Polygon", "coordinates": [[[-87.75, 76.5], [-87.75, 78.0], [-86.25, 78.0], [-86.25, 76.5], [-87.75, 76.5]]]}, "properties": {"cell_id": "182_111", "lon": -87.0, "lat": 77.25}}, {"type": "Feature", "geometry": {"type": "Polygon", "coordinates": [[[-87.75, 78.0], [-87.75, 79.5], [-86.25, 79.5], [-86.25, 78.0], [-87.75, 78.0]]]}, "properties": {"cell_id": "182_112", "lon": -87.0, "lat": 78.75}}, {"type": "Feature", "geometry": {"type": "Polygon", "coordinates": [[[-87.75, 79.5], [-87.75, 81.0], [-86.25, 81.0], [-86.25, 79.5], [-87.75, 79.5]]]}, "properties": {"cell_id": "182_113", "lon": -87.0, "lat": 80.25}}, {"type": "Feature", "geometry": {"type": "Polygon", "coordinates": [[[-86.25, 70.5], [-86.25, 72.0], [-84.75, 72.0], [-84.75, 70.5], [-86.25, 70.5]]]}, "properties": {"cell_id": "183_107", "lon": -85.5, "lat": 71.25}}, {"type": "Feature", "geometry": {"type": "Polygon", "coordinates": [[[-86.25, 72.0], [-86.25, 73.5], [-84.75, 73.5], [-84.75, 72.0], [-86.25, 72.0]]]}, "properties": {"cell_id": "183_108", "lon": -85.5, "lat": 72.75}}, {"type": "Feature", "geometry": {"type": "Polygon", "coordinates": [[[-86.25, 73.5], [-86.25, 75.0], [-84.75, 75.0], [-84.75, 73.5], [-86.25, 73.5]]]}, "properties": {"cell_id": "183_109", "lon": -85.5, "lat": 74.25}}, {"type": "Feature", "geometry": {"type": "Polygon", "coordinates": [[[-86.25, 75.0], [-86.25, 76.5], [-84.75, 76.5], [-84.75, 75.0], [-86.25, 75.0]]]}, "properties": {"cell_id": "183_110", "lon": -85.5, "lat": 75.75}}, {"type": "Feature", "geometry": {"type": "Polygon", "coordinates": [[[-86.25, 76.5], [-86.25, 78.0], [-84.75, 78.0], [-84.75, 76.5], [-86.25, 76.5]]]}, "properties": {"cell_id": "183_111", "lon": -85.5, "lat": 77.25}}, {"type": "Feature", "geometry": {"type": "Polygon", "coordinates": [[[-86.25, 78.0], [-86.25, 79.5], [-84.75, 79.5], [-84.75, 78.0], [-86.25, 78.0]]]}, "properties": {"cell_id": "183_112", "lon": -85.5, "lat": 78.75}}, {"type": "Feature", "geometry": {"type": "Polygon", "coordinates": [[[-86.25, 79.5], [-86.25, 81.0], [-84.75, 81.0], [-84.75, 79.5], [-86.25, 79.5]]]}, "properties": {"cell_id": "183_113", "lon": -85.5, "lat": 80.25}}, {"type": "Feature", "geometry": {"type": "Polygon", "coordinates": [[[-84.75, 70.5], [-84.75, 72.0], [-83.25, 72.0], [-83.25, 70.5], [-84.75, 70.5]]]}, "properties": {"cell_id": "184_107", "lon": -84.0, "lat": 71.25}}, {"type": "Feature", "geometry": {"type": "Polygon", "coordinates": [[[-84.75, 72.0], [-84.75, 73.5], [-83.25, 73.5], [-83.25, 72.0], [-84.75, 72.0]]]}, "properties": {"cell_id": "184_108", "lon": -84.0, "lat": 72.75}}, {"type": "Feature", "geometry": {"type": "Polygon", "coordinates": [[[-84.75, 73.5], [-84.75, 75.0], [-83.25, 75.0], [-83.25, 73.5], [-84.75, 73.5]]]}, "properties": {"cell_id": "184_109", "lon": -84.0, "lat": 74.25}}, {"type": "Feature", "geometry": {"type": "Polygon", "coordinates": [[[-84.75, 75.0], [-84.75, 76.5], [-83.25, 76.5], [-83.25, 75.0], [-84.75, 75.0]]]}, "properties": {"cell_id": "184_110", "lon": -84.0, "lat": 75.75}}, {"type": "Feature", "geometry": {"type": "Polygon", "coordinates": [[[-84.75, 76.5], [-84.75, 78.0], [-83.25, 78.0], [-83.25, 76.5], [-84.75, 76.5]]]}, "properties": {"cell_id": "184_111", "lon": -84.0, "lat": 77.25}}, {"type": "Feature", "geometry": {"type": "Polygon", "coordinates": [[[-84.75, 78.0], [-84.75, 79.5], [-83.25, 79.5], [-83.25, 78.0], [-84.75, 78.0]]]}, "properties": {"cell_id": "184_112", "lon": -84.0, "lat": 78.75}}, {"type": "Feature", "geometry": {"type": "Polygon", "coordinates": [[[-84.75, 79.5], [-84.75, 81.0], [-83.25, 81.0], [-83.25, 79.5], [-84.75, 79.5]]]}, "properties": {"cell_id": "184_113", "lon": -84.0, "lat": 80.25}}, {"type": "Feature", "geometry": {"type": "Polygon", "coordinates": [[[-83.25, 70.5], [-83.25, 72.0], [-81.75, 72.0], [-81.75, 70.5], [-83.25, 70.5]]]}, "properties": {"cell_id": "185_107", "lon": -82.5, "lat": 71.25}}, {"type": "Feature", "geometry": {"type": "Polygon", "coordinates": [[[-83.25, 72.0], [-83.25, 73.5], [-81.75, 73.5], [-81.75, 72.0], [-83.25, 72.0]]]}, "properties": {"cell_id": "185_108", "lon": -82.5, "lat": 72.75}}, {"type": "Feature", "geometry": {"type": "Polygon", "coordinates": [[[-83.25, 73.5], [-83.25, 75.0], [-81.75, 75.0], [-81.75, 73.5], [-83.25, 73.5]]]}, "properties": {"cell_id": "185_109", "lon": -82.5, "lat": 74.25}}, {"type": "Feature", "geometry": {"type": "Polygon", "coordinates": [[[-83.25, 75.0], [-83.25, 76.5], [-81.75, 76.5], [-81.75, 75.0], [-83.25, 75.0]]]}, "properties": {"cell_id": "185_110", "lon": -82.5, "lat": 75.75}}, {"type": "Feature", "geometry": {"type": "Polygon", "coordinates": [[[-83.25, 76.5], [-83.25, 78.0], [-81.75, 78.0], [-81.75, 76.5], [-83.25, 76.5]]]}, "properties": {"cell_id": "185_111", "lon": -82.5, "lat": 77.25}}, {"type": "Feature", "geometry": {"type": "Polygon", "coordinates": [[[-83.25, 78.0], [-83.25, 79.5], [-81.75, 79.5], [-81.75, 78.0], [-83.25, 78.0]]]}, "properties": {"cell_id": "185_112", "lon": -82.5, "lat": 78.75}}, {"type": "Feature", "geometry": {"type": "Polygon", "coordinates": [[[-83.25, 79.5], [-83.25, 81.0], [-81.75, 81.0], [-81.75, 79.5], [-83.25, 79.5]]]}, "properties": {"cell_id": "185_113", "lon": -82.5, "lat": 80.25}}, {"type": "Feature", "geometry": {"type": "Polygon", "coordinates": [[[-81.75, 70.5], [-81.75, 72.0], [-80.25, 72.0], [-80.25, 70.5], [-81.75, 70.5]]]}, "properties": {"cell_id": "186_107", "lon": -81.0, "lat": 71.25}}, {"type": "Feature", "geometry": {"type": "Polygon", "coordinates": [[[-81.75, 72.0], [-81.75, 73.5], [-80.25, 73.5], [-80.25, 72.0], [-81.75, 72.0]]]}, "properties": {"cell_id": "186_108", "lon": -81.0, "lat": 72.75}}, {"type": "Feature", "geometry": {"type": "Polygon", "coordinates": [[[-81.75, 73.5], [-81.75, 75.0], [-80.25, 75.0], [-80.25, 73.5], [-81.75, 73.5]]]}, "properties": {"cell_id": "186_109", "lon": -81.0, "lat": 74.25}}, {"type": "Feature", "geometry": {"type": "Polygon", "coordinates": [[[-81.75, 75.0], [-81.75, 76.5], [-80.25, 76.5], [-80.25, 75.0], [-81.75, 75.0]]]}, "properties": {"cell_id": "186_110", "lon": -81.0, "lat": 75.75}}, {"type": "Feature", "geometry": {"type": "Polygon", "coordinates": [[[-81.75, 76.5], [-81.75, 78.0], [-80.25, 78.0], [-80.25, 76.5], [-81.75, 76.5]]]}, "properties": {"cell_id": "186_111", "lon": -81.0, "lat": 77.25}}, {"type": "Feature", "geometry": {"type": "Polygon", "coordinates": [[[-81.75, 78.0], [-81.75, 79.5], [-80.25, 79.5], [-80.25, 78.0], [-81.75, 78.0]]]}, "properties": {"cell_id": "186_112", "lon": -81.0, "lat": 78.75}}, {"type": "Feature", "geometry": {"type": "Polygon", "coordinates": [[[-81.75, 79.5], [-81.75, 81.0], [-80.25, 81.0], [-80.25, 79.5], [-81.75, 79.5]]]}, "properties": {"cell_id": "186_113", "lon": -81.0, "lat": 80.25}}, {"type": "Feature", "geometry": {"type": "Polygon", "coordinates": [[[-80.25, 70.5], [-80.25, 72.0], [-78.75, 72.0], [-78.75, 70.5], [-80.25, 70.5]]]}, "properties": {"cell_id": "187_107", "lon": -79.5, "lat": 71.25}}, {"type": "Feature", "geometry": {"type": "Polygon", "coordinates": [[[-80.25, 72.0], [-80.25, 73.5], [-78.75, 73.5], [-78.75, 72.0], [-80.25, 72.0]]]}, "properties": {"cell_id": "187_108", "lon": -79.5, "lat": 72.75}}, {"type": "Feature", "geometry": {"type": "Polygon", "coordinates": [[[-80.25, 73.5], [-80.25, 75.0], [-78.75, 75.0], [-78.75, 73.5], [-80.25, 73.5]]]}, "properties": {"cell_id": "187_109", "lon": -79.5, "lat": 74.25}}, {"type": "Feature", "geometry": {"type": "Polygon", "coordinates": [[[-80.25, 75.0], [-80.25, 76.5], [-78.75, 76.5], [-78.75, 75.0], [-80.25, 75.0]]]}, "properties": {"cell_id": "187_110", "lon": -79.5, "lat": 75.75}}, {"type": "Feature", "geometry": {"type": "Polygon", "coordinates": [[[-80.25, 76.5], [-80.25, 78.0], [-78.75, 78.0], [-78.75, 76.5], [-80.25, 76.5]]]}, "properties": {"cell_id": "187_111", "lon": -79.5, "lat": 77.25}}, {"type": "Feature", "geometry": {"type": "Polygon", "coordinates": [[[-80.25, 78.0], [-80.25, 79.5], [-78.75, 79.5], [-78.75, 78.0], [-80.25, 78.0]]]}, "properties": {"cell_id": "187_112", "lon": -79.5, "lat": 78.75}}, {"type": "Feature", "geometry": {"type": "Polygon", "coordinates": [[[-80.25, 79.5], [-80.25, 81.0], [-78.75, 81.0], [-78.75, 79.5], [-80.25, 79.5]]]}, "properties": {"cell_id": "187_113", "lon": -79.5, "lat": 80.25}}]}