{"type": "FeatureCollection", "features": [{"type": "Feature", "geometry": {"type": "Polygon", "coordinates": [[[99.75, 0.0], [99.75, 1.5], [101.25, 1.5], [101.25, 0.0], [99.75, 0.0]]]}, "properties": {"cell_id": "67_60", "lon": 100.5, "lat": 0.75}}, {"type": "Feature", "geometry": {"type": "Polygon", "coordinates": [[[99.75, 1.5], [99.75, 3.0], [101.25, 3.0], [101.25, 1.5], [99.75, 1.5]]]}, "properties": {"cell_id": "67_61", "lon": 100.5, "lat": 2.25}}, {"type": "Feature", "geometry": {"type": "Polygon", "coordinates": [[[99.75, 3.0], [99.75, 4.5], [101.25, 4.5], [101.25, 3.0], [99.75, 3.0]]]}, "properties": {"cell_id": "67_62", "lon": 100.5, "lat": 3.75}}, {"type": "Feature", "geometry": {"type": "Polygon", "coordinates": [[[99.75, 4.5], [99.75, 6.0], [101.25, 6.0], [101.25, 4.5], [99.75, 4.5]]]}, "properties": {"cell_id": "67_63", "lon": 100.5, "lat": 5.25}}]}