{"type": "FeatureCollection", "features": [{"type": "Feature", "geometry": {"type": "Polygon", "coordinates": [[[-168.75, -79.5], [-168.75, -78.0], [-167.25, -78.0], [-167.25, -79.5], [-168.75, -79.5]]]}, "properties": {"cell_id": "128_7", "lon": -168.0, "lat": -78.75}}, {"type": "Feature", "geometry": {"type": "Polygon", "coordinates": [[[-167.25, -79.5], [-167.25, -78.0], [-165.75, -78.0], [-165.75, -79.5], [-167.25, -79.5]]]}, "properties": {"cell_id": "129_7", "lon": -166.5, "lat": -78.75}}, {"type": "Feature", "geometry": {"type": "Polygon", "coordinates": [[[-165.75, -79.5], [-165.75, -78.0], [-164.25, -78.0], [-164.25, -79.5], [-165.75, -79.5]]]}, "properties": {"cell_id": "130_7", "lon": -165.0, "lat": -78.75}}, {"type": "Feature", "geometry": {"type": "Polygon", "coordinates": [[[-164.25, -79.5], [-164.25, -78.0], [-162.75, -78.0], [-162.75, -79.5], [-164.25, -79.5]]]}, "properties": {"cell_id": "131_7", "lon": -163.5, "lat": -78.75}}, {"type": "Feature", "geometry": {"type": "Polygon", "coordinates": [[[-162.75, -79.5], [-162.75, -78.0], [-161.25, -78.0], [-161.25, -79.5], [-162.75, -79.5]]]}, "properties": {"cell_id": "132_7", "lon": -162.0, "lat": -78.75}}, {"type": "Feature", "geometry": {"type": "Polygon", "coordinates": [[[-161.25, -79.5], [-161.25, -78.0], [-159.75, -78.0], [-159.75, -79.5], [-161.25, -79.5]]]}, "properties": {"cell_id": "133_7", "lon": -160.5, "lat": -78.75}}]}