{"type": "FeatureCollection", "features": [{"type": "Feature", "geometry": {"type": "Polygon", "coordinates": [[[-83.25, 24.0], [-83.25, 25.5], [-81.75, 25.5], [-81.75, 24.0], [-83.25, 24.0]]]}, "properties": {"cell_id": "185_76", "lon": -82.5, "lat": 24.75}}, {"type": "Feature", "geometry": {"type": "Polygon", "coordinates": [[[-83.25, 25.5], [-83.25, 27.0], [-81.75, 27.0], [-81.75, 25.5], [-83.25, 25.5]]]}, "properties": {"cell_id": "185_77", "lon": -82.5, "lat": 26.25}}, {"type": "Feature", "geometry": {"type": "Polygon", "coordinates": [[[-83.25, 27.0], [-83.25, 28.5], [-81.75, 28.5], [-81.75, 27.0], [-83.25, 27.0]]]}, "properties": {"cell_id": "185_78", "lon": -82.5, "lat": 27.75}}, {"type": "Feature", "geometry": {"type": "Polygon", "coordinates": [[[-83.25, 28.5], [-83.25, 30.0], [-81.75, 30.0], [-81.75, 28.5], [-83.25, 28.5]]]}, "properties": {"cell_id": "185_79", "lon": -82.5, "lat": 29.25}}, {"type": "Feature", "geometry": {"type": "Polygon", "coordinates": [[[-81.75, 24.0], [-81.75, 25.5], [-80.25, 25.5], [-80.25, 24.0], [-81.75, 24.0]]]}, "properties": {"cell_id": "186_76", "lon": -81.0, "lat": 24.75}}, {"type": "Feature", "geometry": {"type": "Polygon", "coordinates": [[[-81.75, 25.5], [-81.75, 27.0], [-80.25, 27.0], [-80.25, 25.5], [-81.75, 25.5]]]}, "properties": {"cell_id": "186_77", "lon": -81.0, "lat": 26.25}}, {"type": "Feature", "geometry": {"type": "Polygon", "coordinates": [[[-81.75, 27.0], [-81.75, 28.5], [-80.25, 28.5], [-80.25, 27.0], [-81.75, 27.0]]]}, "properties": {"cell_id": "186_78", "lon": -81.0, "lat": 27.75}}, {"type": "Feature", "geometry": {"type": "Polygon", "coordinates": [[[-81.75, 28.5], [-81.75, 30.0], [-80.25, 30.0], [-80.25, 28.5], [-81.75, 28.5]]]}, "properties": {"cell_id": "186_79", "lon": -81.0, "lat": 29.25}}, {"type": "Feature", "geometry": {"type": "Polygon", "coordinates": [[[-80.25, 24.0], [-80.25, 25.5], [-78.75, 25.5], [-78.75, 24.0], [-80.25, 24.0]]]}, "properties": {"cell_id": "187_76", "lon": -79.5, "lat": 24.75}}, {"type": "Feature", "geometry": {"type": "Polygon", "coordinates": [[[-80.25, 25.5], [-80.25, 27.0], [-78.75, 27.0], [-78.75, 25.5], [-80.25, 25.5]]]}, "properties": {"cell_id": "187_77", "lon": -79.5, "lat": 26.25}}, {"type": "Feature", "geometry": {"type": "Polygon", "coordinates": [[[-80.25, 27.0], [-80.25, 28.5], [-78.75, 28.5], [-78.75, 27.0], [-80.25, 27.0]]]}, "properties": {"cell_id": "187_78", "lon": -79.5, "lat": 27.75}}, {"type": "Feature", "geometry": {"type": "Polygon", "coordinates": [[[-80.25, 28.5], [-80.25, 30.0], [-78.75, 30.0], [-78.75, 28.5], [-80.25, 28.5]]]}, "properties": {"cell_id": "187_79", "lon": -79.5, "lat": 29.25}}]}