{"type": "FeatureCollection", "features": [{"type": "Feature", "geometry": {"type": "Polygon", "coordinates": [[[11.25, -90.0], [11.25, -88.5], [12.75, -88.5], [12.75, -90.0], [11.25, -90.0]]]}, "properties": {"cell_id": "8_0", "lon": 12.0, "lat": -89.25}}, {"type": "Feature", "geometry": {"type": "Polygon", "coordinates": [[[11.25, -88.5], [11.25, -87.0], [12.75, -87.0], [12.75, -88.5], [11.25, -88.5]]]}, "properties": {"cell_id": "8_1", "lon": 12.0, "lat": -87.75}}, {"type": "Feature", "geometry": {"type": "Polygon", "coordinates": [[[11.25, -87.0], [11.25, -85.5], [12.75, -85.5], [12.75, -87.0], [11.25, -87.0]]]}, "properties": {"cell_id": "8_2", "lon": 12.0, "lat": -86.25}}, {"type": "Feature", "geometry": {"type": "Polygon", "coordinates": [[[11.25, -85.5], [11.25, -84.0], [12.75, -84.0], [12.75, -85.5], [11.25, -85.5]]]}, "properties": {"cell_id": "8_3", "lon": 12.0, "lat": -84.75}}, {"type": "Feature", "geometry": {"type": "Polygon", "coordinates": [[[11.25, -84.0], [11.25, -82.5], [12.75, -82.5], [12.75, -84.0], [11.25, -84.0]]]}, "properties": {"cell_id": "8_4", "lon": 12.0, "lat": -83.25}}, {"type": "Feature", "geometry": {"type": "Polygon", "coordinates": [[[11.25, -82.5], [11.25, -81.0], [12.75, -81.0], [12.75, -82.5], [11.25, -82.5]]]}, "properties": {"cell_id": "8_5", "lon": 12.0, "lat": -81.75}}, {"type": "Feature", "geometry": {"type": "Polygon", "coordinates": [[[11.25, -81.0], [11.25, -79.5], [12.75, -79.5], [12.75, -81.0], [11.25, -81.0]]]}, "properties": {"cell_id": "8_6", "lon": 12.0, "lat": -80.25}}, {"type": "Feature", "geometry": {"type": "Polygon", "coordinates": [[[12.75, -90.0], [12.75, -88.5], [14.25, -88.5], [14.25, -90.0], [12.75, -90.0]]]}, "properties": {"cell_id": "9_0", "lon": 13.5, "lat": -89.25}}, {"type": "Feature", "geometry": {"type": "Polygon", "coordinates": [[[12.75, -88.5], [12.75, -87.0], [14.25, -87.0], [14.25, -88.5], [12.75, -88.5]]]}, "properties": {"cell_id": "9_1", "lon": 13.5, "lat": -87.75}}, {"type": "Feature", "geometry": {"type": "Polygon", "coordinates": [[[12.75, -87.0], [12.75, -85.5], [14.25, -85.5], [14.25, -87.0], [12.75, -87.0]]]}, "properties": {"cell_id": "9_2", "lon": 13.5, "lat": -86.25}}, {"type": "Feature", "geometry": {"type": "Polygon", "coordinates": [[[12.75, -85.5], [12.75, -84.0], [14.25, -84.0], [14.25, -85.5], [12.75, -85.5]]]}, "properties": {"cell_id": "9_3", "lon": 13.5, "lat": -84.75}}, {"type": "Feature", "geometry": {"type": "Polygon", "coordinates": [[[12.75, -84.0], [12.75, -82.5], [14.25, -82.5], [14.25, -84.0], [12.75, -84.0]]]}, "properties": {"cell_id": "9_4", "lon": 13.5, "lat": -83.25}}, {"type": "Feature", "geometry": {"type": "Polygon", "coordinates": [[[12.75, -82.5], [12.75, -81.0], [14.25, -81.0], [14.25, -82.5], [12.75, -82.5]]]}, "properties": {"cell_id": "9_5", "lon": 13.5, "lat": -81.75}}, {"type": "Feature", "geometry": {"type": "Polygon", "coordinates": [[[12.75, -81.0], [12.75, -79.5], [14.25, -79.5], [14.25, -81.0], [12.75, -81.0]]]}, "properties": {"cell_id": "9_6", "lon": 13.5, "lat": -80.25}}, {"type": "Feature", "geometry": {"type": "Polygon", "coordinates": [[[14.25, -90.0], [14.25, -88.5], [15.75, -88.5], [15.75, -90.0], [14.25, -90.0]]]}, "properties": {"cell_id": "10_0", "lon": 15.0, "lat": -89.25}}, {"type": "Feature", "geometry": {"type": "Polygon", "coordinates": [[[14.25, -88.5], [14.25, -87.0], [15.75, -87.0], [15.75, -88.5], [14.25, -88.5]]]}, "properties": {"cell_id": "10_1", "lon": 15.0, "lat": -87.75}}, {"type": "Feature", "geometry": {"type": "Polygon", "coordinates": [[[14.25, -87.0], [14.25, -85.5], [15.75, -85.5], [15.75, -87.0], [14.25, -87.0]]]}, "properties": {"cell_id": "10_2", "lon": 15.0, "lat": -86.25}}, {"type": "Feature", "geometry": {"type": "Polygon", "coordinates": [[[14.25, -85.5], [14.25, -84.0], [15.75, -84.0], [15.75, -85.5], [14.25, -85.5]]]}, "properties": {"cell_id": "10_3", "lon": 15.0, "lat": -84.75}}, {"type": "Feature", "geometry": {"type": "Polygon", "coordinates": [[[14.25, -84.0], [14.25, -82.5], [15.75, -82.5], [15.75, -84.0], [14.25, -84.0]]]}, "properties": {"cell_id": "10_4", "lon": 15.0, "lat": -83.25}}, {"type": "Feature", "geometry": {"type": "Polygon", "coordinates": [[[14.25, -82.5], [14.25, -81.0], [15.75, -81.0], [15.75, -82.5], [14.25, -82.5]]]}, "properties": {"cell_id": "10_5", "lon": 15.0, "lat": -81.75}}, {"type": "Feature", "geometry": {"type": "Polygon", "coordinates": [[[14.25, -81.0], [14.25, -79.5], [15.75, -79.5], [15.75, -81.0], [14.25, -81.0]]]}, "properties": {"cell_id": "10_6", "lon": 15.0, "lat": -80.25}}, {"type": "Feature", "geometry": {"type": "Polygon", "coordinates": [[[15.75, -90.0], [15.75, -88.5], [17.25, -88.5], [17.25, -90.0], [15.75, -90.0]]]}, "properties": {"cell_id": "11_0", "lon": 16.5, "lat": -89.25}}, {"type": "Feature", "geometry": {"type": "Polygon", "coordinates": [[[15.75, -88.5], [15.75, -87.0], [17.25, -87.0], [17.25, -88.5], [15.75, -88.5]]]}, "properties": {"cell_id": "11_1", "lon": 16.5, "lat": -87.75}}, {"type": "Feature", "geometry": {"type": "Polygon", "coordinates": [[[15.75, -87.0], [15.75, -85.5], [17.25, -85.5], [17.25, -87.0], [15.75, -87.0]]]}, "properties": {"cell_id": "11_2", "lon": 16.5, "lat": -86.25}}, {"type": "Feature", "geometry": {"type": "Polygon", "coordinates": [[[15.75, -85.5], [15.75, -84.0], [17.25, -84.0], [17.25, -85.5], [15.75, -85.5]]]}, "properties": {"cell_id": "11_3", "lon": 16.5, "lat": -84.75}}, {"type": "Feature", "geometry": {"type": "Polygon", "coordinates": [[[15.75, -84.0], [15.75, -82.5], [17.25, -82.5], [17.25, -84.0], [15.75, -84.0]]]}, "properties": {"cell_id": "11_4", "lon": 16.5, "lat": -83.25}}, {"type": "Feature", "geometry": {"type": "Polygon", "coordinates": [[[15.75, -82.5], [15.75, -81.0], [17.25, -81.0], [17.25, -82.5], [15.75, -82.5]]]}, "properties": {"cell_id": "11_5", "lon": 16.5, "lat": -81.75}}, {"type": "Feature", "geometry": {"type": "Polygon", "coordinates": [[[15.75, -81.0], [15.75, -79.5], [17.25, -79.5], [17.25, -81.0], [15.75, -81.0]]]}, "properties": {"cell_id": "11_6", "lon": 16.5, "lat": -80.25}}, {"type": "Feature", "geometry": {"type": "Polygon", "coordinates": [[[17.25, -90.0], [17.25, -88.5], [18.75, -88.5], [18.75, -90.0], [17.25, -90.0]]]}, "properties": {"cell_id": "12_0", "lon": 18.0, "lat": -89.25}}, {"type": "Feature", "geometry": {"type": "Polygon", "coordinates": [[[17.25, -88.5], [17.25, -87.0], [18.75, -87.0], [18.75, -88.5], [17.25, -88.5]]]}, "properties": {"cell_id": "12_1", "lon": 18.0, "lat": -87.75}}, {"type": "Feature", "geometry": {"type": "Polygon", "coordinates": [[[17.25, -87.0], [17.25, -85.5], [18.75, -85.5], [18.75, -87.0], [17.25, -87.0]]]}, "properties": {"cell_id": "12_2", "lon": 18.0, "lat": -86.25}}, {"type": "Feature", "geometry": {"type": "Polygon", "coordinates": [[[17.25, -85.5], [17.25, -84.0], [18.75, -84.0], [18.75, -85.5], [17.25, -85.5]]]}, "properties": {"cell_id": "12_3", "lon": 18.0, "lat": -84.75}}, {"type": "Feature", "geometry": {"type": "Polygon", "coordinates": [[[17.25, -84.0], [17.25, -82.5], [18.75, -82.5], [18.75, -84.0], [17.25, -84.0]]]}, "properties": {"cell_id": "12_4", "lon": 18.0, "lat": -83.25}}, {"type": "Feature", "geometry": {"type": "Polygon", "coordinates": [[[17.25, -82.5], [17.25, -81.0], [18.75, -81.0], [18.75, -82.5], [17.25, -82.5]]]}, "properties": {"cell_id": "12_5", "lon": 18.0, "lat": -81.75}}, {"type": "Feature", "geometry": {"type": "Polygon", "coordinates": [[[17.25, -81.0], [17.25, -79.5], [18.75, -79.5], [18.75, -81.0], [17.25, -81.0]]]}, "properties": {"cell_id": "12_6", "lon": 18.0, "lat": -80.25}}, {"type": "Feature", "geometry": {"type": "Polygon", "coordinates": [[[18.75, -90.0], [18.75, -88.5], [20.25, -88.5], [20.25, -90.0], [18.75, -90.0]]]}, "properties": {"cell_id": "13_0", "lon": 19.5, "lat": -89.25}}, {"type": "Feature", "geometry": {"type": "Polygon", "coordinates": [[[18.75, -88.5], [18.75, -87.0], [20.25, -87.0], [20.25, -88.5], [18.75, -88.5]]]}, "properties": {"cell_id": "13_1", "lon": 19.5, "lat": -87.75}}, {"type": "Feature", "geometry": {"type": "Polygon", "coordinates": [[[18.75, -87.0], [18.75, -85.5], [20.25, -85.5], [20.25, -87.0], [18.75, -87.0]]]}, "properties": {"cell_id": "13_2", "lon": 19.5, "lat": -86.25}}, {"type": "Feature", "geometry": {"type": "Polygon", "coordinates": [[[18.75, -85.5], [18.75, -84.0], [20.25, -84.0], [20.25, -85.5], [18.75, -85.5]]]}, "properties": {"cell_id": "13_3", "lon": 19.5, "lat": -84.75}}, {"type": "Feature", "geometry": {"type": "Polygon", "coordinates": [[[18.75, -84.0], [18.75, -82.5], [20.25, -82.5], [20.25, -84.0], [18.75, -84.0]]]}, "properties": {"cell_id": "13_4", "lon": 19.5, "lat": -83.25}}, {"type": "Feature", "geometry": {"type": "Polygon", "coordinates": [[[18.75, -82.5], [18.75, -81.0], [20.25, -81.0], [20.25, -82.5], [18.75, -82.5]]]}, "properties": {"cell_id": "13_5", "lon": 19.5, "lat": -81.75}}, {"type": "Feature", "geometry": {"type": "Polygon", "coordinates": [[[18.75, -81.0], [18.75, -79.5], [20.25, -79.5], [20.25, -81.0], [18.75, -81.0]]]}, "properties": {"cell_id": "13_6", "lon": 19.5, "lat": -80.25}}]}