{"type": "FeatureCollection", "features": [{"type": "Feature", "geometry": {"type": "Polygon", "coordinates": [[[161.25, -79.5], [161.25, -78.0], [162.75, -78.0], [162.75, -79.5], [161.25, -79.5]]]}, "properties": {"cell_id": "108_7", "lon": 162.0, "lat": -78.75}}, {"type": "Feature", "geometry": {"type": "Polygon", "coordinates": [[[161.25, -78.0], [161.25, -76.5], [162.75, -76.5], [162.75, -78.0], [161.25, -78.0]]]}, "properties": {"cell_id": "108_8", "lon": 162.0, "lat": -77.25}}, {"type": "Feature", "geometry": {"type": "Polygon", "coordinates": [[[161.25, -76.5], [161.25, -75.0], [162.75, -75.0], [162.75, -76.5], [161.25, -76.5]]]}, "properties": {"cell_id": "108_9", "lon": 162.0, "lat": -75.75}}, {"type": "Feature", "geometry": {"type": "Polygon", "coordinates": [[[161.25, -75.0], [161.25, -73.5], [162.75, -73.5], [162.75, -75.0], [161.25, -75.0]]]}, "properties": {"cell_id": "108_10", "lon": 162.0, "lat": -74.25}}, {"type": "Feature", "geometry": {"type": "Polygon", "coordinates": [[[161.25, -73.5], [161.25, -72.0], [162.75, -72.0], [162.75, -73.5], [161.25, -73.5]]]}, "properties": {"cell_id": "108_11", "lon": 162.0, "lat": -72.75}}, {"type": "Feature", "geometry": {"type": "Polygon", "coordinates": [[[161.25, -72.0], [161.25, -70.5], [162.75, -70.5], [162.75, -72.0], [161.25, -72.0]]]}, "properties": {"cell_id": "108_12", "lon": 162.0, "lat": -71.25}}, {"type": "Feature", "geometry": {"type": "Polygon", "coordinates": [[[161.25, -70.5], [161.25, -69.0], [162.75, -69.0], [162.75, -70.5], [161.25, -70.5]]]}, "properties": {"cell_id": "108_13", "lon": 162.0, "lat": -69.75}}, {"type": "Feature", "geometry": {"type": "Polygon", "coordinates": [[[162.75, -79.5], [162.75, -78.0], [164.25, -78.0], [164.25, -79.5], [162.75, -79.5]]]}, "properties": {"cell_id": "109_7", "lon": 163.5, "lat": -78.75}}, {"type": "Feature", "geometry": {"type": "Polygon", "coordinates": [[[162.75, -78.0], [162.75, -76.5], [164.25, -76.5], [164.25, -78.0], [162.75, -78.0]]]}, "properties": {"cell_id": "109_8", "lon": 163.5, "lat": -77.25}}, {"type": "Feature", "geometry": {"type": "Polygon", "coordinates": [[[162.75, -76.5], [162.75, -75.0], [164.25, -75.0], [164.25, -76.5], [162.75, -76.5]]]}, "properties": {"cell_id": "109_9", "lon": 163.5, "lat": -75.75}}, {"type": "Feature", "geometry": {"type": "Polygon", "coordinates": [[[162.75, -75.0], [162.75, -73.5], [164.25, -73.5], [164.25, -75.0], [162.75, -75.0]]]}, "properties": {"cell_id": "109_10", "lon": 163.5, "lat": -74.25}}, {"type": "Feature", "geometry": {"type": "Polygon", "coordinates": [[[162.75, -73.5], [162.75, -72.0], [164.25, -72.0], [164.25, -73.5], [162.75, -73.5]]]}, "properties": {"cell_id": "109_11", "lon": 163.5, "lat": -72.75}}, {"type": "Feature", "geometry": {"type": "Polygon", "coordinates": [[[162.75, -72.0], [162.75, -70.5], [164.25, -70.5], [164.25, -72.0], [162.75, -72.0]]]}, "properties": {"cell_id": "109_12", "lon": 163.5, "lat": -71.25}}, {"type": "Feature", "geometry": {"type": "Polygon", "coordinates": [[[162.75, -70.5], [162.75, -69.0], [164.25, -69.0], [164.25, -70.5], [162.75, -70.5]]]}, "properties": {"cell_id": "109_13", "lon": 163.5, "lat": -69.75}}, {"type": "Feature", "geometry": {"type": "Polygon", "coordinates": [[[164.25, -79.5], [164.25, -78.0], [165.75, -78.0], [165.75, -79.5], [164.25, -79.5]]]}, "properties": {"cell_id": "110_7", "lon": 165.0, "lat": -78.75}}, {"type": "Feature", "geometry": {"type": "Polygon", "coordinates": [[[164.25, -78.0], [164.25, -76.5], [165.75, -76.5], [165.75, -78.0], [164.25, -78.0]]]}, "properties": {"cell_id": "110_8", "lon": 165.0, "lat": -77.25}}, {"type": "Feature", "geometry": {"type": "Polygon", "coordinates": [[[164.25, -76.5], [164.25, -75.0], [165.75, -75.0], [165.75, -76.5], [164.25, -76.5]]]}, "properties": {"cell_id": "110_9", "lon": 165.0, "lat": -75.75}}, {"type": "Feature", "geometry": {"type": "Polygon", "coordinates": [[[164.25, -75.0], [164.25, -73.5], [165.75, -73.5], [165.75, -75.0], [164.25, -75.0]]]}, "properties": {"cell_id": "110_10", "lon": 165.0, "lat": -74.25}}, {"type": "Feature", "geometry": {"type": "Polygon", "coordinates": [[[164.25, -73.5], [164.25, -72.0], [165.75, -72.0], [165.75, -73.5], [164.25, -73.5]]]}, "properties": {"cell_id": "110_11", "lon": 165.0, "lat": -72.75}}, {"type": "Feature", "geometry": {"type": "Polygon", "coordinates": [[[164.25, -72.0], [164.25, -70.5], [165.75, -70.5], [165.75, -72.0], [164.25, -72.0]]]}, "properties": {"cell_id": "110_12", "lon": 165.0, "lat": -71.25}}, {"type": "Feature", "geometry": {"type": "Polygon", "coordinates": [[[164.25, -70.5], [164.25, -69.0], [165.75, -69.0], [165.75, -70.5], [164.25, -70.5]]]}, "properties": {"cell_id": "110_13", "lon": 165.0, "lat": -69.75}}, {"type": "Feature", "geometry": {"type": "Polygon", "coordinates": [[[165.75, -79.5], [165.75, -78.0], [167.25, -78.0], [167.25, -79.5], [165.75, -79.5]]]}, "properties": {"cell_id": "111_7", "lon": 166.5, "lat": -78.75}}, {"type": "Feature", "geometry": {"type": "Polygon", "coordinates": [[[165.75, -76.5], [165.75, -75.0], [167.25, -75.0], [167.25, -76.5], [165.75, -76.5]]]}, "properties": {"cell_id": "111_9", "lon": 166.5, "lat": -75.75}}, {"type": "Feature", "geometry": {"type": "Polygon", "coordinates": [[[165.75, -75.0], [165.75, -73.5], [167.25, -73.5], [167.25, -75.0], [165.75, -75.0]]]}, "properties": {"cell_id": "111_10", "lon": 166.5, "lat": -74.25}}, {"type": "Feature", "geometry": {"type": "Polygon", "coordinates": [[[165.75, -73.5], [165.75, -72.0], [167.25, -72.0], [167.25, -73.5], [165.75, -73.5]]]}, "properties": {"cell_id": "111_11", "lon": 166.5, "lat": -72.75}}, {"type": "Feature", "geometry": {"type": "Polygon", "coordinates": [[[165.75, -72.0], [165.75, -70.5], [167.25, -70.5], [167.25, -72.0], [165.75, -72.0]]]}, "properties": {"cell_id": "111_12", "lon": 166.5, "lat": -71.25}}, {"type": "Feature", "geometry": {"type": "Polygon", "coordinates": [[[165.75, -70.5], [165.75, -69.0], [167.25, -69.0], [167.25, -70.5], [165.75, -70.5]]]}, "properties": {"cell_id": "111_13", "lon": 166.5, "lat": -69.75}}, {"type": "Feature", "geometry": {"type": "Polygon", "coordinates": [[[167.25, -79.5], [167.25, -78.0], [168.75, -78.0], [168.75, -79.5], [167.25, -79.5]]]}, "properties": {"cell_id": "112_7", "lon": 168.0, "lat": -78.75}}, {"type": "Feature", "geometry": {"type": "Polygon", "coordinates": [[[167.25, -76.5], [167.25, -75.0], [168.75, -75.0], [168.75, -76.5], [167.25, -76.5]]]}, "properties": {"cell_id": "112_9", "lon": 168.0, "lat": -75.75}}, {"type": "Feature", "geometry": {"type": "Polygon", "coordinates": [[[167.25, -75.0], [167.25, -73.5], [168.75, -73.5], [168.75, -75.0], [167.25, -75.0]]]}, "properties": {"cell_id": "112_10", "lon": 168.0, "lat": -74.25}}, {"type": "Feature", "geometry": {"type": "Polygon", "coordinates": [[[167.25, -73.5], [167.25, -72.0], [168.75, -72.0], [168.75, -73.5], [167.25, -73.5]]]}, "properties": {"cell_id": "112_11", "lon": 168.0, "lat": -72.75}}, {"type": "Feature", "geometry": {"type": "Polygon", "coordinates": [[[167.25, -72.0], [167.25, -70.5], [168.75, -70.5], [168.75, -72.0], [167.25, -72.0]]]}, "properties": {"cell_id": "112_12", "lon": 168.0, "lat": -71.25}}, {"type": "Feature", "geometry": {"type": "Polygon", "coordinates": [[[167.25, -70.5], [167.25, -69.0], [168.75, -69.0], [168.75, -70.5], [167.25, -70.5]]]}, "properties": {"cell_id": "112_13", "lon": 168.0, "lat": -69.75}}, {"type": "Feature", "geometry": {"type": "Polygon", "coordinates": [[[168.75, -79.5], [168.75, -78.0], [170.25, -78.0], [170.25, -79.5], [168.75, -79.5]]]}, "properties": {"cell_id": "113_7", "lon": 169.5, "lat": -78.75}}]}