{"type": "FeatureCollection", "features": [{"type": "Feature", "geometry": {"type": "Polygon", "coordinates": [[[170.25, -45.0], [170.25, -43.5], [171.75, -43.5], [171.75, -45.0], [170.25, -45.0]]]}, "properties": {"cell_id": "114_30", "lon": 171.0, "lat": -44.25}}, {"type": "Feature", "geometry": {"type": "Polygon", "coordinates": [[[170.25, -43.5], [170.25, -42.0], [171.75, -42.0], [171.75, -43.5], [170.25, -43.5]]]}, "properties": {"cell_id": "114_31", "lon": 171.0, "lat": -42.75}}, {"type": "Feature", "geometry": {"type": "Polygon", "coordinates": [[[170.25, -42.0], [170.25, -40.5], [171.75, -40.5], [171.75, -42.0], [170.25, -42.0]]]}, "properties": {"cell_id": "114_32", "lon": 171.0, "lat": -41.25}}, {"type": "Feature", "geometry": {"type": "Polygon", "coordinates": [[[171.75, -45.0], [171.75, -43.5], [173.25, -43.5], [173.25, -45.0], [171.75, -45.0]]]}, "properties": {"cell_id": "115_30", "lon": 172.5, "lat": -44.25}}, {"type": "Feature", "geometry": {"type": "Polygon", "coordinates": [[[171.75, -43.5], [171.75, -42.0], [173.25, -42.0], [173.25, -43.5], [171.75, -43.5]]]}, "properties": {"cell_id": "115_31", "lon": 172.5, "lat": -42.75}}, {"type": "Feature", "geometry": {"type": "Polygon", "coordinates": [[[171.75, -42.0], [171.75, -40.5], [173.25, -40.5], [173.25, -42.0], [171.75, -42.0]]]}, "properties": {"cell_id": "115_32", "lon": 172.5, "lat": -41.25}}]}