{"type": "FeatureCollection", "features": [{"type": "Feature", "geometry": {"type": "Polygon", "coordinates": [[[-39.75, -18.0], [-39.75, -16.5], [-38.25, -16.5], [-38.25, -18.0], [-39.75, -18.0]]]}, "properties": {"cell_id": "214_48", "lon": -39.0, "lat": -17.25}}, {"type": "Feature", "geometry": {"type": "Polygon", "coordinates": [[[-39.75, -16.5], [-39.75, -15.0], [-38.25, -15.0], [-38.25, -16.5], [-39.75, -16.5]]]}, "properties": {"cell_id": "214_49", "lon": -39.0, "lat": -15.75}}, {"type": "Feature", "geometry": {"type": "Polygon", "coordinates": [[[-39.75, -15.0], [-39.75, -13.5], [-38.25, -13.5], [-38.25, -15.0], [-39.75, -15.0]]]}, "properties": {"cell_id": "214_50", "lon": -39.0, "lat": -14.25}}, {"type": "Feature", "geometry": {"type": "Polygon", "coordinates": [[[-39.75, -13.5], [-39.75, -12.0], [-38.25, -12.0], [-38.25, -13.5], [-39.75, -13.5]]]}, "properties": {"cell_id": "214_51", "lon": -39.0, "lat": -12.75}}, {"type": "Feature", "geometry": {"type": "Polygon", "coordinates": [[[-39.75, -12.0], [-39.75, -10.5], [-38.25, -10.5], [-38.25, -12.0], [-39.75, -12.0]]]}, "properties": {"cell_id": "214_52", "lon": -39.0, "lat": -11.25}}, {"type": "Feature", "geometry": {"type": "Polygon", "coordinates": [[[-39.75, -10.5], [-39.75, -9.0], [-38.25, -9.0], [-38.25, -10.5], [-39.75, -10.5]]]}, "properties": {"cell_id": "214_53", "lon": -39.0, "lat": -9.75}}, {"type": "Feature", "geometry": {"type": "Polygon", "coordinates": [[[-38.25, -18.0], [-38.25, -16.5], [-36.75, -16.5], [-36.75, -18.0], [-38.25, -18.0]]]}, "properties": {"cell_id": "215_48", "lon": -37.5, "lat": -17.25}}, {"type": "Feature", "geometry": {"type": "Polygon", "coordinates": [[[-38.25, -16.5], [-38.25, -15.0], [-36.75, -15.0], [-36.75, -16.5], [-38.25, -16.5]]]}, "properties": {"cell_id": "215_49", "lon": -37.5, "lat": -15.75}}, {"type": "Feature", "geometry": {"type": "Polygon", "coordinates": [[[-38.25, -15.0], [-38.25, -13.5], [-36.75, -13.5], [-36.75, -15.0], [-38.25, -15.0]]]}, "properties": {"cell_id": "215_50", "lon": -37.5, "lat": -14.25}}, {"type": "Feature", "geometry": {"type": "Polygon", "coordinates": [[[-38.25, -13.5], [-38.25, -12.0], [-36.75, -12.0], [-36.75, -13.5], [-38.25, -13.5]]]}, "properties": {"cell_id": "215_51", "lon": -37.5, "lat": -12.75}}, {"type": "Feature", "geometry": {"type": "Polygon", "coordinates": [[[-38.25, -12.0], [-38.25, -10.5], [-36.75, -10.5], [-36.75, -12.0], [-38.25, -12.0]]]}, "properties": {"cell_id": "215_52", "lon": -37.5, "lat": -11.25}}, {"type": "Feature", "geometry": {"type": "Polygon", "coordinates": [[[-38.25, -10.5], [-38.25, -9.0], [-36.75, -9.0], [-36.75, -10.5], [-38.25, -10.5]]]}, "properties": {"cell_id": "215_53", "lon": -37.5, "lat": -9.75}}, {"type": "Feature", "geometry": {"type": "Polygon", "coordinates": [[[-36.75, -12.0], [-36.75, -10.5], [-35.25, -10.5], [-35.25, -12.0], [-36.75, -12.0]]]}, "properties": {"cell_id": "216_52", "lon": -36.0, "lat": -11.25}}, {"type": "Feature", "geometry": {"type": "Polygon", "coordinates": [[[-36.75, -10.5], [-36.75, -9.0], [-35.25, -9.0], [-35.25, -10.5], [-36.75, -10.5]]]}, "properties": {"cell_id": "216_53", "lon": -36.0, "lat": -9.75}}, {"type": "Feature", "geometry": {"type": "Polygon", "coordinates": [[[-35.25, -12.0], [-35.25, -10.5], [-33.75, -10.5], [-33.75, -12.0], [-35.25, -12.0]]]}, "properties": {"cell_id": "217_52", "lon": -34.5, "lat": -11.25}}, {"type": "Feature", "geometry": {"type": "Polygon", "coordinates": [[[-35.25, -10.5], [-35.25, -9.0], [-33.75, -9.0], [-33.75, -10.5], [-35.25, -10.5]]]}, "properties": {"cell_id": "217_53", "lon": -34.5, "lat": -9.75}}]}