{"type": "FeatureCollection", "features": [{"type": "Feature", "geometry": {"type": "Polygon", "coordinates": [[[110.25, -90.0], [110.25, -88.5], [111.75, -88.5], [111.75, -90.0], [110.25, -90.0]]]}, "properties": {"cell_id": "74_0", "lon": 111.0, "lat": -89.25}}, {"type": "Feature", "geometry": {"type": "Polygon", "coordinates": [[[110.25, -88.5], [110.25, -87.0], [111.75, -87.0], [111.75, -88.5], [110.25, -88.5]]]}, "properties": {"cell_id": "74_1", "lon": 111.0, "lat": -87.75}}, {"type": "Feature", "geometry": {"type": "Polygon", "coordinates": [[[110.25, -87.0], [110.25, -85.5], [111.75, -85.5], [111.75, -87.0], [110.25, -87.0]]]}, "properties": {"cell_id": "74_2", "lon": 111.0, "lat": -86.25}}, {"type": "Feature", "geometry": {"type": "Polygon", "coordinates": [[[110.25, -85.5], [110.25, -84.0], [111.75, -84.0], [111.75, -85.5], [110.25, -85.5]]]}, "properties": {"cell_id": "74_3", "lon": 111.0, "lat": -84.75}}, {"type": "Feature", "geometry": {"type": "Polygon", "coordinates": [[[110.25, -84.0], [110.25, -82.5], [111.75, -82.5], [111.75, -84.0], [110.25, -84.0]]]}, "properties": {"cell_id": "74_4", "lon": 111.0, "lat": -83.25}}, {"type": "Feature", "geometry": {"type": "Polygon", "coordinates": [[[110.25, -82.5], [110.25, -81.0], [111.75, -81.0], [111.75, -82.5], [110.25, -82.5]]]}, "properties": {"cell_id": "74_5", "lon": 111.0, "lat": -81.75}}, {"type": "Feature", "geometry": {"type": "Polygon", "coordinates": [[[110.25, -81.0], [110.25, -79.5], [111.75, -79.5], [111.75, -81.0], [110.25, -81.0]]]}, "properties": {"cell_id": "74_6", "lon": 111.0, "lat": -80.25}}, {"type": "Feature", "geometry": {"type": "Polygon", "coordinates": [[[111.75, -90.0], [111.75, -88.5], [113.25, -88.5], [113.25, -90.0], [111.75, -90.0]]]}, "properties": {"cell_id": "75_0", "lon": 112.5, "lat": -89.25}}, {"type": "Feature", "geometry": {"type": "Polygon", "coordinates": [[[111.75, -88.5], [111.75, -87.0], [113.25, -87.0], [113.25, -88.5], [111.75, -88.5]]]}, "properties": {"cell_id": "75_1", "lon": 112.5, "lat": -87.75}}, {"type": "Feature", "geometry": {"type": "Polygon", "coordinates": [[[111.75, -87.0], [111.75, -85.5], [113.25, -85.5], [113.25, -87.0], [111.75, -87.0]]]}, "properties": {"cell_id": "75_2", "lon": 112.5, "lat": -86.25}}, {"type": "Feature", "geometry": {"type": "Polygon", "coordinates": [[[111.75, -85.5], [111.75, -84.0], [113.25, -84.0], [113.25, -85.5], [111.75, -85.5]]]}, "properties": {"cell_id": "75_3", "lon": 112.5, "lat": -84.75}}, {"type": "Feature", "geometry": {"type": "Polygon", "coordinates": [[[111.75, -84.0], [111.75, -82.5], [113.25, -82.5], [113.25, -84.0], [111.75, -84.0]]]}, "properties": {"cell_id": "75_4", "lon": 112.5, "lat": -83.25}}, {"type": "Feature", "geometry": {"type": "Polygon", "coordinates": [[[111.75, -82.5], [111.75, -81.0], [113.25, -81.0], [113.25, -82.5], [111.75, -82.5]]]}, "properties": {"cell_id": "75_5", "lon": 112.5, "lat": -81.75}}, {"type": "Feature", "geometry": {"type": "Polygon", "coordinates": [[[111.75, -81.0], [111.75, -79.5], [113.25, -79.5], [113.25, -81.0], [111.75, -81.0]]]}, "properties": {"cell_id": "75_6", "lon": 112.5, "lat": -80.25}}, {"type": "Feature", "geometry": {"type": "Polygon", "coordinates": [[[113.25, -90.0], [113.25, -88.5], [114.75, -88.5], [114.75, -90.0], [113.25, -90.0]]]}, "properties": {"cell_id": "76_0", "lon": 114.0, "lat": -89.25}}, {"type": "Feature", "geometry": {"type": "Polygon", "coordinates": [[[113.25, -88.5], [113.25, -87.0], [114.75, -87.0], [114.75, -88.5], [113.25, -88.5]]]}, "properties": {"cell_id": "76_1", "lon": 114.0, "lat": -87.75}}, {"type": "Feature", "geometry": {"type": "Polygon", "coordinates": [[[113.25, -87.0], [113.25, -85.5], [114.75, -85.5], [114.75, -87.0], [113.25, -87.0]]]}, "properties": {"cell_id": "76_2", "lon": 114.0, "lat": -86.25}}, {"type": "Feature", "geometry": {"type": "Polygon", "coordinates": [[[113.25, -85.5], [113.25, -84.0], [114.75, -84.0], [114.75, -85.5], [113.25, -85.5]]]}, "properties": {"cell_id": "76_3", "lon": 114.0, "lat": -84.75}}, {"type": "Feature", "geometry": {"type": "Polygon", "coordinates": [[[113.25, -84.0], [113.25, -82.5], [114.75, -82.5], [114.75, -84.0], [113.25, -84.0]]]}, "properties": {"cell_id": "76_4", "lon": 114.0, "lat": -83.25}}, {"type": "Feature", "geometry": {"type": "Polygon", "coordinates": [[[113.25, -82.5], [113.25, -81.0], [114.75, -81.0], [114.75, -82.5], [113.25, -82.5]]]}, "properties": {"cell_id": "76_5", "lon": 114.0, "lat": -81.75}}, {"type": "Feature", "geometry": {"type": "Polygon", "coordinates": [[[113.25, -81.0], [113.25, -79.5], [114.75, -79.5], [114.75, -81.0], [113.25, -81.0]]]}, "properties": {"cell_id": "76_6", "lon": 114.0, "lat": -80.25}}, {"type": "Feature", "geometry": {"type": "Polygon", "coordinates": [[[114.75, -90.0], [114.75, -88.5], [116.25, -88.5], [116.25, -90.0], [114.75, -90.0]]]}, "properties": {"cell_id": "77_0", "lon": 115.5, "lat": -89.25}}, {"type": "Feature", "geometry": {"type": "Polygon", "coordinates": [[[114.75, -88.5], [114.75, -87.0], [116.25, -87.0], [116.25, -88.5], [114.75, -88.5]]]}, "properties": {"cell_id": "77_1", "lon": 115.5, "lat": -87.75}}, {"type": "Feature", "geometry": {"type": "Polygon", "coordinates": [[[114.75, -87.0], [114.75, -85.5], [116.25, -85.5], [116.25, -87.0], [114.75, -87.0]]]}, "properties": {"cell_id": "77_2", "lon": 115.5, "lat": -86.25}}, {"type": "Feature", "geometry": {"type": "Polygon", "coordinates": [[[114.75, -85.5], [114.75, -84.0], [116.25, -84.0], [116.25, -85.5], [114.75, -85.5]]]}, "properties": {"cell_id": "77_3", "lon": 115.5, "lat": -84.75}}, {"type": "Feature", "geometry": {"type": "Polygon", "coordinates": [[[114.75, -84.0], [114.75, -82.5], [116.25, -82.5], [116.25, -84.0], [114.75, -84.0]]]}, "properties": {"cell_id": "77_4", "lon": 115.5, "lat": -83.25}}, {"type": "Feature", "geometry": {"type": "Polygon", "coordinates": [[[114.75, -82.5], [114.75, -81.0], [116.25, -81.0], [116.25, -82.5], [114.75, -82.5]]]}, "properties": {"cell_id": "77_5", "lon": 115.5, "lat": -81.75}}, {"type": "Feature", "geometry": {"type": "Polygon", "coordinates": [[[114.75, -81.0], [114.75, -79.5], [116.25, -79.5], [116.25, -81.0], [114.75, -81.0]]]}, "properties": {"cell_id": "77_6", "lon": 115.5, "lat": -80.25}}, {"type": "Feature", "geometry": {"type": "Polygon", "coordinates": [[[116.25, -90.0], [116.25, -88.5], [117.75, -88.5], [117.75, -90.0], [116.25, -90.0]]]}, "properties": {"cell_id": "78_0", "lon": 117.0, "lat": -89.25}}, {"type": "Feature", "geometry": {"type": "Polygon", "coordinates": [[[116.25, -88.5], [116.25, -87.0], [117.75, -87.0], [117.75, -88.5], [116.25, -88.5]]]}, "properties": {"cell_id": "78_1", "lon": 117.0, "lat": -87.75}}, {"type": "Feature", "geometry": {"type": "Polygon", "coordinates": [[[116.25, -87.0], [116.25, -85.5], [117.75, -85.5], [117.75, -87.0], [116.25, -87.0]]]}, "properties": {"cell_id": "78_2", "lon": 117.0, "lat": -86.25}}, {"type": "Feature", "geometry": {"type": "Polygon", "coordinates": [[[116.25, -85.5], [116.25, -84.0], [117.75, -84.0], [117.75, -85.5], [116.25, -85.5]]]}, "properties": {"cell_id": "78_3", "lon": 117.0, "lat": -84.75}}, {"type": "Feature", "geometry": {"type": "Polygon", "coordinates": [[[116.25, -84.0], [116.25, -82.5], [117.75, -82.5], [117.75, -84.0], [116.25, -84.0]]]}, "properties": {"cell_id": "78_4", "lon": 117.0, "lat": -83.25}}, {"type": "Feature", "geometry": {"type": "Polygon", "coordinates": [[[116.25, -82.5], [116.25, -81.0], [117.75, -81.0], [117.75, -82.5], [116.25, -82.5]]]}, "properties": {"cell_id": "78_5", "lon": 117.0, "lat": -81.75}}, {"type": "Feature", "geometry": {"type": "Polygon", "coordinates": [[[116.25, -81.0], [116.25, -79.5], [117.75, -79.5], [117.75, -81.0], [116.25, -81.0]]]}, "properties": {"cell_id": "78_6", "lon": 117.0, "lat": -80.25}}, {"type": "Feature", "geometry": {"type": "Polygon", "coordinates": [[[117.75, -90.0], [117.75, -88.5], [119.25, -88.5], [119.25, -90.0], [117.75, -90.0]]]}, "properties": {"cell_id": "79_0", "lon": 118.5, "lat": -89.25}}, {"type": "Feature", "geometry": {"type": "Polygon", "coordinates": [[[117.75, -88.5], [117.75, -87.0], [119.25, -87.0], [119.25, -88.5], [117.75, -88.5]]]}, "properties": {"cell_id": "79_1", "lon": 118.5, "lat": -87.75}}, {"type": "Feature", "geometry": {"type": "Polygon", "coordinates": [[[117.75, -87.0], [117.75, -85.5], [119.25, -85.5], [119.25, -87.0], [117.75, -87.0]]]}, "properties": {"cell_id": "79_2", "lon": 118.5, "lat": -86.25}}, {"type": "Feature", "geometry": {"type": "Polygon", "coordinates": [[[117.75, -85.5], [117.75, -84.0], [119.25, -84.0], [119.25, -85.5], [117.75, -85.5]]]}, "properties": {"cell_id": "79_3", "lon": 118.5, "lat": -84.75}}, {"type": "Feature", "geometry": {"type": "Polygon", "coordinates": [[[117.75, -84.0], [117.75, -82.5], [119.25, -82.5], [119.25, -84.0], [117.75, -84.0]]]}, "properties": {"cell_id": "79_4", "lon": 118.5, "lat": -83.25}}, {"type": "Feature", "geometry": {"type": "Polygon", "coordinates": [[[117.75, -82.5], [117.75, -81.0], [119.25, -81.0], [119.25, -82.5], [117.75, -82.5]]]}, "properties": {"cell_id": "79_5", "lon": 118.5, "lat": -81.75}}, {"type": "Feature", "geometry": {"type": "Polygon", "coordinates": [[[117.75, -81.0], [117.75, -79.5], [119.25, -79.5], [119.25, -81.0], [117.75, -81.0]]]}, "properties": {"cell_id": "79_6", "lon": 118.5, "lat": -80.25}}, {"type": "Feature", "geometry": {"type": "Polygon", "coordinates": [[[119.25, -90.0], [119.25, -88.5], [120.75, -88.5], [120.75, -90.0], [119.25, -90.0]]]}, "properties": {"cell_id": "80_0", "lon": 120.0, "lat": -89.25}}, {"type": "Feature", "geometry": {"type": "Polygon", "coordinates": [[[119.25, -88.5], [119.25, -87.0], [120.75, -87.0], [120.75, -88.5], [119.25, -88.5]]]}, "properties": {"cell_id": "80_1", "lon": 120.0, "lat": -87.75}}, {"type": "Feature", "geometry": {"type": "Polygon", "coordinates": [[[119.25, -87.0], [119.25, -85.5], [120.75, -85.5], [120.75, -87.0], [119.25, -87.0]]]}, "properties": {"cell_id": "80_2", "lon": 120.0, "lat": -86.25}}, {"type": "Feature", "geometry": {"type": "Polygon", "coordinates": [[[119.25, -85.5], [119.25, -84.0], [120.75, -84.0], [120.75, -85.5], [119.25, -85.5]]]}, "properties": {"cell_id": "80_3", "lon": 120.0, "lat": -84.75}}, {"type": "Feature", "geometry": {"type": "Polygon", "coordinates": [[[119.25, -84.0], [119.25, -82.5], [120.75, -82.5], [120.75, -84.0], [119.25, -84.0]]]}, "properties": {"cell_id": "80_4", "lon": 120.0, "lat": -83.25}}, {"type": "Feature", "geometry": {"type": "Polygon", "coordinates": [[[119.25, -82.5], [119.25, -81.0], [120.75, -81.0], [120.75, -82.5], [119.25, -82.5]]]}, "properties": {"cell_id": "80_5", "lon": 120.0, "lat": -81.75}}, {"type": "Feature", "geometry": {"type": "Polygon", "coordinates": [[[119.25, -81.0], [119.25, -79.5], [120.75, -79.5], [120.75, -81.0], [119.25, -81.0]]]}, "properties": {"cell_id": "80_6", "lon": 120.0, "lat": -80.25}}]}