{"type": "FeatureCollection", "features": [{"type": "Feature", "geometry": {"type": "Polygon", "coordinates": [[[131.25, -19.5], [131.25, -18.0], [132.75, -18.0], [132.75, -19.5], [131.25, -19.5]]]}, "properties": {"cell_id": "88_47", "lon": 132.0, "lat": -18.75}}, {"type": "Feature", "geometry": {"type": "Polygon", "coordinates": [[[131.25, -18.0], [131.25, -16.5], [132.75, -16.5], [132.75, -18.0], [131.25, -18.0]]]}, "properties": {"cell_id": "88_48", "lon": 132.0, "lat": -17.25}}, {"type": "Feature", "geometry": {"type": "Polygon", "coordinates": [[[131.25, -16.5], [131.25, -15.0], [132.75, -15.0], [132.75, -16.5], [131.25, -16.5]]]}, "properties": {"cell_id": "88_49", "lon": 132.0, "lat": -15.75}}, {"type": "Feature", "geometry": {"type": "Polygon", "coordinates": [[[131.25, -15.0], [131.25, -13.5], [132.75, -13.5], [132.75, -15.0], [131.25, -15.0]]]}, "properties": {"cell_id": "88_50", "lon": 132.0, "lat": -14.25}}, {"type": "Feature", "geometry": {"type": "Polygon", "coordinates": [[[131.25, -13.5], [131.25, -12.0], [132.75, -12.0], [132.75, -13.5], [131.25, -13.5]]]}, "properties": {"cell_id": "88_51", "lon": 132.0, "lat": -12.75}}, {"type": "Feature", "geometry": {"type": "Polygon", "coordinates": [[[131.25, -12.0], [131.25, -10.5], [132.75, -10.5], [132.75, -12.0], [131.25, -12.0]]]}, "properties": {"cell_id": "88_52", "lon": 132.0, "lat": -11.25}}, {"type": "Feature", "geometry": {"type": "Polygon", "coordinates": [[[132.75, -19.5], [132.75, -18.0], [134.25, -18.0], [134.25, -19.5], [132.75, -19.5]]]}, "properties": {"cell_id": "89_47", "lon": 133.5, "lat": -18.75}}, {"type": "Feature", "geometry": {"type": "Polygon", "coordinates": [[[132.75, -18.0], [132.75, -16.5], [134.25, -16.5], [134.25, -18.0], [132.75, -18.0]]]}, "properties": {"cell_id": "89_48", "lon": 133.5, "lat": -17.25}}, {"type": "Feature", "geometry": {"type": "Polygon", "coordinates": [[[132.75, -16.5], [132.75, -15.0], [134.25, -15.0], [134.25, -16.5], [132.75, -16.5]]]}, "properties": {"cell_id": "89_49", "lon": 133.5, "lat": -15.75}}, {"type": "Feature", "geometry": {"type": "Polygon", "coordinates": [[[132.75, -15.0], [132.75, -13.5], [134.25, -13.5], [134.25, -15.0], [132.75, -15.0]]]}, "properties": {"cell_id": "89_50", "lon": 133.5, "lat": -14.25}}, {"type": "Feature", "geometry": {"type": "Polygon", "coordinates": [[[132.75, -13.5], [132.75, -12.0], [134.25, -12.0], [134.25, -13.5], [132.75, -13.5]]]}, "properties": {"cell_id": "89_51", "lon": 133.5, "lat": -12.75}}, {"type": "Feature", "geometry": {"type": "Polygon", "coordinates": [[[132.75, -12.0], [132.75, -10.5], [134.25, -10.5], [134.25, -12.0], [132.75, -12.0]]]}, "properties": {"cell_id": "89_52", "lon": 133.5, "lat": -11.25}}, {"type": "Feature", "geometry": {"type": "Polygon", "coordinates": [[[134.25, -19.5], [134.25, -18.0], [135.75, -18.0], [135.75, -19.5], [134.25, -19.5]]]}, "properties": {"cell_id": "90_47", "lon": 135.0, "lat": -18.75}}, {"type": "Feature", "geometry": {"type": "Polygon", "coordinates": [[[134.25, -18.0], [134.25, -16.5], [135.75, -16.5], [135.75, -18.0], [134.25, -18.0]]]}, "properties": {"cell_id": "90_48", "lon": 135.0, "lat": -17.25}}, {"type": "Feature", "geometry": {"type": "Polygon", "coordinates": [[[134.25, -16.5], [134.25, -15.0], [135.75, -15.0], [135.75, -16.5], [134.25, -16.5]]]}, "properties": {"cell_id": "90_49", "lon": 135.0, "lat": -15.75}}, {"type": "Feature", "geometry": {"type": "Polygon", "coordinates": [[[134.25, -15.0], [134.25, -13.5], [135.75, -13.5], [135.75, -15.0], [134.25, -15.0]]]}, "properties": {"cell_id": "90_50", "lon": 135.0, "lat": -14.25}}, {"type": "Feature", "geometry": {"type": "Polygon", "coordinates": [[[134.25, -13.5], [134.25, -12.0], [135.75, -12.0], [135.75, -13.5], [134.25, -13.5]]]}, "properties": {"cell_id": "90_51", "lon": 135.0, "lat": -12.75}}, {"type": "Feature", "geometry": {"type": "Polygon", "coordinates": [[[134.25, -12.0], [134.25, -10.5], [135.75, -10.5], [135.75, -12.0], [134.25, -12.0]]]}, "properties": {"cell_id": "90_52", "lon": 135.0, "lat": -11.25}}, {"type": "Feature", "geometry": {"type": "Polygon", "coordinates": [[[135.75, -19.5], [135.75, -18.0], [137.25, -18.0], [137.25, -19.5], [135.75, -19.5]]]}, "properties": {"cell_id": "91_47", "lon": 136.5, "lat": -18.75}}, {"type": "Feature", "geometry": {"type": "Polygon", "coordinates": [[[135.75, -18.0], [135.75, -16.5], [137.25, -16.5], [137.25, -18.0], [135.75, -18.0]]]}, "properties": {"cell_id": "91_48", "lon": 136.5, "lat": -17.25}}, {"type": "Feature", "geometry": {"type": "Polygon", "coordinates": [[[135.75, -16.5], [135.75, -15.0], [137.25, -15.0], [137.25, -16.5], [135.75, -16.5]]]}, "properties": {"cell_id": "91_49", "lon": 136.5, "lat": -15.75}}, {"type": "Feature", "geometry": {"type": "Polygon", "coordinates": [[[135.75, -15.0], [135.75, -13.5], [137.25, -13.5], [137.25, -15.0], [135.75, -15.0]]]}, "properties": {"cell_id": "91_50", "lon": 136.5, "lat": -14.25}}, {"type": "Feature", "geometry": {"type": "Polygon", "coordinates": [[[135.75, -13.5], [135.75, -12.0], [137.25, -12.0], [137.25, -13.5], [135.75, -13.5]]]}, "properties": {"cell_id": "91_51", "lon": 136.5, "lat": -12.75}}, {"type": "Feature", "geometry": {"type": "Polygon", "coordinates": [[[135.75, -12.0], [135.75, -10.5], [137.25, -10.5], [137.25, -12.0], [135.75, -12.0]]]}, "properties": {"cell_id": "91_52", "lon": 136.5, "lat": -11.25}}, {"type": "Feature", "geometry": {"type": "Polygon", "coordinates": [[[137.25, -19.5], [137.25, -18.0], [138.75, -18.0], [138.75, -19.5], [137.25, -19.5]]]}, "properties": {"cell_id": "92_47", "lon": 138.0, "lat": -18.75}}, {"type": "Feature", "geometry": {"type": "Polygon", "coordinates": [[[137.25, -18.0], [137.25, -16.5], [138.75, -16.5], [138.75, -18.0], [137.25, -18.0]]]}, "properties": {"cell_id": "92_48", "lon": 138.0, "lat": -17.25}}, {"type": "Feature", "geometry": {"type": "Polygon", "coordinates": [[[138.75, -19.5], [138.75, -18.0], [140.25, -18.0], [140.25, -19.5], [138.75, -19.5]]]}, "properties": {"cell_id": "93_47", "lon": 139.5, "lat": -18.75}}, {"type": "Feature", "geometry": {"type": "Polygon", "coordinates": [[[138.75, -18.0], [138.75, -16.5], [140.25, -16.5], [140.25, -18.0], [138.75, -18.0]]]}, "properties": {"cell_id": "93_48", "lon": 139.5, "lat": -17.25}}]}