{"type": "FeatureCollection", "features": [{"type": "Feature", "geometry": {"type": "Polygon", "coordinates": [[[-59.25, 0.0], [-59.25, 1.5], [-57.75, 1.5], [-57.75, 0.0], [-59.25, 0.0]]]}, "properties": {"cell_id": "201_60", "lon": -58.5, "lat": 0.75}}, {"type": "Feature", "geometry": {"type": "Polygon", "coordinates": [[[-59.25, 1.5], [-59.25, 3.0], [-57.75, 3.0], [-57.75, 1.5], [-59.25, 1.5]]]}, "properties": {"cell_id": "201_61", "lon": -58.5, "lat": 2.25}}, {"type": "Feature", "geometry": {"type": "Polygon", "coordinates": [[[-59.25, 3.0], [-59.25, 4.5], [-57.75, 4.5], [-57.75, 3.0], [-59.25, 3.0]]]}, "properties": {"cell_id": "201_62", "lon": -58.5, "lat": 3.75}}, {"type": "Feature", "geometry": {"type": "Polygon", "coordinates": [[[-59.25, 4.5], [-59.25, 6.0], [-57.75, 6.0], [-57.75, 4.5], [-59.25, 4.5]]]}, "properties": {"cell_id": "201_63", "lon": -58.5, "lat": 5.25}}, {"type": "Feature", "geometry": {"type": "Polygon", "coordinates": [[[-59.25, 6.0], [-59.25, 7.5], [-57.75, 7.5], [-57.75, 6.0], [-59.25, 6.0]]]}, "properties": {"cell_id": "201_64", "lon": -58.5, "lat": 6.75}}, {"type": "Feature", "geometry": {"type": "Polygon", "coordinates": [[[-59.25, 7.5], [-59.25, 9.0], [-57.75, 9.0], [-57.75, 7.5], [-59.25, 7.5]]]}, "properties": {"cell_id": "201_65", "lon": -58.5, "lat": 8.25}}, {"type": "Feature", "geometry": {"type": "Polygon", "coordinates": [[[-57.75, 0.0], [-57.75, 1.5], [-56.25, 1.5], [-56.25, 0.0], [-57.75, 0.0]]]}, "properties": {"cell_id": "202_60", "lon": -57.0, "lat": 0.75}}, {"type": "Feature", "geometry": {"type": "Polygon", "coordinates": [[[-57.75, 1.5], [-57.75, 3.0], [-56.25, 3.0], [-56.25, 1.5], [-57.75, 1.5]]]}, "properties": {"cell_id": "202_61", "lon": -57.0, "lat": 2.25}}, {"type": "Feature", "geometry": {"type": "Polygon", "coordinates": [[[-57.75, 3.0], [-57.75, 4.5], [-56.25, 4.5], [-56.25, 3.0], [-57.75, 3.0]]]}, "properties": {"cell_id": "202_62", "lon": -57.0, "lat": 3.75}}, {"type": "Feature", "geometry": {"type": "Polygon", "coordinates": [[[-57.75, 4.5], [-57.75, 6.0], [-56.25, 6.0], [-56.25, 4.5], [-57.75, 4.5]]]}, "properties": {"cell_id": "202_63", "lon": -57.0, "lat": 5.25}}, {"type": "Feature", "geometry": {"type": "Polygon", "coordinates": [[[-57.75, 6.0], [-57.75, 7.5], [-56.25, 7.5], [-56.25, 6.0], [-57.75, 6.0]]]}, "properties": {"cell_id": "202_64", "lon": -57.0, "lat": 6.75}}, {"type": "Feature", "geometry": {"type": "Polygon", "coordinates": [[[-57.75, 7.5], [-57.75, 9.0], [-56.25, 9.0], [-56.25, 7.5], [-57.75, 7.5]]]}, "properties": {"cell_id": "202_65", "lon": -57.0, "lat": 8.25}}, {"type": "Feature", "geometry": {"type": "Polygon", "coordinates": [[[-56.25, 0.0], [-56.25, 1.5], [-54.75, 1.5], [-54.75, 0.0], [-56.25, 0.0]]]}, "properties": {"cell_id": "203_60", "lon": -55.5, "lat": 0.75}}, {"type": "Feature", "geometry": {"type": "Polygon", "coordinates": [[[-56.25, 1.5], [-56.25, 3.0], [-54.75, 3.0], [-54.75, 1.5], [-56.25, 1.5]]]}, "properties": {"cell_id": "203_61", "lon": -55.5, "lat": 2.25}}, {"type": "Feature", "geometry": {"type": "Polygon", "coordinates": [[[-56.25, 3.0], [-56.25, 4.5], [-54.75, 4.5], [-54.75, 3.0], [-56.25, 3.0]]]}, "properties": {"cell_id": "203_62", "lon": -55.5, "lat": 3.75}}, {"type": "Feature", "geometry": {"type": "Polygon", "coordinates": [[[-56.25, 4.5], [-56.25, 6.0], [-54.75, 6.0], [-54.75, 4.5], [-56.25, 4.5]]]}, "properties": {"cell_id": "203_63", "lon": -55.5, "lat": 5.25}}, {"type": "Feature", "geometry": {"type": "Polygon", "coordinates": [[[-54.75, 0.0], [-54.75, 1.5], [-53.25, 1.5], [-53.25, 0.0], [-54.75, 0.0]]]}, "properties": {"cell_id": "204_60", "lon": -54.0, "lat": 0.75}}, {"type": "Feature", "geometry": {"type": "Polygon", "coordinates": [[[-54.75, 1.5], [-54.75, 3.0], [-53.25, 3.0], [-53.25, 1.5], [-54.75, 1.5]]]}, "properties": {"cell_id": "204_61", "lon": -54.0, "lat": 2.25}}, {"type": "Feature", "geometry": {"type": "Polygon", "coordinates": [[[-54.75, 3.0], [-54.75, 4.5], [-53.25, 4.5], [-53.25, 3.0], [-54.75, 3.0]]]}, "properties": {"cell_id": "204_62", "lon": -54.0, "lat": 3.75}}, {"type": "Feature", "geometry": {"type": "Polygon", "coordinates": [[[-54.75, 4.5], [-54.75, 6.0], [-53.25, 6.0], [-53.25, 4.5], [-54.75, 4.5]]]}, "properties": {"cell_id": "204_63", "lon": -54.0, "lat": 5.25}}, {"type": "Feature", "geometry": {"type": "Polygon", "coordinates": [[[-53.25, 0.0], [-53.25, 1.5], [-51.75, 1.5], [-51.75, 0.0], [-53.25, 0.0]]]}, "properties": {"cell_id": "205_60", "lon": -52.5, "lat": 0.75}}, {"type": "Feature", "geometry": {"type": "Polygon", "coordinates": [[[-53.25, 1.5], [-53.25, 3.0], [-51.75, 3.0], [-51.75, 1.5], [-53.25, 1.5]]]}, "properties": {"cell_id": "205_61", "lon": -52.5, "lat": 2.25}}, {"type": "Feature", "geometry": {"type": "Polygon", "coordinates": [[[-53.25, 3.0], [-53.25, 4.5], [-51.75, 4.5], [-51.75, 3.0], [-53.25, 3.0]]]}, "properties": {"cell_id": "205_62", "lon": -52.5, "lat": 3.75}}, {"type": "Feature", "geometry": {"type": "Polygon", "coordinates": [[[-53.25, 4.5], [-53.25, 6.0], [-51.75, 6.0], [-51.75, 4.5], [-53.25, 4.5]]]}, "properties": {"cell_id": "205_63", "lon": -52.5, "lat": 5.25}}, {"type": "Feature", "geometry": {"type": "Polygon", "coordinates": [[[-51.75, 0.0], [-51.75, 1.5], [-50.25, 1.5], [-50.25, 0.0], [-51.75, 0.0]]]}, "properties": {"cell_id": "206_60", "lon": -51.0, "lat": 0.75}}, {"type": "Feature", "geometry": {"type": "Polygon", "coordinates": [[[-51.75, 1.5], [-51.75, 3.0], [-50.25, 3.0], [-50.25, 1.5], [-51.75, 1.5]]]}, "properties": {"cell_id": "206_61", "lon": -51.0, "lat": 2.25}}, {"type": "Feature", "geometry": {"type": "Polygon", "coordinates": [[[-50.25, 0.0], [-50.25, 1.5], [-48.75, 1.5], [-48.75, 0.0], [-50.25, 0.0]]]}, "properties": {"cell_id": "207_60", "lon": -49.5, "lat": 0.75}}, {"type": "Feature", "geometry": {"type": "Polygon", "coordinates": [[[-50.25, 1.5], [-50.25, 3.0], [-48.75, 3.0], [-48.75, 1.5], [-50.25, 1.5]]]}, "properties": {"cell_id": "207_61", "lon": -49.5, "lat": 2.25}}]}