{"type": "FeatureCollection", "features": [{"type": "Feature", "geometry": {"type": "Polygon", "coordinates": [[[-99.75, 40.5], [-99.75, 42.0], [-98.25, 42.0], [-98.25, 40.5], [-99.75, 40.5]]]}, "properties": {"cell_id": "174_87", "lon": -99.0, "lat": 41.25}}, {"type": "Feature", "geometry": {"type": "Polygon", "coordinates": [[[-99.75, 42.0], [-99.75, 43.5], [-98.25, 43.5], [-98.25, 42.0], [-99.75, 42.0]]]}, "properties": {"cell_id": "174_88", "lon": -99.0, "lat": 42.75}}, {"type": "Feature", "geometry": {"type": "Polygon", "coordinates": [[[-99.75, 43.5], [-99.75, 45.0], [-98.25, 45.0], [-98.25, 43.5], [-99.75, 43.5]]]}, "properties": {"cell_id": "174_89", "lon": -99.0, "lat": 44.25}}, {"type": "Feature", "geometry": {"type": "Polygon", "coordinates": [[[-99.75, 45.0], [-99.75, 46.5], [-98.25, 46.5], [-98.25, 45.0], [-99.75, 45.0]]]}, "properties": {"cell_id": "174_90", "lon": -99.0, "lat": 45.75}}, {"type": "Feature", "geometry": {"type": "Polygon", "coordinates": [[[-99.75, 46.5], [-99.75, 48.0], [-98.25, 48.0], [-98.25, 46.5], [-99.75, 46.5]]]}, "properties": {"cell_id": "174_91", "lon": -99.0, "lat": 47.25}}, {"type": "Feature", "geometry": {"type": "Polygon", "coordinates": [[[-99.75, 48.0], [-99.75, 49.5], [-98.25, 49.5], [-98.25, 48.0], [-99.75, 48.0]]]}, "properties": {"cell_id": "174_92", "lon": -99.0, "lat": 48.75}}, {"type": "Feature", "geometry": {"type": "Polygon", "coordinates": [[[-99.75, 49.5], [-99.75, 51.0], [-98.25, 51.0], [-98.25, 49.5], [-99.75, 49.5]]]}, "properties": {"cell_id": "174_93", "lon": -99.0, "lat": 50.25}}, {"type": "Feature", "geometry": {"type": "Polygon", "coordinates": [[[-98.25, 40.5], [-98.25, 42.0], [-96.75, 42.0], [-96.75, 40.5], [-98.25, 40.5]]]}, "properties": {"cell_id": "175_87", "lon": -97.5, "lat": 41.25}}, {"type": "Feature", "geometry": {"type": "Polygon", "coordinates": [[[-98.25, 42.0], [-98.25, 43.5], [-96.75, 43.5], [-96.75, 42.0], [-98.25, 42.0]]]}, "properties": {"cell_id": "175_88", "lon": -97.5, "lat": 42.75}}, {"type": "Feature", "geometry": {"type": "Polygon", "coordinates": [[[-98.25, 43.5], [-98.25, 45.0], [-96.75, 45.0], [-96.75, 43.5], [-98.25, 43.5]]]}, "properties": {"cell_id": "175_89", "lon": -97.5, "lat": 44.25}}, {"type": "Feature", "geometry": {"type": "Polygon", "coordinates": [[[-98.25, 45.0], [-98.25, 46.5], [-96.75, 46.5], [-96.75, 45.0], [-98.25, 45.0]]]}, "properties": {"cell_id": "175_90", "lon": -97.5, "lat": 45.75}}, {"type": "Feature", "geometry": {"type": "Polygon", "coordinates": [[[-98.25, 46.5], [-98.25, 48.0], [-96.75, 48.0], [-96.75, 46.5], [-98.25, 46.5]]]}, "properties": {"cell_id": "175_91", "lon": -97.5, "lat": 47.25}}, {"type": "Feature", "geometry": {"type": "Polygon", "coordinates": [[[-98.25, 48.0], [-98.25, 49.5], [-96.75, 49.5], [-96.75, 48.0], [-98.25, 48.0]]]}, "properties": {"cell_id": "175_92", "lon": -97.5, "lat": 48.75}}, {"type": "Feature", "geometry": {"type": "Polygon", "coordinates": [[[-98.25, 49.5], [-98.25, 51.0], [-96.75, 51.0], [-96.75, 49.5], [-98.25, 49.5]]]}, "properties": {"cell_id": "175_93", "lon": -97.5, "lat": 50.25}}, {"type": "Feature", "geometry": {"type": "Polygon", "coordinates": [[[-96.75, 40.5], [-96.75, 42.0], [-95.25, 42.0], [-95.25, 40.5], [-96.75, 40.5]]]}, "properties": {"cell_id": "176_87", "lon": -96.0, "lat": 41.25}}, {"type": "Feature", "geometry": {"type": "Polygon", "coordinates": [[[-96.75, 42.0], [-96.75, 43.5], [-95.25, 43.5], [-95.25, 42.0], [-96.75, 42.0]]]}, "properties": {"cell_id": "176_88", "lon": -96.0, "lat": 42.75}}, {"type": "Feature", "geometry": {"type": "Polygon", "coordinates": [[[-96.75, 43.5], [-96.75, 45.0], [-95.25, 45.0], [-95.25, 43.5], [-96.75, 43.5]]]}, "properties": {"cell_id": "176_89", "lon": -96.0, "lat": 44.25}}, {"type": "Feature", "geometry": {"type": "Polygon", "coordinates": [[[-96.75, 45.0], [-96.75, 46.5], [-95.25, 46.5], [-95.25, 45.0], [-96.75, 45.0]]]}, "properties": {"cell_id": "176_90", "lon": -96.0, "lat": 45.75}}, {"type": "Feature", "geometry": {"type": "Polygon", "coordinates": [[[-96.75, 46.5], [-96.75, 48.0], [-95.25, 48.0], [-95.25, 46.5], [-96.75, 46.5]]]}, "properties": {"cell_id": "176_91", "lon": -96.0, "lat": 47.25}}, {"type": "Feature", "geometry": {"type": "Polygon", "coordinates": [[[-96.75, 48.0], [-96.75, 49.5], [-95.25, 49.5], [-95.25, 48.0], [-96.75, 48.0]]]}, "properties": {"cell_id": "176_92", "lon": -96.0, "lat": 48.75}}, {"type": "Feature", "geometry": {"type": "Polygon", "coordinates": [[[-96.75, 49.5], [-96.75, 51.0], [-95.25, 51.0], [-95.25, 49.5], [-96.75, 49.5]]]}, "properties": {"cell_id": "176_93", "lon": -96.0, "lat": 50.25}}, {"type": "Feature", "geometry": {"type": "Polygon", "coordinates": [[[-95.25, 40.5], [-95.25, 42.0], [-93.75, 42.0], [-93.75, 40.5], [-95.25, 40.5]]]}, "properties": {"cell_id": "177_87", "lon": -94.5, "lat": 41.25}}, {"type": "Feature", "geometry": {"type": "Polygon", "coordinates": [[[-95.25, 42.0], [-95.25, 43.5], [-93.75, 43.5], [-93.75, 42.0], [-95.25, 42.0]]]}, "properties": {"cell_id": "177_88", "lon": -94.5, "lat": 42.75}}, {"type": "Feature", "geometry": {"type": "Polygon", "coordinates": [[[-95.25, 43.5], [-95.25, 45.0], [-93.75, 45.0], [-93.75, 43.5], [-95.25, 43.5]]]}, "properties": {"cell_id": "177_89", "lon": -94.5, "lat": 44.25}}, {"type": "Feature", "geometry": {"type": "Polygon", "coordinates": [[[-95.25, 45.0], [-95.25, 46.5], [-93.75, 46.5], [-93.75, 45.0], [-95.25, 45.0]]]}, "properties": {"cell_id": "177_90", "lon": -94.5, "lat": 45.75}}, {"type": "Feature", "geometry": {"type": "Polygon", "coordinates": [[[-95.25, 46.5], [-95.25, 48.0], [-93.75, 48.0], [-93.75, 46.5], [-95.25, 46.5]]]}, "properties": {"cell_id": "177_91", "lon": -94.5, "lat": 47.25}}, {"type": "Feature", "geometry": {"type": "Polygon", "coordinates": [[[-95.25, 48.0], [-95.25, 49.5], [-93.75, 49.5], [-93.75, 48.0], [-95.25, 48.0]]]}, "properties": {"cell_id": "177_92", "lon": -94.5, "lat": 48.75}}, {"type": "Feature", "geometry": {"type": "Polygon", "coordinates": [[[-95.25, 49.5], [-95.25, 51.0], [-93.75, 51.0], [-93.75, 49.5], [-95.25, 49.5]]]}, "properties": {"cell_id": "177_93", "lon": -94.5, "lat": 50.25}}, {"type": "Feature", "geometry": {"type": "Polygon", "coordinates": [[[-93.75, 40.5], [-93.75, 42.0], [-92.25, 42.0], [-92.25, 40.5], [-93.75, 40.5]]]}, "properties": {"cell_id": "178_87", "lon": -93.0, "lat": 41.25}}, {"type": "Feature", "geometry": {"type": "Polygon", "coordinates": [[[-93.75, 42.0], [-93.75, 43.5], [-92.25, 43.5], [-92.25, 42.0], [-93.75, 42.0]]]}, "properties": {"cell_id": "178_88", "lon": -93.0, "lat": 42.75}}, {"type": "Feature", "geometry": {"type": "Polygon", "coordinates": [[[-93.75, 43.5], [-93.75, 45.0], [-92.25, 45.0], [-92.25, 43.5], [-93.75, 43.5]]]}, "properties": {"cell_id": "178_89", "lon": -93.0, "lat": 44.25}}, {"type": "Feature", "geometry": {"type": "Polygon", "coordinates": [[[-93.75, 45.0], [-93.75, 46.5], [-92.25, 46.5], [-92.25, 45.0], [-93.75, 45.0]]]}, "properties": {"cell_id": "178_90", "lon": -93.0, "lat": 45.75}}, {"type": "Feature", "geometry": {"type": "Polygon", "coordinates": [[[-93.75, 46.5], [-93.75, 48.0], [-92.25, 48.0], [-92.25, 46.5], [-93.75, 46.5]]]}, "properties": {"cell_id": "178_91", "lon": -93.0, "lat": 47.25}}, {"type": "Feature", "geometry": {"type": "Polygon", "coordinates": [[[-93.75, 48.0], [-93.75, 49.5], [-92.25, 49.5], [-92.25, 48.0], [-93.75, 48.0]]]}, "properties": {"cell_id": "178_92", "lon": -93.0, "lat": 48.75}}, {"type": "Feature", "geometry": {"type": "Polygon", "coordinates": [[[-93.75, 49.5], [-93.75, 51.0], [-92.25, 51.0], [-92.25, 49.5], [-93.75, 49.5]]]}, "properties": {"cell_id": "178_93", "lon": -93.0, "lat": 50.25}}, {"type": "Feature", "geometry": {"type": "Polygon", "coordinates": [[[-92.25, 40.5], [-92.25, 42.0], [-90.75, 42.0], [-90.75, 40.5], [-92.25, 40.5]]]}, "properties": {"cell_id": "179_87", "lon": -91.5, "lat": 41.25}}, {"type": "Feature", "geometry": {"type": "Polygon", "coordinates": [[[-92.25, 42.0], [-92.25, 43.5], [-90.75, 43.5], [-90.75, 42.0], [-92.25, 42.0]]]}, "properties": {"cell_id": "179_88", "lon": -91.5, "lat": 42.75}}, {"type": "Feature", "geometry": {"type": "Polygon", "coordinates": [[[-92.25, 43.5], [-92.25, 45.0], [-90.75, 45.0], [-90.75, 43.5], [-92.25, 43.5]]]}, "properties": {"cell_id": "179_89", "lon": -91.5, "lat": 44.25}}, {"type": "Feature", "geometry": {"type": "Polygon", "coordinates": [[[-92.25, 45.0], [-92.25, 46.5], [-90.75, 46.5], [-90.75, 45.0], [-92.25, 45.0]]]}, "properties": {"cell_id": "179_90", "lon": -91.5, "lat": 45.75}}, {"type": "Feature", "geometry": {"type": "Polygon", "coordinates": [[[-92.25, 46.5], [-92.25, 48.0], [-90.75, 48.0], [-90.75, 46.5], [-92.25, 46.5]]]}, "properties": {"cell_id": "179_91", "lon": -91.5, "lat": 47.25}}, {"type": "Feature", "geometry": {"type": "Polygon", "coordinates": [[[-92.25, 48.0], [-92.25, 49.5], [-90.75, 49.5], [-90.75, 48.0], [-92.25, 48.0]]]}, "properties": {"cell_id": "179_92", "lon": -91.5, "lat": 48.75}}, {"type": "Feature", "geometry": {"type": "Polygon", "coordinates": [[[-92.25, 49.5], [-92.25, 51.0], [-90.75, 51.0], [-90.75, 49.5], [-92.25, 49.5]]]}, "properties": {"cell_id": "179_93", "lon": -91.5, "lat": 50.25}}, {"type": "Feature", "geometry": {"type": "Polygon", "coordinates": [[[-90.75, 40.5], [-90.75, 42.0], [-89.25, 42.0], [-89.25, 40.5], [-90.75, 40.5]]]}, "properties": {"cell_id": "180_87", "lon": -90.0, "lat": 41.25}}, {"type": "Feature", "geometry": {"type": "Polygon", "coordinates": [[[-90.75, 42.0], [-90.75, 43.5], [-89.25, 43.5], [-89.25, 42.0], [-90.75, 42.0]]]}, "properties": {"cell_id": "180_88", "lon": -90.0, "lat": 42.75}}, {"type": "Feature", "geometry": {"type": "Polygon", "coordinates": [[[-90.75, 43.5], [-90.75, 45.0], [-89.25, 45.0], [-89.25, 43.5], [-90.75, 43.5]]]}, "properties": {"cell_id": "180_89", "lon": -90.0, "lat": 44.25}}, {"type": "Feature", "geometry": {"type": "Polygon", "coordinates": [[[-90.75, 45.0], [-90.75, 46.5], [-89.25, 46.5], [-89.25, 45.0], [-90.75, 45.0]]]}, "properties": {"cell_id": "180_90", "lon": -90.0, "lat": 45.75}}, {"type": "Feature", "geometry": {"type": "Polygon", "coordinates": [[[-90.75, 46.5], [-90.75, 48.0], [-89.25, 48.0], [-89.25, 46.5], [-90.75, 46.5]]]}, "properties": {"cell_id": "180_91", "lon": -90.0, "lat": 47.25}}, {"type": "Feature", "geometry": {"type": "Polygon", "coordinates": [[[-90.75, 48.0], [-90.75, 49.5], [-89.25, 49.5], [-89.25, 48.0], [-90.75, 48.0]]]}, "properties": {"cell_id": "180_92", "lon": -90.0, "lat": 48.75}}, {"type": "Feature", "geometry": {"type": "Polygon", "coordinates": [[[-90.75, 49.5], [-90.75, 51.0], [-89.25, 51.0], [-89.25, 49.5], [-90.75, 49.5]]]}, "properties": {"cell_id": "180_93", "lon": -90.0, "lat": 50.25}}]}