{"type": "FeatureCollection", "features": [{"type": "Feature", "geometry": {"type": "Polygon", "coordinates": [[[-99.75, -79.5], [-99.75, -78.0], [-98.25, -78.0], [-98.25, -79.5], [-99.75, -79.5]]]}, "properties": {"cell_id": "174_7", "lon": -99.0, "lat": -78.75}}, {"type": "Feature", "geometry": {"type": "Polygon", "coordinates": [[[-99.75, -78.0], [-99.75, -76.5], [-98.25, -76.5], [-98.25, -78.0], [-99.75, -78.0]]]}, "properties": {"cell_id": "174_8", "lon": -99.0, "lat": -77.25}}, {"type": "Feature", "geometry": {"type": "Polygon", "coordinates": [[[-99.75, -76.5], [-99.75, -75.0], [-98.25, -75.0], [-98.25, -76.5], [-99.75, -76.5]]]}, "properties": {"cell_id": "174_9", "lon": -99.0, "lat": -75.75}}, {"type": "Feature", "geometry": {"type": "Polygon", "coordinates": [[[-99.75, -75.0], [-99.75, -73.5], [-98.25, -73.5], [-98.25, -75.0], [-99.75, -75.0]]]}, "properties": {"cell_id": "174_10", "lon": -99.0, "lat": -74.25}}, {"type": "Feature", "geometry": {"type": "Polygon", "coordinates": [[[-99.75, -73.5], [-99.75, -72.0], [-98.25, -72.0], [-98.25, -73.5], [-99.75, -73.5]]]}, "properties": {"cell_id": "174_11", "lon": -99.0, "lat": -72.75}}, {"type": "Feature", "geometry": {"type": "Polygon", "coordinates": [[[-98.25, -79.5], [-98.25, -78.0], [-96.75, -78.0], [-96.75, -79.5], [-98.25, -79.5]]]}, "properties": {"cell_id": "175_7", "lon": -97.5, "lat": -78.75}}, {"type": "Feature", "geometry": {"type": "Polygon", "coordinates": [[[-98.25, -78.0], [-98.25, -76.5], [-96.75, -76.5], [-96.75, -78.0], [-98.25, -78.0]]]}, "properties": {"cell_id": "175_8", "lon": -97.5, "lat": -77.25}}, {"type": "Feature", "geometry": {"type": "Polygon", "coordinates": [[[-98.25, -76.5], [-98.25, -75.0], [-96.75, -75.0], [-96.75, -76.5], [-98.25, -76.5]]]}, "properties": {"cell_id": "175_9", "lon": -97.5, "lat": -75.75}}, {"type": "Feature", "geometry": {"type": "Polygon", "coordinates": [[[-98.25, -75.0], [-98.25, -73.5], [-96.75, -73.5], [-96.75, -75.0], [-98.25, -75.0]]]}, "properties": {"cell_id": "175_10", "lon": -97.5, "lat": -74.25}}, {"type": "Feature", "geometry": {"type": "Polygon", "coordinates": [[[-98.25, -73.5], [-98.25, -72.0], [-96.75, -72.0], [-96.75, -73.5], [-98.25, -73.5]]]}, "properties": {"cell_id": "175_11", "lon": -97.5, "lat": -72.75}}, {"type": "Feature", "geometry": {"type": "Polygon", "coordinates": [[[-96.75, -79.5], [-96.75, -78.0], [-95.25, -78.0], [-95.25, -79.5], [-96.75, -79.5]]]}, "properties": {"cell_id": "176_7", "lon": -96.0, "lat": -78.75}}, {"type": "Feature", "geometry": {"type": "Polygon", "coordinates": [[[-96.75, -78.0], [-96.75, -76.5], [-95.25, -76.5], [-95.25, -78.0], [-96.75, -78.0]]]}, "properties": {"cell_id": "176_8", "lon": -96.0, "lat": -77.25}}, {"type": "Feature", "geometry": {"type": "Polygon", "coordinates": [[[-96.75, -76.5], [-96.75, -75.0], [-95.25, -75.0], [-95.25, -76.5], [-96.75, -76.5]]]}, "properties": {"cell_id": "176_9", "lon": -96.0, "lat": -75.75}}, {"type": "Feature", "geometry": {"type": "Polygon", "coordinates": [[[-96.75, -75.0], [-96.75, -73.5], [-95.25, -73.5], [-95.25, -75.0], [-96.75, -75.0]]]}, "properties": {"cell_id": "176_10", "lon": -96.0, "lat": -74.25}}, {"type": "Feature", "geometry": {"type": "Polygon", "coordinates": [[[-96.75, -73.5], [-96.75, -72.0], [-95.25, -72.0], [-95.25, -73.5], [-96.75, -73.5]]]}, "properties": {"cell_id": "176_11", "lon": -96.0, "lat": -72.75}}, {"type": "Feature", "geometry": {"type": "Polygon", "coordinates": [[[-95.25, -79.5], [-95.25, -78.0], [-93.75, -78.0], [-93.75, -79.5], [-95.25, -79.5]]]}, "properties": {"cell_id": "177_7", "lon": -94.5, "lat": -78.75}}, {"type": "Feature", "geometry": {"type": "Polygon", "coordinates": [[[-95.25, -78.0], [-95.25, -76.5], [-93.75, -76.5], [-93.75, -78.0], [-95.25, -78.0]]]}, "properties": {"cell_id": "177_8", "lon": -94.5, "lat": -77.25}}, {"type": "Feature", "geometry": {"type": "Polygon", "coordinates": [[[-95.25, -76.5], [-95.25, -75.0], [-93.75, -75.0], [-93.75, -76.5], [-95.25, -76.5]]]}, "properties": {"cell_id": "177_9", "lon": -94.5, "lat": -75.75}}, {"type": "Feature", "geometry": {"type": "Polygon", "coordinates": [[[-95.25, -75.0], [-95.25, -73.5], [-93.75, -73.5], [-93.75, -75.0], [-95.25, -75.0]]]}, "properties": {"cell_id": "177_10", "lon": -94.5, "lat": -74.25}}, {"type": "Feature", "geometry": {"type": "Polygon", "coordinates": [[[-95.25, -73.5], [-95.25, -72.0], [-93.75, -72.0], [-93.75, -73.5], [-95.25, -73.5]]]}, "properties": {"cell_id": "177_11", "lon": -94.5, "lat": -72.75}}, {"type": "Feature", "geometry": {"type": "Polygon", "coordinates": [[[-93.75, -79.5], [-93.75, -78.0], [-92.25, -78.0], [-92.25, -79.5], [-93.75, -79.5]]]}, "properties": {"cell_id": "178_7", "lon": -93.0, "lat": -78.75}}, {"type": "Feature", "geometry": {"type": "Polygon", "coordinates": [[[-93.75, -78.0], [-93.75, -76.5], [-92.25, -76.5], [-92.25, -78.0], [-93.75, -78.0]]]}, "properties": {"cell_id": "178_8", "lon": -93.0, "lat": -77.25}}, {"type": "Feature", "geometry": {"type": "Polygon", "coordinates": [[[-93.75, -76.5], [-93.75, -75.0], [-92.25, -75.0], [-92.25, -76.5], [-93.75, -76.5]]]}, "properties": {"cell_id": "178_9", "lon": -93.0, "lat": -75.75}}, {"type": "Feature", "geometry": {"type": "Polygon", "coordinates": [[[-93.75, -75.0], [-93.75, -73.5], [-92.25, -73.5], [-92.25, -75.0], [-93.75, -75.0]]]}, "properties": {"cell_id": "178_10", "lon": -93.0, "lat": -74.25}}, {"type": "Feature", "geometry": {"type": "Polygon", "coordinates": [[[-93.75, -73.5], [-93.75, -72.0], [-92.25, -72.0], [-92.25, -73.5], [-93.75, -73.5]]]}, "properties": {"cell_id": "178_11", "lon": -93.0, "lat": -72.75}}, {"type": "Feature", "geometry": {"type": "Polygon", "coordinates": [[[-92.25, -79.5], [-92.25, -78.0], [-90.75, -78.0], [-90.75, -79.5], [-92.25, -79.5]]]}, "properties": {"cell_id": "179_7", "lon": -91.5, "lat": -78.75}}, {"type": "Feature", "geometry": {"type": "Polygon", "coordinates": [[[-92.25, -78.0], [-92.25, -76.5], [-90.75, -76.5], [-90.75, -78.0], [-92.25, -78.0]]]}, "properties": {"cell_id": "179_8", "lon": -91.5, "lat": -77.25}}, {"type": "Feature", "geometry": {"type": "Polygon", "coordinates": [[[-92.25, -76.5], [-92.25, -75.0], [-90.75, -75.0], [-90.75, -76.5], [-92.25, -76.5]]]}, "properties": {"cell_id": "179_9", "lon": -91.5, "lat": -75.75}}, {"type": "Feature", "geometry": {"type": "Polygon", "coordinates": [[[-92.25, -75.0], [-92.25, -73.5], [-90.75, -73.5], [-90.75, -75.0], [-92.25, -75.0]]]}, "properties": {"cell_id": "179_10", "lon": -91.5, "lat": -74.25}}, {"type": "Feature", "geometry": {"type": "Polygon", "coordinates": [[[-92.25, -73.5], [-92.25, -72.0], [-90.75, -72.0], [-90.75, -73.5], [-92.25, -73.5]]]}, "properties": {"cell_id": "179_11", "lon": -91.5, "lat": -72.75}}, {"type": "Feature", "geometry": {"type": "Polygon", "coordinates": [[[-90.75, -79.5], [-90.75, -78.0], [-89.25, -78.0], [-89.25, -79.5], [-90.75, -79.5]]]}, "properties": {"cell_id": "180_7", "lon": -90.0, "lat": -78.75}}, {"type": "Feature", "geometry": {"type": "Polygon", "coordinates": [[[-90.75, -78.0], [-90.75, -76.5], [-89.25, -76.5], [-89.25, -78.0], [-90.75, -78.0]]]}, "properties": {"cell_id": "180_8", "lon": -90.0, "lat": -77.25}}, {"type": "Feature", "geometry": {"type": "Polygon", "coordinates": [[[-90.75, -76.5], [-90.75, -75.0], [-89.25, -75.0], [-89.25, -76.5], [-90.75, -76.5]]]}, "properties": {"cell_id": "180_9", "lon": -90.0, "lat": -75.75}}, {"type": "Feature", "geometry": {"type": "Polygon", "coordinates": [[[-90.75, -75.0], [-90.75, -73.5], [-89.25, -73.5], [-89.25, -75.0], [-90.75, -75.0]]]}, "properties": {"cell_id": "180_10", "lon": -90.0, "lat": -74.25}}, {"type": "Feature", "geometry": {"type": "Polygon", "coordinates": [[[-90.75, -73.5], [-90.75, -72.0], [-89.25, -72.0], [-89.25, -73.5], [-90.75, -73.5]]]}, "properties": {"cell_id": "180_11", "lon": -90.0, "lat": -72.75}}]}