{"type": "FeatureCollection", "features": [{"type": "Feature", "geometry": {"type": "Polygon", "coordinates": [[[90.75, 70.5], [90.75, 72.0], [92.25, 72.0], [92.25, 70.5], [90.75, 70.5]]]}, "properties": {"cell_id": "61_107", "lon": 91.5, "lat": 71.25}}, {"type": "Feature", "geometry": {"type": "Polygon", "coordinates": [[[90.75, 72.0], [90.75, 73.5], [92.25, 73.5], [92.25, 72.0], [90.75, 72.0]]]}, "properties": {"cell_id": "61_108", "lon": 91.5, "lat": 72.75}}, {"type": "Feature", "geometry": {"type": "Polygon", "coordinates": [[[90.75, 73.5], [90.75, 75.0], [92.25, 75.0], [92.25, 73.5], [90.75, 73.5]]]}, "properties": {"cell_id": "61_109", "lon": 91.5, "lat": 74.25}}, {"type": "Feature", "geometry": {"type": "Polygon", "coordinates": [[[90.75, 75.0], [90.75, 76.5], [92.25, 76.5], [92.25, 75.0], [90.75, 75.0]]]}, "properties": {"cell_id": "61_110", "lon": 91.5, "lat": 75.75}}, {"type": "Feature", "geometry": {"type": "Polygon", "coordinates": [[[92.25, 70.5], [92.25, 72.0], [93.75, 72.0], [93.75, 70.5], [92.25, 70.5]]]}, "properties": {"cell_id": "62_107", "lon": 93.0, "lat": 71.25}}, {"type": "Feature", "geometry": {"type": "Polygon", "coordinates": [[[92.25, 72.0], [92.25, 73.5], [93.75, 73.5], [93.75, 72.0], [92.25, 72.0]]]}, "properties": {"cell_id": "62_108", "lon": 93.0, "lat": 72.75}}, {"type": "Feature", "geometry": {"type": "Polygon", "coordinates": [[[92.25, 73.5], [92.25, 75.0], [93.75, 75.0], [93.75, 73.5], [92.25, 73.5]]]}, "properties": {"cell_id": "62_109", "lon": 93.0, "lat": 74.25}}, {"type": "Feature", "geometry": {"type": "Polygon", "coordinates": [[[92.25, 75.0], [92.25, 76.5], [93.75, 76.5], [93.75, 75.0], [92.25, 75.0]]]}, "properties": {"cell_id": "62_110", "lon": 93.0, "lat": 75.75}}, {"type": "Feature", "geometry": {"type": "Polygon", "coordinates": [[[93.75, 70.5], [93.75, 72.0], [95.25, 72.0], [95.25, 70.5], [93.75, 70.5]]]}, "properties": {"cell_id": "63_107", "lon": 94.5, "lat": 71.25}}, {"type": "Feature", "geometry": {"type": "Polygon", "coordinates": [[[93.75, 72.0], [93.75, 73.5], [95.25, 73.5], [95.25, 72.0], [93.75, 72.0]]]}, "properties": {"cell_id": "63_108", "lon": 94.5, "lat": 72.75}}, {"type": "Feature", "geometry": {"type": "Polygon", "coordinates": [[[93.75, 73.5], [93.75, 75.0], [95.25, 75.0], [95.25, 73.5], [93.75, 73.5]]]}, "properties": {"cell_id": "63_109", "lon": 94.5, "lat": 74.25}}, {"type": "Feature", "geometry": {"type": "Polygon", "coordinates": [[[93.75, 75.0], [93.75, 76.5], [95.25, 76.5], [95.25, 75.0], [93.75, 75.0]]]}, "properties": {"cell_id": "63_110", "lon": 94.5, "lat": 75.75}}, {"type": "Feature", "geometry": {"type": "Polygon", "coordinates": [[[95.25, 70.5], [95.25, 72.0], [96.75, 72.0], [96.75, 70.5], [95.25, 70.5]]]}, "properties": {"cell_id": "64_107", "lon": 96.0, "lat": 71.25}}, {"type": "Feature", "geometry": {"type": "Polygon", "coordinates": [[[95.25, 72.0], [95.25, 73.5], [96.75, 73.5], [96.75, 72.0], [95.25, 72.0]]]}, "properties": {"cell_id": "64_108", "lon": 96.0, "lat": 72.75}}, {"type": "Feature", "geometry": {"type": "Polygon", "coordinates": [[[95.25, 73.5], [95.25, 75.0], [96.75, 75.0], [96.75, 73.5], [95.25, 73.5]]]}, "properties": {"cell_id": "64_109", "lon": 96.0, "lat": 74.25}}, {"type": "Feature", "geometry": {"type": "Polygon", "coordinates": [[[95.25, 75.0], [95.25, 76.5], [96.75, 76.5], [96.75, 75.0], [95.25, 75.0]]]}, "properties": {"cell_id": "64_110", "lon": 96.0, "lat": 75.75}}, {"type": "Feature", "geometry": {"type": "Polygon", "coordinates": [[[96.75, 70.5], [96.75, 72.0], [98.25, 72.0], [98.25, 70.5], [96.75, 70.5]]]}, "properties": {"cell_id": "65_107", "lon": 97.5, "lat": 71.25}}, {"type": "Feature", "geometry": {"type": "Polygon", "coordinates": [[[96.75, 72.0], [96.75, 73.5], [98.25, 73.5], [98.25, 72.0], [96.75, 72.0]]]}, "properties": {"cell_id": "65_108", "lon": 97.5, "lat": 72.75}}, {"type": "Feature", "geometry": {"type": "Polygon", "coordinates": [[[96.75, 73.5], [96.75, 75.0], [98.25, 75.0], [98.25, 73.5], [96.75, 73.5]]]}, "properties": {"cell_id": "65_109", "lon": 97.5, "lat": 74.25}}, {"type": "Feature", "geometry": {"type": "Polygon", "coordinates": [[[96.75, 75.0], [96.75, 76.5], [98.25, 76.5], [98.25, 75.0], [96.75, 75.0]]]}, "properties": {"cell_id": "65_110", "lon": 97.5, "lat": 75.75}}, {"type": "Feature", "geometry": {"type": "Polygon", "coordinates": [[[98.25, 70.5], [98.25, 72.0], [99.75, 72.0], [99.75, 70.5], [98.25, 70.5]]]}, "properties": {"cell_id": "66_107", "lon": 99.0, "lat": 71.25}}, {"type": "Feature", "geometry": {"type": "Polygon", "coordinates": [[[98.25, 72.0], [98.25, 73.5], [99.75, 73.5], [99.75, 72.0], [98.25, 72.0]]]}, "properties": {"cell_id": "66_108", "lon": 99.0, "lat": 72.75}}, {"type": "Feature", "geometry": {"type": "Polygon", "coordinates": [[[98.25, 73.5], [98.25, 75.0], [99.75, 75.0], [99.75, 73.5], [98.25, 73.5]]]}, "properties": {"cell_id": "66_109", "lon": 99.0, "lat": 74.25}}, {"type": "Feature", "geometry": {"type": "Polygon", "coordinates": [[[98.25, 75.0], [98.25, 76.5], [99.75, 76.5], [99.75, 75.0], [98.25, 75.0]]]}, "properties": {"cell_id": "66_110", "lon": 99.0, "lat": 75.75}}, {"type": "Feature", "geometry": {"type": "Polygon", "coordinates": [[[99.75, 70.5], [99.75, 72.0], [101.25, 72.0], [101.25, 70.5], [99.75, 70.5]]]}, "properties": {"cell_id": "67_107", "lon": 100.5, "lat": 71.25}}, {"type": "Feature", "geometry": {"type": "Polygon", "coordinates": [[[99.75, 72.0], [99.75, 73.5], [101.25, 73.5], [101.25, 72.0], [99.75, 72.0]]]}, "properties": {"cell_id": "67_108", "lon": 100.5, "lat": 72.75}}, {"type": "Feature", "geometry": {"type": "Polygon", "coordinates": [[[99.75, 73.5], [99.75, 75.0], [101.25, 75.0], [101.25, 73.5], [99.75, 73.5]]]}, "properties": {"cell_id": "67_109", "lon": 100.5, "lat": 74.25}}, {"type": "Feature", "geometry": {"type": "Polygon", "coordinates": [[[99.75, 75.0], [99.75, 76.5], [101.25, 76.5], [101.25, 75.0], [99.75, 75.0]]]}, "properties": {"cell_id": "67_110", "lon": 100.5, "lat": 75.75}}, {"type": "Feature", "geometry": {"type": "Polygon", "coordinates": [[[99.75, 76.5], [99.75, 78.0], [101.25, 78.0], [101.25, 76.5], [99.75, 76.5]]]}, "properties": {"cell_id": "67_111", "lon": 100.5, "lat": 77.25}}, {"type": "Feature", "geometry": {"type": "Polygon", "coordinates": [[[99.75, 78.0], [99.75, 79.5], [101.25, 79.5], [101.25, 78.0], [99.75, 78.0]]]}, "properties": {"cell_id": "67_112", "lon": 100.5, "lat": 78.75}}]}