{"type": "FeatureCollection", "features": [{"type": "Feature", "geometry": {"type": "Polygon", "coordinates": [[[-99.75, 60.0], [-99.75, 61.5], [-98.25, 61.5], [-98.25, 60.0], [-99.75, 60.0]]]}, "properties": {"cell_id": "174_100", "lon": -99.0, "lat": 60.75}}, {"type": "Feature", "geometry": {"type": "Polygon", "coordinates": [[[-99.75, 61.5], [-99.75, 63.0], [-98.25, 63.0], [-98.25, 61.5], [-99.75, 61.5]]]}, "properties": {"cell_id": "174_101", "lon": -99.0, "lat": 62.25}}, {"type": "Feature", "geometry": {"type": "Polygon", "coordinates": [[[-99.75, 63.0], [-99.75, 64.5], [-98.25, 64.5], [-98.25, 63.0], [-99.75, 63.0]]]}, "properties": {"cell_id": "174_102", "lon": -99.0, "lat": 63.75}}, {"type": "Feature", "geometry": {"type": "Polygon", "coordinates": [[[-99.75, 64.5], [-99.75, 66.0], [-98.25, 66.0], [-98.25, 64.5], [-99.75, 64.5]]]}, "properties": {"cell_id": "174_103", "lon": -99.0, "lat": 65.25}}, {"type": "Feature", "geometry": {"type": "Polygon", "coordinates": [[[-99.75, 66.0], [-99.75, 67.5], [-98.25, 67.5], [-98.25, 66.0], [-99.75, 66.0]]]}, "properties": {"cell_id": "174_104", "lon": -99.0, "lat": 66.75}}, {"type": "Feature", "geometry": {"type": "Polygon", "coordinates": [[[-99.75, 67.5], [-99.75, 69.0], [-98.25, 69.0], [-98.25, 67.5], [-99.75, 67.5]]]}, "properties": {"cell_id": "174_105", "lon": -99.0, "lat": 68.25}}, {"type": "Feature", "geometry": {"type": "Polygon", "coordinates": [[[-99.75, 69.0], [-99.75, 70.5], [-98.25, 70.5], [-98.25, 69.0], [-99.75, 69.0]]]}, "properties": {"cell_id": "174_106", "lon": -99.0, "lat": 69.75}}, {"type": "Feature", "geometry": {"type": "Polygon", "coordinates": [[[-98.25, 60.0], [-98.25, 61.5], [-96.75, 61.5], [-96.75, 60.0], [-98.25, 60.0]]]}, "properties": {"cell_id": "175_100", "lon": -97.5, "lat": 60.75}}, {"type": "Feature", "geometry": {"type": "Polygon", "coordinates": [[[-98.25, 61.5], [-98.25, 63.0], [-96.75, 63.0], [-96.75, 61.5], [-98.25, 61.5]]]}, "properties": {"cell_id": "175_101", "lon": -97.5, "lat": 62.25}}, {"type": "Feature", "geometry": {"type": "Polygon", "coordinates": [[[-98.25, 63.0], [-98.25, 64.5], [-96.75, 64.5], [-96.75, 63.0], [-98.25, 63.0]]]}, "properties": {"cell_id": "175_102", "lon": -97.5, "lat": 63.75}}, {"type": "Feature", "geometry": {"type": "Polygon", "coordinates": [[[-98.25, 64.5], [-98.25, 66.0], [-96.75, 66.0], [-96.75, 64.5], [-98.25, 64.5]]]}, "properties": {"cell_id": "175_103", "lon": -97.5, "lat": 65.25}}, {"type": "Feature", "geometry": {"type": "Polygon", "coordinates": [[[-98.25, 66.0], [-98.25, 67.5], [-96.75, 67.5], [-96.75, 66.0], [-98.25, 66.0]]]}, "properties": {"cell_id": "175_104", "lon": -97.5, "lat": 66.75}}, {"type": "Feature", "geometry": {"type": "Polygon", "coordinates": [[[-98.25, 67.5], [-98.25, 69.0], [-96.75, 69.0], [-96.75, 67.5], [-98.25, 67.5]]]}, "properties": {"cell_id": "175_105", "lon": -97.5, "lat": 68.25}}, {"type": "Feature", "geometry": {"type": "Polygon", "coordinates": [[[-98.25, 69.0], [-98.25, 70.5], [-96.75, 70.5], [-96.75, 69.0], [-98.25, 69.0]]]}, "properties": {"cell_id": "175_106", "lon": -97.5, "lat": 69.75}}, {"type": "Feature", "geometry": {"type": "Polygon", "coordinates": [[[-96.75, 60.0], [-96.75, 61.5], [-95.25, 61.5], [-95.25, 60.0], [-96.75, 60.0]]]}, "properties": {"cell_id": "176_100", "lon": -96.0, "lat": 60.75}}, {"type": "Feature", "geometry": {"type": "Polygon", "coordinates": [[[-96.75, 61.5], [-96.75, 63.0], [-95.25, 63.0], [-95.25, 61.5], [-96.75, 61.5]]]}, "properties": {"cell_id": "176_101", "lon": -96.0, "lat": 62.25}}, {"type": "Feature", "geometry": {"type": "Polygon", "coordinates": [[[-96.75, 63.0], [-96.75, 64.5], [-95.25, 64.5], [-95.25, 63.0], [-96.75, 63.0]]]}, "properties": {"cell_id": "176_102", "lon": -96.0, "lat": 63.75}}, {"type": "Feature", "geometry": {"type": "Polygon", "coordinates": [[[-96.75, 64.5], [-96.75, 66.0], [-95.25, 66.0], [-95.25, 64.5], [-96.75, 64.5]]]}, "properties": {"cell_id": "176_103", "lon": -96.0, "lat": 65.25}}, {"type": "Feature", "geometry": {"type": "Polygon", "coordinates": [[[-96.75, 66.0], [-96.75, 67.5], [-95.25, 67.5], [-95.25, 66.0], [-96.75, 66.0]]]}, "properties": {"cell_id": "176_104", "lon": -96.0, "lat": 66.75}}, {"type": "Feature", "geometry": {"type": "Polygon", "coordinates": [[[-96.75, 67.5], [-96.75, 69.0], [-95.25, 69.0], [-95.25, 67.5], [-96.75, 67.5]]]}, "properties": {"cell_id": "176_105", "lon": -96.0, "lat": 68.25}}, {"type": "Feature", "geometry": {"type": "Polygon", "coordinates": [[[-96.75, 69.0], [-96.75, 70.5], [-95.25, 70.5], [-95.25, 69.0], [-96.75, 69.0]]]}, "properties": {"cell_id": "176_106", "lon": -96.0, "lat": 69.75}}, {"type": "Feature", "geometry": {"type": "Polygon", "coordinates": [[[-95.25, 60.0], [-95.25, 61.5], [-93.75, 61.5], [-93.75, 60.0], [-95.25, 60.0]]]}, "properties": {"cell_id": "177_100", "lon": -94.5, "lat": 60.75}}, {"type": "Feature", "geometry": {"type": "Polygon", "coordinates": [[[-95.25, 61.5], [-95.25, 63.0], [-93.75, 63.0], [-93.75, 61.5], [-95.25, 61.5]]]}, "properties": {"cell_id": "177_101", "lon": -94.5, "lat": 62.25}}, {"type": "Feature", "geometry": {"type": "Polygon", "coordinates": [[[-95.25, 63.0], [-95.25, 64.5], [-93.75, 64.5], [-93.75, 63.0], [-95.25, 63.0]]]}, "properties": {"cell_id": "177_102", "lon": -94.5, "lat": 63.75}}, {"type": "Feature", "geometry": {"type": "Polygon", "coordinates": [[[-95.25, 64.5], [-95.25, 66.0], [-93.75, 66.0], [-93.75, 64.5], [-95.25, 64.5]]]}, "properties": {"cell_id": "177_103", "lon": -94.5, "lat": 65.25}}, {"type": "Feature", "geometry": {"type": "Polygon", "coordinates": [[[-95.25, 66.0], [-95.25, 67.5], [-93.75, 67.5], [-93.75, 66.0], [-95.25, 66.0]]]}, "properties": {"cell_id": "177_104", "lon": -94.5, "lat": 66.75}}, {"type": "Feature", "geometry": {"type": "Polygon", "coordinates": [[[-95.25, 67.5], [-95.25, 69.0], [-93.75, 69.0], [-93.75, 67.5], [-95.25, 67.5]]]}, "properties": {"cell_id": "177_105", "lon": -94.5, "lat": 68.25}}, {"type": "Feature", "geometry": {"type": "Polygon", "coordinates": [[[-95.25, 69.0], [-95.25, 70.5], [-93.75, 70.5], [-93.75, 69.0], [-95.25, 69.0]]]}, "properties": {"cell_id": "177_106", "lon": -94.5, "lat": 69.75}}, {"type": "Feature", "geometry": {"type": "Polygon", "coordinates": [[[-93.75, 60.0], [-93.75, 61.5], [-92.25, 61.5], [-92.25, 60.0], [-93.75, 60.0]]]}, "properties": {"cell_id": "178_100", "lon": -93.0, "lat": 60.75}}, {"type": "Feature", "geometry": {"type": "Polygon", "coordinates": [[[-93.75, 61.5], [-93.75, 63.0], [-92.25, 63.0], [-92.25, 61.5], [-93.75, 61.5]]]}, "properties": {"cell_id": "178_101", "lon": -93.0, "lat": 62.25}}, {"type": "Feature", "geometry": {"type": "Polygon", "coordinates": [[[-93.75, 63.0], [-93.75, 64.5], [-92.25, 64.5], [-92.25, 63.0], [-93.75, 63.0]]]}, "properties": {"cell_id": "178_102", "lon": -93.0, "lat": 63.75}}, {"type": "Feature", "geometry": {"type": "Polygon", "coordinates": [[[-93.75, 64.5], [-93.75, 66.0], [-92.25, 66.0], [-92.25, 64.5], [-93.75, 64.5]]]}, "properties": {"cell_id": "178_103", "lon": -93.0, "lat": 65.25}}, {"type": "Feature", "geometry": {"type": "Polygon", "coordinates": [[[-93.75, 66.0], [-93.75, 67.5], [-92.25, 67.5], [-92.25, 66.0], [-93.75, 66.0]]]}, "properties": {"cell_id": "178_104", "lon": -93.0, "lat": 66.75}}, {"type": "Feature", "geometry": {"type": "Polygon", "coordinates": [[[-93.75, 67.5], [-93.75, 69.0], [-92.25, 69.0], [-92.25, 67.5], [-93.75, 67.5]]]}, "properties": {"cell_id": "178_105", "lon": -93.0, "lat": 68.25}}, {"type": "Feature", "geometry": {"type": "Polygon", "coordinates": [[[-93.75, 69.0], [-93.75, 70.5], [-92.25, 70.5], [-92.25, 69.0], [-93.75, 69.0]]]}, "properties": {"cell_id": "178_106", "lon": -93.0, "lat": 69.75}}, {"type": "Feature", "geometry": {"type": "Polygon", "coordinates": [[[-92.25, 60.0], [-92.25, 61.5], [-90.75, 61.5], [-90.75, 60.0], [-92.25, 60.0]]]}, "properties": {"cell_id": "179_100", "lon": -91.5, "lat": 60.75}}, {"type": "Feature", "geometry": {"type": "Polygon", "coordinates": [[[-92.25, 61.5], [-92.25, 63.0], [-90.75, 63.0], [-90.75, 61.5], [-92.25, 61.5]]]}, "properties": {"cell_id": "179_101", "lon": -91.5, "lat": 62.25}}, {"type": "Feature", "geometry": {"type": "Polygon", "coordinates": [[[-92.25, 63.0], [-92.25, 64.5], [-90.75, 64.5], [-90.75, 63.0], [-92.25, 63.0]]]}, "properties": {"cell_id": "179_102", "lon": -91.5, "lat": 63.75}}, {"type": "Feature", "geometry": {"type": "Polygon", "coordinates": [[[-92.25, 64.5], [-92.25, 66.0], [-90.75, 66.0], [-90.75, 64.5], [-92.25, 64.5]]]}, "properties": {"cell_id": "179_103", "lon": -91.5, "lat": 65.25}}, {"type": "Feature", "geometry": {"type": "Polygon", "coordinates": [[[-92.25, 66.0], [-92.25, 67.5], [-90.75, 67.5], [-90.75, 66.0], [-92.25, 66.0]]]}, "properties": {"cell_id": "179_104", "lon": -91.5, "lat": 66.75}}, {"type": "Feature", "geometry": {"type": "Polygon", "coordinates": [[[-92.25, 67.5], [-92.25, 69.0], [-90.75, 69.0], [-90.75, 67.5], [-92.25, 67.5]]]}, "properties": {"cell_id": "179_105", "lon": -91.5, "lat": 68.25}}, {"type": "Feature", "geometry": {"type": "Polygon", "coordinates": [[[-92.25, 69.0], [-92.25, 70.5], [-90.75, 70.5], [-90.75, 69.0], [-92.25, 69.0]]]}, "properties": {"cell_id": "179_106", "lon": -91.5, "lat": 69.75}}, {"type": "Feature", "geometry": {"type": "Polygon", "coordinates": [[[-90.75, 63.0], [-90.75, 64.5], [-89.25, 64.5], [-89.25, 63.0], [-90.75, 63.0]]]}, "properties": {"cell_id": "180_102", "lon": -90.0, "lat": 63.75}}, {"type": "Feature", "geometry": {"type": "Polygon", "coordinates": [[[-90.75, 64.5], [-90.75, 66.0], [-89.25, 66.0], [-89.25, 64.5], [-90.75, 64.5]]]}, "properties": {"cell_id": "180_103", "lon": -90.0, "lat": 65.25}}, {"type": "Feature", "geometry": {"type": "Polygon", "coordinates": [[[-90.75, 66.0], [-90.75, 67.5], [-89.25, 67.5], [-89.25, 66.0], [-90.75, 66.0]]]}, "properties": {"cell_id": "180_104", "lon": -90.0, "lat": 66.75}}, {"type": "Feature", "geometry": {"type": "Polygon", "coordinates": [[[-90.75, 67.5], [-90.75, 69.0], [-89.25, 69.0], [-89.25, 67.5], [-90.75, 67.5]]]}, "properties": {"cell_id": "180_105", "lon": -90.0, "lat": 68.25}}, {"type": "Feature", "geometry": {"type": "Polygon", "coordinates": [[[-90.75, 69.0], [-90.75, 70.5], [-89.25, 70.5], [-89.25, 69.0], [-90.75, 69.0]]]}, "properties": {"cell_id": "180_106", "lon": -90.0, "lat": 69.75}}]}