{"type": "FeatureCollection", "features": [{"type": "Feature", "geometry": {"type": "Polygon", "coordinates": [[[-105.75, 19.5], [-105.75, 21.0], [-104.25, 21.0], [-104.25, 19.5], [-105.75, 19.5]]]}, "properties": {"cell_id": "170_73", "lon": -105.0, "lat": 20.25}}, {"type": "Feature", "geometry": {"type": "Polygon", "coordinates": [[[-104.25, 19.5], [-104.25, 21.0], [-102.75, 21.0], [-102.75, 19.5], [-104.25, 19.5]]]}, "properties": {"cell_id": "171_73", "lon": -103.5, "lat": 20.25}}, {"type": "Feature", "geometry": {"type": "Polygon", "coordinates": [[[-102.75, 16.5], [-102.75, 18.0], [-101.25, 18.0], [-101.25, 16.5], [-102.75, 16.5]]]}, "properties": {"cell_id": "172_71", "lon": -102.0, "lat": 17.25}}, {"type": "Feature", "geometry": {"type": "Polygon", "coordinates": [[[-102.75, 18.0], [-102.75, 19.5], [-101.25, 19.5], [-101.25, 18.0], [-102.75, 18.0]]]}, "properties": {"cell_id": "172_72", "lon": -102.0, "lat": 18.75}}, {"type": "Feature", "geometry": {"type": "Polygon", "coordinates": [[[-102.75, 19.5], [-102.75, 21.0], [-101.25, 21.0], [-101.25, 19.5], [-102.75, 19.5]]]}, "properties": {"cell_id": "172_73", "lon": -102.0, "lat": 20.25}}, {"type": "Feature", "geometry": {"type": "Polygon", "coordinates": [[[-101.25, 16.5], [-101.25, 18.0], [-99.75, 18.0], [-99.75, 16.5], [-101.25, 16.5]]]}, "properties": {"cell_id": "173_71", "lon": -100.5, "lat": 17.25}}, {"type": "Feature", "geometry": {"type": "Polygon", "coordinates": [[[-101.25, 18.0], [-101.25, 19.5], [-99.75, 19.5], [-99.75, 18.0], [-101.25, 18.0]]]}, "properties": {"cell_id": "173_72", "lon": -100.5, "lat": 18.75}}, {"type": "Feature", "geometry": {"type": "Polygon", "coordinates": [[[-101.25, 19.5], [-101.25, 21.0], [-99.75, 21.0], [-99.75, 19.5], [-101.25, 19.5]]]}, "properties": {"cell_id": "173_73", "lon": -100.5, "lat": 20.25}}]}