{"type": "FeatureCollection", "features": [{"type": "Feature", "geometry": {"type": "Polygon", "coordinates": [[[41.25, -69.0], [41.25, -67.5], [42.75, -67.5], [42.75, -69.0], [41.25, -69.0]]]}, "properties": {"cell_id": "28_14", "lon": 42.0, "lat": -68.25}}, {"type": "Feature", "geometry": {"type": "Polygon", "coordinates": [[[41.25, -67.5], [41.25, -66.0], [42.75, -66.0], [42.75, -67.5], [41.25, -67.5]]]}, "properties": {"cell_id": "28_15", "lon": 42.0, "lat": -66.75}}, {"type": "Feature", "geometry": {"type": "Polygon", "coordinates": [[[42.75, -69.0], [42.75, -67.5], [44.25, -67.5], [44.25, -69.0], [42.75, -69.0]]]}, "properties": {"cell_id": "29_14", "lon": 43.5, "lat": -68.25}}, {"type": "Feature", "geometry": {"type": "Polygon", "coordinates": [[[42.75, -67.5], [42.75, -66.0], [44.25, -66.0], [44.25, -67.5], [42.75, -67.5]]]}, "properties": {"cell_id": "29_15", "lon": 43.5, "lat": -66.75}}, {"type": "Feature", "geometry": {"type": "Polygon", "coordinates": [[[44.25, -69.0], [44.25, -67.5], [45.75, -67.5], [45.75, -69.0], [44.25, -69.0]]]}, "properties": {"cell_id": "30_14", "lon": 45.0, "lat": -68.25}}, {"type": "Feature", "geometry": {"type": "Polygon", "coordinates": [[[44.25, -67.5], [44.25, -66.0], [45.75, -66.0], [45.75, -67.5], [44.25, -67.5]]]}, "properties": {"cell_id": "30_15", "lon": 45.0, "lat": -66.75}}, {"type": "Feature", "geometry": {"type": "Polygon", "coordinates": [[[45.75, -69.0], [45.75, -67.5], [47.25, -67.5], [47.25, -69.0], [45.75, -69.0]]]}, "properties": {"cell_id": "31_14", "lon": 46.5, "lat": -68.25}}, {"type": "Feature", "geometry": {"type": "Polygon", "coordinates": [[[45.75, -67.5], [45.75, -66.0], [47.25, -66.0], [47.25, -67.5], [45.75, -67.5]]]}, "properties": {"cell_id": "31_15", "lon": 46.5, "lat": -66.75}}, {"type": "Feature", "geometry": {"type": "Polygon", "coordinates": [[[47.25, -69.0], [47.25, -67.5], [48.75, -67.5], [48.75, -69.0], [47.25, -69.0]]]}, "properties": {"cell_id": "32_14", "lon": 48.0, "lat": -68.25}}, {"type": "Feature", "geometry": {"type": "Polygon", "coordinates": [[[47.25, -67.5], [47.25, -66.0], [48.75, -66.0], [48.75, -67.5], [47.25, -67.5]]]}, "properties": {"cell_id": "32_15", "lon": 48.0, "lat": -66.75}}, {"type": "Feature", "geometry": {"type": "Polygon", "coordinates": [[[48.75, -69.0], [48.75, -67.5], [50.25, -67.5], [50.25, -69.0], [48.75, -69.0]]]}, "properties": {"cell_id": "33_14", "lon": 49.5, "lat": -68.25}}, {"type": "Feature", "geometry": {"type": "Polygon", "coordinates": [[[48.75, -67.5], [48.75, -66.0], [50.25, -66.0], [50.25, -67.5], [48.75, -67.5]]]}, "properties": {"cell_id": "33_15", "lon": 49.5, "lat": -66.75}}]}