{"type": "FeatureCollection", "features": [{"type": "Feature", "geometry": {"type": "Polygon", "coordinates": [[[-39.75, 81.0], [-39.75, 82.5], [-38.25, 82.5], [-38.25, 81.0], [-39.75, 81.0]]]}, "properties": {"cell_id": "214_114", "lon": -39.0, "lat": 81.75}}, {"type": "Feature", "geometry": {"type": "Polygon", "coordinates": [[[-39.75, 82.5], [-39.75, 84.0], [-38.25, 84.0], [-38.25, 82.5], [-39.75, 82.5]]]}, "properties": {"cell_id": "214_115", "lon": -39.0, "lat": 83.25}}, {"type": "Feature", "geometry": {"type": "Polygon", "coordinates": [[[-38.25, 81.0], [-38.25, 82.5], [-36.75, 82.5], [-36.75, 81.0], [-38.25, 81.0]]]}, "properties": {"cell_id": "215_114", "lon": -37.5, "lat": 81.75}}, {"type": "Feature", "geometry": {"type": "Polygon", "coordinates": [[[-38.25, 82.5], [-38.25, 84.0], [-36.75, 84.0], [-36.75, 82.5], [-38.25, 82.5]]]}, "properties": {"cell_id": "215_115", "lon": -37.5, "lat": 83.25}}, {"type": "Feature", "geometry": {"type": "Polygon", "coordinates": [[[-36.75, 81.0], [-36.75, 82.5], [-35.25, 82.5], [-35.25, 81.0], [-36.75, 81.0]]]}, "properties": {"cell_id": "216_114", "lon": -36.0, "lat": 81.75}}, {"type": "Feature", "geometry": {"type": "Polygon", "coordinates": [[[-36.75, 82.5], [-36.75, 84.0], [-35.25, 84.0], [-35.25, 82.5], [-36.75, 82.5]]]}, "properties": {"cell_id": "216_115", "lon": -36.0, "lat": 83.25}}, {"type": "Feature", "geometry": {"type": "Polygon", "coordinates": [[[-35.25, 81.0], [-35.25, 82.5], [-33.75, 82.5], [-33.75, 81.0], [-35.25, 81.0]]]}, "properties": {"cell_id": "217_114", "lon": -34.5, "lat": 81.75}}, {"type": "Feature", "geometry": {"type": "Polygon", "coordinates": [[[-35.25, 82.5], [-35.25, 84.0], [-33.75, 84.0], [-33.75, 82.5], [-35.25, 82.5]]]}, "properties": {"cell_id": "217_115", "lon": -34.5, "lat": 83.25}}, {"type": "Feature", "geometry": {"type": "Polygon", "coordinates": [[[-33.75, 81.0], [-33.75, 82.5], [-32.25, 82.5], [-32.25, 81.0], [-33.75, 81.0]]]}, "properties": {"cell_id": "218_114", "lon": -33.0, "lat": 81.75}}, {"type": "Feature", "geometry": {"type": "Polygon", "coordinates": [[[-33.75, 82.5], [-33.75, 84.0], [-32.25, 84.0], [-32.25, 82.5], [-33.75, 82.5]]]}, "properties": {"cell_id": "218_115", "lon": -33.0, "lat": 83.25}}, {"type": "Feature", "geometry": {"type": "Polygon", "coordinates": [[[-32.25, 81.0], [-32.25, 82.5], [-30.75, 82.5], [-30.75, 81.0], [-32.25, 81.0]]]}, "properties": {"cell_id": "219_114", "lon": -31.5, "lat": 81.75}}, {"type": "Feature", "geometry": {"type": "Polygon", "coordinates": [[[-32.25, 82.5], [-32.25, 84.0], [-30.75, 84.0], [-30.75, 82.5], [-32.25, 82.5]]]}, "properties": {"cell_id": "219_115", "lon": -31.5, "lat": 83.25}}, {"type": "Feature", "geometry": {"type": "Polygon", "coordinates": [[[-30.75, 81.0], [-30.75, 82.5], [-29.25, 82.5], [-29.25, 81.0], [-30.75, 81.0]]]}, "properties": {"cell_id": "220_114", "lon": -30.0, "lat": 81.75}}, {"type": "Feature", "geometry": {"type": "Polygon", "coordinates": [[[-30.75, 82.5], [-30.75, 84.0], [-29.25, 84.0], [-29.25, 82.5], [-30.75, 82.5]]]}, "properties": {"cell_id": "220_115", "lon": -30.0, "lat": 83.25}}]}