{"type": "FeatureCollection", "features": [{"type": "Feature", "geometry": {"type": "Polygon", "coordinates": [[[131.25, -79.5], [131.25, -78.0], [132.75, -78.0], [132.75, -79.5], [131.25, -79.5]]]}, "properties": {"cell_id": "88_7", "lon": 132.0, "lat": -78.75}}, {"type": "Feature", "geometry": {"type": "Polygon", "coordinates": [[[131.25, -78.0], [131.25, -76.5], [132.75, -76.5], [132.75, -78.0], [131.25, -78.0]]]}, "properties": {"cell_id": "88_8", "lon": 132.0, "lat": -77.25}}, {"type": "Feature", "geometry": {"type": "Polygon", "coordinates": [[[131.25, -76.5], [131.25, -75.0], [132.75, -75.0], [132.75, -76.5], [131.25, -76.5]]]}, "properties": {"cell_id": "88_9", "lon": 132.0, "lat": -75.75}}, {"type": "Feature", "geometry": {"type": "Polygon", "coordinates": [[[131.25, -75.0], [131.25, -73.5], [132.75, -73.5], [132.75, -75.0], [131.25, -75.0]]]}, "properties": {"cell_id": "88_10", "lon": 132.0, "lat": -74.25}}, {"type": "Feature", "geometry": {"type": "Polygon", "coordinates": [[[131.25, -73.5], [131.25, -72.0], [132.75, -72.0], [132.75, -73.5], [131.25, -73.5]]]}, "properties": {"cell_id": "88_11", "lon": 132.0, "lat": -72.75}}, {"type": "Feature", "geometry": {"type": "Polygon", "coordinates": [[[131.25, -72.0], [131.25, -70.5], [132.75, -70.5], [132.75, -72.0], [131.25, -72.0]]]}, "properties": {"cell_id": "88_12", "lon": 132.0, "lat": -71.25}}, {"type": "Feature", "geometry": {"type": "Polygon", "coordinates": [[[131.25, -70.5], [131.25, -69.0], [132.75, -69.0], [132.75, -70.5], [131.25, -70.5]]]}, "properties": {"cell_id": "88_13", "lon": 132.0, "lat": -69.75}}, {"type": "Feature", "geometry": {"type": "Polygon", "coordinates": [[[132.75, -79.5], [132.75, -78.0], [134.25, -78.0], [134.25, -79.5], [132.75, -79.5]]]}, "properties": {"cell_id": "89_7", "lon": 133.5, "lat": -78.75}}, {"type": "Feature", "geometry": {"type": "Polygon", "coordinates": [[[132.75, -78.0], [132.75, -76.5], [134.25, -76.5], [134.25, -78.0], [132.75, -78.0]]]}, "properties": {"cell_id": "89_8", "lon": 133.5, "lat": -77.25}}, {"type": "Feature", "geometry": {"type": "Polygon", "coordinates": [[[132.75, -76.5], [132.75, -75.0], [134.25, -75.0], [134.25, -76.5], [132.75, -76.5]]]}, "properties": {"cell_id": "89_9", "lon": 133.5, "lat": -75.75}}, {"type": "Feature", "geometry": {"type": "Polygon", "coordinates": [[[132.75, -75.0], [132.75, -73.5], [134.25, -73.5], [134.25, -75.0], [132.75, -75.0]]]}, "properties": {"cell_id": "89_10", "lon": 133.5, "lat": -74.25}}, {"type": "Feature", "geometry": {"type": "Polygon", "coordinates": [[[132.75, -73.5], [132.75, -72.0], [134.25, -72.0], [134.25, -73.5], [132.75, -73.5]]]}, "properties": {"cell_id": "89_11", "lon": 133.5, "lat": -72.75}}, {"type": "Feature", "geometry": {"type": "Polygon", "coordinates": [[[132.75, -72.0], [132.75, -70.5], [134.25, -70.5], [134.25, -72.0], [132.75, -72.0]]]}, "properties": {"cell_id": "89_12", "lon": 133.5, "lat": -71.25}}, {"type": "Feature", "geometry": {"type": "Polygon", "coordinates": [[[132.75, -70.5], [132.75, -69.0], [134.25, -69.0], [134.25, -70.5], [132.75, -70.5]]]}, "properties": {"cell_id": "89_13", "lon": 133.5, "lat": -69.75}}, {"type": "Feature", "geometry": {"type": "Polygon", "coordinates": [[[134.25, -79.5], [134.25, -78.0], [135.75, -78.0], [135.75, -79.5], [134.25, -79.5]]]}, "properties": {"cell_id": "90_7", "lon": 135.0, "lat": -78.75}}, {"type": "Feature", "geometry": {"type": "Polygon", "coordinates": [[[134.25, -78.0], [134.25, -76.5], [135.75, -76.5], [135.75, -78.0], [134.25, -78.0]]]}, "properties": {"cell_id": "90_8", "lon": 135.0, "lat": -77.25}}, {"type": "Feature", "geometry": {"type": "Polygon", "coordinates": [[[134.25, -76.5], [134.25, -75.0], [135.75, -75.0], [135.75, -76.5], [134.25, -76.5]]]}, "properties": {"cell_id": "90_9", "lon": 135.0, "lat": -75.75}}, {"type": "Feature", "geometry": {"type": "Polygon", "coordinates": [[[134.25, -75.0], [134.25, -73.5], [135.75, -73.5], [135.75, -75.0], [134.25, -75.0]]]}, "properties": {"cell_id": "90_10", "lon": 135.0, "lat": -74.25}}, {"type": "Feature", "geometry": {"type": "Polygon", "coordinates": [[[134.25, -73.5], [134.25, -72.0], [135.75, -72.0], [135.75, -73.5], [134.25, -73.5]]]}, "properties": {"cell_id": "90_11", "lon": 135.0, "lat": -72.75}}, {"type": "Feature", "geometry": {"type": "Polygon", "coordinates": [[[134.25, -72.0], [134.25, -70.5], [135.75, -70.5], [135.75, -72.0], [134.25, -72.0]]]}, "properties": {"cell_id": "90_12", "lon": 135.0, "lat": -71.25}}, {"type": "Feature", "geometry": {"type": "Polygon", "coordinates": [[[134.25, -70.5], [134.25, -69.0], [135.75, -69.0], [135.75, -70.5], [134.25, -70.5]]]}, "properties": {"cell_id": "90_13", "lon": 135.0, "lat": -69.75}}, {"type": "Feature", "geometry": {"type": "Polygon", "coordinates": [[[135.75, -79.5], [135.75, -78.0], [137.25, -78.0], [137.25, -79.5], [135.75, -79.5]]]}, "properties": {"cell_id": "91_7", "lon": 136.5, "lat": -78.75}}, {"type": "Feature", "geometry": {"type": "Polygon", "coordinates": [[[135.75, -78.0], [135.75, -76.5], [137.25, -76.5], [137.25, -78.0], [135.75, -78.0]]]}, "properties": {"cell_id": "91_8", "lon": 136.5, "lat": -77.25}}, {"type": "Feature", "geometry": {"type": "Polygon", "coordinates": [[[135.75, -76.5], [135.75, -75.0], [137.25, -75.0], [137.25, -76.5], [135.75, -76.5]]]}, "properties": {"cell_id": "91_9", "lon": 136.5, "lat": -75.75}}, {"type": "Feature", "geometry": {"type": "Polygon", "coordinates": [[[135.75, -75.0], [135.75, -73.5], [137.25, -73.5], [137.25, -75.0], [135.75, -75.0]]]}, "properties": {"cell_id": "91_10", "lon": 136.5, "lat": -74.25}}, {"type": "Feature", "geometry": {"type": "Polygon", "coordinates": [[[135.75, -73.5], [135.75, -72.0], [137.25, -72.0], [137.25, -73.5], [135.75, -73.5]]]}, "properties": {"cell_id": "91_11", "lon": 136.5, "lat": -72.75}}, {"type": "Feature", "geometry": {"type": "Polygon", "coordinates": [[[135.75, -72.0], [135.75, -70.5], [137.25, -70.5], [137.25, -72.0], [135.75, -72.0]]]}, "properties": {"cell_id": "91_12", "lon": 136.5, "lat": -71.25}}, {"type": "Feature", "geometry": {"type": "Polygon", "coordinates": [[[135.75, -70.5], [135.75, -69.0], [137.25, -69.0], [137.25, -70.5], [135.75, -70.5]]]}, "properties": {"cell_id": "91_13", "lon": 136.5, "lat": -69.75}}, {"type": "Feature", "geometry": {"type": "Polygon", "coordinates": [[[137.25, -79.5], [137.25, -78.0], [138.75, -78.0], [138.75, -79.5], [137.25, -79.5]]]}, "properties": {"cell_id": "92_7", "lon": 138.0, "lat": -78.75}}, {"type": "Feature", "geometry": {"type": "Polygon", "coordinates": [[[137.25, -78.0], [137.25, -76.5], [138.75, -76.5], [138.75, -78.0], [137.25, -78.0]]]}, "properties": {"cell_id": "92_8", "lon": 138.0, "lat": -77.25}}, {"type": "Feature", "geometry": {"type": "Polygon", "coordinates": [[[137.25, -76.5], [137.25, -75.0], [138.75, -75.0], [138.75, -76.5], [137.25, -76.5]]]}, "properties": {"cell_id": "92_9", "lon": 138.0, "lat": -75.75}}, {"type": "Feature", "geometry": {"type": "Polygon", "coordinates": [[[137.25, -75.0], [137.25, -73.5], [138.75, -73.5], [138.75, -75.0], [137.25, -75.0]]]}, "properties": {"cell_id": "92_10", "lon": 138.0, "lat": -74.25}}, {"type": "Feature", "geometry": {"type": "Polygon", "coordinates": [[[137.25, -73.5], [137.25, -72.0], [138.75, -72.0], [138.75, -73.5], [137.25, -73.5]]]}, "properties": {"cell_id": "92_11", "lon": 138.0, "lat": -72.75}}, {"type": "Feature", "geometry": {"type": "Polygon", "coordinates": [[[137.25, -72.0], [137.25, -70.5], [138.75, -70.5], [138.75, -72.0], [137.25, -72.0]]]}, "properties": {"cell_id": "92_12", "lon": 138.0, "lat": -71.25}}, {"type": "Feature", "geometry": {"type": "Polygon", "coordinates": [[[137.25, -70.5], [137.25, -69.0], [138.75, -69.0], [138.75, -70.5], [137.25, -70.5]]]}, "properties": {"cell_id": "92_13", "lon": 138.0, "lat": -69.75}}, {"type": "Feature", "geometry": {"type": "Polygon", "coordinates": [[[138.75, -79.5], [138.75, -78.0], [140.25, -78.0], [140.25, -79.5], [138.75, -79.5]]]}, "properties": {"cell_id": "93_7", "lon": 139.5, "lat": -78.75}}, {"type": "Feature", "geometry": {"type": "Polygon", "coordinates": [[[138.75, -78.0], [138.75, -76.5], [140.25, -76.5], [140.25, -78.0], [138.75, -78.0]]]}, "properties": {"cell_id": "93_8", "lon": 139.5, "lat": -77.25}}, {"type": "Feature", "geometry": {"type": "Polygon", "coordinates": [[[138.75, -76.5], [138.75, -75.0], [140.25, -75.0], [140.25, -76.5], [138.75, -76.5]]]}, "properties": {"cell_id": "93_9", "lon": 139.5, "lat": -75.75}}, {"type": "Feature", "geometry": {"type": "Polygon", "coordinates": [[[138.75, -75.0], [138.75, -73.5], [140.25, -73.5], [140.25, -75.0], [138.75, -75.0]]]}, "properties": {"cell_id": "93_10", "lon": 139.5, "lat": -74.25}}, {"type": "Feature", "geometry": {"type": "Polygon", "coordinates": [[[138.75, -73.5], [138.75, -72.0], [140.25, -72.0], [140.25, -73.5], [138.75, -73.5]]]}, "properties": {"cell_id": "93_11", "lon": 139.5, "lat": -72.75}}, {"type": "Feature", "geometry": {"type": "Polygon", "coordinates": [[[138.75, -72.0], [138.75, -70.5], [140.25, -70.5], [140.25, -72.0], [138.75, -72.0]]]}, "properties": {"cell_id": "93_12", "lon": 139.5, "lat": -71.25}}, {"type": "Feature", "geometry": {"type": "Polygon", "coordinates": [[[138.75, -70.5], [138.75, -69.0], [140.25, -69.0], [140.25, -70.5], [138.75, -70.5]]]}, "properties": {"cell_id": "93_13", "lon": 139.5, "lat": -69.75}}]}