{"type": "FeatureCollection", "features": [{"type": "Feature", "geometry": {"type": "Polygon", "coordinates": [[[30.75, -90.0], [30.75, -88.5], [32.25, -88.5], [32.25, -90.0], [30.75, -90.0]]]}, "properties": {"cell_id": "21_0", "lon": 31.5, "lat": -89.25}}, {"type": "Feature", "geometry": {"type": "Polygon", "coordinates": [[[30.75, -88.5], [30.75, -87.0], [32.25, -87.0], [32.25, -88.5], [30.75, -88.5]]]}, "properties": {"cell_id": "21_1", "lon": 31.5, "lat": -87.75}}, {"type": "Feature", "geometry": {"type": "Polygon", "coordinates": [[[30.75, -87.0], [30.75, -85.5], [32.25, -85.5], [32.25, -87.0], [30.75, -87.0]]]}, "properties": {"cell_id": "21_2", "lon": 31.5, "lat": -86.25}}, {"type": "Feature", "geometry": {"type": "Polygon", "coordinates": [[[30.75, -85.5], [30.75, -84.0], [32.25, -84.0], [32.25, -85.5], [30.75, -85.5]]]}, "properties": {"cell_id": "21_3", "lon": 31.5, "lat": -84.75}}, {"type": "Feature", "geometry": {"type": "Polygon", "coordinates": [[[30.75, -84.0], [30.75, -82.5], [32.25, -82.5], [32.25, -84.0], [30.75, -84.0]]]}, "properties": {"cell_id": "21_4", "lon": 31.5, "lat": -83.25}}, {"type": "Feature", "geometry": {"type": "Polygon", "coordinates": [[[30.75, -82.5], [30.75, -81.0], [32.25, -81.0], [32.25, -82.5], [30.75, -82.5]]]}, "properties": {"cell_id": "21_5", "lon": 31.5, "lat": -81.75}}, {"type": "Feature", "geometry": {"type": "Polygon", "coordinates": [[[30.75, -81.0], [30.75, -79.5], [32.25, -79.5], [32.25, -81.0], [30.75, -81.0]]]}, "properties": {"cell_id": "21_6", "lon": 31.5, "lat": -80.25}}, {"type": "Feature", "geometry": {"type": "Polygon", "coordinates": [[[32.25, -90.0], [32.25, -88.5], [33.75, -88.5], [33.75, -90.0], [32.25, -90.0]]]}, "properties": {"cell_id": "22_0", "lon": 33.0, "lat": -89.25}}, {"type": "Feature", "geometry": {"type": "Polygon", "coordinates": [[[32.25, -88.5], [32.25, -87.0], [33.75, -87.0], [33.75, -88.5], [32.25, -88.5]]]}, "properties": {"cell_id": "22_1", "lon": 33.0, "lat": -87.75}}, {"type": "Feature", "geometry": {"type": "Polygon", "coordinates": [[[32.25, -87.0], [32.25, -85.5], [33.75, -85.5], [33.75, -87.0], [32.25, -87.0]]]}, "properties": {"cell_id": "22_2", "lon": 33.0, "lat": -86.25}}, {"type": "Feature", "geometry": {"type": "Polygon", "coordinates": [[[32.25, -85.5], [32.25, -84.0], [33.75, -84.0], [33.75, -85.5], [32.25, -85.5]]]}, "properties": {"cell_id": "22_3", "lon": 33.0, "lat": -84.75}}, {"type": "Feature", "geometry": {"type": "Polygon", "coordinates": [[[32.25, -84.0], [32.25, -82.5], [33.75, -82.5], [33.75, -84.0], [32.25, -84.0]]]}, "properties": {"cell_id": "22_4", "lon": 33.0, "lat": -83.25}}, {"type": "Feature", "geometry": {"type": "Polygon", "coordinates": [[[32.25, -82.5], [32.25, -81.0], [33.75, -81.0], [33.75, -82.5], [32.25, -82.5]]]}, "properties": {"cell_id": "22_5", "lon": 33.0, "lat": -81.75}}, {"type": "Feature", "geometry": {"type": "Polygon", "coordinates": [[[32.25, -81.0], [32.25, -79.5], [33.75, -79.5], [33.75, -81.0], [32.25, -81.0]]]}, "properties": {"cell_id": "22_6", "lon": 33.0, "lat": -80.25}}, {"type": "Feature", "geometry": {"type": "Polygon", "coordinates": [[[33.75, -90.0], [33.75, -88.5], [35.25, -88.5], [35.25, -90.0], [33.75, -90.0]]]}, "properties": {"cell_id": "23_0", "lon": 34.5, "lat": -89.25}}, {"type": "Feature", "geometry": {"type": "Polygon", "coordinates": [[[33.75, -88.5], [33.75, -87.0], [35.25, -87.0], [35.25, -88.5], [33.75, -88.5]]]}, "properties": {"cell_id": "23_1", "lon": 34.5, "lat": -87.75}}, {"type": "Feature", "geometry": {"type": "Polygon", "coordinates": [[[33.75, -87.0], [33.75, -85.5], [35.25, -85.5], [35.25, -87.0], [33.75, -87.0]]]}, "properties": {"cell_id": "23_2", "lon": 34.5, "lat": -86.25}}, {"type": "Feature", "geometry": {"type": "Polygon", "coordinates": [[[33.75, -85.5], [33.75, -84.0], [35.25, -84.0], [35.25, -85.5], [33.75, -85.5]]]}, "properties": {"cell_id": "23_3", "lon": 34.5, "lat": -84.75}}, {"type": "Feature", "geometry": {"type": "Polygon", "coordinates": [[[33.75, -84.0], [33.75, -82.5], [35.25, -82.5], [35.25, -84.0], [33.75, -84.0]]]}, "properties": {"cell_id": "23_4", "lon": 34.5, "lat": -83.25}}, {"type": "Feature", "geometry": {"type": "Polygon", "coordinates": [[[33.75, -82.5], [33.75, -81.0], [35.25, -81.0], [35.25, -82.5], [33.75, -82.5]]]}, "properties": {"cell_id": "23_5", "lon": 34.5, "lat": -81.75}}, {"type": "Feature", "geometry": {"type": "Polygon", "coordinates": [[[33.75, -81.0], [33.75, -79.5], [35.25, -79.5], [35.25, -81.0], [33.75, -81.0]]]}, "properties": {"cell_id": "23_6", "lon": 34.5, "lat": -80.25}}, {"type": "Feature", "geometry": {"type": "Polygon", "coordinates": [[[35.25, -90.0], [35.25, -88.5], [36.75, -88.5], [36.75, -90.0], [35.25, -90.0]]]}, "properties": {"cell_id": "24_0", "lon": 36.0, "lat": -89.25}}, {"type": "Feature", "geometry": {"type": "Polygon", "coordinates": [[[35.25, -88.5], [35.25, -87.0], [36.75, -87.0], [36.75, -88.5], [35.25, -88.5]]]}, "properties": {"cell_id": "24_1", "lon": 36.0, "lat": -87.75}}, {"type": "Feature", "geometry": {"type": "Polygon", "coordinates": [[[35.25, -87.0], [35.25, -85.5], [36.75, -85.5], [36.75, -87.0], [35.25, -87.0]]]}, "properties": {"cell_id": "24_2", "lon": 36.0, "lat": -86.25}}, {"type": "Feature", "geometry": {"type": "Polygon", "coordinates": [[[35.25, -85.5], [35.25, -84.0], [36.75, -84.0], [36.75, -85.5], [35.25, -85.5]]]}, "properties": {"cell_id": "24_3", "lon": 36.0, "lat": -84.75}}, {"type": "Feature", "geometry": {"type": "Polygon", "coordinates": [[[35.25, -84.0], [35.25, -82.5], [36.75, -82.5], [36.75, -84.0], [35.25, -84.0]]]}, "properties": {"cell_id": "24_4", "lon": 36.0, "lat": -83.25}}, {"type": "Feature", "geometry": {"type": "Polygon", "coordinates": [[[35.25, -82.5], [35.25, -81.0], [36.75, -81.0], [36.75, -82.5], [35.25, -82.5]]]}, "properties": {"cell_id": "24_5", "lon": 36.0, "lat": -81.75}}, {"type": "Feature", "geometry": {"type": "Polygon", "coordinates": [[[35.25, -81.0], [35.25, -79.5], [36.75, -79.5], [36.75, -81.0], [35.25, -81.0]]]}, "properties": {"cell_id": "24_6", "lon": 36.0, "lat": -80.25}}, {"type": "Feature", "geometry": {"type": "Polygon", "coordinates": [[[36.75, -90.0], [36.75, -88.5], [38.25, -88.5], [38.25, -90.0], [36.75, -90.0]]]}, "properties": {"cell_id": "25_0", "lon": 37.5, "lat": -89.25}}, {"type": "Feature", "geometry": {"type": "Polygon", "coordinates": [[[36.75, -88.5], [36.75, -87.0], [38.25, -87.0], [38.25, -88.5], [36.75, -88.5]]]}, "properties": {"cell_id": "25_1", "lon": 37.5, "lat": -87.75}}, {"type": "Feature", "geometry": {"type": "Polygon", "coordinates": [[[36.75, -87.0], [36.75, -85.5], [38.25, -85.5], [38.25, -87.0], [36.75, -87.0]]]}, "properties": {"cell_id": "25_2", "lon": 37.5, "lat": -86.25}}, {"type": "Feature", "geometry": {"type": "Polygon", "coordinates": [[[36.75, -85.5], [36.75, -84.0], [38.25, -84.0], [38.25, -85.5], [36.75, -85.5]]]}, "properties": {"cell_id": "25_3", "lon": 37.5, "lat": -84.75}}, {"type": "Feature", "geometry": {"type": "Polygon", "coordinates": [[[36.75, -84.0], [36.75, -82.5], [38.25, -82.5], [38.25, -84.0], [36.75, -84.0]]]}, "properties": {"cell_id": "25_4", "lon": 37.5, "lat": -83.25}}, {"type": "Feature", "geometry": {"type": "Polygon", "coordinates": [[[36.75, -82.5], [36.75, -81.0], [38.25, -81.0], [38.25, -82.5], [36.75, -82.5]]]}, "properties": {"cell_id": "25_5", "lon": 37.5, "lat": -81.75}}, {"type": "Feature", "geometry": {"type": "Polygon", "coordinates": [[[36.75, -81.0], [36.75, -79.5], [38.25, -79.5], [38.25, -81.0], [36.75, -81.0]]]}, "properties": {"cell_id": "25_6", "lon": 37.5, "lat": -80.25}}, {"type": "Feature", "geometry": {"type": "Polygon", "coordinates": [[[38.25, -90.0], [38.25, -88.5], [39.75, -88.5], [39.75, -90.0], [38.25, -90.0]]]}, "properties": {"cell_id": "26_0", "lon": 39.0, "lat": -89.25}}, {"type": "Feature", "geometry": {"type": "Polygon", "coordinates": [[[38.25, -88.5], [38.25, -87.0], [39.75, -87.0], [39.75, -88.5], [38.25, -88.5]]]}, "properties": {"cell_id": "26_1", "lon": 39.0, "lat": -87.75}}, {"type": "Feature", "geometry": {"type": "Polygon", "coordinates": [[[38.25, -87.0], [38.25, -85.5], [39.75, -85.5], [39.75, -87.0], [38.25, -87.0]]]}, "properties": {"cell_id": "26_2", "lon": 39.0, "lat": -86.25}}, {"type": "Feature", "geometry": {"type": "Polygon", "coordinates": [[[38.25, -85.5], [38.25, -84.0], [39.75, -84.0], [39.75, -85.5], [38.25, -85.5]]]}, "properties": {"cell_id": "26_3", "lon": 39.0, "lat": -84.75}}, {"type": "Feature", "geometry": {"type": "Polygon", "coordinates": [[[38.25, -84.0], [38.25, -82.5], [39.75, -82.5], [39.75, -84.0], [38.25, -84.0]]]}, "properties": {"cell_id": "26_4", "lon": 39.0, "lat": -83.25}}, {"type": "Feature", "geometry": {"type": "Polygon", "coordinates": [[[38.25, -82.5], [38.25, -81.0], [39.75, -81.0], [39.75, -82.5], [38.25, -82.5]]]}, "properties": {"cell_id": "26_5", "lon": 39.0, "lat": -81.75}}, {"type": "Feature", "geometry": {"type": "Polygon", "coordinates": [[[38.25, -81.0], [38.25, -79.5], [39.75, -79.5], [39.75, -81.0], [38.25, -81.0]]]}, "properties": {"cell_id": "26_6", "lon": 39.0, "lat": -80.25}}, {"type": "Feature", "geometry": {"type": "Polygon", "coordinates": [[[39.75, -90.0], [39.75, -88.5], [41.25, -88.5], [41.25, -90.0], [39.75, -90.0]]]}, "properties": {"cell_id": "27_0", "lon": 40.5, "lat": -89.25}}, {"type": "Feature", "geometry": {"type": "Polygon", "coordinates": [[[39.75, -88.5], [39.75, -87.0], [41.25, -87.0], [41.25, -88.5], [39.75, -88.5]]]}, "properties": {"cell_id": "27_1", "lon": 40.5, "lat": -87.75}}, {"type": "Feature", "geometry": {"type": "Polygon", "coordinates": [[[39.75, -87.0], [39.75, -85.5], [41.25, -85.5], [41.25, -87.0], [39.75, -87.0]]]}, "properties": {"cell_id": "27_2", "lon": 40.5, "lat": -86.25}}, {"type": "Feature", "geometry": {"type": "Polygon", "coordinates": [[[39.75, -85.5], [39.75, -84.0], [41.25, -84.0], [41.25, -85.5], [39.75, -85.5]]]}, "properties": {"cell_id": "27_3", "lon": 40.5, "lat": -84.75}}, {"type": "Feature", "geometry": {"type": "Polygon", "coordinates": [[[39.75, -84.0], [39.75, -82.5], [41.25, -82.5], [41.25, -84.0], [39.75, -84.0]]]}, "properties": {"cell_id": "27_4", "lon": 40.5, "lat": -83.25}}, {"type": "Feature", "geometry": {"type": "Polygon", "coordinates": [[[39.75, -82.5], [39.75, -81.0], [41.25, -81.0], [41.25, -82.5], [39.75, -82.5]]]}, "properties": {"cell_id": "27_5", "lon": 40.5, "lat": -81.75}}, {"type": "Feature", "geometry": {"type": "Polygon", "coordinates": [[[39.75, -81.0], [39.75, -79.5], [41.25, -79.5], [41.25, -81.0], [39.75, -81.0]]]}, "properties": {"cell_id": "27_6", "lon": 40.5, "lat": -80.25}}]}