{"type": "FeatureCollection", "features": [{"type": "Feature", "geometry": {"type": "Polygon", "coordinates": [[[20.25, 21.0], [20.25, 22.5], [21.75, 22.5], [21.75, 21.0], [20.25, 21.0]]]}, "properties": {"cell_id": "14_74", "lon": 21.0, "lat": 21.75}}, {"type": "Feature", "geometry": {"type": "Polygon", "coordinates": [[[20.25, 22.5], [20.25, 24.0], [21.75, 24.0], [21.75, 22.5], [20.25, 22.5]]]}, "properties": {"cell_id": "14_75", "lon": 21.0, "lat": 23.25}}, {"type": "Feature", "geometry": {"type": "Polygon", "coordinates": [[[20.25, 24.0], [20.25, 25.5], [21.75, 25.5], [21.75, 24.0], [20.25, 24.0]]]}, "properties": {"cell_id": "14_76", "lon": 21.0, "lat": 24.75}}, {"type": "Feature", "geometry": {"type": "Polygon", "coordinates": [[[20.25, 25.5], [20.25, 27.0], [21.75, 27.0], [21.75, 25.5], [20.25, 25.5]]]}, "properties": {"cell_id": "14_77", "lon": 21.0, "lat": 26.25}}, {"type": "Feature", "geometry": {"type": "Polygon", "coordinates": [[[20.25, 27.0], [20.25, 28.5], [21.75, 28.5], [21.75, 27.0], [20.25, 27.0]]]}, "properties": {"cell_id": "14_78", "lon": 21.0, "lat": 27.75}}, {"type": "Feature", "geometry": {"type": "Polygon", "coordinates": [[[20.25, 28.5], [20.25, 30.0], [21.75, 30.0], [21.75, 28.5], [20.25, 28.5]]]}, "properties": {"cell_id": "14_79", "lon": 21.0, "lat": 29.25}}, {"type": "Feature", "geometry": {"type": "Polygon", "coordinates": [[[21.75, 21.0], [21.75, 22.5], [23.25, 22.5], [23.25, 21.0], [21.75, 21.0]]]}, "properties": {"cell_id": "15_74", "lon": 22.5, "lat": 21.75}}, {"type": "Feature", "geometry": {"type": "Polygon", "coordinates": [[[21.75, 22.5], [21.75, 24.0], [23.25, 24.0], [23.25, 22.5], [21.75, 22.5]]]}, "properties": {"cell_id": "15_75", "lon": 22.5, "lat": 23.25}}, {"type": "Feature", "geometry": {"type": "Polygon", "coordinates": [[[21.75, 24.0], [21.75, 25.5], [23.25, 25.5], [23.25, 24.0], [21.75, 24.0]]]}, "properties": {"cell_id": "15_76", "lon": 22.5, "lat": 24.75}}, {"type": "Feature", "geometry": {"type": "Polygon", "coordinates": [[[21.75, 25.5], [21.75, 27.0], [23.25, 27.0], [23.25, 25.5], [21.75, 25.5]]]}, "properties": {"cell_id": "15_77", "lon": 22.5, "lat": 26.25}}, {"type": "Feature", "geometry": {"type": "Polygon", "coordinates": [[[21.75, 27.0], [21.75, 28.5], [23.25, 28.5], [23.25, 27.0], [21.75, 27.0]]]}, "properties": {"cell_id": "15_78", "lon": 22.5, "lat": 27.75}}, {"type": "Feature", "geometry": {"type": "Polygon", "coordinates": [[[21.75, 28.5], [21.75, 30.0], [23.25, 30.0], [23.25, 28.5], [21.75, 28.5]]]}, "properties": {"cell_id": "15_79", "lon": 22.5, "lat": 29.25}}, {"type": "Feature", "geometry": {"type": "Polygon", "coordinates": [[[23.25, 21.0], [23.25, 22.5], [24.75, 22.5], [24.75, 21.0], [23.25, 21.0]]]}, "properties": {"cell_id": "16_74", "lon": 24.0, "lat": 21.75}}, {"type": "Feature", "geometry": {"type": "Polygon", "coordinates": [[[23.25, 22.5], [23.25, 24.0], [24.75, 24.0], [24.75, 22.5], [23.25, 22.5]]]}, "properties": {"cell_id": "16_75", "lon": 24.0, "lat": 23.25}}, {"type": "Feature", "geometry": {"type": "Polygon", "coordinates": [[[23.25, 24.0], [23.25, 25.5], [24.75, 25.5], [24.75, 24.0], [23.25, 24.0]]]}, "properties": {"cell_id": "16_76", "lon": 24.0, "lat": 24.75}}, {"type": "Feature", "geometry": {"type": "Polygon", "coordinates": [[[23.25, 25.5], [23.25, 27.0], [24.75, 27.0], [24.75, 25.5], [23.25, 25.5]]]}, "properties": {"cell_id": "16_77", "lon": 24.0, "lat": 26.25}}, {"type": "Feature", "geometry": {"type": "Polygon", "coordinates": [[[23.25, 27.0], [23.25, 28.5], [24.75, 28.5], [24.75, 27.0], [23.25, 27.0]]]}, "properties": {"cell_id": "16_78", "lon": 24.0, "lat": 27.75}}, {"type": "Feature", "geometry": {"type": "Polygon", "coordinates": [[[23.25, 28.5], [23.25, 30.0], [24.75, 30.0], [24.75, 28.5], [23.25, 28.5]]]}, "properties": {"cell_id": "16_79", "lon": 24.0, "lat": 29.25}}, {"type": "Feature", "geometry": {"type": "Polygon", "coordinates": [[[24.75, 21.0], [24.75, 22.5], [26.25, 22.5], [26.25, 21.0], [24.75, 21.0]]]}, "properties": {"cell_id": "17_74", "lon": 25.5, "lat": 21.75}}, {"type": "Feature", "geometry": {"type": "Polygon", "coordinates": [[[24.75, 22.5], [24.75, 24.0], [26.25, 24.0], [26.25, 22.5], [24.75, 22.5]]]}, "properties": {"cell_id": "17_75", "lon": 25.5, "lat": 23.25}}, {"type": "Feature", "geometry": {"type": "Polygon", "coordinates": [[[24.75, 24.0], [24.75, 25.5], [26.25, 25.5], [26.25, 24.0], [24.75, 24.0]]]}, "properties": {"cell_id": "17_76", "lon": 25.5, "lat": 24.75}}, {"type": "Feature", "geometry": {"type": "Polygon", "coordinates": [[[24.75, 25.5], [24.75, 27.0], [26.25, 27.0], [26.25, 25.5], [24.75, 25.5]]]}, "properties": {"cell_id": "17_77", "lon": 25.5, "lat": 26.25}}, {"type": "Feature", "geometry": {"type": "Polygon", "coordinates": [[[24.75, 27.0], [24.75, 28.5], [26.25, 28.5], [26.25, 27.0], [24.75, 27.0]]]}, "properties": {"cell_id": "17_78", "lon": 25.5, "lat": 27.75}}, {"type": "Feature", "geometry": {"type": "Polygon", "coordinates": [[[24.75, 28.5], [24.75, 30.0], [26.25, 30.0], [26.25, 28.5], [24.75, 28.5]]]}, "properties": {"cell_id": "17_79", "lon": 25.5, "lat": 29.25}}, {"type": "Feature", "geometry": {"type": "Polygon", "coordinates": [[[26.25, 21.0], [26.25, 22.5], [27.75, 22.5], [27.75, 21.0], [26.25, 21.0]]]}, "properties": {"cell_id": "18_74", "lon": 27.0, "lat": 21.75}}, {"type": "Feature", "geometry": {"type": "Polygon", "coordinates": [[[26.25, 22.5], [26.25, 24.0], [27.75, 24.0], [27.75, 22.5], [26.25, 22.5]]]}, "properties": {"cell_id": "18_75", "lon": 27.0, "lat": 23.25}}, {"type": "Feature", "geometry": {"type": "Polygon", "coordinates": [[[26.25, 24.0], [26.25, 25.5], [27.75, 25.5], [27.75, 24.0], [26.25, 24.0]]]}, "properties": {"cell_id": "18_76", "lon": 27.0, "lat": 24.75}}, {"type": "Feature", "geometry": {"type": "Polygon", "coordinates": [[[26.25, 25.5], [26.25, 27.0], [27.75, 27.0], [27.75, 25.5], [26.25, 25.5]]]}, "properties": {"cell_id": "18_77", "lon": 27.0, "lat": 26.25}}, {"type": "Feature", "geometry": {"type": "Polygon", "coordinates": [[[26.25, 27.0], [26.25, 28.5], [27.75, 28.5], [27.75, 27.0], [26.25, 27.0]]]}, "properties": {"cell_id": "18_78", "lon": 27.0, "lat": 27.75}}, {"type": "Feature", "geometry": {"type": "Polygon", "coordinates": [[[26.25, 28.5], [26.25, 30.0], [27.75, 30.0], [27.75, 28.5], [26.25, 28.5]]]}, "properties": {"cell_id": "18_79", "lon": 27.0, "lat": 29.25}}, {"type": "Feature", "geometry": {"type": "Polygon", "coordinates": [[[27.75, 21.0], [27.75, 22.5], [29.25, 22.5], [29.25, 21.0], [27.75, 21.0]]]}, "properties": {"cell_id": "19_74", "lon": 28.5, "lat": 21.75}}, {"type": "Feature", "geometry": {"type": "Polygon", "coordinates": [[[27.75, 22.5], [27.75, 24.0], [29.25, 24.0], [29.25, 22.5], [27.75, 22.5]]]}, "properties": {"cell_id": "19_75", "lon": 28.5, "lat": 23.25}}, {"type": "Feature", "geometry": {"type": "Polygon", "coordinates": [[[27.75, 24.0], [27.75, 25.5], [29.25, 25.5], [29.25, 24.0], [27.75, 24.0]]]}, "properties": {"cell_id": "19_76", "lon": 28.5, "lat": 24.75}}, {"type": "Feature", "geometry": {"type": "Polygon", "coordinates": [[[27.75, 25.5], [27.75, 27.0], [29.25, 27.0], [29.25, 25.5], [27.75, 25.5]]]}, "properties": {"cell_id": "19_77", "lon": 28.5, "lat": 26.25}}, {"type": "Feature", "geometry": {"type": "Polygon", "coordinates": [[[27.75, 27.0], [27.75, 28.5], [29.25, 28.5], [29.25, 27.0], [27.75, 27.0]]]}, "properties": {"cell_id": "19_78", "lon": 28.5, "lat": 27.75}}, {"type": "Feature", "geometry": {"type": "Polygon", "coordinates": [[[27.75, 28.5], [27.75, 30.0], [29.25, 30.0], [29.25, 28.5], [27.75, 28.5]]]}, "properties": {"cell_id": "19_79", "lon": 28.5, "lat": 29.25}}, {"type": "Feature", "geometry": {"type": "Polygon", "coordinates": [[[29.25, 21.0], [29.25, 22.5], [30.75, 22.5], [30.75, 21.0], [29.25, 21.0]]]}, "properties": {"cell_id": "20_74", "lon": 30.0, "lat": 21.75}}, {"type": "Feature", "geometry": {"type": "Polygon", "coordinates": [[[29.25, 22.5], [29.25, 24.0], [30.75, 24.0], [30.75, 22.5], [29.25, 22.5]]]}, "properties": {"cell_id": "20_75", "lon": 30.0, "lat": 23.25}}, {"type": "Feature", "geometry": {"type": "Polygon", "coordinates": [[[29.25, 24.0], [29.25, 25.5], [30.75, 25.5], [30.75, 24.0], [29.25, 24.0]]]}, "properties": {"cell_id": "20_76", "lon": 30.0, "lat": 24.75}}, {"type": "Feature", "geometry": {"type": "Polygon", "coordinates": [[[29.25, 25.5], [29.25, 27.0], [30.75, 27.0], [30.75, 25.5], [29.25, 25.5]]]}, "properties": {"cell_id": "20_77", "lon": 30.0, "lat": 26.25}}, {"type": "Feature", "geometry": {"type": "Polygon", "coordinates": [[[29.25, 27.0], [29.25, 28.5], [30.75, 28.5], [30.75, 27.0], [29.25, 27.0]]]}, "properties": {"cell_id": "20_78", "lon": 30.0, "lat": 27.75}}, {"type": "Feature", "geometry": {"type": "Polygon", "coordinates": [[[29.25, 28.5], [29.25, 30.0], [30.75, 30.0], [30.75, 28.5], [29.25, 28.5]]]}, "properties": {"cell_id": "20_79", "lon": 30.0, "lat": 29.25}}]}