{"type": "FeatureCollection", "features": [{"type": "Feature", "geometry": {"type": "Polygon", "coordinates": [[[101.25, -69.0], [101.25, -67.5], [102.75, -67.5], [102.75, -69.0], [101.25, -69.0]]]}, "properties": {"cell_id": "68_14", "lon": 102.0, "lat": -68.25}}, {"type": "Feature", "geometry": {"type": "Polygon", "coordinates": [[[101.25, -67.5], [101.25, -66.0], [102.75, -66.0], [102.75, -67.5], [101.25, -67.5]]]}, "properties": {"cell_id": "68_15", "lon": 102.0, "lat": -66.75}}, {"type": "Feature", "geometry": {"type": "Polygon", "coordinates": [[[102.75, -69.0], [102.75, -67.5], [104.25, -67.5], [104.25, -69.0], [102.75, -69.0]]]}, "properties": {"cell_id": "69_14", "lon": 103.5, "lat": -68.25}}, {"type": "Feature", "geometry": {"type": "Polygon", "coordinates": [[[102.75, -67.5], [102.75, -66.0], [104.25, -66.0], [104.25, -67.5], [102.75, -67.5]]]}, "properties": {"cell_id": "69_15", "lon": 103.5, "lat": -66.75}}, {"type": "Feature", "geometry": {"type": "Polygon", "coordinates": [[[104.25, -69.0], [104.25, -67.5], [105.75, -67.5], [105.75, -69.0], [104.25, -69.0]]]}, "properties": {"cell_id": "70_14", "lon": 105.0, "lat": -68.25}}, {"type": "Feature", "geometry": {"type": "Polygon", "coordinates": [[[104.25, -67.5], [104.25, -66.0], [105.75, -66.0], [105.75, -67.5], [104.25, -67.5]]]}, "properties": {"cell_id": "70_15", "lon": 105.0, "lat": -66.75}}, {"type": "Feature", "geometry": {"type": "Polygon", "coordinates": [[[105.75, -69.0], [105.75, -67.5], [107.25, -67.5], [107.25, -69.0], [105.75, -69.0]]]}, "properties": {"cell_id": "71_14", "lon": 106.5, "lat": -68.25}}, {"type": "Feature", "geometry": {"type": "Polygon", "coordinates": [[[105.75, -67.5], [105.75, -66.0], [107.25, -66.0], [107.25, -67.5], [105.75, -67.5]]]}, "properties": {"cell_id": "71_15", "lon": 106.5, "lat": -66.75}}, {"type": "Feature", "geometry": {"type": "Polygon", "coordinates": [[[107.25, -69.0], [107.25, -67.5], [108.75, -67.5], [108.75, -69.0], [107.25, -69.0]]]}, "properties": {"cell_id": "72_14", "lon": 108.0, "lat": -68.25}}, {"type": "Feature", "geometry": {"type": "Polygon", "coordinates": [[[107.25, -67.5], [107.25, -66.0], [108.75, -66.0], [108.75, -67.5], [107.25, -67.5]]]}, "properties": {"cell_id": "72_15", "lon": 108.0, "lat": -66.75}}, {"type": "Feature", "geometry": {"type": "Polygon", "coordinates": [[[108.75, -69.0], [108.75, -67.5], [110.25, -67.5], [110.25, -69.0], [108.75, -69.0]]]}, "properties": {"cell_id": "73_14", "lon": 109.5, "lat": -68.25}}, {"type": "Feature", "geometry": {"type": "Polygon", "coordinates": [[[108.75, -67.5], [108.75, -66.0], [110.25, -66.0], [110.25, -67.5], [108.75, -67.5]]]}, "properties": {"cell_id": "73_15", "lon": 109.5, "lat": -66.75}}]}