{"type": "FeatureCollection", "features": [{"type": "Feature", "geometry": {"type": "Polygon", "coordinates": [[[30.75, -79.5], [30.75, -78.0], [32.25, -78.0], [32.25, -79.5], [30.75, -79.5]]]}, "properties": {"cell_id": "21_7", "lon": 31.5, "lat": -78.75}}, {"type": "Feature", "geometry": {"type": "Polygon", "coordinates": [[[30.75, -78.0], [30.75, -76.5], [32.25, -76.5], [32.25, -78.0], [30.75, -78.0]]]}, "properties": {"cell_id": "21_8", "lon": 31.5, "lat": -77.25}}, {"type": "Feature", "geometry": {"type": "Polygon", "coordinates": [[[30.75, -76.5], [30.75, -75.0], [32.25, -75.0], [32.25, -76.5], [30.75, -76.5]]]}, "properties": {"cell_id": "21_9", "lon": 31.5, "lat": -75.75}}, {"type": "Feature", "geometry": {"type": "Polygon", "coordinates": [[[30.75, -75.0], [30.75, -73.5], [32.25, -73.5], [32.25, -75.0], [30.75, -75.0]]]}, "properties": {"cell_id": "21_10", "lon": 31.5, "lat": -74.25}}, {"type": "Feature", "geometry": {"type": "Polygon", "coordinates": [[[30.75, -73.5], [30.75, -72.0], [32.25, -72.0], [32.25, -73.5], [30.75, -73.5]]]}, "properties": {"cell_id": "21_11", "lon": 31.5, "lat": -72.75}}, {"type": "Feature", "geometry": {"type": "Polygon", "coordinates": [[[30.75, -72.0], [30.75, -70.5], [32.25, -70.5], [32.25, -72.0], [30.75, -72.0]]]}, "properties": {"cell_id": "21_12", "lon": 31.5, "lat": -71.25}}, {"type": "Feature", "geometry": {"type": "Polygon", "coordinates": [[[30.75, -70.5], [30.75, -69.0], [32.25, -69.0], [32.25, -70.5], [30.75, -70.5]]]}, "properties": {"cell_id": "21_13", "lon": 31.5, "lat": -69.75}}, {"type": "Feature", "geometry": {"type": "Polygon", "coordinates": [[[32.25, -79.5], [32.25, -78.0], [33.75, -78.0], [33.75, -79.5], [32.25, -79.5]]]}, "properties": {"cell_id": "22_7", "lon": 33.0, "lat": -78.75}}, {"type": "Feature", "geometry": {"type": "Polygon", "coordinates": [[[32.25, -78.0], [32.25, -76.5], [33.75, -76.5], [33.75, -78.0], [32.25, -78.0]]]}, "properties": {"cell_id": "22_8", "lon": 33.0, "lat": -77.25}}, {"type": "Feature", "geometry": {"type": "Polygon", "coordinates": [[[32.25, -76.5], [32.25, -75.0], [33.75, -75.0], [33.75, -76.5], [32.25, -76.5]]]}, "properties": {"cell_id": "22_9", "lon": 33.0, "lat": -75.75}}, {"type": "Feature", "geometry": {"type": "Polygon", "coordinates": [[[32.25, -75.0], [32.25, -73.5], [33.75, -73.5], [33.75, -75.0], [32.25, -75.0]]]}, "properties": {"cell_id": "22_10", "lon": 33.0, "lat": -74.25}}, {"type": "Feature", "geometry": {"type": "Polygon", "coordinates": [[[32.25, -73.5], [32.25, -72.0], [33.75, -72.0], [33.75, -73.5], [32.25, -73.5]]]}, "properties": {"cell_id": "22_11", "lon": 33.0, "lat": -72.75}}, {"type": "Feature", "geometry": {"type": "Polygon", "coordinates": [[[32.25, -72.0], [32.25, -70.5], [33.75, -70.5], [33.75, -72.0], [32.25, -72.0]]]}, "properties": {"cell_id": "22_12", "lon": 33.0, "lat": -71.25}}, {"type": "Feature", "geometry": {"type": "Polygon", "coordinates": [[[32.25, -70.5], [32.25, -69.0], [33.75, -69.0], [33.75, -70.5], [32.25, -70.5]]]}, "properties": {"cell_id": "22_13", "lon": 33.0, "lat": -69.75}}, {"type": "Feature", "geometry": {"type": "Polygon", "coordinates": [[[33.75, -79.5], [33.75, -78.0], [35.25, -78.0], [35.25, -79.5], [33.75, -79.5]]]}, "properties": {"cell_id": "23_7", "lon": 34.5, "lat": -78.75}}, {"type": "Feature", "geometry": {"type": "Polygon", "coordinates": [[[33.75, -78.0], [33.75, -76.5], [35.25, -76.5], [35.25, -78.0], [33.75, -78.0]]]}, "properties": {"cell_id": "23_8", "lon": 34.5, "lat": -77.25}}, {"type": "Feature", "geometry": {"type": "Polygon", "coordinates": [[[33.75, -76.5], [33.75, -75.0], [35.25, -75.0], [35.25, -76.5], [33.75, -76.5]]]}, "properties": {"cell_id": "23_9", "lon": 34.5, "lat": -75.75}}, {"type": "Feature", "geometry": {"type": "Polygon", "coordinates": [[[33.75, -75.0], [33.75, -73.5], [35.25, -73.5], [35.25, -75.0], [33.75, -75.0]]]}, "properties": {"cell_id": "23_10", "lon": 34.5, "lat": -74.25}}, {"type": "Feature", "geometry": {"type": "Polygon", "coordinates": [[[33.75, -73.5], [33.75, -72.0], [35.25, -72.0], [35.25, -73.5], [33.75, -73.5]]]}, "properties": {"cell_id": "23_11", "lon": 34.5, "lat": -72.75}}, {"type": "Feature", "geometry": {"type": "Polygon", "coordinates": [[[33.75, -72.0], [33.75, -70.5], [35.25, -70.5], [35.25, -72.0], [33.75, -72.0]]]}, "properties": {"cell_id": "23_12", "lon": 34.5, "lat": -71.25}}, {"type": "Feature", "geometry": {"type": "Polygon", "coordinates": [[[33.75, -70.5], [33.75, -69.0], [35.25, -69.0], [35.25, -70.5], [33.75, -70.5]]]}, "properties": {"cell_id": "23_13", "lon": 34.5, "lat": -69.75}}, {"type": "Feature", "geometry": {"type": "Polygon", "coordinates": [[[35.25, -79.5], [35.25, -78.0], [36.75, -78.0], [36.75, -79.5], [35.25, -79.5]]]}, "properties": {"cell_id": "24_7", "lon": 36.0, "lat": -78.75}}, {"type": "Feature", "geometry": {"type": "Polygon", "coordinates": [[[35.25, -78.0], [35.25, -76.5], [36.75, -76.5], [36.75, -78.0], [35.25, -78.0]]]}, "properties": {"cell_id": "24_8", "lon": 36.0, "lat": -77.25}}, {"type": "Feature", "geometry": {"type": "Polygon", "coordinates": [[[35.25, -76.5], [35.25, -75.0], [36.75, -75.0], [36.75, -76.5], [35.25, -76.5]]]}, "properties": {"cell_id": "24_9", "lon": 36.0, "lat": -75.75}}, {"type": "Feature", "geometry": {"type": "Polygon", "coordinates": [[[35.25, -75.0], [35.25, -73.5], [36.75, -73.5], [36.75, -75.0], [35.25, -75.0]]]}, "properties": {"cell_id": "24_10", "lon": 36.0, "lat": -74.25}}, {"type": "Feature", "geometry": {"type": "Polygon", "coordinates": [[[35.25, -73.5], [35.25, -72.0], [36.75, -72.0], [36.75, -73.5], [35.25, -73.5]]]}, "properties": {"cell_id": "24_11", "lon": 36.0, "lat": -72.75}}, {"type": "Feature", "geometry": {"type": "Polygon", "coordinates": [[[35.25, -72.0], [35.25, -70.5], [36.75, -70.5], [36.75, -72.0], [35.25, -72.0]]]}, "properties": {"cell_id": "24_12", "lon": 36.0, "lat": -71.25}}, {"type": "Feature", "geometry": {"type": "Polygon", "coordinates": [[[35.25, -70.5], [35.25, -69.0], [36.75, -69.0], [36.75, -70.5], [35.25, -70.5]]]}, "properties": {"cell_id": "24_13", "lon": 36.0, "lat": -69.75}}, {"type": "Feature", "geometry": {"type": "Polygon", "coordinates": [[[36.75, -79.5], [36.75, -78.0], [38.25, -78.0], [38.25, -79.5], [36.75, -79.5]]]}, "properties": {"cell_id": "25_7", "lon": 37.5, "lat": -78.75}}, {"type": "Feature", "geometry": {"type": "Polygon", "coordinates": [[[36.75, -78.0], [36.75, -76.5], [38.25, -76.5], [38.25, -78.0], [36.75, -78.0]]]}, "properties": {"cell_id": "25_8", "lon": 37.5, "lat": -77.25}}, {"type": "Feature", "geometry": {"type": "Polygon", "coordinates": [[[36.75, -76.5], [36.75, -75.0], [38.25, -75.0], [38.25, -76.5], [36.75, -76.5]]]}, "properties": {"cell_id": "25_9", "lon": 37.5, "lat": -75.75}}, {"type": "Feature", "geometry": {"type": "Polygon", "coordinates": [[[36.75, -75.0], [36.75, -73.5], [38.25, -73.5], [38.25, -75.0], [36.75, -75.0]]]}, "properties": {"cell_id": "25_10", "lon": 37.5, "lat": -74.25}}, {"type": "Feature", "geometry": {"type": "Polygon", "coordinates": [[[36.75, -73.5], [36.75, -72.0], [38.25, -72.0], [38.25, -73.5], [36.75, -73.5]]]}, "properties": {"cell_id": "25_11", "lon": 37.5, "lat": -72.75}}, {"type": "Feature", "geometry": {"type": "Polygon", "coordinates": [[[36.75, -72.0], [36.75, -70.5], [38.25, -70.5], [38.25, -72.0], [36.75, -72.0]]]}, "properties": {"cell_id": "25_12", "lon": 37.5, "lat": -71.25}}, {"type": "Feature", "geometry": {"type": "Polygon", "coordinates": [[[36.75, -70.5], [36.75, -69.0], [38.25, -69.0], [38.25, -70.5], [36.75, -70.5]]]}, "properties": {"cell_id": "25_13", "lon": 37.5, "lat": -69.75}}, {"type": "Feature", "geometry": {"type": "Polygon", "coordinates": [[[38.25, -79.5], [38.25, -78.0], [39.75, -78.0], [39.75, -79.5], [38.25, -79.5]]]}, "properties": {"cell_id": "26_7", "lon": 39.0, "lat": -78.75}}, {"type": "Feature", "geometry": {"type": "Polygon", "coordinates": [[[38.25, -78.0], [38.25, -76.5], [39.75, -76.5], [39.75, -78.0], [38.25, -78.0]]]}, "properties": {"cell_id": "26_8", "lon": 39.0, "lat": -77.25}}, {"type": "Feature", "geometry": {"type": "Polygon", "coordinates": [[[38.25, -76.5], [38.25, -75.0], [39.75, -75.0], [39.75, -76.5], [38.25, -76.5]]]}, "properties": {"cell_id": "26_9", "lon": 39.0, "lat": -75.75}}, {"type": "Feature", "geometry": {"type": "Polygon", "coordinates": [[[38.25, -75.0], [38.25, -73.5], [39.75, -73.5], [39.75, -75.0], [38.25, -75.0]]]}, "properties": {"cell_id": "26_10", "lon": 39.0, "lat": -74.25}}, {"type": "Feature", "geometry": {"type": "Polygon", "coordinates": [[[38.25, -73.5], [38.25, -72.0], [39.75, -72.0], [39.75, -73.5], [38.25, -73.5]]]}, "properties": {"cell_id": "26_11", "lon": 39.0, "lat": -72.75}}, {"type": "Feature", "geometry": {"type": "Polygon", "coordinates": [[[38.25, -72.0], [38.25, -70.5], [39.75, -70.5], [39.75, -72.0], [38.25, -72.0]]]}, "properties": {"cell_id": "26_12", "lon": 39.0, "lat": -71.25}}, {"type": "Feature", "geometry": {"type": "Polygon", "coordinates": [[[38.25, -70.5], [38.25, -69.0], [39.75, -69.0], [39.75, -70.5], [38.25, -70.5]]]}, "properties": {"cell_id": "26_13", "lon": 39.0, "lat": -69.75}}, {"type": "Feature", "geometry": {"type": "Polygon", "coordinates": [[[39.75, -79.5], [39.75, -78.0], [41.25, -78.0], [41.25, -79.5], [39.75, -79.5]]]}, "properties": {"cell_id": "27_7", "lon": 40.5, "lat": -78.75}}, {"type": "Feature", "geometry": {"type": "Polygon", "coordinates": [[[39.75, -78.0], [39.75, -76.5], [41.25, -76.5], [41.25, -78.0], [39.75, -78.0]]]}, "properties": {"cell_id": "27_8", "lon": 40.5, "lat": -77.25}}, {"type": "Feature", "geometry": {"type": "Polygon", "coordinates": [[[39.75, -76.5], [39.75, -75.0], [41.25, -75.0], [41.25, -76.5], [39.75, -76.5]]]}, "properties": {"cell_id": "27_9", "lon": 40.5, "lat": -75.75}}, {"type": "Feature", "geometry": {"type": "Polygon", "coordinates": [[[39.75, -75.0], [39.75, -73.5], [41.25, -73.5], [41.25, -75.0], [39.75, -75.0]]]}, "properties": {"cell_id": "27_10", "lon": 40.5, "lat": -74.25}}, {"type": "Feature", "geometry": {"type": "Polygon", "coordinates": [[[39.75, -73.5], [39.75, -72.0], [41.25, -72.0], [41.25, -73.5], [39.75, -73.5]]]}, "properties": {"cell_id": "27_11", "lon": 40.5, "lat": -72.75}}, {"type": "Feature", "geometry": {"type": "Polygon", "coordinates": [[[39.75, -72.0], [39.75, -70.5], [41.25, -70.5], [41.25, -72.0], [39.75, -72.0]]]}, "properties": {"cell_id": "27_12", "lon": 40.5, "lat": -71.25}}, {"type": "Feature", "geometry": {"type": "Polygon", "coordinates": [[[39.75, -70.5], [39.75, -69.0], [41.25, -69.0], [41.25, -70.5], [39.75, -70.5]]]}, "properties": {"cell_id": "27_13", "lon": 40.5, "lat": -69.75}}]}