{"type": "FeatureCollection", "features": [{"type": "Feature", "geometry": {"type": "Polygon", "coordinates": [[[150.75, -90.0], [150.75, -88.5], [152.25, -88.5], [152.25, -90.0], [150.75, -90.0]]]}, "properties": {"cell_id": "101_0", "lon": 151.5, "lat": -89.25}}, {"type": "Feature", "geometry": {"type": "Polygon", "coordinates": [[[150.75, -88.5], [150.75, -87.0], [152.25, -87.0], [152.25, -88.5], [150.75, -88.5]]]}, "properties": {"cell_id": "101_1", "lon": 151.5, "lat": -87.75}}, {"type": "Feature", "geometry": {"type": "Polygon", "coordinates": [[[150.75, -87.0], [150.75, -85.5], [152.25, -85.5], [152.25, -87.0], [150.75, -87.0]]]}, "properties": {"cell_id": "101_2", "lon": 151.5, "lat": -86.25}}, {"type": "Feature", "geometry": {"type": "Polygon", "coordinates": [[[150.75, -85.5], [150.75, -84.0], [152.25, -84.0], [152.25, -85.5], [150.75, -85.5]]]}, "properties": {"cell_id": "101_3", "lon": 151.5, "lat": -84.75}}, {"type": "Feature", "geometry": {"type": "Polygon", "coordinates": [[[150.75, -84.0], [150.75, -82.5], [152.25, -82.5], [152.25, -84.0], [150.75, -84.0]]]}, "properties": {"cell_id": "101_4", "lon": 151.5, "lat": -83.25}}, {"type": "Feature", "geometry": {"type": "Polygon", "coordinates": [[[150.75, -82.5], [150.75, -81.0], [152.25, -81.0], [152.25, -82.5], [150.75, -82.5]]]}, "properties": {"cell_id": "101_5", "lon": 151.5, "lat": -81.75}}, {"type": "Feature", "geometry": {"type": "Polygon", "coordinates": [[[150.75, -81.0], [150.75, -79.5], [152.25, -79.5], [152.25, -81.0], [150.75, -81.0]]]}, "properties": {"cell_id": "101_6", "lon": 151.5, "lat": -80.25}}, {"type": "Feature", "geometry": {"type": "Polygon", "coordinates": [[[152.25, -90.0], [152.25, -88.5], [153.75, -88.5], [153.75, -90.0], [152.25, -90.0]]]}, "properties": {"cell_id": "102_0", "lon": 153.0, "lat": -89.25}}, {"type": "Feature", "geometry": {"type": "Polygon", "coordinates": [[[152.25, -88.5], [152.25, -87.0], [153.75, -87.0], [153.75, -88.5], [152.25, -88.5]]]}, "properties": {"cell_id": "102_1", "lon": 153.0, "lat": -87.75}}, {"type": "Feature", "geometry": {"type": "Polygon", "coordinates": [[[152.25, -87.0], [152.25, -85.5], [153.75, -85.5], [153.75, -87.0], [152.25, -87.0]]]}, "properties": {"cell_id": "102_2", "lon": 153.0, "lat": -86.25}}, {"type": "Feature", "geometry": {"type": "Polygon", "coordinates": [[[152.25, -85.5], [152.25, -84.0], [153.75, -84.0], [153.75, -85.5], [152.25, -85.5]]]}, "properties": {"cell_id": "102_3", "lon": 153.0, "lat": -84.75}}, {"type": "Feature", "geometry": {"type": "Polygon", "coordinates": [[[152.25, -84.0], [152.25, -82.5], [153.75, -82.5], [153.75, -84.0], [152.25, -84.0]]]}, "properties": {"cell_id": "102_4", "lon": 153.0, "lat": -83.25}}, {"type": "Feature", "geometry": {"type": "Polygon", "coordinates": [[[152.25, -82.5], [152.25, -81.0], [153.75, -81.0], [153.75, -82.5], [152.25, -82.5]]]}, "properties": {"cell_id": "102_5", "lon": 153.0, "lat": -81.75}}, {"type": "Feature", "geometry": {"type": "Polygon", "coordinates": [[[152.25, -81.0], [152.25, -79.5], [153.75, -79.5], [153.75, -81.0], [152.25, -81.0]]]}, "properties": {"cell_id": "102_6", "lon": 153.0, "lat": -80.25}}, {"type": "Feature", "geometry": {"type": "Polygon", "coordinates": [[[153.75, -90.0], [153.75, -88.5], [155.25, -88.5], [155.25, -90.0], [153.75, -90.0]]]}, "properties": {"cell_id": "103_0", "lon": 154.5, "lat": -89.25}}, {"type": "Feature", "geometry": {"type": "Polygon", "coordinates": [[[153.75, -88.5], [153.75, -87.0], [155.25, -87.0], [155.25, -88.5], [153.75, -88.5]]]}, "properties": {"cell_id": "103_1", "lon": 154.5, "lat": -87.75}}, {"type": "Feature", "geometry": {"type": "Polygon", "coordinates": [[[153.75, -87.0], [153.75, -85.5], [155.25, -85.5], [155.25, -87.0], [153.75, -87.0]]]}, "properties": {"cell_id": "103_2", "lon": 154.5, "lat": -86.25}}, {"type": "Feature", "geometry": {"type": "Polygon", "coordinates": [[[153.75, -85.5], [153.75, -84.0], [155.25, -84.0], [155.25, -85.5], [153.75, -85.5]]]}, "properties": {"cell_id": "103_3", "lon": 154.5, "lat": -84.75}}, {"type": "Feature", "geometry": {"type": "Polygon", "coordinates": [[[153.75, -84.0], [153.75, -82.5], [155.25, -82.5], [155.25, -84.0], [153.75, -84.0]]]}, "properties": {"cell_id": "103_4", "lon": 154.5, "lat": -83.25}}, {"type": "Feature", "geometry": {"type": "Polygon", "coordinates": [[[153.75, -82.5], [153.75, -81.0], [155.25, -81.0], [155.25, -82.5], [153.75, -82.5]]]}, "properties": {"cell_id": "103_5", "lon": 154.5, "lat": -81.75}}, {"type": "Feature", "geometry": {"type": "Polygon", "coordinates": [[[153.75, -81.0], [153.75, -79.5], [155.25, -79.5], [155.25, -81.0], [153.75, -81.0]]]}, "properties": {"cell_id": "103_6", "lon": 154.5, "lat": -80.25}}, {"type": "Feature", "geometry": {"type": "Polygon", "coordinates": [[[155.25, -90.0], [155.25, -88.5], [156.75, -88.5], [156.75, -90.0], [155.25, -90.0]]]}, "properties": {"cell_id": "104_0", "lon": 156.0, "lat": -89.25}}, {"type": "Feature", "geometry": {"type": "Polygon", "coordinates": [[[155.25, -88.5], [155.25, -87.0], [156.75, -87.0], [156.75, -88.5], [155.25, -88.5]]]}, "properties": {"cell_id": "104_1", "lon": 156.0, "lat": -87.75}}, {"type": "Feature", "geometry": {"type": "Polygon", "coordinates": [[[155.25, -87.0], [155.25, -85.5], [156.75, -85.5], [156.75, -87.0], [155.25, -87.0]]]}, "properties": {"cell_id": "104_2", "lon": 156.0, "lat": -86.25}}, {"type": "Feature", "geometry": {"type": "Polygon", "coordinates": [[[155.25, -85.5], [155.25, -84.0], [156.75, -84.0], [156.75, -85.5], [155.25, -85.5]]]}, "properties": {"cell_id": "104_3", "lon": 156.0, "lat": -84.75}}, {"type": "Feature", "geometry": {"type": "Polygon", "coordinates": [[[155.25, -84.0], [155.25, -82.5], [156.75, -82.5], [156.75, -84.0], [155.25, -84.0]]]}, "properties": {"cell_id": "104_4", "lon": 156.0, "lat": -83.25}}, {"type": "Feature", "geometry": {"type": "Polygon", "coordinates": [[[155.25, -82.5], [155.25, -81.0], [156.75, -81.0], [156.75, -82.5], [155.25, -82.5]]]}, "properties": {"cell_id": "104_5", "lon": 156.0, "lat": -81.75}}, {"type": "Feature", "geometry": {"type": "Polygon", "coordinates": [[[155.25, -81.0], [155.25, -79.5], [156.75, -79.5], [156.75, -81.0], [155.25, -81.0]]]}, "properties": {"cell_id": "104_6", "lon": 156.0, "lat": -80.25}}, {"type": "Feature", "geometry": {"type": "Polygon", "coordinates": [[[156.75, -90.0], [156.75, -88.5], [158.25, -88.5], [158.25, -90.0], [156.75, -90.0]]]}, "properties": {"cell_id": "105_0", "lon": 157.5, "lat": -89.25}}, {"type": "Feature", "geometry": {"type": "Polygon", "coordinates": [[[156.75, -88.5], [156.75, -87.0], [158.25, -87.0], [158.25, -88.5], [156.75, -88.5]]]}, "properties": {"cell_id": "105_1", "lon": 157.5, "lat": -87.75}}, {"type": "Feature", "geometry": {"type": "Polygon", "coordinates": [[[156.75, -87.0], [156.75, -85.5], [158.25, -85.5], [158.25, -87.0], [156.75, -87.0]]]}, "properties": {"cell_id": "105_2", "lon": 157.5, "lat": -86.25}}, {"type": "Feature", "geometry": {"type": "Polygon", "coordinates": [[[156.75, -85.5], [156.75, -84.0], [158.25, -84.0], [158.25, -85.5], [156.75, -85.5]]]}, "properties": {"cell_id": "105_3", "lon": 157.5, "lat": -84.75}}, {"type": "Feature", "geometry": {"type": "Polygon", "coordinates": [[[156.75, -84.0], [156.75, -82.5], [158.25, -82.5], [158.25, -84.0], [156.75, -84.0]]]}, "properties": {"cell_id": "105_4", "lon": 157.5, "lat": -83.25}}, {"type": "Feature", "geometry": {"type": "Polygon", "coordinates": [[[156.75, -82.5], [156.75, -81.0], [158.25, -81.0], [158.25, -82.5], [156.75, -82.5]]]}, "properties": {"cell_id": "105_5", "lon": 157.5, "lat": -81.75}}, {"type": "Feature", "geometry": {"type": "Polygon", "coordinates": [[[156.75, -81.0], [156.75, -79.5], [158.25, -79.5], [158.25, -81.0], [156.75, -81.0]]]}, "properties": {"cell_id": "105_6", "lon": 157.5, "lat": -80.25}}, {"type": "Feature", "geometry": {"type": "Polygon", "coordinates": [[[158.25, -90.0], [158.25, -88.5], [159.75, -88.5], [159.75, -90.0], [158.25, -90.0]]]}, "properties": {"cell_id": "106_0", "lon": 159.0, "lat": -89.25}}, {"type": "Feature", "geometry": {"type": "Polygon", "coordinates": [[[158.25, -88.5], [158.25, -87.0], [159.75, -87.0], [159.75, -88.5], [158.25, -88.5]]]}, "properties": {"cell_id": "106_1", "lon": 159.0, "lat": -87.75}}, {"type": "Feature", "geometry": {"type": "Polygon", "coordinates": [[[158.25, -87.0], [158.25, -85.5], [159.75, -85.5], [159.75, -87.0], [158.25, -87.0]]]}, "properties": {"cell_id": "106_2", "lon": 159.0, "lat": -86.25}}, {"type": "Feature", "geometry": {"type": "Polygon", "coordinates": [[[158.25, -85.5], [158.25, -84.0], [159.75, -84.0], [159.75, -85.5], [158.25, -85.5]]]}, "properties": {"cell_id": "106_3", "lon": 159.0, "lat": -84.75}}, {"type": "Feature", "geometry": {"type": "Polygon", "coordinates": [[[158.25, -84.0], [158.25, -82.5], [159.75, -82.5], [159.75, -84.0], [158.25, -84.0]]]}, "properties": {"cell_id": "106_4", "lon": 159.0, "lat": -83.25}}, {"type": "Feature", "geometry": {"type": "Polygon", "coordinates": [[[158.25, -82.5], [158.25, -81.0], [159.75, -81.0], [159.75, -82.5], [158.25, -82.5]]]}, "properties": {"cell_id": "106_5", "lon": 159.0, "lat": -81.75}}, {"type": "Feature", "geometry": {"type": "Polygon", "coordinates": [[[158.25, -81.0], [158.25, -79.5], [159.75, -79.5], [159.75, -81.0], [158.25, -81.0]]]}, "properties": {"cell_id": "106_6", "lon": 159.0, "lat": -80.25}}, {"type": "Feature", "geometry": {"type": "Polygon", "coordinates": [[[159.75, -90.0], [159.75, -88.5], [161.25, -88.5], [161.25, -90.0], [159.75, -90.0]]]}, "properties": {"cell_id": "107_0", "lon": 160.5, "lat": -89.25}}, {"type": "Feature", "geometry": {"type": "Polygon", "coordinates": [[[159.75, -88.5], [159.75, -87.0], [161.25, -87.0], [161.25, -88.5], [159.75, -88.5]]]}, "properties": {"cell_id": "107_1", "lon": 160.5, "lat": -87.75}}, {"type": "Feature", "geometry": {"type": "Polygon", "coordinates": [[[159.75, -87.0], [159.75, -85.5], [161.25, -85.5], [161.25, -87.0], [159.75, -87.0]]]}, "properties": {"cell_id": "107_2", "lon": 160.5, "lat": -86.25}}, {"type": "Feature", "geometry": {"type": "Polygon", "coordinates": [[[159.75, -85.5], [159.75, -84.0], [161.25, -84.0], [161.25, -85.5], [159.75, -85.5]]]}, "properties": {"cell_id": "107_3", "lon": 160.5, "lat": -84.75}}, {"type": "Feature", "geometry": {"type": "Polygon", "coordinates": [[[159.75, -84.0], [159.75, -82.5], [161.25, -82.5], [161.25, -84.0], [159.75, -84.0]]]}, "properties": {"cell_id": "107_4", "lon": 160.5, "lat": -83.25}}, {"type": "Feature", "geometry": {"type": "Polygon", "coordinates": [[[159.75, -82.5], [159.75, -81.0], [161.25, -81.0], [161.25, -82.5], [159.75, -82.5]]]}, "properties": {"cell_id": "107_5", "lon": 160.5, "lat": -81.75}}, {"type": "Feature", "geometry": {"type": "Polygon", "coordinates": [[[159.75, -81.0], [159.75, -79.5], [161.25, -79.5], [161.25, -81.0], [159.75, -81.0]]]}, "properties": {"cell_id": "107_6", "lon": 160.5, "lat": -80.25}}]}