{"type": "FeatureCollection", "features": [{"type": "Feature", "geometry": {"type": "Polygon", "coordinates": [[[80.25, 21.0], [80.25, 22.5], [81.75, 22.5], [81.75, 21.0], [80.25, 21.0]]]}, "properties": {"cell_id": "54_74", "lon": 81.0, "lat": 21.75}}, {"type": "Feature", "geometry": {"type": "Polygon", "coordinates": [[[80.25, 22.5], [80.25, 24.0], [81.75, 24.0], [81.75, 22.5], [80.25, 22.5]]]}, "properties": {"cell_id": "54_75", "lon": 81.0, "lat": 23.25}}, {"type": "Feature", "geometry": {"type": "Polygon", "coordinates": [[[80.25, 24.0], [80.25, 25.5], [81.75, 25.5], [81.75, 24.0], [80.25, 24.0]]]}, "properties": {"cell_id": "54_76", "lon": 81.0, "lat": 24.75}}, {"type": "Feature", "geometry": {"type": "Polygon", "coordinates": [[[80.25, 25.5], [80.25, 27.0], [81.75, 27.0], [81.75, 25.5], [80.25, 25.5]]]}, "properties": {"cell_id": "54_77", "lon": 81.0, "lat": 26.25}}, {"type": "Feature", "geometry": {"type": "Polygon", "coordinates": [[[80.25, 27.0], [80.25, 28.5], [81.75, 28.5], [81.75, 27.0], [80.25, 27.0]]]}, "properties": {"cell_id": "54_78", "lon": 81.0, "lat": 27.75}}, {"type": "Feature", "geometry": {"type": "Polygon", "coordinates": [[[80.25, 28.5], [80.25, 30.0], [81.75, 30.0], [81.75, 28.5], [80.25, 28.5]]]}, "properties": {"cell_id": "54_79", "lon": 81.0, "lat": 29.25}}, {"type": "Feature", "geometry": {"type": "Polygon", "coordinates": [[[81.75, 21.0], [81.75, 22.5], [83.25, 22.5], [83.25, 21.0], [81.75, 21.0]]]}, "properties": {"cell_id": "55_74", "lon": 82.5, "lat": 21.75}}, {"type": "Feature", "geometry": {"type": "Polygon", "coordinates": [[[81.75, 22.5], [81.75, 24.0], [83.25, 24.0], [83.25, 22.5], [81.75, 22.5]]]}, "properties": {"cell_id": "55_75", "lon": 82.5, "lat": 23.25}}, {"type": "Feature", "geometry": {"type": "Polygon", "coordinates": [[[81.75, 24.0], [81.75, 25.5], [83.25, 25.5], [83.25, 24.0], [81.75, 24.0]]]}, "properties": {"cell_id": "55_76", "lon": 82.5, "lat": 24.75}}, {"type": "Feature", "geometry": {"type": "Polygon", "coordinates": [[[81.75, 25.5], [81.75, 27.0], [83.25, 27.0], [83.25, 25.5], [81.75, 25.5]]]}, "properties": {"cell_id": "55_77", "lon": 82.5, "lat": 26.25}}, {"type": "Feature", "geometry": {"type": "Polygon", "coordinates": [[[81.75, 27.0], [81.75, 28.5], [83.25, 28.5], [83.25, 27.0], [81.75, 27.0]]]}, "properties": {"cell_id": "55_78", "lon": 82.5, "lat": 27.75}}, {"type": "Feature", "geometry": {"type": "Polygon", "coordinates": [[[81.75, 28.5], [81.75, 30.0], [83.25, 30.0], [83.25, 28.5], [81.75, 28.5]]]}, "properties": {"cell_id": "55_79", "lon": 82.5, "lat": 29.25}}, {"type": "Feature", "geometry": {"type": "Polygon", "coordinates": [[[83.25, 21.0], [83.25, 22.5], [84.75, 22.5], [84.75, 21.0], [83.25, 21.0]]]}, "properties": {"cell_id": "56_74", "lon": 84.0, "lat": 21.75}}, {"type": "Feature", "geometry": {"type": "Polygon", "coordinates": [[[83.25, 22.5], [83.25, 24.0], [84.75, 24.0], [84.75, 22.5], [83.25, 22.5]]]}, "properties": {"cell_id": "56_75", "lon": 84.0, "lat": 23.25}}, {"type": "Feature", "geometry": {"type": "Polygon", "coordinates": [[[83.25, 24.0], [83.25, 25.5], [84.75, 25.5], [84.75, 24.0], [83.25, 24.0]]]}, "properties": {"cell_id": "56_76", "lon": 84.0, "lat": 24.75}}, {"type": "Feature", "geometry": {"type": "Polygon", "coordinates": [[[83.25, 25.5], [83.25, 27.0], [84.75, 27.0], [84.75, 25.5], [83.25, 25.5]]]}, "properties": {"cell_id": "56_77", "lon": 84.0, "lat": 26.25}}, {"type": "Feature", "geometry": {"type": "Polygon", "coordinates": [[[83.25, 27.0], [83.25, 28.5], [84.75, 28.5], [84.75, 27.0], [83.25, 27.0]]]}, "properties": {"cell_id": "56_78", "lon": 84.0, "lat": 27.75}}, {"type": "Feature", "geometry": {"type": "Polygon", "coordinates": [[[83.25, 28.5], [83.25, 30.0], [84.75, 30.0], [84.75, 28.5], [83.25, 28.5]]]}, "properties": {"cell_id": "56_79", "lon": 84.0, "lat": 29.25}}, {"type": "Feature", "geometry": {"type": "Polygon", "coordinates": [[[84.75, 21.0], [84.75, 22.5], [86.25, 22.5], [86.25, 21.0], [84.75, 21.0]]]}, "properties": {"cell_id": "57_74", "lon": 85.5, "lat": 21.75}}, {"type": "Feature", "geometry": {"type": "Polygon", "coordinates": [[[84.75, 22.5], [84.75, 24.0], [86.25, 24.0], [86.25, 22.5], [84.75, 22.5]]]}, "properties": {"cell_id": "57_75", "lon": 85.5, "lat": 23.25}}, {"type": "Feature", "geometry": {"type": "Polygon", "coordinates": [[[84.75, 24.0], [84.75, 25.5], [86.25, 25.5], [86.25, 24.0], [84.75, 24.0]]]}, "properties": {"cell_id": "57_76", "lon": 85.5, "lat": 24.75}}, {"type": "Feature", "geometry": {"type": "Polygon", "coordinates": [[[84.75, 25.5], [84.75, 27.0], [86.25, 27.0], [86.25, 25.5], [84.75, 25.5]]]}, "properties": {"cell_id": "57_77", "lon": 85.5, "lat": 26.25}}, {"type": "Feature", "geometry": {"type": "Polygon", "coordinates": [[[84.75, 27.0], [84.75, 28.5], [86.25, 28.5], [86.25, 27.0], [84.75, 27.0]]]}, "properties": {"cell_id": "57_78", "lon": 85.5, "lat": 27.75}}, {"type": "Feature", "geometry": {"type": "Polygon", "coordinates": [[[84.75, 28.5], [84.75, 30.0], [86.25, 30.0], [86.25, 28.5], [84.75, 28.5]]]}, "properties": {"cell_id": "57_79", "lon": 85.5, "lat": 29.25}}, {"type": "Feature", "geometry": {"type": "Polygon", "coordinates": [[[86.25, 21.0], [86.25, 22.5], [87.75, 22.5], [87.75, 21.0], [86.25, 21.0]]]}, "properties": {"cell_id": "58_74", "lon": 87.0, "lat": 21.75}}, {"type": "Feature", "geometry": {"type": "Polygon", "coordinates": [[[86.25, 22.5], [86.25, 24.0], [87.75, 24.0], [87.75, 22.5], [86.25, 22.5]]]}, "properties": {"cell_id": "58_75", "lon": 87.0, "lat": 23.25}}, {"type": "Feature", "geometry": {"type": "Polygon", "coordinates": [[[86.25, 24.0], [86.25, 25.5], [87.75, 25.5], [87.75, 24.0], [86.25, 24.0]]]}, "properties": {"cell_id": "58_76", "lon": 87.0, "lat": 24.75}}, {"type": "Feature", "geometry": {"type": "Polygon", "coordinates": [[[86.25, 25.5], [86.25, 27.0], [87.75, 27.0], [87.75, 25.5], [86.25, 25.5]]]}, "properties": {"cell_id": "58_77", "lon": 87.0, "lat": 26.25}}, {"type": "Feature", "geometry": {"type": "Polygon", "coordinates": [[[86.25, 27.0], [86.25, 28.5], [87.75, 28.5], [87.75, 27.0], [86.25, 27.0]]]}, "properties": {"cell_id": "58_78", "lon": 87.0, "lat": 27.75}}, {"type": "Feature", "geometry": {"type": "Polygon", "coordinates": [[[86.25, 28.5], [86.25, 30.0], [87.75, 30.0], [87.75, 28.5], [86.25, 28.5]]]}, "properties": {"cell_id": "58_79", "lon": 87.0, "lat": 29.25}}, {"type": "Feature", "geometry": {"type": "Polygon", "coordinates": [[[87.75, 21.0], [87.75, 22.5], [89.25, 22.5], [89.25, 21.0], [87.75, 21.0]]]}, "properties": {"cell_id": "59_74", "lon": 88.5, "lat": 21.75}}, {"type": "Feature", "geometry": {"type": "Polygon", "coordinates": [[[87.75, 22.5], [87.75, 24.0], [89.25, 24.0], [89.25, 22.5], [87.75, 22.5]]]}, "properties": {"cell_id": "59_75", "lon": 88.5, "lat": 23.25}}, {"type": "Feature", "geometry": {"type": "Polygon", "coordinates": [[[87.75, 24.0], [87.75, 25.5], [89.25, 25.5], [89.25, 24.0], [87.75, 24.0]]]}, "properties": {"cell_id": "59_76", "lon": 88.5, "lat": 24.75}}, {"type": "Feature", "geometry": {"type": "Polygon", "coordinates": [[[87.75, 25.5], [87.75, 27.0], [89.25, 27.0], [89.25, 25.5], [87.75, 25.5]]]}, "properties": {"cell_id": "59_77", "lon": 88.5, "lat": 26.25}}, {"type": "Feature", "geometry": {"type": "Polygon", "coordinates": [[[87.75, 27.0], [87.75, 28.5], [89.25, 28.5], [89.25, 27.0], [87.75, 27.0]]]}, "properties": {"cell_id": "59_78", "lon": 88.5, "lat": 27.75}}, {"type": "Feature", "geometry": {"type": "Polygon", "coordinates": [[[87.75, 28.5], [87.75, 30.0], [89.25, 30.0], [89.25, 28.5], [87.75, 28.5]]]}, "properties": {"cell_id": "59_79", "lon": 88.5, "lat": 29.25}}, {"type": "Feature", "geometry": {"type": "Polygon", "coordinates": [[[89.25, 21.0], [89.25, 22.5], [90.75, 22.5], [90.75, 21.0], [89.25, 21.0]]]}, "properties": {"cell_id": "60_74", "lon": 90.0, "lat": 21.75}}, {"type": "Feature", "geometry": {"type": "Polygon", "coordinates": [[[89.25, 22.5], [89.25, 24.0], [90.75, 24.0], [90.75, 22.5], [89.25, 22.5]]]}, "properties": {"cell_id": "60_75", "lon": 90.0, "lat": 23.25}}, {"type": "Feature", "geometry": {"type": "Polygon", "coordinates": [[[89.25, 24.0], [89.25, 25.5], [90.75, 25.5], [90.75, 24.0], [89.25, 24.0]]]}, "properties": {"cell_id": "60_76", "lon": 90.0, "lat": 24.75}}, {"type": "Feature", "geometry": {"type": "Polygon", "coordinates": [[[89.25, 25.5], [89.25, 27.0], [90.75, 27.0], [90.75, 25.5], [89.25, 25.5]]]}, "properties": {"cell_id": "60_77", "lon": 90.0, "lat": 26.25}}, {"type": "Feature", "geometry": {"type": "Polygon", "coordinates": [[[89.25, 27.0], [89.25, 28.5], [90.75, 28.5], [90.75, 27.0], [89.25, 27.0]]]}, "properties": {"cell_id": "60_78", "lon": 90.0, "lat": 27.75}}, {"type": "Feature", "geometry": {"type": "Polygon", "coordinates": [[[89.25, 28.5], [89.25, 30.0], [90.75, 30.0], [90.75, 28.5], [89.25, 28.5]]]}, "properties": {"cell_id": "60_79", "lon": 90.0, "lat": 29.25}}]}