{"type": "FeatureCollection", "features": [{"type": "Feature", "geometry": {"type": "Polygon", "coordinates": [[[-18.75, 63.0], [-18.75, 64.5], [-17.25, 64.5], [-17.25, 63.0], [-18.75, 63.0]]]}, "properties": {"cell_id": "228_102", "lon": -18.0, "lat": 63.75}}, {"type": "Feature", "geometry": {"type": "Polygon", "coordinates": [[[-18.75, 64.5], [-18.75, 66.0], [-17.25, 66.0], [-17.25, 64.5], [-18.75, 64.5]]]}, "properties": {"cell_id": "228_103", "lon": -18.0, "lat": 65.25}}, {"type": "Feature", "geometry": {"type": "Polygon", "coordinates": [[[-18.75, 66.0], [-18.75, 67.5], [-17.25, 67.5], [-17.25, 66.0], [-18.75, 66.0]]]}, "properties": {"cell_id": "228_104", "lon": -18.0, "lat": 66.75}}, {"type": "Feature", "geometry": {"type": "Polygon", "coordinates": [[[-17.25, 63.0], [-17.25, 64.5], [-15.75, 64.5], [-15.75, 63.0], [-17.25, 63.0]]]}, "properties": {"cell_id": "229_102", "lon": -16.5, "lat": 63.75}}, {"type": "Feature", "geometry": {"type": "Polygon", "coordinates": [[[-17.25, 64.5], [-17.25, 66.0], [-15.75, 66.0], [-15.75, 64.5], [-17.25, 64.5]]]}, "properties": {"cell_id": "229_103", "lon": -16.5, "lat": 65.25}}, {"type": "Feature", "geometry": {"type": "Polygon", "coordinates": [[[-17.25, 66.0], [-17.25, 67.5], [-15.75, 67.5], [-15.75, 66.0], [-17.25, 66.0]]]}, "properties": {"cell_id": "229_104", "lon": -16.5, "lat": 66.75}}, {"type": "Feature", "geometry": {"type": "Polygon", "coordinates": [[[-15.75, 63.0], [-15.75, 64.5], [-14.25, 64.5], [-14.25, 63.0], [-15.75, 63.0]]]}, "properties": {"cell_id": "230_102", "lon": -15.0, "lat": 63.75}}, {"type": "Feature", "geometry": {"type": "Polygon", "coordinates": [[[-15.75, 64.5], [-15.75, 66.0], [-14.25, 66.0], [-14.25, 64.5], [-15.75, 64.5]]]}, "properties": {"cell_id": "230_103", "lon": -15.0, "lat": 65.25}}, {"type": "Feature", "geometry": {"type": "Polygon", "coordinates": [[[-15.75, 66.0], [-15.75, 67.5], [-14.25, 67.5], [-14.25, 66.0], [-15.75, 66.0]]]}, "properties": {"cell_id": "230_104", "lon": -15.0, "lat": 66.75}}]}