{"type": "FeatureCollection", "features": [{"type": "Feature", "geometry": {"type": "Polygon", "coordinates": [[[-108.75, -90.0], [-108.75, -88.5], [-107.25, -88.5], [-107.25, -90.0], [-108.75, -90.0]]]}, "properties": {"cell_id": "168_0", "lon": -108.0, "lat": -89.25}}, {"type": "Feature", "geometry": {"type": "Polygon", "coordinates": [[[-108.75, -88.5], [-108.75, -87.0], [-107.25, -87.0], [-107.25, -88.5], [-108.75, -88.5]]]}, "properties": {"cell_id": "168_1", "lon": -108.0, "lat": -87.75}}, {"type": "Feature", "geometry": {"type": "Polygon", "coordinates": [[[-108.75, -87.0], [-108.75, -85.5], [-107.25, -85.5], [-107.25, -87.0], [-108.75, -87.0]]]}, "properties": {"cell_id": "168_2", "lon": -108.0, "lat": -86.25}}, {"type": "Feature", "geometry": {"type": "Polygon", "coordinates": [[[-108.75, -85.5], [-108.75, -84.0], [-107.25, -84.0], [-107.25, -85.5], [-108.75, -85.5]]]}, "properties": {"cell_id": "168_3", "lon": -108.0, "lat": -84.75}}, {"type": "Feature", "geometry": {"type": "Polygon", "coordinates": [[[-108.75, -84.0], [-108.75, -82.5], [-107.25, -82.5], [-107.25, -84.0], [-108.75, -84.0]]]}, "properties": {"cell_id": "168_4", "lon": -108.0, "lat": -83.25}}, {"type": "Feature", "geometry": {"type": "Polygon", "coordinates": [[[-108.75, -82.5], [-108.75, -81.0], [-107.25, -81.0], [-107.25, -82.5], [-108.75, -82.5]]]}, "properties": {"cell_id": "168_5", "lon": -108.0, "lat": -81.75}}, {"type": "Feature", "geometry": {"type": "Polygon", "coordinates": [[[-108.75, -81.0], [-108.75, -79.5], [-107.25, -79.5], [-107.25, -81.0], [-108.75, -81.0]]]}, "properties": {"cell_id": "168_6", "lon": -108.0, "lat": -80.25}}, {"type": "Feature", "geometry": {"type": "Polygon", "coordinates": [[[-107.25, -90.0], [-107.25, -88.5], [-105.75, -88.5], [-105.75, -90.0], [-107.25, -90.0]]]}, "properties": {"cell_id": "169_0", "lon": -106.5, "lat": -89.25}}, {"type": "Feature", "geometry": {"type": "Polygon", "coordinates": [[[-107.25, -88.5], [-107.25, -87.0], [-105.75, -87.0], [-105.75, -88.5], [-107.25, -88.5]]]}, "properties": {"cell_id": "169_1", "lon": -106.5, "lat": -87.75}}, {"type": "Feature", "geometry": {"type": "Polygon", "coordinates": [[[-107.25, -87.0], [-107.25, -85.5], [-105.75, -85.5], [-105.75, -87.0], [-107.25, -87.0]]]}, "properties": {"cell_id": "169_2", "lon": -106.5, "lat": -86.25}}, {"type": "Feature", "geometry": {"type": "Polygon", "coordinates": [[[-107.25, -85.5], [-107.25, -84.0], [-105.75, -84.0], [-105.75, -85.5], [-107.25, -85.5]]]}, "properties": {"cell_id": "169_3", "lon": -106.5, "lat": -84.75}}, {"type": "Feature", "geometry": {"type": "Polygon", "coordinates": [[[-107.25, -84.0], [-107.25, -82.5], [-105.75, -82.5], [-105.75, -84.0], [-107.25, -84.0]]]}, "properties": {"cell_id": "169_4", "lon": -106.5, "lat": -83.25}}, {"type": "Feature", "geometry": {"type": "Polygon", "coordinates": [[[-107.25, -82.5], [-107.25, -81.0], [-105.75, -81.0], [-105.75, -82.5], [-107.25, -82.5]]]}, "properties": {"cell_id": "169_5", "lon": -106.5, "lat": -81.75}}, {"type": "Feature", "geometry": {"type": "Polygon", "coordinates": [[[-107.25, -81.0], [-107.25, -79.5], [-105.75, -79.5], [-105.75, -81.0], [-107.25, -81.0]]]}, "properties": {"cell_id": "169_6", "lon": -106.5, "lat": -80.25}}, {"type": "Feature", "geometry": {"type": "Polygon", "coordinates": [[[-105.75, -90.0], [-105.75, -88.5], [-104.25, -88.5], [-104.25, -90.0], [-105.75, -90.0]]]}, "properties": {"cell_id": "170_0", "lon": -105.0, "lat": -89.25}}, {"type": "Feature", "geometry": {"type": "Polygon", "coordinates": [[[-105.75, -88.5], [-105.75, -87.0], [-104.25, -87.0], [-104.25, -88.5], [-105.75, -88.5]]]}, "properties": {"cell_id": "170_1", "lon": -105.0, "lat": -87.75}}, {"type": "Feature", "geometry": {"type": "Polygon", "coordinates": [[[-105.75, -87.0], [-105.75, -85.5], [-104.25, -85.5], [-104.25, -87.0], [-105.75, -87.0]]]}, "properties": {"cell_id": "170_2", "lon": -105.0, "lat": -86.25}}, {"type": "Feature", "geometry": {"type": "Polygon", "coordinates": [[[-105.75, -85.5], [-105.75, -84.0], [-104.25, -84.0], [-104.25, -85.5], [-105.75, -85.5]]]}, "properties": {"cell_id": "170_3", "lon": -105.0, "lat": -84.75}}, {"type": "Feature", "geometry": {"type": "Polygon", "coordinates": [[[-105.75, -84.0], [-105.75, -82.5], [-104.25, -82.5], [-104.25, -84.0], [-105.75, -84.0]]]}, "properties": {"cell_id": "170_4", "lon": -105.0, "lat": -83.25}}, {"type": "Feature", "geometry": {"type": "Polygon", "coordinates": [[[-105.75, -82.5], [-105.75, -81.0], [-104.25, -81.0], [-104.25, -82.5], [-105.75, -82.5]]]}, "properties": {"cell_id": "170_5", "lon": -105.0, "lat": -81.75}}, {"type": "Feature", "geometry": {"type": "Polygon", "coordinates": [[[-105.75, -81.0], [-105.75, -79.5], [-104.25, -79.5], [-104.25, -81.0], [-105.75, -81.0]]]}, "properties": {"cell_id": "170_6", "lon": -105.0, "lat": -80.25}}, {"type": "Feature", "geometry": {"type": "Polygon", "coordinates": [[[-104.25, -90.0], [-104.25, -88.5], [-102.75, -88.5], [-102.75, -90.0], [-104.25, -90.0]]]}, "properties": {"cell_id": "171_0", "lon": -103.5, "lat": -89.25}}, {"type": "Feature", "geometry": {"type": "Polygon", "coordinates": [[[-104.25, -88.5], [-104.25, -87.0], [-102.75, -87.0], [-102.75, -88.5], [-104.25, -88.5]]]}, "properties": {"cell_id": "171_1", "lon": -103.5, "lat": -87.75}}, {"type": "Feature", "geometry": {"type": "Polygon", "coordinates": [[[-104.25, -87.0], [-104.25, -85.5], [-102.75, -85.5], [-102.75, -87.0], [-104.25, -87.0]]]}, "properties": {"cell_id": "171_2", "lon": -103.5, "lat": -86.25}}, {"type": "Feature", "geometry": {"type": "Polygon", "coordinates": [[[-104.25, -85.5], [-104.25, -84.0], [-102.75, -84.0], [-102.75, -85.5], [-104.25, -85.5]]]}, "properties": {"cell_id": "171_3", "lon": -103.5, "lat": -84.75}}, {"type": "Feature", "geometry": {"type": "Polygon", "coordinates": [[[-104.25, -84.0], [-104.25, -82.5], [-102.75, -82.5], [-102.75, -84.0], [-104.25, -84.0]]]}, "properties": {"cell_id": "171_4", "lon": -103.5, "lat": -83.25}}, {"type": "Feature", "geometry": {"type": "Polygon", "coordinates": [[[-104.25, -82.5], [-104.25, -81.0], [-102.75, -81.0], [-102.75, -82.5], [-104.25, -82.5]]]}, "properties": {"cell_id": "171_5", "lon": -103.5, "lat": -81.75}}, {"type": "Feature", "geometry": {"type": "Polygon", "coordinates": [[[-104.25, -81.0], [-104.25, -79.5], [-102.75, -79.5], [-102.75, -81.0], [-104.25, -81.0]]]}, "properties": {"cell_id": "171_6", "lon": -103.5, "lat": -80.25}}, {"type": "Feature", "geometry": {"type": "Polygon", "coordinates": [[[-102.75, -90.0], [-102.75, -88.5], [-101.25, -88.5], [-101.25, -90.0], [-102.75, -90.0]]]}, "properties": {"cell_id": "172_0", "lon": -102.0, "lat": -89.25}}, {"type": "Feature", "geometry": {"type": "Polygon", "coordinates": [[[-102.75, -88.5], [-102.75, -87.0], [-101.25, -87.0], [-101.25, -88.5], [-102.75, -88.5]]]}, "properties": {"cell_id": "172_1", "lon": -102.0, "lat": -87.75}}, {"type": "Feature", "geometry": {"type": "Polygon", "coordinates": [[[-102.75, -87.0], [-102.75, -85.5], [-101.25, -85.5], [-101.25, -87.0], [-102.75, -87.0]]]}, "properties": {"cell_id": "172_2", "lon": -102.0, "lat": -86.25}}, {"type": "Feature", "geometry": {"type": "Polygon", "coordinates": [[[-102.75, -85.5], [-102.75, -84.0], [-101.25, -84.0], [-101.25, -85.5], [-102.75, -85.5]]]}, "properties": {"cell_id": "172_3", "lon": -102.0, "lat": -84.75}}, {"type": "Feature", "geometry": {"type": "Polygon", "coordinates": [[[-102.75, -84.0], [-102.75, -82.5], [-101.25, -82.5], [-101.25, -84.0], [-102.75, -84.0]]]}, "properties": {"cell_id": "172_4", "lon": -102.0, "lat": -83.25}}, {"type": "Feature", "geometry": {"type": "Polygon", "coordinates": [[[-102.75, -82.5], [-102.75, -81.0], [-101.25, -81.0], [-101.25, -82.5], [-102.75, -82.5]]]}, "properties": {"cell_id": "172_5", "lon": -102.0, "lat": -81.75}}, {"type": "Feature", "geometry": {"type": "Polygon", "coordinates": [[[-102.75, -81.0], [-102.75, -79.5], [-101.25, -79.5], [-101.25, -81.0], [-102.75, -81.0]]]}, "properties": {"cell_id": "172_6", "lon": -102.0, "lat": -80.25}}, {"type": "Feature", "geometry": {"type": "Polygon", "coordinates": [[[-101.25, -90.0], [-101.25, -88.5], [-99.75, -88.5], [-99.75, -90.0], [-101.25, -90.0]]]}, "properties": {"cell_id": "173_0", "lon": -100.5, "lat": -89.25}}, {"type": "Feature", "geometry": {"type": "Polygon", "coordinates": [[[-101.25, -88.5], [-101.25, -87.0], [-99.75, -87.0], [-99.75, -88.5], [-101.25, -88.5]]]}, "properties": {"cell_id": "173_1", "lon": -100.5, "lat": -87.75}}, {"type": "Feature", "geometry": {"type": "Polygon", "coordinates": [[[-101.25, -87.0], [-101.25, -85.5], [-99.75, -85.5], [-99.75, -87.0], [-101.25, -87.0]]]}, "properties": {"cell_id": "173_2", "lon": -100.5, "lat": -86.25}}, {"type": "Feature", "geometry": {"type": "Polygon", "coordinates": [[[-101.25, -85.5], [-101.25, -84.0], [-99.75, -84.0], [-99.75, -85.5], [-101.25, -85.5]]]}, "properties": {"cell_id": "173_3", "lon": -100.5, "lat": -84.75}}, {"type": "Feature", "geometry": {"type": "Polygon", "coordinates": [[[-101.25, -84.0], [-101.25, -82.5], [-99.75, -82.5], [-99.75, -84.0], [-101.25, -84.0]]]}, "properties": {"cell_id": "173_4", "lon": -100.5, "lat": -83.25}}, {"type": "Feature", "geometry": {"type": "Polygon", "coordinates": [[[-101.25, -82.5], [-101.25, -81.0], [-99.75, -81.0], [-99.75, -82.5], [-101.25, -82.5]]]}, "properties": {"cell_id": "173_5", "lon": -100.5, "lat": -81.75}}, {"type": "Feature", "geometry": {"type": "Polygon", "coordinates": [[[-101.25, -81.0], [-101.25, -79.5], [-99.75, -79.5], [-99.75, -81.0], [-101.25, -81.0]]]}, "properties": {"cell_id": "173_6", "lon": -100.5, "lat": -80.25}}]}