{"type": "FeatureCollection", "features": [{"type": "Feature", "geometry": {"type": "Polygon", "coordinates": [[[0.75, 30.0], [0.75, 31.5], [2.25, 31.5], [2.25, 30.0], [0.75, 30.0]]]}, "properties": {"cell_id": "1_80", "lon": 1.5, "lat": 30.75}}, {"type": "Feature", "geometry": {"type": "Polygon", "coordinates": [[[0.75, 31.5], [0.75, 33.0], [2.25, 33.0], [2.25, 31.5], [0.75, 31.5]]]}, "properties": {"cell_id": "1_81", "lon": 1.5, "lat": 32.25}}, {"type": "Feature", "geometry": {"type": "Polygon", "coordinates": [[[0.75, 33.0], [0.75, 34.5], [2.25, 34.5], [2.25, 33.0], [0.75, 33.0]]]}, "properties": {"cell_id": "1_82", "lon": 1.5, "lat": 33.75}}, {"type": "Feature", "geometry": {"type": "Polygon", "coordinates": [[[0.75, 34.5], [0.75, 36.0], [2.25, 36.0], [2.25, 34.5], [0.75, 34.5]]]}, "properties": {"cell_id": "1_83", "lon": 1.5, "lat": 35.25}}, {"type": "Feature", "geometry": {"type": "Polygon", "coordinates": [[[0.75, 36.0], [0.75, 37.5], [2.25, 37.5], [2.25, 36.0], [0.75, 36.0]]]}, "properties": {"cell_id": "1_84", "lon": 1.5, "lat": 36.75}}, {"type": "Feature", "geometry": {"type": "Polygon", "coordinates": [[[0.75, 39.0], [0.75, 40.5], [2.25, 40.5], [2.25, 39.0], [0.75, 39.0]]]}, "properties": {"cell_id": "1_86", "lon": 1.5, "lat": 39.75}}, {"type": "Feature", "geometry": {"type": "Polygon", "coordinates": [[[2.25, 30.0], [2.25, 31.5], [3.75, 31.5], [3.75, 30.0], [2.25, 30.0]]]}, "properties": {"cell_id": "2_80", "lon": 3.0, "lat": 30.75}}, {"type": "Feature", "geometry": {"type": "Polygon", "coordinates": [[[2.25, 31.5], [2.25, 33.0], [3.75, 33.0], [3.75, 31.5], [2.25, 31.5]]]}, "properties": {"cell_id": "2_81", "lon": 3.0, "lat": 32.25}}, {"type": "Feature", "geometry": {"type": "Polygon", "coordinates": [[[2.25, 33.0], [2.25, 34.5], [3.75, 34.5], [3.75, 33.0], [2.25, 33.0]]]}, "properties": {"cell_id": "2_82", "lon": 3.0, "lat": 33.75}}, {"type": "Feature", "geometry": {"type": "Polygon", "coordinates": [[[2.25, 34.5], [2.25, 36.0], [3.75, 36.0], [3.75, 34.5], [2.25, 34.5]]]}, "properties": {"cell_id": "2_83", "lon": 3.0, "lat": 35.25}}, {"type": "Feature", "geometry": {"type": "Polygon", "coordinates": [[[2.25, 36.0], [2.25, 37.5], [3.75, 37.5], [3.75, 36.0], [2.25, 36.0]]]}, "properties": {"cell_id": "2_84", "lon": 3.0, "lat": 36.75}}, {"type": "Feature", "geometry": {"type": "Polygon", "coordinates": [[[3.75, 30.0], [3.75, 31.5], [5.25, 31.5], [5.25, 30.0], [3.75, 30.0]]]}, "properties": {"cell_id": "3_80", "lon": 4.5, "lat": 30.75}}, {"type": "Feature", "geometry": {"type": "Polygon", "coordinates": [[[3.75, 31.5], [3.75, 33.0], [5.25, 33.0], [5.25, 31.5], [3.75, 31.5]]]}, "properties": {"cell_id": "3_81", "lon": 4.5, "lat": 32.25}}, {"type": "Feature", "geometry": {"type": "Polygon", "coordinates": [[[3.75, 33.0], [3.75, 34.5], [5.25, 34.5], [5.25, 33.0], [3.75, 33.0]]]}, "properties": {"cell_id": "3_82", "lon": 4.5, "lat": 33.75}}, {"type": "Feature", "geometry": {"type": "Polygon", "coordinates": [[[3.75, 34.5], [3.75, 36.0], [5.25, 36.0], [5.25, 34.5], [3.75, 34.5]]]}, "properties": {"cell_id": "3_83", "lon": 4.5, "lat": 35.25}}, {"type": "Feature", "geometry": {"type": "Polygon", "coordinates": [[[3.75, 36.0], [3.75, 37.5], [5.25, 37.5], [5.25, 36.0], [3.75, 36.0]]]}, "properties": {"cell_id": "3_84", "lon": 4.5, "lat": 36.75}}, {"type": "Feature", "geometry": {"type": "Polygon", "coordinates": [[[5.25, 30.0], [5.25, 31.5], [6.75, 31.5], [6.75, 30.0], [5.25, 30.0]]]}, "properties": {"cell_id": "4_80", "lon": 6.0, "lat": 30.75}}, {"type": "Feature", "geometry": {"type": "Polygon", "coordinates": [[[5.25, 31.5], [5.25, 33.0], [6.75, 33.0], [6.75, 31.5], [5.25, 31.5]]]}, "properties": {"cell_id": "4_81", "lon": 6.0, "lat": 32.25}}, {"type": "Feature", "geometry": {"type": "Polygon", "coordinates": [[[5.25, 33.0], [5.25, 34.5], [6.75, 34.5], [6.75, 33.0], [5.25, 33.0]]]}, "properties": {"cell_id": "4_82", "lon": 6.0, "lat": 33.75}}, {"type": "Feature", "geometry": {"type": "Polygon", "coordinates": [[[5.25, 34.5], [5.25, 36.0], [6.75, 36.0], [6.75, 34.5], [5.25, 34.5]]]}, "properties": {"cell_id": "4_83", "lon": 6.0, "lat": 35.25}}, {"type": "Feature", "geometry": {"type": "Polygon", "coordinates": [[[5.25, 36.0], [5.25, 37.5], [6.75, 37.5], [6.75, 36.0], [5.25, 36.0]]]}, "properties": {"cell_id": "4_84", "lon": 6.0, "lat": 36.75}}, {"type": "Feature", "geometry": {"type": "Polygon", "coordinates": [[[6.75, 30.0], [6.75, 31.5], [8.25, 31.5], [8.25, 30.0], [6.75, 30.0]]]}, "properties": {"cell_id": "5_80", "lon": 7.5, "lat": 30.75}}, {"type": "Feature", "geometry": {"type": "Polygon", "coordinates": [[[6.75, 31.5], [6.75, 33.0], [8.25, 33.0], [8.25, 31.5], [6.75, 31.5]]]}, "properties": {"cell_id": "5_81", "lon": 7.5, "lat": 32.25}}, {"type": "Feature", "geometry": {"type": "Polygon", "coordinates": [[[6.75, 33.0], [6.75, 34.5], [8.25, 34.5], [8.25, 33.0], [6.75, 33.0]]]}, "properties": {"cell_id": "5_82", "lon": 7.5, "lat": 33.75}}, {"type": "Feature", "geometry": {"type": "Polygon", "coordinates": [[[6.75, 34.5], [6.75, 36.0], [8.25, 36.0], [8.25, 34.5], [6.75, 34.5]]]}, "properties": {"cell_id": "5_83", "lon": 7.5, "lat": 35.25}}, {"type": "Feature", "geometry": {"type": "Polygon", "coordinates": [[[6.75, 36.0], [6.75, 37.5], [8.25, 37.5], [8.25, 36.0], [6.75, 36.0]]]}, "properties": {"cell_id": "5_84", "lon": 7.5, "lat": 36.75}}, {"type": "Feature", "geometry": {"type": "Polygon", "coordinates": [[[8.25, 30.0], [8.25, 31.5], [9.75, 31.5], [9.75, 30.0], [8.25, 30.0]]]}, "properties": {"cell_id": "6_80", "lon": 9.0, "lat": 30.75}}, {"type": "Feature", "geometry": {"type": "Polygon", "coordinates": [[[8.25, 31.5], [8.25, 33.0], [9.75, 33.0], [9.75, 31.5], [8.25, 31.5]]]}, "properties": {"cell_id": "6_81", "lon": 9.0, "lat": 32.25}}, {"type": "Feature", "geometry": {"type": "Polygon", "coordinates": [[[8.25, 33.0], [8.25, 34.5], [9.75, 34.5], [9.75, 33.0], [8.25, 33.0]]]}, "properties": {"cell_id": "6_82", "lon": 9.0, "lat": 33.75}}, {"type": "Feature", "geometry": {"type": "Polygon", "coordinates": [[[8.25, 34.5], [8.25, 36.0], [9.75, 36.0], [9.75, 34.5], [8.25, 34.5]]]}, "properties": {"cell_id": "6_83", "lon": 9.0, "lat": 35.25}}, {"type": "Feature", "geometry": {"type": "Polygon", "coordinates": [[[8.25, 36.0], [8.25, 37.5], [9.75, 37.5], [9.75, 36.0], [8.25, 36.0]]]}, "properties": {"cell_id": "6_84", "lon": 9.0, "lat": 36.75}}, {"type": "Feature", "geometry": {"type": "Polygon", "coordinates": [[[9.75, 30.0], [9.75, 31.5], [11.25, 31.5], [11.25, 30.0], [9.75, 30.0]]]}, "properties": {"cell_id": "7_80", "lon": 10.5, "lat": 30.75}}, {"type": "Feature", "geometry": {"type": "Polygon", "coordinates": [[[9.75, 31.5], [9.75, 33.0], [11.25, 33.0], [11.25, 31.5], [9.75, 31.5]]]}, "properties": {"cell_id": "7_81", "lon": 10.5, "lat": 32.25}}, {"type": "Feature", "geometry": {"type": "Polygon", "coordinates": [[[9.75, 33.0], [9.75, 34.5], [11.25, 34.5], [11.25, 33.0], [9.75, 33.0]]]}, "properties": {"cell_id": "7_82", "lon": 10.5, "lat": 33.75}}, {"type": "Feature", "geometry": {"type": "Polygon", "coordinates": [[[9.75, 34.5], [9.75, 36.0], [11.25, 36.0], [11.25, 34.5], [9.75, 34.5]]]}, "properties": {"cell_id": "7_83", "lon": 10.5, "lat": 35.25}}, {"type": "Feature", "geometry": {"type": "Polygon", "coordinates": [[[9.75, 36.0], [9.75, 37.5], [11.25, 37.5], [11.25, 36.0], [9.75, 36.0]]]}, "properties": {"cell_id": "7_84", "lon": 10.5, "lat": 36.75}}]}