{"type": "FeatureCollection", "features": [{"type": "Feature", "geometry": {"type": "Polygon", "coordinates": [[[0.75, 10.5], [0.75, 12.0], [2.25, 12.0], [2.25, 10.5], [0.75, 10.5]]]}, "properties": {"cell_id": "1_67", "lon": 1.5, "lat": 11.25}}, {"type": "Feature", "geometry": {"type": "Polygon", "coordinates": [[[0.75, 12.0], [0.75, 13.5], [2.25, 13.5], [2.25, 12.0], [0.75, 12.0]]]}, "properties": {"cell_id": "1_68", "lon": 1.5, "lat": 12.75}}, {"type": "Feature", "geometry": {"type": "Polygon", "coordinates": [[[0.75, 13.5], [0.75, 15.0], [2.25, 15.0], [2.25, 13.5], [0.75, 13.5]]]}, "properties": {"cell_id": "1_69", "lon": 1.5, "lat": 14.25}}, {"type": "Feature", "geometry": {"type": "Polygon", "coordinates": [[[0.75, 15.0], [0.75, 16.5], [2.25, 16.5], [2.25, 15.0], [0.75, 15.0]]]}, "properties": {"cell_id": "1_70", "lon": 1.5, "lat": 15.75}}, {"type": "Feature", "geometry": {"type": "Polygon", "coordinates": [[[0.75, 16.5], [0.75, 18.0], [2.25, 18.0], [2.25, 16.5], [0.75, 16.5]]]}, "properties": {"cell_id": "1_71", "lon": 1.5, "lat": 17.25}}, {"type": "Feature", "geometry": {"type": "Polygon", "coordinates": [[[0.75, 18.0], [0.75, 19.5], [2.25, 19.5], [2.25, 18.0], [0.75, 18.0]]]}, "properties": {"cell_id": "1_72", "lon": 1.5, "lat": 18.75}}, {"type": "Feature", "geometry": {"type": "Polygon", "coordinates": [[[0.75, 19.5], [0.75, 21.0], [2.25, 21.0], [2.25, 19.5], [0.75, 19.5]]]}, "properties": {"cell_id": "1_73", "lon": 1.5, "lat": 20.25}}, {"type": "Feature", "geometry": {"type": "Polygon", "coordinates": [[[2.25, 10.5], [2.25, 12.0], [3.75, 12.0], [3.75, 10.5], [2.25, 10.5]]]}, "properties": {"cell_id": "2_67", "lon": 3.0, "lat": 11.25}}, {"type": "Feature", "geometry": {"type": "Polygon", "coordinates": [[[2.25, 12.0], [2.25, 13.5], [3.75, 13.5], [3.75, 12.0], [2.25, 12.0]]]}, "properties": {"cell_id": "2_68", "lon": 3.0, "lat": 12.75}}, {"type": "Feature", "geometry": {"type": "Polygon", "coordinates": [[[2.25, 13.5], [2.25, 15.0], [3.75, 15.0], [3.75, 13.5], [2.25, 13.5]]]}, "properties": {"cell_id": "2_69", "lon": 3.0, "lat": 14.25}}, {"type": "Feature", "geometry": {"type": "Polygon", "coordinates": [[[2.25, 15.0], [2.25, 16.5], [3.75, 16.5], [3.75, 15.0], [2.25, 15.0]]]}, "properties": {"cell_id": "2_70", "lon": 3.0, "lat": 15.75}}, {"type": "Feature", "geometry": {"type": "Polygon", "coordinates": [[[2.25, 16.5], [2.25, 18.0], [3.75, 18.0], [3.75, 16.5], [2.25, 16.5]]]}, "properties": {"cell_id": "2_71", "lon": 3.0, "lat": 17.25}}, {"type": "Feature", "geometry": {"type": "Polygon", "coordinates": [[[2.25, 18.0], [2.25, 19.5], [3.75, 19.5], [3.75, 18.0], [2.25, 18.0]]]}, "properties": {"cell_id": "2_72", "lon": 3.0, "lat": 18.75}}, {"type": "Feature", "geometry": {"type": "Polygon", "coordinates": [[[2.25, 19.5], [2.25, 21.0], [3.75, 21.0], [3.75, 19.5], [2.25, 19.5]]]}, "properties": {"cell_id": "2_73", "lon": 3.0, "lat": 20.25}}, {"type": "Feature", "geometry": {"type": "Polygon", "coordinates": [[[3.75, 10.5], [3.75, 12.0], [5.25, 12.0], [5.25, 10.5], [3.75, 10.5]]]}, "properties": {"cell_id": "3_67", "lon": 4.5, "lat": 11.25}}, {"type": "Feature", "geometry": {"type": "Polygon", "coordinates": [[[3.75, 12.0], [3.75, 13.5], [5.25, 13.5], [5.25, 12.0], [3.75, 12.0]]]}, "properties": {"cell_id": "3_68", "lon": 4.5, "lat": 12.75}}, {"type": "Feature", "geometry": {"type": "Polygon", "coordinates": [[[3.75, 13.5], [3.75, 15.0], [5.25, 15.0], [5.25, 13.5], [3.75, 13.5]]]}, "properties": {"cell_id": "3_69", "lon": 4.5, "lat": 14.25}}, {"type": "Feature", "geometry": {"type": "Polygon", "coordinates": [[[3.75, 15.0], [3.75, 16.5], [5.25, 16.5], [5.25, 15.0], [3.75, 15.0]]]}, "properties": {"cell_id": "3_70", "lon": 4.5, "lat": 15.75}}, {"type": "Feature", "geometry": {"type": "Polygon", "coordinates": [[[3.75, 16.5], [3.75, 18.0], [5.25, 18.0], [5.25, 16.5], [3.75, 16.5]]]}, "properties": {"cell_id": "3_71", "lon": 4.5, "lat": 17.25}}, {"type": "Feature", "geometry": {"type": "Polygon", "coordinates": [[[3.75, 18.0], [3.75, 19.5], [5.25, 19.5], [5.25, 18.0], [3.75, 18.0]]]}, "properties": {"cell_id": "3_72", "lon": 4.5, "lat": 18.75}}, {"type": "Feature", "geometry": {"type": "Polygon", "coordinates": [[[3.75, 19.5], [3.75, 21.0], [5.25, 21.0], [5.25, 19.5], [3.75, 19.5]]]}, "properties": {"cell_id": "3_73", "lon": 4.5, "lat": 20.25}}, {"type": "Feature", "geometry": {"type": "Polygon", "coordinates": [[[5.25, 10.5], [5.25, 12.0], [6.75, 12.0], [6.75, 10.5], [5.25, 10.5]]]}, "properties": {"cell_id": "4_67", "lon": 6.0, "lat": 11.25}}, {"type": "Feature", "geometry": {"type": "Polygon", "coordinates": [[[5.25, 12.0], [5.25, 13.5], [6.75, 13.5], [6.75, 12.0], [5.25, 12.0]]]}, "properties": {"cell_id": "4_68", "lon": 6.0, "lat": 12.75}}, {"type": "Feature", "geometry": {"type": "Polygon", "coordinates": [[[5.25, 13.5], [5.25, 15.0], [6.75, 15.0], [6.75, 13.5], [5.25, 13.5]]]}, "properties": {"cell_id": "4_69", "lon": 6.0, "lat": 14.25}}, {"type": "Feature", "geometry": {"type": "Polygon", "coordinates": [[[5.25, 15.0], [5.25, 16.5], [6.75, 16.5], [6.75, 15.0], [5.25, 15.0]]]}, "properties": {"cell_id": "4_70", "lon": 6.0, "lat": 15.75}}, {"type": "Feature", "geometry": {"type": "Polygon", "coordinates": [[[5.25, 16.5], [5.25, 18.0], [6.75, 18.0], [6.75, 16.5], [5.25, 16.5]]]}, "properties": {"cell_id": "4_71", "lon": 6.0, "lat": 17.25}}, {"type": "Feature", "geometry": {"type": "Polygon", "coordinates": [[[5.25, 18.0], [5.25, 19.5], [6.75, 19.5], [6.75, 18.0], [5.25, 18.0]]]}, "properties": {"cell_id": "4_72", "lon": 6.0, "lat": 18.75}}, {"type": "Feature", "geometry": {"type": "Polygon", "coordinates": [[[5.25, 19.5], [5.25, 21.0], [6.75, 21.0], [6.75, 19.5], [5.25, 19.5]]]}, "properties": {"cell_id": "4_73", "lon": 6.0, "lat": 20.25}}, {"type": "Feature", "geometry": {"type": "Polygon", "coordinates": [[[6.75, 10.5], [6.75, 12.0], [8.25, 12.0], [8.25, 10.5], [6.75, 10.5]]]}, "properties": {"cell_id": "5_67", "lon": 7.5, "lat": 11.25}}, {"type": "Feature", "geometry": {"type": "Polygon", "coordinates": [[[6.75, 12.0], [6.75, 13.5], [8.25, 13.5], [8.25, 12.0], [6.75, 12.0]]]}, "properties": {"cell_id": "5_68", "lon": 7.5, "lat": 12.75}}, {"type": "Feature", "geometry": {"type": "Polygon", "coordinates": [[[6.75, 13.5], [6.75, 15.0], [8.25, 15.0], [8.25, 13.5], [6.75, 13.5]]]}, "properties": {"cell_id": "5_69", "lon": 7.5, "lat": 14.25}}, {"type": "Feature", "geometry": {"type": "Polygon", "coordinates": [[[6.75, 15.0], [6.75, 16.5], [8.25, 16.5], [8.25, 15.0], [6.75, 15.0]]]}, "properties": {"cell_id": "5_70", "lon": 7.5, "lat": 15.75}}, {"type": "Feature", "geometry": {"type": "Polygon", "coordinates": [[[6.75, 16.5], [6.75, 18.0], [8.25, 18.0], [8.25, 16.5], [6.75, 16.5]]]}, "properties": {"cell_id": "5_71", "lon": 7.5, "lat": 17.25}}, {"type": "Feature", "geometry": {"type": "Polygon", "coordinates": [[[6.75, 18.0], [6.75, 19.5], [8.25, 19.5], [8.25, 18.0], [6.75, 18.0]]]}, "properties": {"cell_id": "5_72", "lon": 7.5, "lat": 18.75}}, {"type": "Feature", "geometry": {"type": "Polygon", "coordinates": [[[6.75, 19.5], [6.75, 21.0], [8.25, 21.0], [8.25, 19.5], [6.75, 19.5]]]}, "properties": {"cell_id": "5_73", "lon": 7.5, "lat": 20.25}}, {"type": "Feature", "geometry": {"type": "Polygon", "coordinates": [[[8.25, 10.5], [8.25, 12.0], [9.75, 12.0], [9.75, 10.5], [8.25, 10.5]]]}, "properties": {"cell_id": "6_67", "lon": 9.0, "lat": 11.25}}, {"type": "Feature", "geometry": {"type": "Polygon", "coordinates": [[[8.25, 12.0], [8.25, 13.5], [9.75, 13.5], [9.75, 12.0], [8.25, 12.0]]]}, "properties": {"cell_id": "6_68", "lon": 9.0, "lat": 12.75}}, {"type": "Feature", "geometry": {"type": "Polygon", "coordinates": [[[8.25, 13.5], [8.25, 15.0], [9.75, 15.0], [9.75, 13.5], [8.25, 13.5]]]}, "properties": {"cell_id": "6_69", "lon": 9.0, "lat": 14.25}}, {"type": "Feature", "geometry": {"type": "Polygon", "coordinates": [[[8.25, 15.0], [8.25, 16.5], [9.75, 16.5], [9.75, 15.0], [8.25, 15.0]]]}, "properties": {"cell_id": "6_70", "lon": 9.0, "lat": 15.75}}, {"type": "Feature", "geometry": {"type": "Polygon", "coordinates": [[[8.25, 16.5], [8.25, 18.0], [9.75, 18.0], [9.75, 16.5], [8.25, 16.5]]]}, "properties": {"cell_id": "6_71", "lon": 9.0, "lat": 17.25}}, {"type": "Feature", "geometry": {"type": "Polygon", "coordinates": [[[8.25, 18.0], [8.25, 19.5], [9.75, 19.5], [9.75, 18.0], [8.25, 18.0]]]}, "properties": {"cell_id": "6_72", "lon": 9.0, "lat": 18.75}}, {"type": "Feature", "geometry": {"type": "Polygon", "coordinates": [[[8.25, 19.5], [8.25, 21.0], [9.75, 21.0], [9.75, 19.5], [8.25, 19.5]]]}, "properties": {"cell_id": "6_73", "lon": 9.0, "lat": 20.25}}, {"type": "Feature", "geometry": {"type": "Polygon", "coordinates": [[[9.75, 10.5], [9.75, 12.0], [11.25, 12.0], [11.25, 10.5], [9.75, 10.5]]]}, "properties": {"cell_id": "7_67", "lon": 10.5, "lat": 11.25}}, {"type": "Feature", "geometry": {"type": "Polygon", "coordinates": [[[9.75, 12.0], [9.75, 13.5], [11.25, 13.5], [11.25, 12.0], [9.75, 12.0]]]}, "properties": {"cell_id": "7_68", "lon": 10.5, "lat": 12.75}}, {"type": "Feature", "geometry": {"type": "Polygon", "coordinates": [[[9.75, 13.5], [9.75, 15.0], [11.25, 15.0], [11.25, 13.5], [9.75, 13.5]]]}, "properties": {"cell_id": "7_69", "lon": 10.5, "lat": 14.25}}, {"type": "Feature", "geometry": {"type": "Polygon", "coordinates": [[[9.75, 15.0], [9.75, 16.5], [11.25, 16.5], [11.25, 15.0], [9.75, 15.0]]]}, "properties": {"cell_id": "7_70", "lon": 10.5, "lat": 15.75}}, {"type": "Feature", "geometry": {"type": "Polygon", "coordinates": [[[9.75, 16.5], [9.75, 18.0], [11.25, 18.0], [11.25, 16.5], [9.75, 16.5]]]}, "properties": {"cell_id": "7_71", "lon": 10.5, "lat": 17.25}}, {"type": "Feature", "geometry": {"type": "Polygon", "coordinates": [[[9.75, 18.0], [9.75, 19.5], [11.25, 19.5], [11.25, 18.0], [9.75, 18.0]]]}, "properties": {"cell_id": "7_72", "lon": 10.5, "lat": 18.75}}, {"type": "Feature", "geometry": {"type": "Polygon", "coordinates": [[[9.75, 19.5], [9.75, 21.0], [11.25, 21.0], [11.25, 19.5], [9.75, 19.5]]]}, "properties": {"cell_id": "7_73", "lon": 10.5, "lat": 20.25}}]}