{"type": "FeatureCollection", "features": [{"type": "Feature", "geometry": {"type": "Polygon", "coordinates": [[[14.25, -31.5], [14.25, -30.0], [15.75, -30.0], [15.75, -31.5], [14.25, -31.5]]]}, "properties": {"cell_id": "10_39", "lon": 15.0, "lat": -30.75}}, {"type": "Feature", "geometry": {"type": "Polygon", "coordinates": [[[15.75, -31.5], [15.75, -30.0], [17.25, -30.0], [17.25, -31.5], [15.75, -31.5]]]}, "properties": {"cell_id": "11_39", "lon": 16.5, "lat": -30.75}}, {"type": "Feature", "geometry": {"type": "Polygon", "coordinates": [[[17.25, -34.5], [17.25, -33.0], [18.75, -33.0], [18.75, -34.5], [17.25, -34.5]]]}, "properties": {"cell_id": "12_37", "lon": 18.0, "lat": -33.75}}, {"type": "Feature", "geometry": {"type": "Polygon", "coordinates": [[[17.25, -33.0], [17.25, -31.5], [18.75, -31.5], [18.75, -33.0], [17.25, -33.0]]]}, "properties": {"cell_id": "12_38", "lon": 18.0, "lat": -32.25}}, {"type": "Feature", "geometry": {"type": "Polygon", "coordinates": [[[17.25, -31.5], [17.25, -30.0], [18.75, -30.0], [18.75, -31.5], [17.25, -31.5]]]}, "properties": {"cell_id": "12_39", "lon": 18.0, "lat": -30.75}}, {"type": "Feature", "geometry": {"type": "Polygon", "coordinates": [[[18.75, -34.5], [18.75, -33.0], [20.25, -33.0], [20.25, -34.5], [18.75, -34.5]]]}, "properties": {"cell_id": "13_37", "lon": 19.5, "lat": -33.75}}, {"type": "Feature", "geometry": {"type": "Polygon", "coordinates": [[[18.75, -33.0], [18.75, -31.5], [20.25, -31.5], [20.25, -33.0], [18.75, -33.0]]]}, "properties": {"cell_id": "13_38", "lon": 19.5, "lat": -32.25}}, {"type": "Feature", "geometry": {"type": "Polygon", "coordinates": [[[18.75, -31.5], [18.75, -30.0], [20.25, -30.0], [20.25, -31.5], [18.75, -31.5]]]}, "properties": {"cell_id": "13_39", "lon": 19.5, "lat": -30.75}}]}