{"type": "FeatureCollection", "features": [{"type": "Feature", "geometry": {"type": "Polygon", "coordinates": [[[131.25, -3.0], [131.25, -1.5], [132.75, -1.5], [132.75, -3.0], [131.25, -3.0]]]}, "properties": {"cell_id": "88_58", "lon": 132.0, "lat": -2.25}}, {"type": "Feature", "geometry": {"type": "Polygon", "coordinates": [[[131.25, -1.5], [131.25, 0.0], [132.75, 0.0], [132.75, -1.5], [131.25, -1.5]]]}, "properties": {"cell_id": "88_59", "lon": 132.0, "lat": -0.75}}, {"type": "Feature", "geometry": {"type": "Polygon", "coordinates": [[[132.75, -3.0], [132.75, -1.5], [134.25, -1.5], [134.25, -3.0], [132.75, -3.0]]]}, "properties": {"cell_id": "89_58", "lon": 133.5, "lat": -2.25}}, {"type": "Feature", "geometry": {"type": "Polygon", "coordinates": [[[132.75, -1.5], [132.75, 0.0], [134.25, 0.0], [134.25, -1.5], [132.75, -1.5]]]}, "properties": {"cell_id": "89_59", "lon": 133.5, "lat": -0.75}}, {"type": "Feature", "geometry": {"type": "Polygon", "coordinates": [[[135.75, -6.0], [135.75, -4.5], [137.25, -4.5], [137.25, -6.0], [135.75, -6.0]]]}, "properties": {"cell_id": "91_56", "lon": 136.5, "lat": -5.25}}, {"type": "Feature", "geometry": {"type": "Polygon", "coordinates": [[[135.75, -4.5], [135.75, -3.0], [137.25, -3.0], [137.25, -4.5], [135.75, -4.5]]]}, "properties": {"cell_id": "91_57", "lon": 136.5, "lat": -3.75}}, {"type": "Feature", "geometry": {"type": "Polygon", "coordinates": [[[135.75, -3.0], [135.75, -1.5], [137.25, -1.5], [137.25, -3.0], [135.75, -3.0]]]}, "properties": {"cell_id": "91_58", "lon": 136.5, "lat": -2.25}}, {"type": "Feature", "geometry": {"type": "Polygon", "coordinates": [[[137.25, -6.0], [137.25, -4.5], [138.75, -4.5], [138.75, -6.0], [137.25, -6.0]]]}, "properties": {"cell_id": "92_56", "lon": 138.0, "lat": -5.25}}, {"type": "Feature", "geometry": {"type": "Polygon", "coordinates": [[[137.25, -4.5], [137.25, -3.0], [138.75, -3.0], [138.75, -4.5], [137.25, -4.5]]]}, "properties": {"cell_id": "92_57", "lon": 138.0, "lat": -3.75}}, {"type": "Feature", "geometry": {"type": "Polygon", "coordinates": [[[137.25, -3.0], [137.25, -1.5], [138.75, -1.5], [138.75, -3.0], [137.25, -3.0]]]}, "properties": {"cell_id": "92_58", "lon": 138.0, "lat": -2.25}}, {"type": "Feature", "geometry": {"type": "Polygon", "coordinates": [[[138.75, -9.0], [138.75, -7.5], [140.25, -7.5], [140.25, -9.0], [138.75, -9.0]]]}, "properties": {"cell_id": "93_54", "lon": 139.5, "lat": -8.25}}, {"type": "Feature", "geometry": {"type": "Polygon", "coordinates": [[[138.75, -7.5], [138.75, -6.0], [140.25, -6.0], [140.25, -7.5], [138.75, -7.5]]]}, "properties": {"cell_id": "93_55", "lon": 139.5, "lat": -6.75}}, {"type": "Feature", "geometry": {"type": "Polygon", "coordinates": [[[138.75, -6.0], [138.75, -4.5], [140.25, -4.5], [140.25, -6.0], [138.75, -6.0]]]}, "properties": {"cell_id": "93_56", "lon": 139.5, "lat": -5.25}}, {"type": "Feature", "geometry": {"type": "Polygon", "coordinates": [[[138.75, -4.5], [138.75, -3.0], [140.25, -3.0], [140.25, -4.5], [138.75, -4.5]]]}, "properties": {"cell_id": "93_57", "lon": 139.5, "lat": -3.75}}, {"type": "Feature", "geometry": {"type": "Polygon", "coordinates": [[[138.75, -3.0], [138.75, -1.5], [140.25, -1.5], [140.25, -3.0], [138.75, -3.0]]]}, "properties": {"cell_id": "93_58", "lon": 139.5, "lat": -2.25}}]}