{"type": "FeatureCollection", "features": [{"type": "Feature", "geometry": {"type": "Polygon", "coordinates": [[[-15.75, 10.5], [-15.75, 12.0], [-14.25, 12.0], [-14.25, 10.5], [-15.75, 10.5]]]}, "properties": {"cell_id": "230_67", "lon": -15.0, "lat": 11.25}}, {"type": "Feature", "geometry": {"type": "Polygon", "coordinates": [[[-15.75, 12.0], [-15.75, 13.5], [-14.25, 13.5], [-14.25, 12.0], [-15.75, 12.0]]]}, "properties": {"cell_id": "230_68", "lon": -15.0, "lat": 12.75}}, {"type": "Feature", "geometry": {"type": "Polygon", "coordinates": [[[-15.75, 13.5], [-15.75, 15.0], [-14.25, 15.0], [-14.25, 13.5], [-15.75, 13.5]]]}, "properties": {"cell_id": "230_69", "lon": -15.0, "lat": 14.25}}, {"type": "Feature", "geometry": {"type": "Polygon", "coordinates": [[[-15.75, 15.0], [-15.75, 16.5], [-14.25, 16.5], [-14.25, 15.0], [-15.75, 15.0]]]}, "properties": {"cell_id": "230_70", "lon": -15.0, "lat": 15.75}}, {"type": "Feature", "geometry": {"type": "Polygon", "coordinates": [[[-15.75, 16.5], [-15.75, 18.0], [-14.25, 18.0], [-14.25, 16.5], [-15.75, 16.5]]]}, "properties": {"cell_id": "230_71", "lon": -15.0, "lat": 17.25}}, {"type": "Feature", "geometry": {"type": "Polygon", "coordinates": [[[-15.75, 18.0], [-15.75, 19.5], [-14.25, 19.5], [-14.25, 18.0], [-15.75, 18.0]]]}, "properties": {"cell_id": "230_72", "lon": -15.0, "lat": 18.75}}, {"type": "Feature", "geometry": {"type": "Polygon", "coordinates": [[[-15.75, 19.5], [-15.75, 21.0], [-14.25, 21.0], [-14.25, 19.5], [-15.75, 19.5]]]}, "properties": {"cell_id": "230_73", "lon": -15.0, "lat": 20.25}}, {"type": "Feature", "geometry": {"type": "Polygon", "coordinates": [[[-14.25, 10.5], [-14.25, 12.0], [-12.75, 12.0], [-12.75, 10.5], [-14.25, 10.5]]]}, "properties": {"cell_id": "231_67", "lon": -13.5, "lat": 11.25}}, {"type": "Feature", "geometry": {"type": "Polygon", "coordinates": [[[-14.25, 12.0], [-14.25, 13.5], [-12.75, 13.5], [-12.75, 12.0], [-14.25, 12.0]]]}, "properties": {"cell_id": "231_68", "lon": -13.5, "lat": 12.75}}, {"type": "Feature", "geometry": {"type": "Polygon", "coordinates": [[[-14.25, 13.5], [-14.25, 15.0], [-12.75, 15.0], [-12.75, 13.5], [-14.25, 13.5]]]}, "properties": {"cell_id": "231_69", "lon": -13.5, "lat": 14.25}}, {"type": "Feature", "geometry": {"type": "Polygon", "coordinates": [[[-14.25, 15.0], [-14.25, 16.5], [-12.75, 16.5], [-12.75, 15.0], [-14.25, 15.0]]]}, "properties": {"cell_id": "231_70", "lon": -13.5, "lat": 15.75}}, {"type": "Feature", "geometry": {"type": "Polygon", "coordinates": [[[-14.25, 16.5], [-14.25, 18.0], [-12.75, 18.0], [-12.75, 16.5], [-14.25, 16.5]]]}, "properties": {"cell_id": "231_71", "lon": -13.5, "lat": 17.25}}, {"type": "Feature", "geometry": {"type": "Polygon", "coordinates": [[[-14.25, 18.0], [-14.25, 19.5], [-12.75, 19.5], [-12.75, 18.0], [-14.25, 18.0]]]}, "properties": {"cell_id": "231_72", "lon": -13.5, "lat": 18.75}}, {"type": "Feature", "geometry": {"type": "Polygon", "coordinates": [[[-14.25, 19.5], [-14.25, 21.0], [-12.75, 21.0], [-12.75, 19.5], [-14.25, 19.5]]]}, "properties": {"cell_id": "231_73", "lon": -13.5, "lat": 20.25}}, {"type": "Feature", "geometry": {"type": "Polygon", "coordinates": [[[-12.75, 10.5], [-12.75, 12.0], [-11.25, 12.0], [-11.25, 10.5], [-12.75, 10.5]]]}, "properties": {"cell_id": "232_67", "lon": -12.0, "lat": 11.25}}, {"type": "Feature", "geometry": {"type": "Polygon", "coordinates": [[[-12.75, 12.0], [-12.75, 13.5], [-11.25, 13.5], [-11.25, 12.0], [-12.75, 12.0]]]}, "properties": {"cell_id": "232_68", "lon": -12.0, "lat": 12.75}}, {"type": "Feature", "geometry": {"type": "Polygon", "coordinates": [[[-12.75, 13.5], [-12.75, 15.0], [-11.25, 15.0], [-11.25, 13.5], [-12.75, 13.5]]]}, "properties": {"cell_id": "232_69", "lon": -12.0, "lat": 14.25}}, {"type": "Feature", "geometry": {"type": "Polygon", "coordinates": [[[-12.75, 15.0], [-12.75, 16.5], [-11.25, 16.5], [-11.25, 15.0], [-12.75, 15.0]]]}, "properties": {"cell_id": "232_70", "lon": -12.0, "lat": 15.75}}, {"type": "Feature", "geometry": {"type": "Polygon", "coordinates": [[[-12.75, 16.5], [-12.75, 18.0], [-11.25, 18.0], [-11.25, 16.5], [-12.75, 16.5]]]}, "properties": {"cell_id": "232_71", "lon": -12.0, "lat": 17.25}}, {"type": "Feature", "geometry": {"type": "Polygon", "coordinates": [[[-12.75, 18.0], [-12.75, 19.5], [-11.25, 19.5], [-11.25, 18.0], [-12.75, 18.0]]]}, "properties": {"cell_id": "232_72", "lon": -12.0, "lat": 18.75}}, {"type": "Feature", "geometry": {"type": "Polygon", "coordinates": [[[-12.75, 19.5], [-12.75, 21.0], [-11.25, 21.0], [-11.25, 19.5], [-12.75, 19.5]]]}, "properties": {"cell_id": "232_73", "lon": -12.0, "lat": 20.25}}, {"type": "Feature", "geometry": {"type": "Polygon", "coordinates": [[[-11.25, 10.5], [-11.25, 12.0], [-9.75, 12.0], [-9.75, 10.5], [-11.25, 10.5]]]}, "properties": {"cell_id": "233_67", "lon": -10.5, "lat": 11.25}}, {"type": "Feature", "geometry": {"type": "Polygon", "coordinates": [[[-11.25, 12.0], [-11.25, 13.5], [-9.75, 13.5], [-9.75, 12.0], [-11.25, 12.0]]]}, "properties": {"cell_id": "233_68", "lon": -10.5, "lat": 12.75}}, {"type": "Feature", "geometry": {"type": "Polygon", "coordinates": [[[-11.25, 13.5], [-11.25, 15.0], [-9.75, 15.0], [-9.75, 13.5], [-11.25, 13.5]]]}, "properties": {"cell_id": "233_69", "lon": -10.5, "lat": 14.25}}, {"type": "Feature", "geometry": {"type": "Polygon", "coordinates": [[[-11.25, 15.0], [-11.25, 16.5], [-9.75, 16.5], [-9.75, 15.0], [-11.25, 15.0]]]}, "properties": {"cell_id": "233_70", "lon": -10.5, "lat": 15.75}}, {"type": "Feature", "geometry": {"type": "Polygon", "coordinates": [[[-11.25, 16.5], [-11.25, 18.0], [-9.75, 18.0], [-9.75, 16.5], [-11.25, 16.5]]]}, "properties": {"cell_id": "233_71", "lon": -10.5, "lat": 17.25}}, {"type": "Feature", "geometry": {"type": "Polygon", "coordinates": [[[-11.25, 18.0], [-11.25, 19.5], [-9.75, 19.5], [-9.75, 18.0], [-11.25, 18.0]]]}, "properties": {"cell_id": "233_72", "lon": -10.5, "lat": 18.75}}, {"type": "Feature", "geometry": {"type": "Polygon", "coordinates": [[[-11.25, 19.5], [-11.25, 21.0], [-9.75, 21.0], [-9.75, 19.5], [-11.25, 19.5]]]}, "properties": {"cell_id": "233_73", "lon": -10.5, "lat": 20.25}}]}