{"type": "FeatureCollection", "features": [{"type": "Feature", "geometry": {"type": "Polygon", "coordinates": [[[20.25, 40.5], [20.25, 42.0], [21.75, 42.0], [21.75, 40.5], [20.25, 40.5]]]}, "properties": {"cell_id": "14_87", "lon": 21.0, "lat": 41.25}}, {"type": "Feature", "geometry": {"type": "Polygon", "coordinates": [[[20.25, 42.0], [20.25, 43.5], [21.75, 43.5], [21.75, 42.0], [20.25, 42.0]]]}, "properties": {"cell_id": "14_88", "lon": 21.0, "lat": 42.75}}, {"type": "Feature", "geometry": {"type": "Polygon", "coordinates": [[[20.25, 43.5], [20.25, 45.0], [21.75, 45.0], [21.75, 43.5], [20.25, 43.5]]]}, "properties": {"cell_id": "14_89", "lon": 21.0, "lat": 44.25}}, {"type": "Feature", "geometry": {"type": "Polygon", "coordinates": [[[20.25, 45.0], [20.25, 46.5], [21.75, 46.5], [21.75, 45.0], [20.25, 45.0]]]}, "properties": {"cell_id": "14_90", "lon": 21.0, "lat": 45.75}}, {"type": "Feature", "geometry": {"type": "Polygon", "coordinates": [[[20.25, 46.5], [20.25, 48.0], [21.75, 48.0], [21.75, 46.5], [20.25, 46.5]]]}, "properties": {"cell_id": "14_91", "lon": 21.0, "lat": 47.25}}, {"type": "Feature", "geometry": {"type": "Polygon", "coordinates": [[[20.25, 48.0], [20.25, 49.5], [21.75, 49.5], [21.75, 48.0], [20.25, 48.0]]]}, "properties": {"cell_id": "14_92", "lon": 21.0, "lat": 48.75}}, {"type": "Feature", "geometry": {"type": "Polygon", "coordinates": [[[20.25, 49.5], [20.25, 51.0], [21.75, 51.0], [21.75, 49.5], [20.25, 49.5]]]}, "properties": {"cell_id": "14_93", "lon": 21.0, "lat": 50.25}}, {"type": "Feature", "geometry": {"type": "Polygon", "coordinates": [[[21.75, 40.5], [21.75, 42.0], [23.25, 42.0], [23.25, 40.5], [21.75, 40.5]]]}, "properties": {"cell_id": "15_87", "lon": 22.5, "lat": 41.25}}, {"type": "Feature", "geometry": {"type": "Polygon", "coordinates": [[[21.75, 42.0], [21.75, 43.5], [23.25, 43.5], [23.25, 42.0], [21.75, 42.0]]]}, "properties": {"cell_id": "15_88", "lon": 22.5, "lat": 42.75}}, {"type": "Feature", "geometry": {"type": "Polygon", "coordinates": [[[21.75, 43.5], [21.75, 45.0], [23.25, 45.0], [23.25, 43.5], [21.75, 43.5]]]}, "properties": {"cell_id": "15_89", "lon": 22.5, "lat": 44.25}}, {"type": "Feature", "geometry": {"type": "Polygon", "coordinates": [[[21.75, 45.0], [21.75, 46.5], [23.25, 46.5], [23.25, 45.0], [21.75, 45.0]]]}, "properties": {"cell_id": "15_90", "lon": 22.5, "lat": 45.75}}, {"type": "Feature", "geometry": {"type": "Polygon", "coordinates": [[[21.75, 46.5], [21.75, 48.0], [23.25, 48.0], [23.25, 46.5], [21.75, 46.5]]]}, "properties": {"cell_id": "15_91", "lon": 22.5, "lat": 47.25}}, {"type": "Feature", "geometry": {"type": "Polygon", "coordinates": [[[21.75, 48.0], [21.75, 49.5], [23.25, 49.5], [23.25, 48.0], [21.75, 48.0]]]}, "properties": {"cell_id": "15_92", "lon": 22.5, "lat": 48.75}}, {"type": "Feature", "geometry": {"type": "Polygon", "coordinates": [[[21.75, 49.5], [21.75, 51.0], [23.25, 51.0], [23.25, 49.5], [21.75, 49.5]]]}, "properties": {"cell_id": "15_93", "lon": 22.5, "lat": 50.25}}, {"type": "Feature", "geometry": {"type": "Polygon", "coordinates": [[[23.25, 40.5], [23.25, 42.0], [24.75, 42.0], [24.75, 40.5], [23.25, 40.5]]]}, "properties": {"cell_id": "16_87", "lon": 24.0, "lat": 41.25}}, {"type": "Feature", "geometry": {"type": "Polygon", "coordinates": [[[23.25, 42.0], [23.25, 43.5], [24.75, 43.5], [24.75, 42.0], [23.25, 42.0]]]}, "properties": {"cell_id": "16_88", "lon": 24.0, "lat": 42.75}}, {"type": "Feature", "geometry": {"type": "Polygon", "coordinates": [[[23.25, 43.5], [23.25, 45.0], [24.75, 45.0], [24.75, 43.5], [23.25, 43.5]]]}, "properties": {"cell_id": "16_89", "lon": 24.0, "lat": 44.25}}, {"type": "Feature", "geometry": {"type": "Polygon", "coordinates": [[[23.25, 45.0], [23.25, 46.5], [24.75, 46.5], [24.75, 45.0], [23.25, 45.0]]]}, "properties": {"cell_id": "16_90", "lon": 24.0, "lat": 45.75}}, {"type": "Feature", "geometry": {"type": "Polygon", "coordinates": [[[23.25, 46.5], [23.25, 48.0], [24.75, 48.0], [24.75, 46.5], [23.25, 46.5]]]}, "properties": {"cell_id": "16_91", "lon": 24.0, "lat": 47.25}}, {"type": "Feature", "geometry": {"type": "Polygon", "coordinates": [[[23.25, 48.0], [23.25, 49.5], [24.75, 49.5], [24.75, 48.0], [23.25, 48.0]]]}, "properties": {"cell_id": "16_92", "lon": 24.0, "lat": 48.75}}, {"type": "Feature", "geometry": {"type": "Polygon", "coordinates": [[[23.25, 49.5], [23.25, 51.0], [24.75, 51.0], [24.75, 49.5], [23.25, 49.5]]]}, "properties": {"cell_id": "16_93", "lon": 24.0, "lat": 50.25}}, {"type": "Feature", "geometry": {"type": "Polygon", "coordinates": [[[24.75, 40.5], [24.75, 42.0], [26.25, 42.0], [26.25, 40.5], [24.75, 40.5]]]}, "properties": {"cell_id": "17_87", "lon": 25.5, "lat": 41.25}}, {"type": "Feature", "geometry": {"type": "Polygon", "coordinates": [[[24.75, 42.0], [24.75, 43.5], [26.25, 43.5], [26.25, 42.0], [24.75, 42.0]]]}, "properties": {"cell_id": "17_88", "lon": 25.5, "lat": 42.75}}, {"type": "Feature", "geometry": {"type": "Polygon", "coordinates": [[[24.75, 43.5], [24.75, 45.0], [26.25, 45.0], [26.25, 43.5], [24.75, 43.5]]]}, "properties": {"cell_id": "17_89", "lon": 25.5, "lat": 44.25}}, {"type": "Feature", "geometry": {"type": "Polygon", "coordinates": [[[24.75, 45.0], [24.75, 46.5], [26.25, 46.5], [26.25, 45.0], [24.75, 45.0]]]}, "properties": {"cell_id": "17_90", "lon": 25.5, "lat": 45.75}}, {"type": "Feature", "geometry": {"type": "Polygon", "coordinates": [[[24.75, 46.5], [24.75, 48.0], [26.25, 48.0], [26.25, 46.5], [24.75, 46.5]]]}, "properties": {"cell_id": "17_91", "lon": 25.5, "lat": 47.25}}, {"type": "Feature", "geometry": {"type": "Polygon", "coordinates": [[[24.75, 48.0], [24.75, 49.5], [26.25, 49.5], [26.25, 48.0], [24.75, 48.0]]]}, "properties": {"cell_id": "17_92", "lon": 25.5, "lat": 48.75}}, {"type": "Feature", "geometry": {"type": "Polygon", "coordinates": [[[24.75, 49.5], [24.75, 51.0], [26.25, 51.0], [26.25, 49.5], [24.75, 49.5]]]}, "properties": {"cell_id": "17_93", "lon": 25.5, "lat": 50.25}}, {"type": "Feature", "geometry": {"type": "Polygon", "coordinates": [[[26.25, 40.5], [26.25, 42.0], [27.75, 42.0], [27.75, 40.5], [26.25, 40.5]]]}, "properties": {"cell_id": "18_87", "lon": 27.0, "lat": 41.25}}, {"type": "Feature", "geometry": {"type": "Polygon", "coordinates": [[[26.25, 42.0], [26.25, 43.5], [27.75, 43.5], [27.75, 42.0], [26.25, 42.0]]]}, "properties": {"cell_id": "18_88", "lon": 27.0, "lat": 42.75}}, {"type": "Feature", "geometry": {"type": "Polygon", "coordinates": [[[26.25, 43.5], [26.25, 45.0], [27.75, 45.0], [27.75, 43.5], [26.25, 43.5]]]}, "properties": {"cell_id": "18_89", "lon": 27.0, "lat": 44.25}}, {"type": "Feature", "geometry": {"type": "Polygon", "coordinates": [[[26.25, 45.0], [26.25, 46.5], [27.75, 46.5], [27.75, 45.0], [26.25, 45.0]]]}, "properties": {"cell_id": "18_90", "lon": 27.0, "lat": 45.75}}, {"type": "Feature", "geometry": {"type": "Polygon", "coordinates": [[[26.25, 46.5], [26.25, 48.0], [27.75, 48.0], [27.75, 46.5], [26.25, 46.5]]]}, "properties": {"cell_id": "18_91", "lon": 27.0, "lat": 47.25}}, {"type": "Feature", "geometry": {"type": "Polygon", "coordinates": [[[26.25, 48.0], [26.25, 49.5], [27.75, 49.5], [27.75, 48.0], [26.25, 48.0]]]}, "properties": {"cell_id": "18_92", "lon": 27.0, "lat": 48.75}}, {"type": "Feature", "geometry": {"type": "Polygon", "coordinates": [[[26.25, 49.5], [26.25, 51.0], [27.75, 51.0], [27.75, 49.5], [26.25, 49.5]]]}, "properties": {"cell_id": "18_93", "lon": 27.0, "lat": 50.25}}, {"type": "Feature", "geometry": {"type": "Polygon", "coordinates": [[[27.75, 40.5], [27.75, 42.0], [29.25, 42.0], [29.25, 40.5], [27.75, 40.5]]]}, "properties": {"cell_id": "19_87", "lon": 28.5, "lat": 41.25}}, {"type": "Feature", "geometry": {"type": "Polygon", "coordinates": [[[27.75, 43.5], [27.75, 45.0], [29.25, 45.0], [29.25, 43.5], [27.75, 43.5]]]}, "properties": {"cell_id": "19_89", "lon": 28.5, "lat": 44.25}}, {"type": "Feature", "geometry": {"type": "Polygon", "coordinates": [[[27.75, 45.0], [27.75, 46.5], [29.25, 46.5], [29.25, 45.0], [27.75, 45.0]]]}, "properties": {"cell_id": "19_90", "lon": 28.5, "lat": 45.75}}, {"type": "Feature", "geometry": {"type": "Polygon", "coordinates": [[[27.75, 46.5], [27.75, 48.0], [29.25, 48.0], [29.25, 46.5], [27.75, 46.5]]]}, "properties": {"cell_id": "19_91", "lon": 28.5, "lat": 47.25}}, {"type": "Feature", "geometry": {"type": "Polygon", "coordinates": [[[27.75, 48.0], [27.75, 49.5], [29.25, 49.5], [29.25, 48.0], [27.75, 48.0]]]}, "properties": {"cell_id": "19_92", "lon": 28.5, "lat": 48.75}}, {"type": "Feature", "geometry": {"type": "Polygon", "coordinates": [[[27.75, 49.5], [27.75, 51.0], [29.25, 51.0], [29.25, 49.5], [27.75, 49.5]]]}, "properties": {"cell_id": "19_93", "lon": 28.5, "lat": 50.25}}, {"type": "Feature", "geometry": {"type": "Polygon", "coordinates": [[[29.25, 40.5], [29.25, 42.0], [30.75, 42.0], [30.75, 40.5], [29.25, 40.5]]]}, "properties": {"cell_id": "20_87", "lon": 30.0, "lat": 41.25}}, {"type": "Feature", "geometry": {"type": "Polygon", "coordinates": [[[29.25, 43.5], [29.25, 45.0], [30.75, 45.0], [30.75, 43.5], [29.25, 43.5]]]}, "properties": {"cell_id": "20_89", "lon": 30.0, "lat": 44.25}}, {"type": "Feature", "geometry": {"type": "Polygon", "coordinates": [[[29.25, 45.0], [29.25, 46.5], [30.75, 46.5], [30.75, 45.0], [29.25, 45.0]]]}, "properties": {"cell_id": "20_90", "lon": 30.0, "lat": 45.75}}, {"type": "Feature", "geometry": {"type": "Polygon", "coordinates": [[[29.25, 46.5], [29.25, 48.0], [30.75, 48.0], [30.75, 46.5], [29.25, 46.5]]]}, "properties": {"cell_id": "20_91", "lon": 30.0, "lat": 47.25}}, {"type": "Feature", "geometry": {"type": "Polygon", "coordinates": [[[29.25, 48.0], [29.25, 49.5], [30.75, 49.5], [30.75, 48.0], [29.25, 48.0]]]}, "properties": {"cell_id": "20_92", "lon": 30.0, "lat": 48.75}}, {"type": "Feature", "geometry": {"type": "Polygon", "coordinates": [[[29.25, 49.5], [29.25, 51.0], [30.75, 51.0], [30.75, 49.5], [29.25, 49.5]]]}, "properties": {"cell_id": "20_93", "lon": 30.0, "lat": 50.25}}]}