{"type": "FeatureCollection", "features": [{"type": "Feature", "geometry": {"type": "Polygon", "coordinates": [[[110.25, 19.5], [110.25, 21.0], [111.75, 21.0], [111.75, 19.5], [110.25, 19.5]]]}, "properties": {"cell_id": "74_73", "lon": 111.0, "lat": 20.25}}, {"type": "Feature", "geometry": {"type": "Polygon", "coordinates": [[[119.25, 13.5], [119.25, 15.0], [120.75, 15.0], [120.75, 13.5], [119.25, 13.5]]]}, "properties": {"cell_id": "80_69", "lon": 120.0, "lat": 14.25}}, {"type": "Feature", "geometry": {"type": "Polygon", "coordinates": [[[119.25, 15.0], [119.25, 16.5], [120.75, 16.5], [120.75, 15.0], [119.25, 15.0]]]}, "properties": {"cell_id": "80_70", "lon": 120.0, "lat": 15.75}}, {"type": "Feature", "geometry": {"type": "Polygon", "coordinates": [[[119.25, 16.5], [119.25, 18.0], [120.75, 18.0], [120.75, 16.5], [119.25, 16.5]]]}, "properties": {"cell_id": "80_71", "lon": 120.0, "lat": 17.25}}]}