{"type": "FeatureCollection", "features": [{"type": "Feature", "geometry": {"type": "Polygon", "coordinates": [[[131.25, -69.0], [131.25, -67.5], [132.75, -67.5], [132.75, -69.0], [131.25, -69.0]]]}, "properties": {"cell_id": "88_14", "lon": 132.0, "lat": -68.25}}, {"type": "Feature", "geometry": {"type": "Polygon", "coordinates": [[[131.25, -67.5], [131.25, -66.0], [132.75, -66.0], [132.75, -67.5], [131.25, -67.5]]]}, "properties": {"cell_id": "88_15", "lon": 132.0, "lat": -66.75}}, {"type": "Feature", "geometry": {"type": "Polygon", "coordinates": [[[132.75, -69.0], [132.75, -67.5], [134.25, -67.5], [134.25, -69.0], [132.75, -69.0]]]}, "properties": {"cell_id": "89_14", "lon": 133.5, "lat": -68.25}}, {"type": "Feature", "geometry": {"type": "Polygon", "coordinates": [[[132.75, -67.5], [132.75, -66.0], [134.25, -66.0], [134.25, -67.5], [132.75, -67.5]]]}, "properties": {"cell_id": "89_15", "lon": 133.5, "lat": -66.75}}, {"type": "Feature", "geometry": {"type": "Polygon", "coordinates": [[[134.25, -69.0], [134.25, -67.5], [135.75, -67.5], [135.75, -69.0], [134.25, -69.0]]]}, "properties": {"cell_id": "90_14", "lon": 135.0, "lat": -68.25}}, {"type": "Feature", "geometry": {"type": "Polygon", "coordinates": [[[134.25, -67.5], [134.25, -66.0], [135.75, -66.0], [135.75, -67.5], [134.25, -67.5]]]}, "properties": {"cell_id": "90_15", "lon": 135.0, "lat": -66.75}}, {"type": "Feature", "geometry": {"type": "Polygon", "coordinates": [[[135.75, -69.0], [135.75, -67.5], [137.25, -67.5], [137.25, -69.0], [135.75, -69.0]]]}, "properties": {"cell_id": "91_14", "lon": 136.5, "lat": -68.25}}, {"type": "Feature", "geometry": {"type": "Polygon", "coordinates": [[[135.75, -67.5], [135.75, -66.0], [137.25, -66.0], [137.25, -67.5], [135.75, -67.5]]]}, "properties": {"cell_id": "91_15", "lon": 136.5, "lat": -66.75}}, {"type": "Feature", "geometry": {"type": "Polygon", "coordinates": [[[137.25, -69.0], [137.25, -67.5], [138.75, -67.5], [138.75, -69.0], [137.25, -69.0]]]}, "properties": {"cell_id": "92_14", "lon": 138.0, "lat": -68.25}}, {"type": "Feature", "geometry": {"type": "Polygon", "coordinates": [[[137.25, -67.5], [137.25, -66.0], [138.75, -66.0], [138.75, -67.5], [137.25, -67.5]]]}, "properties": {"cell_id": "92_15", "lon": 138.0, "lat": -66.75}}, {"type": "Feature", "geometry": {"type": "Polygon", "coordinates": [[[138.75, -69.0], [138.75, -67.5], [140.25, -67.5], [140.25, -69.0], [138.75, -69.0]]]}, "properties": {"cell_id": "93_14", "lon": 139.5, "lat": -68.25}}, {"type": "Feature", "geometry": {"type": "Polygon", "coordinates": [[[138.75, -67.5], [138.75, -66.0], [140.25, -66.0], [140.25, -67.5], [138.75, -67.5]]]}, "properties": {"cell_id": "93_15", "lon": 139.5, "lat": -66.75}}]}