{"type": "FeatureCollection", "features": [{"type": "Feature", "geometry": {"type": "Polygon", "coordinates": [[[101.25, 0.0], [101.25, 1.5], [102.75, 1.5], [102.75, 0.0], [101.25, 0.0]]]}, "properties": {"cell_id": "68_60", "lon": 102.0, "lat": 0.75}}, {"type": "Feature", "geometry": {"type": "Polygon", "coordinates": [[[101.25, 1.5], [101.25, 3.0], [102.75, 3.0], [102.75, 1.5], [101.25, 1.5]]]}, "properties": {"cell_id": "68_61", "lon": 102.0, "lat": 2.25}}, {"type": "Feature", "geometry": {"type": "Polygon", "coordinates": [[[101.25, 3.0], [101.25, 4.5], [102.75, 4.5], [102.75, 3.0], [101.25, 3.0]]]}, "properties": {"cell_id": "68_62", "lon": 102.0, "lat": 3.75}}, {"type": "Feature", "geometry": {"type": "Polygon", "coordinates": [[[101.25, 4.5], [101.25, 6.0], [102.75, 6.0], [102.75, 4.5], [101.25, 4.5]]]}, "properties": {"cell_id": "68_63", "lon": 102.0, "lat": 5.25}}]}