{"type": "FeatureCollection", "features": [{"type": "Feature", "geometry": {"type": "Polygon", "coordinates": [[[-48.75, -9.0], [-48.75, -7.5], [-47.25, -7.5], [-47.25, -9.0], [-48.75, -9.0]]]}, "properties": {"cell_id": "208_54", "lon": -48.0, "lat": -8.25}}, {"type": "Feature", "geometry": {"type": "Polygon", "coordinates": [[[-48.75, -7.5], [-48.75, -6.0], [-47.25, -6.0], [-47.25, -7.5], [-48.75, -7.5]]]}, "properties": {"cell_id": "208_55", "lon": -48.0, "lat": -6.75}}, {"type": "Feature", "geometry": {"type": "Polygon", "coordinates": [[[-48.75, -6.0], [-48.75, -4.5], [-47.25, -4.5], [-47.25, -6.0], [-48.75, -6.0]]]}, "properties": {"cell_id": "208_56", "lon": -48.0, "lat": -5.25}}, {"type": "Feature", "geometry": {"type": "Polygon", "coordinates": [[[-48.75, -4.5], [-48.75, -3.0], [-47.25, -3.0], [-47.25, -4.5], [-48.75, -4.5]]]}, "properties": {"cell_id": "208_57", "lon": -48.0, "lat": -3.75}}, {"type": "Feature", "geometry": {"type": "Polygon", "coordinates": [[[-48.75, -3.0], [-48.75, -1.5], [-47.25, -1.5], [-47.25, -3.0], [-48.75, -3.0]]]}, "properties": {"cell_id": "208_58", "lon": -48.0, "lat": -2.25}}, {"type": "Feature", "geometry": {"type": "Polygon", "coordinates": [[[-48.75, -1.5], [-48.75, 0.0], [-47.25, 0.0], [-47.25, -1.5], [-48.75, -1.5]]]}, "properties": {"cell_id": "208_59", "lon": -48.0, "lat": -0.75}}, {"type": "Feature", "geometry": {"type": "Polygon", "coordinates": [[[-47.25, -9.0], [-47.25, -7.5], [-45.75, -7.5], [-45.75, -9.0], [-47.25, -9.0]]]}, "properties": {"cell_id": "209_54", "lon": -46.5, "lat": -8.25}}, {"type": "Feature", "geometry": {"type": "Polygon", "coordinates": [[[-47.25, -7.5], [-47.25, -6.0], [-45.75, -6.0], [-45.75, -7.5], [-47.25, -7.5]]]}, "properties": {"cell_id": "209_55", "lon": -46.5, "lat": -6.75}}, {"type": "Feature", "geometry": {"type": "Polygon", "coordinates": [[[-47.25, -6.0], [-47.25, -4.5], [-45.75, -4.5], [-45.75, -6.0], [-47.25, -6.0]]]}, "properties": {"cell_id": "209_56", "lon": -46.5, "lat": -5.25}}, {"type": "Feature", "geometry": {"type": "Polygon", "coordinates": [[[-47.25, -4.5], [-47.25, -3.0], [-45.75, -3.0], [-45.75, -4.5], [-47.25, -4.5]]]}, "properties": {"cell_id": "209_57", "lon": -46.5, "lat": -3.75}}, {"type": "Feature", "geometry": {"type": "Polygon", "coordinates": [[[-47.25, -3.0], [-47.25, -1.5], [-45.75, -1.5], [-45.75, -3.0], [-47.25, -3.0]]]}, "properties": {"cell_id": "209_58", "lon": -46.5, "lat": -2.25}}, {"type": "Feature", "geometry": {"type": "Polygon", "coordinates": [[[-47.25, -1.5], [-47.25, 0.0], [-45.75, 0.0], [-45.75, -1.5], [-47.25, -1.5]]]}, "properties": {"cell_id": "209_59", "lon": -46.5, "lat": -0.75}}, {"type": "Feature", "geometry": {"type": "Polygon", "coordinates": [[[-45.75, -9.0], [-45.75, -7.5], [-44.25, -7.5], [-44.25, -9.0], [-45.75, -9.0]]]}, "properties": {"cell_id": "210_54", "lon": -45.0, "lat": -8.25}}, {"type": "Feature", "geometry": {"type": "Polygon", "coordinates": [[[-45.75, -7.5], [-45.75, -6.0], [-44.25, -6.0], [-44.25, -7.5], [-45.75, -7.5]]]}, "properties": {"cell_id": "210_55", "lon": -45.0, "lat": -6.75}}, {"type": "Feature", "geometry": {"type": "Polygon", "coordinates": [[[-45.75, -6.0], [-45.75, -4.5], [-44.25, -4.5], [-44.25, -6.0], [-45.75, -6.0]]]}, "properties": {"cell_id": "210_56", "lon": -45.0, "lat": -5.25}}, {"type": "Feature", "geometry": {"type": "Polygon", "coordinates": [[[-45.75, -4.5], [-45.75, -3.0], [-44.25, -3.0], [-44.25, -4.5], [-45.75, -4.5]]]}, "properties": {"cell_id": "210_57", "lon": -45.0, "lat": -3.75}}, {"type": "Feature", "geometry": {"type": "Polygon", "coordinates": [[[-45.75, -3.0], [-45.75, -1.5], [-44.25, -1.5], [-44.25, -3.0], [-45.75, -3.0]]]}, "properties": {"cell_id": "210_58", "lon": -45.0, "lat": -2.25}}, {"type": "Feature", "geometry": {"type": "Polygon", "coordinates": [[[-44.25, -9.0], [-44.25, -7.5], [-42.75, -7.5], [-42.75, -9.0], [-44.25, -9.0]]]}, "properties": {"cell_id": "211_54", "lon": -43.5, "lat": -8.25}}, {"type": "Feature", "geometry": {"type": "Polygon", "coordinates": [[[-44.25, -7.5], [-44.25, -6.0], [-42.75, -6.0], [-42.75, -7.5], [-44.25, -7.5]]]}, "properties": {"cell_id": "211_55", "lon": -43.5, "lat": -6.75}}, {"type": "Feature", "geometry": {"type": "Polygon", "coordinates": [[[-44.25, -6.0], [-44.25, -4.5], [-42.75, -4.5], [-42.75, -6.0], [-44.25, -6.0]]]}, "properties": {"cell_id": "211_56", "lon": -43.5, "lat": -5.25}}, {"type": "Feature", "geometry": {"type": "Polygon", "coordinates": [[[-44.25, -4.5], [-44.25, -3.0], [-42.75, -3.0], [-42.75, -4.5], [-44.25, -4.5]]]}, "properties": {"cell_id": "211_57", "lon": -43.5, "lat": -3.75}}, {"type": "Feature", "geometry": {"type": "Polygon", "coordinates": [[[-44.25, -3.0], [-44.25, -1.5], [-42.75, -1.5], [-42.75, -3.0], [-44.25, -3.0]]]}, "properties": {"cell_id": "211_58", "lon": -43.5, "lat": -2.25}}, {"type": "Feature", "geometry": {"type": "Polygon", "coordinates": [[[-42.75, -9.0], [-42.75, -7.5], [-41.25, -7.5], [-41.25, -9.0], [-42.75, -9.0]]]}, "properties": {"cell_id": "212_54", "lon": -42.0, "lat": -8.25}}, {"type": "Feature", "geometry": {"type": "Polygon", "coordinates": [[[-42.75, -7.5], [-42.75, -6.0], [-41.25, -6.0], [-41.25, -7.5], [-42.75, -7.5]]]}, "properties": {"cell_id": "212_55", "lon": -42.0, "lat": -6.75}}, {"type": "Feature", "geometry": {"type": "Polygon", "coordinates": [[[-42.75, -6.0], [-42.75, -4.5], [-41.25, -4.5], [-41.25, -6.0], [-42.75, -6.0]]]}, "properties": {"cell_id": "212_56", "lon": -42.0, "lat": -5.25}}, {"type": "Feature", "geometry": {"type": "Polygon", "coordinates": [[[-42.75, -4.5], [-42.75, -3.0], [-41.25, -3.0], [-41.25, -4.5], [-42.75, -4.5]]]}, "properties": {"cell_id": "212_57", "lon": -42.0, "lat": -3.75}}, {"type": "Feature", "geometry": {"type": "Polygon", "coordinates": [[[-42.75, -3.0], [-42.75, -1.5], [-41.25, -1.5], [-41.25, -3.0], [-42.75, -3.0]]]}, "properties": {"cell_id": "212_58", "lon": -42.0, "lat": -2.25}}, {"type": "Feature", "geometry": {"type": "Polygon", "coordinates": [[[-41.25, -9.0], [-41.25, -7.5], [-39.75, -7.5], [-39.75, -9.0], [-41.25, -9.0]]]}, "properties": {"cell_id": "213_54", "lon": -40.5, "lat": -8.25}}, {"type": "Feature", "geometry": {"type": "Polygon", "coordinates": [[[-41.25, -7.5], [-41.25, -6.0], [-39.75, -6.0], [-39.75, -7.5], [-41.25, -7.5]]]}, "properties": {"cell_id": "213_55", "lon": -40.5, "lat": -6.75}}, {"type": "Feature", "geometry": {"type": "Polygon", "coordinates": [[[-41.25, -6.0], [-41.25, -4.5], [-39.75, -4.5], [-39.75, -6.0], [-41.25, -6.0]]]}, "properties": {"cell_id": "213_56", "lon": -40.5, "lat": -5.25}}, {"type": "Feature", "geometry": {"type": "Polygon", "coordinates": [[[-41.25, -4.5], [-41.25, -3.0], [-39.75, -3.0], [-39.75, -4.5], [-41.25, -4.5]]]}, "properties": {"cell_id": "213_57", "lon": -40.5, "lat": -3.75}}, {"type": "Feature", "geometry": {"type": "Polygon", "coordinates": [[[-41.25, -3.0], [-41.25, -1.5], [-39.75, -1.5], [-39.75, -3.0], [-41.25, -3.0]]]}, "properties": {"cell_id": "213_58", "lon": -40.5, "lat": -2.25}}]}