{"type": "FeatureCollection", "features": [{"type": "Feature", "geometry": {"type": "Polygon", "coordinates": [[[-69.75, 0.0], [-69.75, 1.5], [-68.25, 1.5], [-68.25, 0.0], [-69.75, 0.0]]]}, "properties": {"cell_id": "194_60", "lon": -69.0, "lat": 0.75}}, {"type": "Feature", "geometry": {"type": "Polygon", "coordinates": [[[-69.75, 1.5], [-69.75, 3.0], [-68.25, 3.0], [-68.25, 1.5], [-69.75, 1.5]]]}, "properties": {"cell_id": "194_61", "lon": -69.0, "lat": 2.25}}, {"type": "Feature", "geometry": {"type": "Polygon", "coordinates": [[[-69.75, 3.0], [-69.75, 4.5], [-68.25, 4.5], [-68.25, 3.0], [-69.75, 3.0]]]}, "properties": {"cell_id": "194_62", "lon": -69.0, "lat": 3.75}}, {"type": "Feature", "geometry": {"type": "Polygon", "coordinates": [[[-69.75, 4.5], [-69.75, 6.0], [-68.25, 6.0], [-68.25, 4.5], [-69.75, 4.5]]]}, "properties": {"cell_id": "194_63", "lon": -69.0, "lat": 5.25}}, {"type": "Feature", "geometry": {"type": "Polygon", "coordinates": [[[-69.75, 6.0], [-69.75, 7.5], [-68.25, 7.5], [-68.25, 6.0], [-69.75, 6.0]]]}, "properties": {"cell_id": "194_64", "lon": -69.0, "lat": 6.75}}, {"type": "Feature", "geometry": {"type": "Polygon", "coordinates": [[[-69.75, 7.5], [-69.75, 9.0], [-68.25, 9.0], [-68.25, 7.5], [-69.75, 7.5]]]}, "properties": {"cell_id": "194_65", "lon": -69.0, "lat": 8.25}}, {"type": "Feature", "geometry": {"type": "Polygon", "coordinates": [[[-69.75, 9.0], [-69.75, 10.5], [-68.25, 10.5], [-68.25, 9.0], [-69.75, 9.0]]]}, "properties": {"cell_id": "194_66", "lon": -69.0, "lat": 9.75}}, {"type": "Feature", "geometry": {"type": "Polygon", "coordinates": [[[-68.25, 0.0], [-68.25, 1.5], [-66.75, 1.5], [-66.75, 0.0], [-68.25, 0.0]]]}, "properties": {"cell_id": "195_60", "lon": -67.5, "lat": 0.75}}, {"type": "Feature", "geometry": {"type": "Polygon", "coordinates": [[[-68.25, 1.5], [-68.25, 3.0], [-66.75, 3.0], [-66.75, 1.5], [-68.25, 1.5]]]}, "properties": {"cell_id": "195_61", "lon": -67.5, "lat": 2.25}}, {"type": "Feature", "geometry": {"type": "Polygon", "coordinates": [[[-68.25, 3.0], [-68.25, 4.5], [-66.75, 4.5], [-66.75, 3.0], [-68.25, 3.0]]]}, "properties": {"cell_id": "195_62", "lon": -67.5, "lat": 3.75}}, {"type": "Feature", "geometry": {"type": "Polygon", "coordinates": [[[-68.25, 4.5], [-68.25, 6.0], [-66.75, 6.0], [-66.75, 4.5], [-68.25, 4.5]]]}, "properties": {"cell_id": "195_63", "lon": -67.5, "lat": 5.25}}, {"type": "Feature", "geometry": {"type": "Polygon", "coordinates": [[[-68.25, 6.0], [-68.25, 7.5], [-66.75, 7.5], [-66.75, 6.0], [-68.25, 6.0]]]}, "properties": {"cell_id": "195_64", "lon": -67.5, "lat": 6.75}}, {"type": "Feature", "geometry": {"type": "Polygon", "coordinates": [[[-68.25, 7.5], [-68.25, 9.0], [-66.75, 9.0], [-66.75, 7.5], [-68.25, 7.5]]]}, "properties": {"cell_id": "195_65", "lon": -67.5, "lat": 8.25}}, {"type": "Feature", "geometry": {"type": "Polygon", "coordinates": [[[-68.25, 9.0], [-68.25, 10.5], [-66.75, 10.5], [-66.75, 9.0], [-68.25, 9.0]]]}, "properties": {"cell_id": "195_66", "lon": -67.5, "lat": 9.75}}, {"type": "Feature", "geometry": {"type": "Polygon", "coordinates": [[[-66.75, 0.0], [-66.75, 1.5], [-65.25, 1.5], [-65.25, 0.0], [-66.75, 0.0]]]}, "properties": {"cell_id": "196_60", "lon": -66.0, "lat": 0.75}}, {"type": "Feature", "geometry": {"type": "Polygon", "coordinates": [[[-66.75, 1.5], [-66.75, 3.0], [-65.25, 3.0], [-65.25, 1.5], [-66.75, 1.5]]]}, "properties": {"cell_id": "196_61", "lon": -66.0, "lat": 2.25}}, {"type": "Feature", "geometry": {"type": "Polygon", "coordinates": [[[-66.75, 3.0], [-66.75, 4.5], [-65.25, 4.5], [-65.25, 3.0], [-66.75, 3.0]]]}, "properties": {"cell_id": "196_62", "lon": -66.0, "lat": 3.75}}, {"type": "Feature", "geometry": {"type": "Polygon", "coordinates": [[[-66.75, 4.5], [-66.75, 6.0], [-65.25, 6.0], [-65.25, 4.5], [-66.75, 4.5]]]}, "properties": {"cell_id": "196_63", "lon": -66.0, "lat": 5.25}}, {"type": "Feature", "geometry": {"type": "Polygon", "coordinates": [[[-66.75, 6.0], [-66.75, 7.5], [-65.25, 7.5], [-65.25, 6.0], [-66.75, 6.0]]]}, "properties": {"cell_id": "196_64", "lon": -66.0, "lat": 6.75}}, {"type": "Feature", "geometry": {"type": "Polygon", "coordinates": [[[-66.75, 7.5], [-66.75, 9.0], [-65.25, 9.0], [-65.25, 7.5], [-66.75, 7.5]]]}, "properties": {"cell_id": "196_65", "lon": -66.0, "lat": 8.25}}, {"type": "Feature", "geometry": {"type": "Polygon", "coordinates": [[[-66.75, 9.0], [-66.75, 10.5], [-65.25, 10.5], [-65.25, 9.0], [-66.75, 9.0]]]}, "properties": {"cell_id": "196_66", "lon": -66.0, "lat": 9.75}}, {"type": "Feature", "geometry": {"type": "Polygon", "coordinates": [[[-65.25, 0.0], [-65.25, 1.5], [-63.75, 1.5], [-63.75, 0.0], [-65.25, 0.0]]]}, "properties": {"cell_id": "197_60", "lon": -64.5, "lat": 0.75}}, {"type": "Feature", "geometry": {"type": "Polygon", "coordinates": [[[-65.25, 1.5], [-65.25, 3.0], [-63.75, 3.0], [-63.75, 1.5], [-65.25, 1.5]]]}, "properties": {"cell_id": "197_61", "lon": -64.5, "lat": 2.25}}, {"type": "Feature", "geometry": {"type": "Polygon", "coordinates": [[[-65.25, 3.0], [-65.25, 4.5], [-63.75, 4.5], [-63.75, 3.0], [-65.25, 3.0]]]}, "properties": {"cell_id": "197_62", "lon": -64.5, "lat": 3.75}}, {"type": "Feature", "geometry": {"type": "Polygon", "coordinates": [[[-65.25, 4.5], [-65.25, 6.0], [-63.75, 6.0], [-63.75, 4.5], [-65.25, 4.5]]]}, "properties": {"cell_id": "197_63", "lon": -64.5, "lat": 5.25}}, {"type": "Feature", "geometry": {"type": "Polygon", "coordinates": [[[-65.25, 6.0], [-65.25, 7.5], [-63.75, 7.5], [-63.75, 6.0], [-65.25, 6.0]]]}, "properties": {"cell_id": "197_64", "lon": -64.5, "lat": 6.75}}, {"type": "Feature", "geometry": {"type": "Polygon", "coordinates": [[[-65.25, 7.5], [-65.25, 9.0], [-63.75, 9.0], [-63.75, 7.5], [-65.25, 7.5]]]}, "properties": {"cell_id": "197_65", "lon": -64.5, "lat": 8.25}}, {"type": "Feature", "geometry": {"type": "Polygon", "coordinates": [[[-65.25, 9.0], [-65.25, 10.5], [-63.75, 10.5], [-63.75, 9.0], [-65.25, 9.0]]]}, "properties": {"cell_id": "197_66", "lon": -64.5, "lat": 9.75}}, {"type": "Feature", "geometry": {"type": "Polygon", "coordinates": [[[-63.75, 0.0], [-63.75, 1.5], [-62.25, 1.5], [-62.25, 0.0], [-63.75, 0.0]]]}, "properties": {"cell_id": "198_60", "lon": -63.0, "lat": 0.75}}, {"type": "Feature", "geometry": {"type": "Polygon", "coordinates": [[[-63.75, 1.5], [-63.75, 3.0], [-62.25, 3.0], [-62.25, 1.5], [-63.75, 1.5]]]}, "properties": {"cell_id": "198_61", "lon": -63.0, "lat": 2.25}}, {"type": "Feature", "geometry": {"type": "Polygon", "coordinates": [[[-63.75, 3.0], [-63.75, 4.5], [-62.25, 4.5], [-62.25, 3.0], [-63.75, 3.0]]]}, "properties": {"cell_id": "198_62", "lon": -63.0, "lat": 3.75}}, {"type": "Feature", "geometry": {"type": "Polygon", "coordinates": [[[-63.75, 4.5], [-63.75, 6.0], [-62.25, 6.0], [-62.25, 4.5], [-63.75, 4.5]]]}, "properties": {"cell_id": "198_63", "lon": -63.0, "lat": 5.25}}, {"type": "Feature", "geometry": {"type": "Polygon", "coordinates": [[[-63.75, 6.0], [-63.75, 7.5], [-62.25, 7.5], [-62.25, 6.0], [-63.75, 6.0]]]}, "properties": {"cell_id": "198_64", "lon": -63.0, "lat": 6.75}}, {"type": "Feature", "geometry": {"type": "Polygon", "coordinates": [[[-63.75, 7.5], [-63.75, 9.0], [-62.25, 9.0], [-62.25, 7.5], [-63.75, 7.5]]]}, "properties": {"cell_id": "198_65", "lon": -63.0, "lat": 8.25}}, {"type": "Feature", "geometry": {"type": "Polygon", "coordinates": [[[-63.75, 9.0], [-63.75, 10.5], [-62.25, 10.5], [-62.25, 9.0], [-63.75, 9.0]]]}, "properties": {"cell_id": "198_66", "lon": -63.0, "lat": 9.75}}, {"type": "Feature", "geometry": {"type": "Polygon", "coordinates": [[[-62.25, 0.0], [-62.25, 1.5], [-60.75, 1.5], [-60.75, 0.0], [-62.25, 0.0]]]}, "properties": {"cell_id": "199_60", "lon": -61.5, "lat": 0.75}}, {"type": "Feature", "geometry": {"type": "Polygon", "coordinates": [[[-62.25, 1.5], [-62.25, 3.0], [-60.75, 3.0], [-60.75, 1.5], [-62.25, 1.5]]]}, "properties": {"cell_id": "199_61", "lon": -61.5, "lat": 2.25}}, {"type": "Feature", "geometry": {"type": "Polygon", "coordinates": [[[-62.25, 3.0], [-62.25, 4.5], [-60.75, 4.5], [-60.75, 3.0], [-62.25, 3.0]]]}, "properties": {"cell_id": "199_62", "lon": -61.5, "lat": 3.75}}, {"type": "Feature", "geometry": {"type": "Polygon", "coordinates": [[[-62.25, 4.5], [-62.25, 6.0], [-60.75, 6.0], [-60.75, 4.5], [-62.25, 4.5]]]}, "properties": {"cell_id": "199_63", "lon": -61.5, "lat": 5.25}}, {"type": "Feature", "geometry": {"type": "Polygon", "coordinates": [[[-62.25, 6.0], [-62.25, 7.5], [-60.75, 7.5], [-60.75, 6.0], [-62.25, 6.0]]]}, "properties": {"cell_id": "199_64", "lon": -61.5, "lat": 6.75}}, {"type": "Feature", "geometry": {"type": "Polygon", "coordinates": [[[-62.25, 7.5], [-62.25, 9.0], [-60.75, 9.0], [-60.75, 7.5], [-62.25, 7.5]]]}, "properties": {"cell_id": "199_65", "lon": -61.5, "lat": 8.25}}, {"type": "Feature", "geometry": {"type": "Polygon", "coordinates": [[[-60.75, 0.0], [-60.75, 1.5], [-59.25, 1.5], [-59.25, 0.0], [-60.75, 0.0]]]}, "properties": {"cell_id": "200_60", "lon": -60.0, "lat": 0.75}}, {"type": "Feature", "geometry": {"type": "Polygon", "coordinates": [[[-60.75, 1.5], [-60.75, 3.0], [-59.25, 3.0], [-59.25, 1.5], [-60.75, 1.5]]]}, "properties": {"cell_id": "200_61", "lon": -60.0, "lat": 2.25}}, {"type": "Feature", "geometry": {"type": "Polygon", "coordinates": [[[-60.75, 3.0], [-60.75, 4.5], [-59.25, 4.5], [-59.25, 3.0], [-60.75, 3.0]]]}, "properties": {"cell_id": "200_62", "lon": -60.0, "lat": 3.75}}, {"type": "Feature", "geometry": {"type": "Polygon", "coordinates": [[[-60.75, 4.5], [-60.75, 6.0], [-59.25, 6.0], [-59.25, 4.5], [-60.75, 4.5]]]}, "properties": {"cell_id": "200_63", "lon": -60.0, "lat": 5.25}}, {"type": "Feature", "geometry": {"type": "Polygon", "coordinates": [[[-60.75, 6.0], [-60.75, 7.5], [-59.25, 7.5], [-59.25, 6.0], [-60.75, 6.0]]]}, "properties": {"cell_id": "200_64", "lon": -60.0, "lat": 6.75}}, {"type": "Feature", "geometry": {"type": "Polygon", "coordinates": [[[-60.75, 7.5], [-60.75, 9.0], [-59.25, 9.0], [-59.25, 7.5], [-60.75, 7.5]]]}, "properties": {"cell_id": "200_65", "lon": -60.0, "lat": 8.25}}]}