{"type": "FeatureCollection", "features": [{"type": "Feature", "geometry": {"type": "Polygon", "coordinates": [[[-48.75, -90.0], [-48.75, -88.5], [-47.25, -88.5], [-47.25, -90.0], [-48.75, -90.0]]]}, "properties": {"cell_id": "208_0", "lon": -48.0, "lat": -89.25}}, {"type": "Feature", "geometry": {"type": "Polygon", "coordinates": [[[-48.75, -88.5], [-48.75, -87.0], [-47.25, -87.0], [-47.25, -88.5], [-48.75, -88.5]]]}, "properties": {"cell_id": "208_1", "lon": -48.0, "lat": -87.75}}, {"type": "Feature", "geometry": {"type": "Polygon", "coordinates": [[[-48.75, -87.0], [-48.75, -85.5], [-47.25, -85.5], [-47.25, -87.0], [-48.75, -87.0]]]}, "properties": {"cell_id": "208_2", "lon": -48.0, "lat": -86.25}}, {"type": "Feature", "geometry": {"type": "Polygon", "coordinates": [[[-48.75, -85.5], [-48.75, -84.0], [-47.25, -84.0], [-47.25, -85.5], [-48.75, -85.5]]]}, "properties": {"cell_id": "208_3", "lon": -48.0, "lat": -84.75}}, {"type": "Feature", "geometry": {"type": "Polygon", "coordinates": [[[-48.75, -84.0], [-48.75, -82.5], [-47.25, -82.5], [-47.25, -84.0], [-48.75, -84.0]]]}, "properties": {"cell_id": "208_4", "lon": -48.0, "lat": -83.25}}, {"type": "Feature", "geometry": {"type": "Polygon", "coordinates": [[[-48.75, -82.5], [-48.75, -81.0], [-47.25, -81.0], [-47.25, -82.5], [-48.75, -82.5]]]}, "properties": {"cell_id": "208_5", "lon": -48.0, "lat": -81.75}}, {"type": "Feature", "geometry": {"type": "Polygon", "coordinates": [[[-48.75, -81.0], [-48.75, -79.5], [-47.25, -79.5], [-47.25, -81.0], [-48.75, -81.0]]]}, "properties": {"cell_id": "208_6", "lon": -48.0, "lat": -80.25}}, {"type": "Feature", "geometry": {"type": "Polygon", "coordinates": [[[-47.25, -90.0], [-47.25, -88.5], [-45.75, -88.5], [-45.75, -90.0], [-47.25, -90.0]]]}, "properties": {"cell_id": "209_0", "lon": -46.5, "lat": -89.25}}, {"type": "Feature", "geometry": {"type": "Polygon", "coordinates": [[[-47.25, -88.5], [-47.25, -87.0], [-45.75, -87.0], [-45.75, -88.5], [-47.25, -88.5]]]}, "properties": {"cell_id": "209_1", "lon": -46.5, "lat": -87.75}}, {"type": "Feature", "geometry": {"type": "Polygon", "coordinates": [[[-47.25, -87.0], [-47.25, -85.5], [-45.75, -85.5], [-45.75, -87.0], [-47.25, -87.0]]]}, "properties": {"cell_id": "209_2", "lon": -46.5, "lat": -86.25}}, {"type": "Feature", "geometry": {"type": "Polygon", "coordinates": [[[-47.25, -85.5], [-47.25, -84.0], [-45.75, -84.0], [-45.75, -85.5], [-47.25, -85.5]]]}, "properties": {"cell_id": "209_3", "lon": -46.5, "lat": -84.75}}, {"type": "Feature", "geometry": {"type": "Polygon", "coordinates": [[[-47.25, -84.0], [-47.25, -82.5], [-45.75, -82.5], [-45.75, -84.0], [-47.25, -84.0]]]}, "properties": {"cell_id": "209_4", "lon": -46.5, "lat": -83.25}}, {"type": "Feature", "geometry": {"type": "Polygon", "coordinates": [[[-47.25, -82.5], [-47.25, -81.0], [-45.75, -81.0], [-45.75, -82.5], [-47.25, -82.5]]]}, "properties": {"cell_id": "209_5", "lon": -46.5, "lat": -81.75}}, {"type": "Feature", "geometry": {"type": "Polygon", "coordinates": [[[-47.25, -81.0], [-47.25, -79.5], [-45.75, -79.5], [-45.75, -81.0], [-47.25, -81.0]]]}, "properties": {"cell_id": "209_6", "lon": -46.5, "lat": -80.25}}, {"type": "Feature", "geometry": {"type": "Polygon", "coordinates": [[[-45.75, -90.0], [-45.75, -88.5], [-44.25, -88.5], [-44.25, -90.0], [-45.75, -90.0]]]}, "properties": {"cell_id": "210_0", "lon": -45.0, "lat": -89.25}}, {"type": "Feature", "geometry": {"type": "Polygon", "coordinates": [[[-45.75, -88.5], [-45.75, -87.0], [-44.25, -87.0], [-44.25, -88.5], [-45.75, -88.5]]]}, "properties": {"cell_id": "210_1", "lon": -45.0, "lat": -87.75}}, {"type": "Feature", "geometry": {"type": "Polygon", "coordinates": [[[-45.75, -87.0], [-45.75, -85.5], [-44.25, -85.5], [-44.25, -87.0], [-45.75, -87.0]]]}, "properties": {"cell_id": "210_2", "lon": -45.0, "lat": -86.25}}, {"type": "Feature", "geometry": {"type": "Polygon", "coordinates": [[[-45.75, -85.5], [-45.75, -84.0], [-44.25, -84.0], [-44.25, -85.5], [-45.75, -85.5]]]}, "properties": {"cell_id": "210_3", "lon": -45.0, "lat": -84.75}}, {"type": "Feature", "geometry": {"type": "Polygon", "coordinates": [[[-45.75, -84.0], [-45.75, -82.5], [-44.25, -82.5], [-44.25, -84.0], [-45.75, -84.0]]]}, "properties": {"cell_id": "210_4", "lon": -45.0, "lat": -83.25}}, {"type": "Feature", "geometry": {"type": "Polygon", "coordinates": [[[-45.75, -82.5], [-45.75, -81.0], [-44.25, -81.0], [-44.25, -82.5], [-45.75, -82.5]]]}, "properties": {"cell_id": "210_5", "lon": -45.0, "lat": -81.75}}, {"type": "Feature", "geometry": {"type": "Polygon", "coordinates": [[[-45.75, -81.0], [-45.75, -79.5], [-44.25, -79.5], [-44.25, -81.0], [-45.75, -81.0]]]}, "properties": {"cell_id": "210_6", "lon": -45.0, "lat": -80.25}}, {"type": "Feature", "geometry": {"type": "Polygon", "coordinates": [[[-44.25, -90.0], [-44.25, -88.5], [-42.75, -88.5], [-42.75, -90.0], [-44.25, -90.0]]]}, "properties": {"cell_id": "211_0", "lon": -43.5, "lat": -89.25}}, {"type": "Feature", "geometry": {"type": "Polygon", "coordinates": [[[-44.25, -88.5], [-44.25, -87.0], [-42.75, -87.0], [-42.75, -88.5], [-44.25, -88.5]]]}, "properties": {"cell_id": "211_1", "lon": -43.5, "lat": -87.75}}, {"type": "Feature", "geometry": {"type": "Polygon", "coordinates": [[[-44.25, -87.0], [-44.25, -85.5], [-42.75, -85.5], [-42.75, -87.0], [-44.25, -87.0]]]}, "properties": {"cell_id": "211_2", "lon": -43.5, "lat": -86.25}}, {"type": "Feature", "geometry": {"type": "Polygon", "coordinates": [[[-44.25, -85.5], [-44.25, -84.0], [-42.75, -84.0], [-42.75, -85.5], [-44.25, -85.5]]]}, "properties": {"cell_id": "211_3", "lon": -43.5, "lat": -84.75}}, {"type": "Feature", "geometry": {"type": "Polygon", "coordinates": [[[-44.25, -84.0], [-44.25, -82.5], [-42.75, -82.5], [-42.75, -84.0], [-44.25, -84.0]]]}, "properties": {"cell_id": "211_4", "lon": -43.5, "lat": -83.25}}, {"type": "Feature", "geometry": {"type": "Polygon", "coordinates": [[[-44.25, -82.5], [-44.25, -81.0], [-42.75, -81.0], [-42.75, -82.5], [-44.25, -82.5]]]}, "properties": {"cell_id": "211_5", "lon": -43.5, "lat": -81.75}}, {"type": "Feature", "geometry": {"type": "Polygon", "coordinates": [[[-44.25, -81.0], [-44.25, -79.5], [-42.75, -79.5], [-42.75, -81.0], [-44.25, -81.0]]]}, "properties": {"cell_id": "211_6", "lon": -43.5, "lat": -80.25}}, {"type": "Feature", "geometry": {"type": "Polygon", "coordinates": [[[-42.75, -90.0], [-42.75, -88.5], [-41.25, -88.5], [-41.25, -90.0], [-42.75, -90.0]]]}, "properties": {"cell_id": "212_0", "lon": -42.0, "lat": -89.25}}, {"type": "Feature", "geometry": {"type": "Polygon", "coordinates": [[[-42.75, -88.5], [-42.75, -87.0], [-41.25, -87.0], [-41.25, -88.5], [-42.75, -88.5]]]}, "properties": {"cell_id": "212_1", "lon": -42.0, "lat": -87.75}}, {"type": "Feature", "geometry": {"type": "Polygon", "coordinates": [[[-42.75, -87.0], [-42.75, -85.5], [-41.25, -85.5], [-41.25, -87.0], [-42.75, -87.0]]]}, "properties": {"cell_id": "212_2", "lon": -42.0, "lat": -86.25}}, {"type": "Feature", "geometry": {"type": "Polygon", "coordinates": [[[-42.75, -85.5], [-42.75, -84.0], [-41.25, -84.0], [-41.25, -85.5], [-42.75, -85.5]]]}, "properties": {"cell_id": "212_3", "lon": -42.0, "lat": -84.75}}, {"type": "Feature", "geometry": {"type": "Polygon", "coordinates": [[[-42.75, -84.0], [-42.75, -82.5], [-41.25, -82.5], [-41.25, -84.0], [-42.75, -84.0]]]}, "properties": {"cell_id": "212_4", "lon": -42.0, "lat": -83.25}}, {"type": "Feature", "geometry": {"type": "Polygon", "coordinates": [[[-42.75, -82.5], [-42.75, -81.0], [-41.25, -81.0], [-41.25, -82.5], [-42.75, -82.5]]]}, "properties": {"cell_id": "212_5", "lon": -42.0, "lat": -81.75}}, {"type": "Feature", "geometry": {"type": "Polygon", "coordinates": [[[-42.75, -81.0], [-42.75, -79.5], [-41.25, -79.5], [-41.25, -81.0], [-42.75, -81.0]]]}, "properties": {"cell_id": "212_6", "lon": -42.0, "lat": -80.25}}, {"type": "Feature", "geometry": {"type": "Polygon", "coordinates": [[[-41.25, -90.0], [-41.25, -88.5], [-39.75, -88.5], [-39.75, -90.0], [-41.25, -90.0]]]}, "properties": {"cell_id": "213_0", "lon": -40.5, "lat": -89.25}}, {"type": "Feature", "geometry": {"type": "Polygon", "coordinates": [[[-41.25, -88.5], [-41.25, -87.0], [-39.75, -87.0], [-39.75, -88.5], [-41.25, -88.5]]]}, "properties": {"cell_id": "213_1", "lon": -40.5, "lat": -87.75}}, {"type": "Feature", "geometry": {"type": "Polygon", "coordinates": [[[-41.25, -87.0], [-41.25, -85.5], [-39.75, -85.5], [-39.75, -87.0], [-41.25, -87.0]]]}, "properties": {"cell_id": "213_2", "lon": -40.5, "lat": -86.25}}, {"type": "Feature", "geometry": {"type": "Polygon", "coordinates": [[[-41.25, -85.5], [-41.25, -84.0], [-39.75, -84.0], [-39.75, -85.5], [-41.25, -85.5]]]}, "properties": {"cell_id": "213_3", "lon": -40.5, "lat": -84.75}}, {"type": "Feature", "geometry": {"type": "Polygon", "coordinates": [[[-41.25, -84.0], [-41.25, -82.5], [-39.75, -82.5], [-39.75, -84.0], [-41.25, -84.0]]]}, "properties": {"cell_id": "213_4", "lon": -40.5, "lat": -83.25}}, {"type": "Feature", "geometry": {"type": "Polygon", "coordinates": [[[-41.25, -82.5], [-41.25, -81.0], [-39.75, -81.0], [-39.75, -82.5], [-41.25, -82.5]]]}, "properties": {"cell_id": "213_5", "lon": -40.5, "lat": -81.75}}, {"type": "Feature", "geometry": {"type": "Polygon", "coordinates": [[[-41.25, -81.0], [-41.25, -79.5], [-39.75, -79.5], [-39.75, -81.0], [-41.25, -81.0]]]}, "properties": {"cell_id": "213_6", "lon": -40.5, "lat": -80.25}}]}