{"type": "FeatureCollection", "features": [{"type": "Feature", "geometry": {"type": "Polygon", "coordinates": [[[11.25, 40.5], [11.25, 42.0], [12.75, 42.0], [12.75, 40.5], [11.25, 40.5]]]}, "properties": {"cell_id": "8_87", "lon": 12.0, "lat": 41.25}}, {"type": "Feature", "geometry": {"type": "Polygon", "coordinates": [[[11.25, 42.0], [11.25, 43.5], [12.75, 43.5], [12.75, 42.0], [11.25, 42.0]]]}, "properties": {"cell_id": "8_88", "lon": 12.0, "lat": 42.75}}, {"type": "Feature", "geometry": {"type": "Polygon", "coordinates": [[[11.25, 43.5], [11.25, 45.0], [12.75, 45.0], [12.75, 43.5], [11.25, 43.5]]]}, "properties": {"cell_id": "8_89", "lon": 12.0, "lat": 44.25}}, {"type": "Feature", "geometry": {"type": "Polygon", "coordinates": [[[11.25, 45.0], [11.25, 46.5], [12.75, 46.5], [12.75, 45.0], [11.25, 45.0]]]}, "properties": {"cell_id": "8_90", "lon": 12.0, "lat": 45.75}}, {"type": "Feature", "geometry": {"type": "Polygon", "coordinates": [[[11.25, 46.5], [11.25, 48.0], [12.75, 48.0], [12.75, 46.5], [11.25, 46.5]]]}, "properties": {"cell_id": "8_91", "lon": 12.0, "lat": 47.25}}, {"type": "Feature", "geometry": {"type": "Polygon", "coordinates": [[[11.25, 48.0], [11.25, 49.5], [12.75, 49.5], [12.75, 48.0], [11.25, 48.0]]]}, "properties": {"cell_id": "8_92", "lon": 12.0, "lat": 48.75}}, {"type": "Feature", "geometry": {"type": "Polygon", "coordinates": [[[11.25, 49.5], [11.25, 51.0], [12.75, 51.0], [12.75, 49.5], [11.25, 49.5]]]}, "properties": {"cell_id": "8_93", "lon": 12.0, "lat": 50.25}}, {"type": "Feature", "geometry": {"type": "Polygon", "coordinates": [[[12.75, 43.5], [12.75, 45.0], [14.25, 45.0], [14.25, 43.5], [12.75, 43.5]]]}, "properties": {"cell_id": "9_89", "lon": 13.5, "lat": 44.25}}, {"type": "Feature", "geometry": {"type": "Polygon", "coordinates": [[[12.75, 45.0], [12.75, 46.5], [14.25, 46.5], [14.25, 45.0], [12.75, 45.0]]]}, "properties": {"cell_id": "9_90", "lon": 13.5, "lat": 45.75}}, {"type": "Feature", "geometry": {"type": "Polygon", "coordinates": [[[12.75, 46.5], [12.75, 48.0], [14.25, 48.0], [14.25, 46.5], [12.75, 46.5]]]}, "properties": {"cell_id": "9_91", "lon": 13.5, "lat": 47.25}}, {"type": "Feature", "geometry": {"type": "Polygon", "coordinates": [[[12.75, 48.0], [12.75, 49.5], [14.25, 49.5], [14.25, 48.0], [12.75, 48.0]]]}, "properties": {"cell_id": "9_92", "lon": 13.5, "lat": 48.75}}, {"type": "Feature", "geometry": {"type": "Polygon", "coordinates": [[[12.75, 49.5], [12.75, 51.0], [14.25, 51.0], [14.25, 49.5], [12.75, 49.5]]]}, "properties": {"cell_id": "9_93", "lon": 13.5, "lat": 50.25}}, {"type": "Feature", "geometry": {"type": "Polygon", "coordinates": [[[14.25, 40.5], [14.25, 42.0], [15.75, 42.0], [15.75, 40.5], [14.25, 40.5]]]}, "properties": {"cell_id": "10_87", "lon": 15.0, "lat": 41.25}}, {"type": "Feature", "geometry": {"type": "Polygon", "coordinates": [[[14.25, 42.0], [14.25, 43.5], [15.75, 43.5], [15.75, 42.0], [14.25, 42.0]]]}, "properties": {"cell_id": "10_88", "lon": 15.0, "lat": 42.75}}, {"type": "Feature", "geometry": {"type": "Polygon", "coordinates": [[[14.25, 43.5], [14.25, 45.0], [15.75, 45.0], [15.75, 43.5], [14.25, 43.5]]]}, "properties": {"cell_id": "10_89", "lon": 15.0, "lat": 44.25}}, {"type": "Feature", "geometry": {"type": "Polygon", "coordinates": [[[14.25, 45.0], [14.25, 46.5], [15.75, 46.5], [15.75, 45.0], [14.25, 45.0]]]}, "properties": {"cell_id": "10_90", "lon": 15.0, "lat": 45.75}}, {"type": "Feature", "geometry": {"type": "Polygon", "coordinates": [[[14.25, 46.5], [14.25, 48.0], [15.75, 48.0], [15.75, 46.5], [14.25, 46.5]]]}, "properties": {"cell_id": "10_91", "lon": 15.0, "lat": 47.25}}, {"type": "Feature", "geometry": {"type": "Polygon", "coordinates": [[[14.25, 48.0], [14.25, 49.5], [15.75, 49.5], [15.75, 48.0], [14.25, 48.0]]]}, "properties": {"cell_id": "10_92", "lon": 15.0, "lat": 48.75}}, {"type": "Feature", "geometry": {"type": "Polygon", "coordinates": [[[14.25, 49.5], [14.25, 51.0], [15.75, 51.0], [15.75, 49.5], [14.25, 49.5]]]}, "properties": {"cell_id": "10_93", "lon": 15.0, "lat": 50.25}}, {"type": "Feature", "geometry": {"type": "Polygon", "coordinates": [[[15.75, 40.5], [15.75, 42.0], [17.25, 42.0], [17.25, 40.5], [15.75, 40.5]]]}, "properties": {"cell_id": "11_87", "lon": 16.5, "lat": 41.25}}, {"type": "Feature", "geometry": {"type": "Polygon", "coordinates": [[[15.75, 42.0], [15.75, 43.5], [17.25, 43.5], [17.25, 42.0], [15.75, 42.0]]]}, "properties": {"cell_id": "11_88", "lon": 16.5, "lat": 42.75}}, {"type": "Feature", "geometry": {"type": "Polygon", "coordinates": [[[15.75, 43.5], [15.75, 45.0], [17.25, 45.0], [17.25, 43.5], [15.75, 43.5]]]}, "properties": {"cell_id": "11_89", "lon": 16.5, "lat": 44.25}}, {"type": "Feature", "geometry": {"type": "Polygon", "coordinates": [[[15.75, 45.0], [15.75, 46.5], [17.25, 46.5], [17.25, 45.0], [15.75, 45.0]]]}, "properties": {"cell_id": "11_90", "lon": 16.5, "lat": 45.75}}, {"type": "Feature", "geometry": {"type": "Polygon", "coordinates": [[[15.75, 46.5], [15.75, 48.0], [17.25, 48.0], [17.25, 46.5], [15.75, 46.5]]]}, "properties": {"cell_id": "11_91", "lon": 16.5, "lat": 47.25}}, {"type": "Feature", "geometry": {"type": "Polygon", "coordinates": [[[15.75, 48.0], [15.75, 49.5], [17.25, 49.5], [17.25, 48.0], [15.75, 48.0]]]}, "properties": {"cell_id": "11_92", "lon": 16.5, "lat": 48.75}}, {"type": "Feature", "geometry": {"type": "Polygon", "coordinates": [[[15.75, 49.5], [15.75, 51.0], [17.25, 51.0], [17.25, 49.5], [15.75, 49.5]]]}, "properties": {"cell_id": "11_93", "lon": 16.5, "lat": 50.25}}, {"type": "Feature", "geometry": {"type": "Polygon", "coordinates": [[[17.25, 40.5], [17.25, 42.0], [18.75, 42.0], [18.75, 40.5], [17.25, 40.5]]]}, "properties": {"cell_id": "12_87", "lon": 18.0, "lat": 41.25}}, {"type": "Feature", "geometry": {"type": "Polygon", "coordinates": [[[17.25, 42.0], [17.25, 43.5], [18.75, 43.5], [18.75, 42.0], [17.25, 42.0]]]}, "properties": {"cell_id": "12_88", "lon": 18.0, "lat": 42.75}}, {"type": "Feature", "geometry": {"type": "Polygon", "coordinates": [[[17.25, 43.5], [17.25, 45.0], [18.75, 45.0], [18.75, 43.5], [17.25, 43.5]]]}, "properties": {"cell_id": "12_89", "lon": 18.0, "lat": 44.25}}, {"type": "Feature", "geometry": {"type": "Polygon", "coordinates": [[[17.25, 45.0], [17.25, 46.5], [18.75, 46.5], [18.75, 45.0], [17.25, 45.0]]]}, "properties": {"cell_id": "12_90", "lon": 18.0, "lat": 45.75}}, {"type": "Feature", "geometry": {"type": "Polygon", "coordinates": [[[17.25, 46.5], [17.25, 48.0], [18.75, 48.0], [18.75, 46.5], [17.25, 46.5]]]}, "properties": {"cell_id": "12_91", "lon": 18.0, "lat": 47.25}}, {"type": "Feature", "geometry": {"type": "Polygon", "coordinates": [[[17.25, 48.0], [17.25, 49.5], [18.75, 49.5], [18.75, 48.0], [17.25, 48.0]]]}, "properties": {"cell_id": "12_92", "lon": 18.0, "lat": 48.75}}, {"type": "Feature", "geometry": {"type": "Polygon", "coordinates": [[[17.25, 49.5], [17.25, 51.0], [18.75, 51.0], [18.75, 49.5], [17.25, 49.5]]]}, "properties": {"cell_id": "12_93", "lon": 18.0, "lat": 50.25}}, {"type": "Feature", "geometry": {"type": "Polygon", "coordinates": [[[18.75, 40.5], [18.75, 42.0], [20.25, 42.0], [20.25, 40.5], [18.75, 40.5]]]}, "properties": {"cell_id": "13_87", "lon": 19.5, "lat": 41.25}}, {"type": "Feature", "geometry": {"type": "Polygon", "coordinates": [[[18.75, 42.0], [18.75, 43.5], [20.25, 43.5], [20.25, 42.0], [18.75, 42.0]]]}, "properties": {"cell_id": "13_88", "lon": 19.5, "lat": 42.75}}, {"type": "Feature", "geometry": {"type": "Polygon", "coordinates": [[[18.75, 43.5], [18.75, 45.0], [20.25, 45.0], [20.25, 43.5], [18.75, 43.5]]]}, "properties": {"cell_id": "13_89", "lon": 19.5, "lat": 44.25}}, {"type": "Feature", "geometry": {"type": "Polygon", "coordinates": [[[18.75, 45.0], [18.75, 46.5], [20.25, 46.5], [20.25, 45.0], [18.75, 45.0]]]}, "properties": {"cell_id": "13_90", "lon": 19.5, "lat": 45.75}}, {"type": "Feature", "geometry": {"type": "Polygon", "coordinates": [[[18.75, 46.5], [18.75, 48.0], [20.25, 48.0], [20.25, 46.5], [18.75, 46.5]]]}, "properties": {"cell_id": "13_91", "lon": 19.5, "lat": 47.25}}, {"type": "Feature", "geometry": {"type": "Polygon", "coordinates": [[[18.75, 48.0], [18.75, 49.5], [20.25, 49.5], [20.25, 48.0], [18.75, 48.0]]]}, "properties": {"cell_id": "13_92", "lon": 19.5, "lat": 48.75}}, {"type": "Feature", "geometry": {"type": "Polygon", "coordinates": [[[18.75, 49.5], [18.75, 51.0], [20.25, 51.0], [20.25, 49.5], [18.75, 49.5]]]}, "properties": {"cell_id": "13_93", "lon": 19.5, "lat": 50.25}}]}