{"type": "FeatureCollection", "features": [{"type": "Feature", "geometry": {"type": "Polygon", "coordinates": [[[120.75, -79.5], [120.75, -78.0], [122.25, -78.0], [122.25, -79.5], [120.75, -79.5]]]}, "properties": {"cell_id": "81_7", "lon": 121.5, "lat": -78.75}}, {"type": "Feature", "geometry": {"type": "Polygon", "coordinates": [[[120.75, -78.0], [120.75, -76.5], [122.25, -76.5], [122.25, -78.0], [120.75, -78.0]]]}, "properties": {"cell_id": "81_8", "lon": 121.5, "lat": -77.25}}, {"type": "Feature", "geometry": {"type": "Polygon", "coordinates": [[[120.75, -76.5], [120.75, -75.0], [122.25, -75.0], [122.25, -76.5], [120.75, -76.5]]]}, "properties": {"cell_id": "81_9", "lon": 121.5, "lat": -75.75}}, {"type": "Feature", "geometry": {"type": "Polygon", "coordinates": [[[120.75, -75.0], [120.75, -73.5], [122.25, -73.5], [122.25, -75.0], [120.75, -75.0]]]}, "properties": {"cell_id": "81_10", "lon": 121.5, "lat": -74.25}}, {"type": "Feature", "geometry": {"type": "Polygon", "coordinates": [[[120.75, -73.5], [120.75, -72.0], [122.25, -72.0], [122.25, -73.5], [120.75, -73.5]]]}, "properties": {"cell_id": "81_11", "lon": 121.5, "lat": -72.75}}, {"type": "Feature", "geometry": {"type": "Polygon", "coordinates": [[[120.75, -72.0], [120.75, -70.5], [122.25, -70.5], [122.25, -72.0], [120.75, -72.0]]]}, "properties": {"cell_id": "81_12", "lon": 121.5, "lat": -71.25}}, {"type": "Feature", "geometry": {"type": "Polygon", "coordinates": [[[120.75, -70.5], [120.75, -69.0], [122.25, -69.0], [122.25, -70.5], [120.75, -70.5]]]}, "properties": {"cell_id": "81_13", "lon": 121.5, "lat": -69.75}}, {"type": "Feature", "geometry": {"type": "Polygon", "coordinates": [[[122.25, -79.5], [122.25, -78.0], [123.75, -78.0], [123.75, -79.5], [122.25, -79.5]]]}, "properties": {"cell_id": "82_7", "lon": 123.0, "lat": -78.75}}, {"type": "Feature", "geometry": {"type": "Polygon", "coordinates": [[[122.25, -78.0], [122.25, -76.5], [123.75, -76.5], [123.75, -78.0], [122.25, -78.0]]]}, "properties": {"cell_id": "82_8", "lon": 123.0, "lat": -77.25}}, {"type": "Feature", "geometry": {"type": "Polygon", "coordinates": [[[122.25, -76.5], [122.25, -75.0], [123.75, -75.0], [123.75, -76.5], [122.25, -76.5]]]}, "properties": {"cell_id": "82_9", "lon": 123.0, "lat": -75.75}}, {"type": "Feature", "geometry": {"type": "Polygon", "coordinates": [[[122.25, -75.0], [122.25, -73.5], [123.75, -73.5], [123.75, -75.0], [122.25, -75.0]]]}, "properties": {"cell_id": "82_10", "lon": 123.0, "lat": -74.25}}, {"type": "Feature", "geometry": {"type": "Polygon", "coordinates": [[[122.25, -73.5], [122.25, -72.0], [123.75, -72.0], [123.75, -73.5], [122.25, -73.5]]]}, "properties": {"cell_id": "82_11", "lon": 123.0, "lat": -72.75}}, {"type": "Feature", "geometry": {"type": "Polygon", "coordinates": [[[122.25, -72.0], [122.25, -70.5], [123.75, -70.5], [123.75, -72.0], [122.25, -72.0]]]}, "properties": {"cell_id": "82_12", "lon": 123.0, "lat": -71.25}}, {"type": "Feature", "geometry": {"type": "Polygon", "coordinates": [[[122.25, -70.5], [122.25, -69.0], [123.75, -69.0], [123.75, -70.5], [122.25, -70.5]]]}, "properties": {"cell_id": "82_13", "lon": 123.0, "lat": -69.75}}, {"type": "Feature", "geometry": {"type": "Polygon", "coordinates": [[[123.75, -79.5], [123.75, -78.0], [125.25, -78.0], [125.25, -79.5], [123.75, -79.5]]]}, "properties": {"cell_id": "83_7", "lon": 124.5, "lat": -78.75}}, {"type": "Feature", "geometry": {"type": "Polygon", "coordinates": [[[123.75, -78.0], [123.75, -76.5], [125.25, -76.5], [125.25, -78.0], [123.75, -78.0]]]}, "properties": {"cell_id": "83_8", "lon": 124.5, "lat": -77.25}}, {"type": "Feature", "geometry": {"type": "Polygon", "coordinates": [[[123.75, -76.5], [123.75, -75.0], [125.25, -75.0], [125.25, -76.5], [123.75, -76.5]]]}, "properties": {"cell_id": "83_9", "lon": 124.5, "lat": -75.75}}, {"type": "Feature", "geometry": {"type": "Polygon", "coordinates": [[[123.75, -75.0], [123.75, -73.5], [125.25, -73.5], [125.25, -75.0], [123.75, -75.0]]]}, "properties": {"cell_id": "83_10", "lon": 124.5, "lat": -74.25}}, {"type": "Feature", "geometry": {"type": "Polygon", "coordinates": [[[123.75, -73.5], [123.75, -72.0], [125.25, -72.0], [125.25, -73.5], [123.75, -73.5]]]}, "properties": {"cell_id": "83_11", "lon": 124.5, "lat": -72.75}}, {"type": "Feature", "geometry": {"type": "Polygon", "coordinates": [[[123.75, -72.0], [123.75, -70.5], [125.25, -70.5], [125.25, -72.0], [123.75, -72.0]]]}, "properties": {"cell_id": "83_12", "lon": 124.5, "lat": -71.25}}, {"type": "Feature", "geometry": {"type": "Polygon", "coordinates": [[[123.75, -70.5], [123.75, -69.0], [125.25, -69.0], [125.25, -70.5], [123.75, -70.5]]]}, "properties": {"cell_id": "83_13", "lon": 124.5, "lat": -69.75}}, {"type": "Feature", "geometry": {"type": "Polygon", "coordinates": [[[125.25, -79.5], [125.25, -78.0], [126.75, -78.0], [126.75, -79.5], [125.25, -79.5]]]}, "properties": {"cell_id": "84_7", "lon": 126.0, "lat": -78.75}}, {"type": "Feature", "geometry": {"type": "Polygon", "coordinates": [[[125.25, -78.0], [125.25, -76.5], [126.75, -76.5], [126.75, -78.0], [125.25, -78.0]]]}, "properties": {"cell_id": "84_8", "lon": 126.0, "lat": -77.25}}, {"type": "Feature", "geometry": {"type": "Polygon", "coordinates": [[[125.25, -76.5], [125.25, -75.0], [126.75, -75.0], [126.75, -76.5], [125.25, -76.5]]]}, "properties": {"cell_id": "84_9", "lon": 126.0, "lat": -75.75}}, {"type": "Feature", "geometry": {"type": "Polygon", "coordinates": [[[125.25, -75.0], [125.25, -73.5], [126.75, -73.5], [126.75, -75.0], [125.25, -75.0]]]}, "properties": {"cell_id": "84_10", "lon": 126.0, "lat": -74.25}}, {"type": "Feature", "geometry": {"type": "Polygon", "coordinates": [[[125.25, -73.5], [125.25, -72.0], [126.75, -72.0], [126.75, -73.5], [125.25, -73.5]]]}, "properties": {"cell_id": "84_11", "lon": 126.0, "lat": -72.75}}, {"type": "Feature", "geometry": {"type": "Polygon", "coordinates": [[[125.25, -72.0], [125.25, -70.5], [126.75, -70.5], [126.75, -72.0], [125.25, -72.0]]]}, "properties": {"cell_id": "84_12", "lon": 126.0, "lat": -71.25}}, {"type": "Feature", "geometry": {"type": "Polygon", "coordinates": [[[125.25, -70.5], [125.25, -69.0], [126.75, -69.0], [126.75, -70.5], [125.25, -70.5]]]}, "properties": {"cell_id": "84_13", "lon": 126.0, "lat": -69.75}}, {"type": "Feature", "geometry": {"type": "Polygon", "coordinates": [[[126.75, -79.5], [126.75, -78.0], [128.25, -78.0], [128.25, -79.5], [126.75, -79.5]]]}, "properties": {"cell_id": "85_7", "lon": 127.5, "lat": -78.75}}, {"type": "Feature", "geometry": {"type": "Polygon", "coordinates": [[[126.75, -78.0], [126.75, -76.5], [128.25, -76.5], [128.25, -78.0], [126.75, -78.0]]]}, "properties": {"cell_id": "85_8", "lon": 127.5, "lat": -77.25}}, {"type": "Feature", "geometry": {"type": "Polygon", "coordinates": [[[126.75, -76.5], [126.75, -75.0], [128.25, -75.0], [128.25, -76.5], [126.75, -76.5]]]}, "properties": {"cell_id": "85_9", "lon": 127.5, "lat": -75.75}}, {"type": "Feature", "geometry": {"type": "Polygon", "coordinates": [[[126.75, -75.0], [126.75, -73.5], [128.25, -73.5], [128.25, -75.0], [126.75, -75.0]]]}, "properties": {"cell_id": "85_10", "lon": 127.5, "lat": -74.25}}, {"type": "Feature", "geometry": {"type": "Polygon", "coordinates": [[[126.75, -73.5], [126.75, -72.0], [128.25, -72.0], [128.25, -73.5], [126.75, -73.5]]]}, "properties": {"cell_id": "85_11", "lon": 127.5, "lat": -72.75}}, {"type": "Feature", "geometry": {"type": "Polygon", "coordinates": [[[126.75, -72.0], [126.75, -70.5], [128.25, -70.5], [128.25, -72.0], [126.75, -72.0]]]}, "properties": {"cell_id": "85_12", "lon": 127.5, "lat": -71.25}}, {"type": "Feature", "geometry": {"type": "Polygon", "coordinates": [[[126.75, -70.5], [126.75, -69.0], [128.25, -69.0], [128.25, -70.5], [126.75, -70.5]]]}, "properties": {"cell_id": "85_13", "lon": 127.5, "lat": -69.75}}, {"type": "Feature", "geometry": {"type": "Polygon", "coordinates": [[[128.25, -79.5], [128.25, -78.0], [129.75, -78.0], [129.75, -79.5], [128.25, -79.5]]]}, "properties": {"cell_id": "86_7", "lon": 129.0, "lat": -78.75}}, {"type": "Feature", "geometry": {"type": "Polygon", "coordinates": [[[128.25, -78.0], [128.25, -76.5], [129.75, -76.5], [129.75, -78.0], [128.25, -78.0]]]}, "properties": {"cell_id": "86_8", "lon": 129.0, "lat": -77.25}}, {"type": "Feature", "geometry": {"type": "Polygon", "coordinates": [[[128.25, -76.5], [128.25, -75.0], [129.75, -75.0], [129.75, -76.5], [128.25, -76.5]]]}, "properties": {"cell_id": "86_9", "lon": 129.0, "lat": -75.75}}, {"type": "Feature", "geometry": {"type": "Polygon", "coordinates": [[[128.25, -75.0], [128.25, -73.5], [129.75, -73.5], [129.75, -75.0], [128.25, -75.0]]]}, "properties": {"cell_id": "86_10", "lon": 129.0, "lat": -74.25}}, {"type": "Feature", "geometry": {"type": "Polygon", "coordinates": [[[128.25, -73.5], [128.25, -72.0], [129.75, -72.0], [129.75, -73.5], [128.25, -73.5]]]}, "properties": {"cell_id": "86_11", "lon": 129.0, "lat": -72.75}}, {"type": "Feature", "geometry": {"type": "Polygon", "coordinates": [[[128.25, -72.0], [128.25, -70.5], [129.75, -70.5], [129.75, -72.0], [128.25, -72.0]]]}, "properties": {"cell_id": "86_12", "lon": 129.0, "lat": -71.25}}, {"type": "Feature", "geometry": {"type": "Polygon", "coordinates": [[[128.25, -70.5], [128.25, -69.0], [129.75, -69.0], [129.75, -70.5], [128.25, -70.5]]]}, "properties": {"cell_id": "86_13", "lon": 129.0, "lat": -69.75}}, {"type": "Feature", "geometry": {"type": "Polygon", "coordinates": [[[129.75, -79.5], [129.75, -78.0], [131.25, -78.0], [131.25, -79.5], [129.75, -79.5]]]}, "properties": {"cell_id": "87_7", "lon": 130.5, "lat": -78.75}}, {"type": "Feature", "geometry": {"type": "Polygon", "coordinates": [[[129.75, -78.0], [129.75, -76.5], [131.25, -76.5], [131.25, -78.0], [129.75, -78.0]]]}, "properties": {"cell_id": "87_8", "lon": 130.5, "lat": -77.25}}, {"type": "Feature", "geometry": {"type": "Polygon", "coordinates": [[[129.75, -76.5], [129.75, -75.0], [131.25, -75.0], [131.25, -76.5], [129.75, -76.5]]]}, "properties": {"cell_id": "87_9", "lon": 130.5, "lat": -75.75}}, {"type": "Feature", "geometry": {"type": "Polygon", "coordinates": [[[129.75, -75.0], [129.75, -73.5], [131.25, -73.5], [131.25, -75.0], [129.75, -75.0]]]}, "properties": {"cell_id": "87_10", "lon": 130.5, "lat": -74.25}}, {"type": "Feature", "geometry": {"type": "Polygon", "coordinates": [[[129.75, -73.5], [129.75, -72.0], [131.25, -72.0], [131.25, -73.5], [129.75, -73.5]]]}, "properties": {"cell_id": "87_11", "lon": 130.5, "lat": -72.75}}, {"type": "Feature", "geometry": {"type": "Polygon", "coordinates": [[[129.75, -72.0], [129.75, -70.5], [131.25, -70.5], [131.25, -72.0], [129.75, -72.0]]]}, "properties": {"cell_id": "87_12", "lon": 130.5, "lat": -71.25}}, {"type": "Feature", "geometry": {"type": "Polygon", "coordinates": [[[129.75, -70.5], [129.75, -69.0], [131.25, -69.0], [131.25, -70.5], [129.75, -70.5]]]}, "properties": {"cell_id": "87_13", "lon": 130.5, "lat": -69.75}}]}