{"type": "FeatureCollection", "features": [{"type": "Feature", "geometry": {"type": "Polygon", "coordinates": [[[14.25, 78.0], [14.25, 79.5], [15.75, 79.5], [15.75, 78.0], [14.25, 78.0]]]}, "properties": {"cell_id": "10_112", "lon": 15.0, "lat": 78.75}}, {"type": "Feature", "geometry": {"type": "Polygon", "coordinates": [[[14.25, 79.5], [14.25, 81.0], [15.75, 81.0], [15.75, 79.5], [14.25, 79.5]]]}, "properties": {"cell_id": "10_113", "lon": 15.0, "lat": 80.25}}, {"type": "Feature", "geometry": {"type": "Polygon", "coordinates": [[[15.75, 78.0], [15.75, 79.5], [17.25, 79.5], [17.25, 78.0], [15.75, 78.0]]]}, "properties": {"cell_id": "11_112", "lon": 16.5, "lat": 78.75}}, {"type": "Feature", "geometry": {"type": "Polygon", "coordinates": [[[15.75, 79.5], [15.75, 81.0], [17.25, 81.0], [17.25, 79.5], [15.75, 79.5]]]}, "properties": {"cell_id": "11_113", "lon": 16.5, "lat": 80.25}}, {"type": "Feature", "geometry": {"type": "Polygon", "coordinates": [[[17.25, 78.0], [17.25, 79.5], [18.75, 79.5], [18.75, 78.0], [17.25, 78.0]]]}, "properties": {"cell_id": "12_112", "lon": 18.0, "lat": 78.75}}, {"type": "Feature", "geometry": {"type": "Polygon", "coordinates": [[[17.25, 79.5], [17.25, 81.0], [18.75, 81.0], [18.75, 79.5], [17.25, 79.5]]]}, "properties": {"cell_id": "12_113", "lon": 18.0, "lat": 80.25}}, {"type": "Feature", "geometry": {"type": "Polygon", "coordinates": [[[18.75, 78.0], [18.75, 79.5], [20.25, 79.5], [20.25, 78.0], [18.75, 78.0]]]}, "properties": {"cell_id": "13_112", "lon": 19.5, "lat": 78.75}}, {"type": "Feature", "geometry": {"type": "Polygon", "coordinates": [[[18.75, 79.5], [18.75, 81.0], [20.25, 81.0], [20.25, 79.5], [18.75, 79.5]]]}, "properties": {"cell_id": "13_113", "lon": 19.5, "lat": 80.25}}]}