{"type": "FeatureCollection", "features": [{"type": "Feature", "geometry": {"type": "Polygon", "coordinates": [[[60.75, 60.0], [60.75, 61.5], [62.25, 61.5], [62.25, 60.0], [60.75, 60.0]]]}, "properties": {"cell_id": "41_100", "lon": 61.5, "lat": 60.75}}, {"type": "Feature", "geometry": {"type": "Polygon", "coordinates": [[[60.75, 61.5], [60.75, 63.0], [62.25, 63.0], [62.25, 61.5], [60.75, 61.5]]]}, "properties": {"cell_id": "41_101", "lon": 61.5, "lat": 62.25}}, {"type": "Feature", "geometry": {"type": "Polygon", "coordinates": [[[60.75, 63.0], [60.75, 64.5], [62.25, 64.5], [62.25, 63.0], [60.75, 63.0]]]}, "properties": {"cell_id": "41_102", "lon": 61.5, "lat": 63.75}}, {"type": "Feature", "geometry": {"type": "Polygon", "coordinates": [[[60.75, 64.5], [60.75, 66.0], [62.25, 66.0], [62.25, 64.5], [60.75, 64.5]]]}, "properties": {"cell_id": "41_103", "lon": 61.5, "lat": 65.25}}, {"type": "Feature", "geometry": {"type": "Polygon", "coordinates": [[[60.75, 66.0], [60.75, 67.5], [62.25, 67.5], [62.25, 66.0], [60.75, 66.0]]]}, "properties": {"cell_id": "41_104", "lon": 61.5, "lat": 66.75}}, {"type": "Feature", "geometry": {"type": "Polygon", "coordinates": [[[60.75, 67.5], [60.75, 69.0], [62.25, 69.0], [62.25, 67.5], [60.75, 67.5]]]}, "properties": {"cell_id": "41_105", "lon": 61.5, "lat": 68.25}}, {"type": "Feature", "geometry": {"type": "Polygon", "coordinates": [[[60.75, 69.0], [60.75, 70.5], [62.25, 70.5], [62.25, 69.0], [60.75, 69.0]]]}, "properties": {"cell_id": "41_106", "lon": 61.5, "lat": 69.75}}, {"type": "Feature", "geometry": {"type": "Polygon", "coordinates": [[[62.25, 60.0], [62.25, 61.5], [63.75, 61.5], [63.75, 60.0], [62.25, 60.0]]]}, "properties": {"cell_id": "42_100", "lon": 63.0, "lat": 60.75}}, {"type": "Feature", "geometry": {"type": "Polygon", "coordinates": [[[62.25, 61.5], [62.25, 63.0], [63.75, 63.0], [63.75, 61.5], [62.25, 61.5]]]}, "properties": {"cell_id": "42_101", "lon": 63.0, "lat": 62.25}}, {"type": "Feature", "geometry": {"type": "Polygon", "coordinates": [[[62.25, 63.0], [62.25, 64.5], [63.75, 64.5], [63.75, 63.0], [62.25, 63.0]]]}, "properties": {"cell_id": "42_102", "lon": 63.0, "lat": 63.75}}, {"type": "Feature", "geometry": {"type": "Polygon", "coordinates": [[[62.25, 64.5], [62.25, 66.0], [63.75, 66.0], [63.75, 64.5], [62.25, 64.5]]]}, "properties": {"cell_id": "42_103", "lon": 63.0, "lat": 65.25}}, {"type": "Feature", "geometry": {"type": "Polygon", "coordinates": [[[62.25, 66.0], [62.25, 67.5], [63.75, 67.5], [63.75, 66.0], [62.25, 66.0]]]}, "properties": {"cell_id": "42_104", "lon": 63.0, "lat": 66.75}}, {"type": "Feature", "geometry": {"type": "Polygon", "coordinates": [[[62.25, 67.5], [62.25, 69.0], [63.75, 69.0], [63.75, 67.5], [62.25, 67.5]]]}, "properties": {"cell_id": "42_105", "lon": 63.0, "lat": 68.25}}, {"type": "Feature", "geometry": {"type": "Polygon", "coordinates": [[[62.25, 69.0], [62.25, 70.5], [63.75, 70.5], [63.75, 69.0], [62.25, 69.0]]]}, "properties": {"cell_id": "42_106", "lon": 63.0, "lat": 69.75}}, {"type": "Feature", "geometry": {"type": "Polygon", "coordinates": [[[63.75, 60.0], [63.75, 61.5], [65.25, 61.5], [65.25, 60.0], [63.75, 60.0]]]}, "properties": {"cell_id": "43_100", "lon": 64.5, "lat": 60.75}}, {"type": "Feature", "geometry": {"type": "Polygon", "coordinates": [[[63.75, 61.5], [63.75, 63.0], [65.25, 63.0], [65.25, 61.5], [63.75, 61.5]]]}, "properties": {"cell_id": "43_101", "lon": 64.5, "lat": 62.25}}, {"type": "Feature", "geometry": {"type": "Polygon", "coordinates": [[[63.75, 63.0], [63.75, 64.5], [65.25, 64.5], [65.25, 63.0], [63.75, 63.0]]]}, "properties": {"cell_id": "43_102", "lon": 64.5, "lat": 63.75}}, {"type": "Feature", "geometry": {"type": "Polygon", "coordinates": [[[63.75, 64.5], [63.75, 66.0], [65.25, 66.0], [65.25, 64.5], [63.75, 64.5]]]}, "properties": {"cell_id": "43_103", "lon": 64.5, "lat": 65.25}}, {"type": "Feature", "geometry": {"type": "Polygon", "coordinates": [[[63.75, 66.0], [63.75, 67.5], [65.25, 67.5], [65.25, 66.0], [63.75, 66.0]]]}, "properties": {"cell_id": "43_104", "lon": 64.5, "lat": 66.75}}, {"type": "Feature", "geometry": {"type": "Polygon", "coordinates": [[[63.75, 67.5], [63.75, 69.0], [65.25, 69.0], [65.25, 67.5], [63.75, 67.5]]]}, "properties": {"cell_id": "43_105", "lon": 64.5, "lat": 68.25}}, {"type": "Feature", "geometry": {"type": "Polygon", "coordinates": [[[63.75, 69.0], [63.75, 70.5], [65.25, 70.5], [65.25, 69.0], [63.75, 69.0]]]}, "properties": {"cell_id": "43_106", "lon": 64.5, "lat": 69.75}}, {"type": "Feature", "geometry": {"type": "Polygon", "coordinates": [[[65.25, 60.0], [65.25, 61.5], [66.75, 61.5], [66.75, 60.0], [65.25, 60.0]]]}, "properties": {"cell_id": "44_100", "lon": 66.0, "lat": 60.75}}, {"type": "Feature", "geometry": {"type": "Polygon", "coordinates": [[[65.25, 61.5], [65.25, 63.0], [66.75, 63.0], [66.75, 61.5], [65.25, 61.5]]]}, "properties": {"cell_id": "44_101", "lon": 66.0, "lat": 62.25}}, {"type": "Feature", "geometry": {"type": "Polygon", "coordinates": [[[65.25, 63.0], [65.25, 64.5], [66.75, 64.5], [66.75, 63.0], [65.25, 63.0]]]}, "properties": {"cell_id": "44_102", "lon": 66.0, "lat": 63.75}}, {"type": "Feature", "geometry": {"type": "Polygon", "coordinates": [[[65.25, 64.5], [65.25, 66.0], [66.75, 66.0], [66.75, 64.5], [65.25, 64.5]]]}, "properties": {"cell_id": "44_103", "lon": 66.0, "lat": 65.25}}, {"type": "Feature", "geometry": {"type": "Polygon", "coordinates": [[[65.25, 66.0], [65.25, 67.5], [66.75, 67.5], [66.75, 66.0], [65.25, 66.0]]]}, "properties": {"cell_id": "44_104", "lon": 66.0, "lat": 66.75}}, {"type": "Feature", "geometry": {"type": "Polygon", "coordinates": [[[65.25, 67.5], [65.25, 69.0], [66.75, 69.0], [66.75, 67.5], [65.25, 67.5]]]}, "properties": {"cell_id": "44_105", "lon": 66.0, "lat": 68.25}}, {"type": "Feature", "geometry": {"type": "Polygon", "coordinates": [[[65.25, 69.0], [65.25, 70.5], [66.75, 70.5], [66.75, 69.0], [65.25, 69.0]]]}, "properties": {"cell_id": "44_106", "lon": 66.0, "lat": 69.75}}, {"type": "Feature", "geometry": {"type": "Polygon", "coordinates": [[[66.75, 60.0], [66.75, 61.5], [68.25, 61.5], [68.25, 60.0], [66.75, 60.0]]]}, "properties": {"cell_id": "45_100", "lon": 67.5, "lat": 60.75}}, {"type": "Feature", "geometry": {"type": "Polygon", "coordinates": [[[66.75, 61.5], [66.75, 63.0], [68.25, 63.0], [68.25, 61.5], [66.75, 61.5]]]}, "properties": {"cell_id": "45_101", "lon": 67.5, "lat": 62.25}}, {"type": "Feature", "geometry": {"type": "Polygon", "coordinates": [[[66.75, 63.0], [66.75, 64.5], [68.25, 64.5], [68.25, 63.0], [66.75, 63.0]]]}, "properties": {"cell_id": "45_102", "lon": 67.5, "lat": 63.75}}, {"type": "Feature", "geometry": {"type": "Polygon", "coordinates": [[[66.75, 64.5], [66.75, 66.0], [68.25, 66.0], [68.25, 64.5], [66.75, 64.5]]]}, "properties": {"cell_id": "45_103", "lon": 67.5, "lat": 65.25}}, {"type": "Feature", "geometry": {"type": "Polygon", "coordinates": [[[66.75, 66.0], [66.75, 67.5], [68.25, 67.5], [68.25, 66.0], [66.75, 66.0]]]}, "properties": {"cell_id": "45_104", "lon": 67.5, "lat": 66.75}}, {"type": "Feature", "geometry": {"type": "Polygon", "coordinates": [[[66.75, 67.5], [66.75, 69.0], [68.25, 69.0], [68.25, 67.5], [66.75, 67.5]]]}, "properties": {"cell_id": "45_105", "lon": 67.5, "lat": 68.25}}, {"type": "Feature", "geometry": {"type": "Polygon", "coordinates": [[[66.75, 69.0], [66.75, 70.5], [68.25, 70.5], [68.25, 69.0], [66.75, 69.0]]]}, "properties": {"cell_id": "45_106", "lon": 67.5, "lat": 69.75}}, {"type": "Feature", "geometry": {"type": "Polygon", "coordinates": [[[68.25, 60.0], [68.25, 61.5], [69.75, 61.5], [69.75, 60.0], [68.25, 60.0]]]}, "properties": {"cell_id": "46_100", "lon": 69.0, "lat": 60.75}}, {"type": "Feature", "geometry": {"type": "Polygon", "coordinates": [[[68.25, 61.5], [68.25, 63.0], [69.75, 63.0], [69.75, 61.5], [68.25, 61.5]]]}, "properties": {"cell_id": "46_101", "lon": 69.0, "lat": 62.25}}, {"type": "Feature", "geometry": {"type": "Polygon", "coordinates": [[[68.25, 63.0], [68.25, 64.5], [69.75, 64.5], [69.75, 63.0], [68.25, 63.0]]]}, "properties": {"cell_id": "46_102", "lon": 69.0, "lat": 63.75}}, {"type": "Feature", "geometry": {"type": "Polygon", "coordinates": [[[68.25, 64.5], [68.25, 66.0], [69.75, 66.0], [69.75, 64.5], [68.25, 64.5]]]}, "properties": {"cell_id": "46_103", "lon": 69.0, "lat": 65.25}}, {"type": "Feature", "geometry": {"type": "Polygon", "coordinates": [[[68.25, 66.0], [68.25, 67.5], [69.75, 67.5], [69.75, 66.0], [68.25, 66.0]]]}, "properties": {"cell_id": "46_104", "lon": 69.0, "lat": 66.75}}, {"type": "Feature", "geometry": {"type": "Polygon", "coordinates": [[[68.25, 67.5], [68.25, 69.0], [69.75, 69.0], [69.75, 67.5], [68.25, 67.5]]]}, "properties": {"cell_id": "46_105", "lon": 69.0, "lat": 68.25}}, {"type": "Feature", "geometry": {"type": "Polygon", "coordinates": [[[68.25, 69.0], [68.25, 70.5], [69.75, 70.5], [69.75, 69.0], [68.25, 69.0]]]}, "properties": {"cell_id": "46_106", "lon": 69.0, "lat": 69.75}}, {"type": "Feature", "geometry": {"type": "Polygon", "coordinates": [[[69.75, 60.0], [69.75, 61.5], [71.25, 61.5], [71.25, 60.0], [69.75, 60.0]]]}, "properties": {"cell_id": "47_100", "lon": 70.5, "lat": 60.75}}, {"type": "Feature", "geometry": {"type": "Polygon", "coordinates": [[[69.75, 61.5], [69.75, 63.0], [71.25, 63.0], [71.25, 61.5], [69.75, 61.5]]]}, "properties": {"cell_id": "47_101", "lon": 70.5, "lat": 62.25}}, {"type": "Feature", "geometry": {"type": "Polygon", "coordinates": [[[69.75, 63.0], [69.75, 64.5], [71.25, 64.5], [71.25, 63.0], [69.75, 63.0]]]}, "properties": {"cell_id": "47_102", "lon": 70.5, "lat": 63.75}}, {"type": "Feature", "geometry": {"type": "Polygon", "coordinates": [[[69.75, 64.5], [69.75, 66.0], [71.25, 66.0], [71.25, 64.5], [69.75, 64.5]]]}, "properties": {"cell_id": "47_103", "lon": 70.5, "lat": 65.25}}, {"type": "Feature", "geometry": {"type": "Polygon", "coordinates": [[[69.75, 66.0], [69.75, 67.5], [71.25, 67.5], [71.25, 66.0], [69.75, 66.0]]]}, "properties": {"cell_id": "47_104", "lon": 70.5, "lat": 66.75}}, {"type": "Feature", "geometry": {"type": "Polygon", "coordinates": [[[69.75, 67.5], [69.75, 69.0], [71.25, 69.0], [71.25, 67.5], [69.75, 67.5]]]}, "properties": {"cell_id": "47_105", "lon": 70.5, "lat": 68.25}}, {"type": "Feature", "geometry": {"type": "Polygon", "coordinates": [[[69.75, 69.0], [69.75, 70.5], [71.25, 70.5], [71.25, 69.0], [69.75, 69.0]]]}, "properties": {"cell_id": "47_106", "lon": 70.5, "lat": 69.75}}]}