{"type": "FeatureCollection", "features": [{"type": "Feature", "geometry": {"type": "Polygon", "coordinates": [[[-108.75, -79.5], [-108.75, -78.0], [-107.25, -78.0], [-107.25, -79.5], [-108.75, -79.5]]]}, "properties": {"cell_id": "168_7", "lon": -108.0, "lat": -78.75}}, {"type": "Feature", "geometry": {"type": "Polygon", "coordinates": [[[-108.75, -78.0], [-108.75, -76.5], [-107.25, -76.5], [-107.25, -78.0], [-108.75, -78.0]]]}, "properties": {"cell_id": "168_8", "lon": -108.0, "lat": -77.25}}, {"type": "Feature", "geometry": {"type": "Polygon", "coordinates": [[[-108.75, -76.5], [-108.75, -75.0], [-107.25, -75.0], [-107.25, -76.5], [-108.75, -76.5]]]}, "properties": {"cell_id": "168_9", "lon": -108.0, "lat": -75.75}}, {"type": "Feature", "geometry": {"type": "Polygon", "coordinates": [[[-107.25, -79.5], [-107.25, -78.0], [-105.75, -78.0], [-105.75, -79.5], [-107.25, -79.5]]]}, "properties": {"cell_id": "169_7", "lon": -106.5, "lat": -78.75}}, {"type": "Feature", "geometry": {"type": "Polygon", "coordinates": [[[-107.25, -78.0], [-107.25, -76.5], [-105.75, -76.5], [-105.75, -78.0], [-107.25, -78.0]]]}, "properties": {"cell_id": "169_8", "lon": -106.5, "lat": -77.25}}, {"type": "Feature", "geometry": {"type": "Polygon", "coordinates": [[[-107.25, -76.5], [-107.25, -75.0], [-105.75, -75.0], [-105.75, -76.5], [-107.25, -76.5]]]}, "properties": {"cell_id": "169_9", "lon": -106.5, "lat": -75.75}}, {"type": "Feature", "geometry": {"type": "Polygon", "coordinates": [[[-105.75, -79.5], [-105.75, -78.0], [-104.25, -78.0], [-104.25, -79.5], [-105.75, -79.5]]]}, "properties": {"cell_id": "170_7", "lon": -105.0, "lat": -78.75}}, {"type": "Feature", "geometry": {"type": "Polygon", "coordinates": [[[-105.75, -78.0], [-105.75, -76.5], [-104.25, -76.5], [-104.25, -78.0], [-105.75, -78.0]]]}, "properties": {"cell_id": "170_8", "lon": -105.0, "lat": -77.25}}, {"type": "Feature", "geometry": {"type": "Polygon", "coordinates": [[[-105.75, -76.5], [-105.75, -75.0], [-104.25, -75.0], [-104.25, -76.5], [-105.75, -76.5]]]}, "properties": {"cell_id": "170_9", "lon": -105.0, "lat": -75.75}}, {"type": "Feature", "geometry": {"type": "Polygon", "coordinates": [[[-105.75, -75.0], [-105.75, -73.5], [-104.25, -73.5], [-104.25, -75.0], [-105.75, -75.0]]]}, "properties": {"cell_id": "170_10", "lon": -105.0, "lat": -74.25}}, {"type": "Feature", "geometry": {"type": "Polygon", "coordinates": [[[-105.75, -73.5], [-105.75, -72.0], [-104.25, -72.0], [-104.25, -73.5], [-105.75, -73.5]]]}, "properties": {"cell_id": "170_11", "lon": -105.0, "lat": -72.75}}, {"type": "Feature", "geometry": {"type": "Polygon", "coordinates": [[[-104.25, -79.5], [-104.25, -78.0], [-102.75, -78.0], [-102.75, -79.5], [-104.25, -79.5]]]}, "properties": {"cell_id": "171_7", "lon": -103.5, "lat": -78.75}}, {"type": "Feature", "geometry": {"type": "Polygon", "coordinates": [[[-104.25, -78.0], [-104.25, -76.5], [-102.75, -76.5], [-102.75, -78.0], [-104.25, -78.0]]]}, "properties": {"cell_id": "171_8", "lon": -103.5, "lat": -77.25}}, {"type": "Feature", "geometry": {"type": "Polygon", "coordinates": [[[-104.25, -76.5], [-104.25, -75.0], [-102.75, -75.0], [-102.75, -76.5], [-104.25, -76.5]]]}, "properties": {"cell_id": "171_9", "lon": -103.5, "lat": -75.75}}, {"type": "Feature", "geometry": {"type": "Polygon", "coordinates": [[[-104.25, -75.0], [-104.25, -73.5], [-102.75, -73.5], [-102.75, -75.0], [-104.25, -75.0]]]}, "properties": {"cell_id": "171_10", "lon": -103.5, "lat": -74.25}}, {"type": "Feature", "geometry": {"type": "Polygon", "coordinates": [[[-104.25, -73.5], [-104.25, -72.0], [-102.75, -72.0], [-102.75, -73.5], [-104.25, -73.5]]]}, "properties": {"cell_id": "171_11", "lon": -103.5, "lat": -72.75}}, {"type": "Feature", "geometry": {"type": "Polygon", "coordinates": [[[-102.75, -79.5], [-102.75, -78.0], [-101.25, -78.0], [-101.25, -79.5], [-102.75, -79.5]]]}, "properties": {"cell_id": "172_7", "lon": -102.0, "lat": -78.75}}, {"type": "Feature", "geometry": {"type": "Polygon", "coordinates": [[[-102.75, -78.0], [-102.75, -76.5], [-101.25, -76.5], [-101.25, -78.0], [-102.75, -78.0]]]}, "properties": {"cell_id": "172_8", "lon": -102.0, "lat": -77.25}}, {"type": "Feature", "geometry": {"type": "Polygon", "coordinates": [[[-102.75, -76.5], [-102.75, -75.0], [-101.25, -75.0], [-101.25, -76.5], [-102.75, -76.5]]]}, "properties": {"cell_id": "172_9", "lon": -102.0, "lat": -75.75}}, {"type": "Feature", "geometry": {"type": "Polygon", "coordinates": [[[-102.75, -75.0], [-102.75, -73.5], [-101.25, -73.5], [-101.25, -75.0], [-102.75, -75.0]]]}, "properties": {"cell_id": "172_10", "lon": -102.0, "lat": -74.25}}, {"type": "Feature", "geometry": {"type": "Polygon", "coordinates": [[[-102.75, -73.5], [-102.75, -72.0], [-101.25, -72.0], [-101.25, -73.5], [-102.75, -73.5]]]}, "properties": {"cell_id": "172_11", "lon": -102.0, "lat": -72.75}}, {"type": "Feature", "geometry": {"type": "Polygon", "coordinates": [[[-101.25, -79.5], [-101.25, -78.0], [-99.75, -78.0], [-99.75, -79.5], [-101.25, -79.5]]]}, "properties": {"cell_id": "173_7", "lon": -100.5, "lat": -78.75}}, {"type": "Feature", "geometry": {"type": "Polygon", "coordinates": [[[-101.25, -78.0], [-101.25, -76.5], [-99.75, -76.5], [-99.75, -78.0], [-101.25, -78.0]]]}, "properties": {"cell_id": "173_8", "lon": -100.5, "lat": -77.25}}, {"type": "Feature", "geometry": {"type": "Polygon", "coordinates": [[[-101.25, -76.5], [-101.25, -75.0], [-99.75, -75.0], [-99.75, -76.5], [-101.25, -76.5]]]}, "properties": {"cell_id": "173_9", "lon": -100.5, "lat": -75.75}}, {"type": "Feature", "geometry": {"type": "Polygon", "coordinates": [[[-101.25, -75.0], [-101.25, -73.5], [-99.75, -73.5], [-99.75, -75.0], [-101.25, -75.0]]]}, "properties": {"cell_id": "173_10", "lon": -100.5, "lat": -74.25}}, {"type": "Feature", "geometry": {"type": "Polygon", "coordinates": [[[-101.25, -73.5], [-101.25, -72.0], [-99.75, -72.0], [-99.75, -73.5], [-101.25, -73.5]]]}, "properties": {"cell_id": "173_11", "lon": -100.5, "lat": -72.75}}]}