{"type": "FeatureCollection", "features": [{"type": "Feature", "geometry": {"type": "Polygon", "coordinates": [[[122.25, 4.5], [122.25, 6.0], [123.75, 6.0], [123.75, 4.5], [122.25, 4.5]]]}, "properties": {"cell_id": "82_63", "lon": 123.0, "lat": 5.25}}, {"type": "Feature", "geometry": {"type": "Polygon", "coordinates": [[[122.25, 6.0], [122.25, 7.5], [123.75, 7.5], [123.75, 6.0], [122.25, 6.0]]]}, "properties": {"cell_id": "82_64", "lon": 123.0, "lat": 6.75}}, {"type": "Feature", "geometry": {"type": "Polygon", "coordinates": [[[122.25, 7.5], [122.25, 9.0], [123.75, 9.0], [123.75, 7.5], [122.25, 7.5]]]}, "properties": {"cell_id": "82_65", "lon": 123.0, "lat": 8.25}}, {"type": "Feature", "geometry": {"type": "Polygon", "coordinates": [[[122.25, 9.0], [122.25, 10.5], [123.75, 10.5], [123.75, 9.0], [122.25, 9.0]]]}, "properties": {"cell_id": "82_66", "lon": 123.0, "lat": 9.75}}, {"type": "Feature", "geometry": {"type": "Polygon", "coordinates": [[[123.75, 4.5], [123.75, 6.0], [125.25, 6.0], [125.25, 4.5], [123.75, 4.5]]]}, "properties": {"cell_id": "83_63", "lon": 124.5, "lat": 5.25}}, {"type": "Feature", "geometry": {"type": "Polygon", "coordinates": [[[123.75, 6.0], [123.75, 7.5], [125.25, 7.5], [125.25, 6.0], [123.75, 6.0]]]}, "properties": {"cell_id": "83_64", "lon": 124.5, "lat": 6.75}}, {"type": "Feature", "geometry": {"type": "Polygon", "coordinates": [[[123.75, 7.5], [123.75, 9.0], [125.25, 9.0], [125.25, 7.5], [123.75, 7.5]]]}, "properties": {"cell_id": "83_65", "lon": 124.5, "lat": 8.25}}, {"type": "Feature", "geometry": {"type": "Polygon", "coordinates": [[[123.75, 9.0], [123.75, 10.5], [125.25, 10.5], [125.25, 9.0], [123.75, 9.0]]]}, "properties": {"cell_id": "83_66", "lon": 124.5, "lat": 9.75}}]}