{"type": "FeatureCollection", "features": [{"type": "Feature", "geometry": {"type": "Polygon", "coordinates": [[[-89.25, 13.5], [-89.25, 15.0], [-87.75, 15.0], [-87.75, 13.5], [-89.25, 13.5]]]}, "properties": {"cell_id": "181_69", "lon": -88.5, "lat": 14.25}}, {"type": "Feature", "geometry": {"type": "Polygon", "coordinates": [[[-89.25, 15.0], [-89.25, 16.5], [-87.75, 16.5], [-87.75, 15.0], [-89.25, 15.0]]]}, "properties": {"cell_id": "181_70", "lon": -88.5, "lat": 15.75}}, {"type": "Feature", "geometry": {"type": "Polygon", "coordinates": [[[-89.25, 16.5], [-89.25, 18.0], [-87.75, 18.0], [-87.75, 16.5], [-89.25, 16.5]]]}, "properties": {"cell_id": "181_71", "lon": -88.5, "lat": 17.25}}, {"type": "Feature", "geometry": {"type": "Polygon", "coordinates": [[[-89.25, 18.0], [-89.25, 19.5], [-87.75, 19.5], [-87.75, 18.0], [-89.25, 18.0]]]}, "properties": {"cell_id": "181_72", "lon": -88.5, "lat": 18.75}}, {"type": "Feature", "geometry": {"type": "Polygon", "coordinates": [[[-89.25, 19.5], [-89.25, 21.0], [-87.75, 21.0], [-87.75, 19.5], [-89.25, 19.5]]]}, "properties": {"cell_id": "181_73", "lon": -88.5, "lat": 20.25}}, {"type": "Feature", "geometry": {"type": "Polygon", "coordinates": [[[-87.75, 13.5], [-87.75, 15.0], [-86.25, 15.0], [-86.25, 13.5], [-87.75, 13.5]]]}, "properties": {"cell_id": "182_69", "lon": -87.0, "lat": 14.25}}, {"type": "Feature", "geometry": {"type": "Polygon", "coordinates": [[[-87.75, 15.0], [-87.75, 16.5], [-86.25, 16.5], [-86.25, 15.0], [-87.75, 15.0]]]}, "properties": {"cell_id": "182_70", "lon": -87.0, "lat": 15.75}}, {"type": "Feature", "geometry": {"type": "Polygon", "coordinates": [[[-87.75, 16.5], [-87.75, 18.0], [-86.25, 18.0], [-86.25, 16.5], [-87.75, 16.5]]]}, "properties": {"cell_id": "182_71", "lon": -87.0, "lat": 17.25}}, {"type": "Feature", "geometry": {"type": "Polygon", "coordinates": [[[-86.25, 10.5], [-86.25, 12.0], [-84.75, 12.0], [-84.75, 10.5], [-86.25, 10.5]]]}, "properties": {"cell_id": "183_67", "lon": -85.5, "lat": 11.25}}, {"type": "Feature", "geometry": {"type": "Polygon", "coordinates": [[[-86.25, 12.0], [-86.25, 13.5], [-84.75, 13.5], [-84.75, 12.0], [-86.25, 12.0]]]}, "properties": {"cell_id": "183_68", "lon": -85.5, "lat": 12.75}}, {"type": "Feature", "geometry": {"type": "Polygon", "coordinates": [[[-86.25, 13.5], [-86.25, 15.0], [-84.75, 15.0], [-84.75, 13.5], [-86.25, 13.5]]]}, "properties": {"cell_id": "183_69", "lon": -85.5, "lat": 14.25}}, {"type": "Feature", "geometry": {"type": "Polygon", "coordinates": [[[-86.25, 15.0], [-86.25, 16.5], [-84.75, 16.5], [-84.75, 15.0], [-86.25, 15.0]]]}, "properties": {"cell_id": "183_70", "lon": -85.5, "lat": 15.75}}, {"type": "Feature", "geometry": {"type": "Polygon", "coordinates": [[[-86.25, 16.5], [-86.25, 18.0], [-84.75, 18.0], [-84.75, 16.5], [-86.25, 16.5]]]}, "properties": {"cell_id": "183_71", "lon": -85.5, "lat": 17.25}}, {"type": "Feature", "geometry": {"type": "Polygon", "coordinates": [[[-84.75, 10.5], [-84.75, 12.0], [-83.25, 12.0], [-83.25, 10.5], [-84.75, 10.5]]]}, "properties": {"cell_id": "184_67", "lon": -84.0, "lat": 11.25}}, {"type": "Feature", "geometry": {"type": "Polygon", "coordinates": [[[-84.75, 12.0], [-84.75, 13.5], [-83.25, 13.5], [-83.25, 12.0], [-84.75, 12.0]]]}, "properties": {"cell_id": "184_68", "lon": -84.0, "lat": 12.75}}, {"type": "Feature", "geometry": {"type": "Polygon", "coordinates": [[[-84.75, 13.5], [-84.75, 15.0], [-83.25, 15.0], [-83.25, 13.5], [-84.75, 13.5]]]}, "properties": {"cell_id": "184_69", "lon": -84.0, "lat": 14.25}}, {"type": "Feature", "geometry": {"type": "Polygon", "coordinates": [[[-83.25, 10.5], [-83.25, 12.0], [-81.75, 12.0], [-81.75, 10.5], [-83.25, 10.5]]]}, "properties": {"cell_id": "185_67", "lon": -82.5, "lat": 11.25}}, {"type": "Feature", "geometry": {"type": "Polygon", "coordinates": [[[-83.25, 12.0], [-83.25, 13.5], [-81.75, 13.5], [-81.75, 12.0], [-83.25, 12.0]]]}, "properties": {"cell_id": "185_68", "lon": -82.5, "lat": 12.75}}, {"type": "Feature", "geometry": {"type": "Polygon", "coordinates": [[[-83.25, 13.5], [-83.25, 15.0], [-81.75, 15.0], [-81.75, 13.5], [-83.25, 13.5]]]}, "properties": {"cell_id": "185_69", "lon": -82.5, "lat": 14.25}}]}