{"type": "FeatureCollection", "features": [{"type": "Feature", "geometry": {"type": "Polygon", "coordinates": [[[-89.25, -79.5], [-89.25, -78.0], [-87.75, -78.0], [-87.75, -79.5], [-89.25, -79.5]]]}, "properties": {"cell_id": "181_7", "lon": -88.5, "lat": -78.75}}, {"type": "Feature", "geometry": {"type": "Polygon", "coordinates": [[[-89.25, -78.0], [-89.25, -76.5], [-87.75, -76.5], [-87.75, -78.0], [-89.25, -78.0]]]}, "properties": {"cell_id": "181_8", "lon": -88.5, "lat": -77.25}}, {"type": "Feature", "geometry": {"type": "Polygon", "coordinates": [[[-89.25, -76.5], [-89.25, -75.0], [-87.75, -75.0], [-87.75, -76.5], [-89.25, -76.5]]]}, "properties": {"cell_id": "181_9", "lon": -88.5, "lat": -75.75}}, {"type": "Feature", "geometry": {"type": "Polygon", "coordinates": [[[-89.25, -75.0], [-89.25, -73.5], [-87.75, -73.5], [-87.75, -75.0], [-89.25, -75.0]]]}, "properties": {"cell_id": "181_10", "lon": -88.5, "lat": -74.25}}, {"type": "Feature", "geometry": {"type": "Polygon", "coordinates": [[[-89.25, -73.5], [-89.25, -72.0], [-87.75, -72.0], [-87.75, -73.5], [-89.25, -73.5]]]}, "properties": {"cell_id": "181_11", "lon": -88.5, "lat": -72.75}}, {"type": "Feature", "geometry": {"type": "Polygon", "coordinates": [[[-87.75, -79.5], [-87.75, -78.0], [-86.25, -78.0], [-86.25, -79.5], [-87.75, -79.5]]]}, "properties": {"cell_id": "182_7", "lon": -87.0, "lat": -78.75}}, {"type": "Feature", "geometry": {"type": "Polygon", "coordinates": [[[-87.75, -78.0], [-87.75, -76.5], [-86.25, -76.5], [-86.25, -78.0], [-87.75, -78.0]]]}, "properties": {"cell_id": "182_8", "lon": -87.0, "lat": -77.25}}, {"type": "Feature", "geometry": {"type": "Polygon", "coordinates": [[[-87.75, -76.5], [-87.75, -75.0], [-86.25, -75.0], [-86.25, -76.5], [-87.75, -76.5]]]}, "properties": {"cell_id": "182_9", "lon": -87.0, "lat": -75.75}}, {"type": "Feature", "geometry": {"type": "Polygon", "coordinates": [[[-87.75, -75.0], [-87.75, -73.5], [-86.25, -73.5], [-86.25, -75.0], [-87.75, -75.0]]]}, "properties": {"cell_id": "182_10", "lon": -87.0, "lat": -74.25}}, {"type": "Feature", "geometry": {"type": "Polygon", "coordinates": [[[-87.75, -73.5], [-87.75, -72.0], [-86.25, -72.0], [-86.25, -73.5], [-87.75, -73.5]]]}, "properties": {"cell_id": "182_11", "lon": -87.0, "lat": -72.75}}, {"type": "Feature", "geometry": {"type": "Polygon", "coordinates": [[[-86.25, -79.5], [-86.25, -78.0], [-84.75, -78.0], [-84.75, -79.5], [-86.25, -79.5]]]}, "properties": {"cell_id": "183_7", "lon": -85.5, "lat": -78.75}}, {"type": "Feature", "geometry": {"type": "Polygon", "coordinates": [[[-86.25, -78.0], [-86.25, -76.5], [-84.75, -76.5], [-84.75, -78.0], [-86.25, -78.0]]]}, "properties": {"cell_id": "183_8", "lon": -85.5, "lat": -77.25}}, {"type": "Feature", "geometry": {"type": "Polygon", "coordinates": [[[-86.25, -76.5], [-86.25, -75.0], [-84.75, -75.0], [-84.75, -76.5], [-86.25, -76.5]]]}, "properties": {"cell_id": "183_9", "lon": -85.5, "lat": -75.75}}, {"type": "Feature", "geometry": {"type": "Polygon", "coordinates": [[[-86.25, -75.0], [-86.25, -73.5], [-84.75, -73.5], [-84.75, -75.0], [-86.25, -75.0]]]}, "properties": {"cell_id": "183_10", "lon": -85.5, "lat": -74.25}}, {"type": "Feature", "geometry": {"type": "Polygon", "coordinates": [[[-86.25, -73.5], [-86.25, -72.0], [-84.75, -72.0], [-84.75, -73.5], [-86.25, -73.5]]]}, "properties": {"cell_id": "183_11", "lon": -85.5, "lat": -72.75}}, {"type": "Feature", "geometry": {"type": "Polygon", "coordinates": [[[-84.75, -79.5], [-84.75, -78.0], [-83.25, -78.0], [-83.25, -79.5], [-84.75, -79.5]]]}, "properties": {"cell_id": "184_7", "lon": -84.0, "lat": -78.75}}, {"type": "Feature", "geometry": {"type": "Polygon", "coordinates": [[[-84.75, -78.0], [-84.75, -76.5], [-83.25, -76.5], [-83.25, -78.0], [-84.75, -78.0]]]}, "properties": {"cell_id": "184_8", "lon": -84.0, "lat": -77.25}}, {"type": "Feature", "geometry": {"type": "Polygon", "coordinates": [[[-84.75, -76.5], [-84.75, -75.0], [-83.25, -75.0], [-83.25, -76.5], [-84.75, -76.5]]]}, "properties": {"cell_id": "184_9", "lon": -84.0, "lat": -75.75}}, {"type": "Feature", "geometry": {"type": "Polygon", "coordinates": [[[-84.75, -75.0], [-84.75, -73.5], [-83.25, -73.5], [-83.25, -75.0], [-84.75, -75.0]]]}, "properties": {"cell_id": "184_10", "lon": -84.0, "lat": -74.25}}, {"type": "Feature", "geometry": {"type": "Polygon", "coordinates": [[[-84.75, -73.5], [-84.75, -72.0], [-83.25, -72.0], [-83.25, -73.5], [-84.75, -73.5]]]}, "properties": {"cell_id": "184_11", "lon": -84.0, "lat": -72.75}}, {"type": "Feature", "geometry": {"type": "Polygon", "coordinates": [[[-83.25, -79.5], [-83.25, -78.0], [-81.75, -78.0], [-81.75, -79.5], [-83.25, -79.5]]]}, "properties": {"cell_id": "185_7", "lon": -82.5, "lat": -78.75}}, {"type": "Feature", "geometry": {"type": "Polygon", "coordinates": [[[-83.25, -78.0], [-83.25, -76.5], [-81.75, -76.5], [-81.75, -78.0], [-83.25, -78.0]]]}, "properties": {"cell_id": "185_8", "lon": -82.5, "lat": -77.25}}, {"type": "Feature", "geometry": {"type": "Polygon", "coordinates": [[[-83.25, -76.5], [-83.25, -75.0], [-81.75, -75.0], [-81.75, -76.5], [-83.25, -76.5]]]}, "properties": {"cell_id": "185_9", "lon": -82.5, "lat": -75.75}}, {"type": "Feature", "geometry": {"type": "Polygon", "coordinates": [[[-83.25, -75.0], [-83.25, -73.5], [-81.75, -73.5], [-81.75, -75.0], [-83.25, -75.0]]]}, "properties": {"cell_id": "185_10", "lon": -82.5, "lat": -74.25}}, {"type": "Feature", "geometry": {"type": "Polygon", "coordinates": [[[-83.25, -73.5], [-83.25, -72.0], [-81.75, -72.0], [-81.75, -73.5], [-83.25, -73.5]]]}, "properties": {"cell_id": "185_11", "lon": -82.5, "lat": -72.75}}, {"type": "Feature", "geometry": {"type": "Polygon", "coordinates": [[[-81.75, -79.5], [-81.75, -78.0], [-80.25, -78.0], [-80.25, -79.5], [-81.75, -79.5]]]}, "properties": {"cell_id": "186_7", "lon": -81.0, "lat": -78.75}}, {"type": "Feature", "geometry": {"type": "Polygon", "coordinates": [[[-81.75, -78.0], [-81.75, -76.5], [-80.25, -76.5], [-80.25, -78.0], [-81.75, -78.0]]]}, "properties": {"cell_id": "186_8", "lon": -81.0, "lat": -77.25}}, {"type": "Feature", "geometry": {"type": "Polygon", "coordinates": [[[-81.75, -76.5], [-81.75, -75.0], [-80.25, -75.0], [-80.25, -76.5], [-81.75, -76.5]]]}, "properties": {"cell_id": "186_9", "lon": -81.0, "lat": -75.75}}, {"type": "Feature", "geometry": {"type": "Polygon", "coordinates": [[[-81.75, -75.0], [-81.75, -73.5], [-80.25, -73.5], [-80.25, -75.0], [-81.75, -75.0]]]}, "properties": {"cell_id": "186_10", "lon": -81.0, "lat": -74.25}}, {"type": "Feature", "geometry": {"type": "Polygon", "coordinates": [[[-81.75, -73.5], [-81.75, -72.0], [-80.25, -72.0], [-80.25, -73.5], [-81.75, -73.5]]]}, "properties": {"cell_id": "186_11", "lon": -81.0, "lat": -72.75}}, {"type": "Feature", "geometry": {"type": "Polygon", "coordinates": [[[-80.25, -79.5], [-80.25, -78.0], [-78.75, -78.0], [-78.75, -79.5], [-80.25, -79.5]]]}, "properties": {"cell_id": "187_7", "lon": -79.5, "lat": -78.75}}, {"type": "Feature", "geometry": {"type": "Polygon", "coordinates": [[[-80.25, -78.0], [-80.25, -76.5], [-78.75, -76.5], [-78.75, -78.0], [-80.25, -78.0]]]}, "properties": {"cell_id": "187_8", "lon": -79.5, "lat": -77.25}}, {"type": "Feature", "geometry": {"type": "Polygon", "coordinates": [[[-80.25, -76.5], [-80.25, -75.0], [-78.75, -75.0], [-78.75, -76.5], [-80.25, -76.5]]]}, "properties": {"cell_id": "187_9", "lon": -79.5, "lat": -75.75}}, {"type": "Feature", "geometry": {"type": "Polygon", "coordinates": [[[-80.25, -75.0], [-80.25, -73.5], [-78.75, -73.5], [-78.75, -75.0], [-80.25, -75.0]]]}, "properties": {"cell_id": "187_10", "lon": -79.5, "lat": -74.25}}, {"type": "Feature", "geometry": {"type": "Polygon", "coordinates": [[[-80.25, -73.5], [-80.25, -72.0], [-78.75, -72.0], [-78.75, -73.5], [-80.25, -73.5]]]}, "properties": {"cell_id": "187_11", "lon": -79.5, "lat": -72.75}}]}