{"type": "FeatureCollection", "features": [{"type": "Feature", "geometry": {"type": "Polygon", "coordinates": [[[-39.75, 70.5], [-39.75, 72.0], [-38.25, 72.0], [-38.25, 70.5], [-39.75, 70.5]]]}, "properties": {"cell_id": "214_107", "lon": -39.0, "lat": 71.25}}, {"type": "Feature", "geometry": {"type": "Polygon", "coordinates": [[[-39.75, 72.0], [-39.75, 73.5], [-38.25, 73.5], [-38.25, 72.0], [-39.75, 72.0]]]}, "properties": {"cell_id": "214_108", "lon": -39.0, "lat": 72.75}}, {"type": "Feature", "geometry": {"type": "Polygon", "coordinates": [[[-39.75, 73.5], [-39.75, 75.0], [-38.25, 75.0], [-38.25, 73.5], [-39.75, 73.5]]]}, "properties": {"cell_id": "214_109", "lon": -39.0, "lat": 74.25}}, {"type": "Feature", "geometry": {"type": "Polygon", "coordinates": [[[-39.75, 75.0], [-39.75, 76.5], [-38.25, 76.5], [-38.25, 75.0], [-39.75, 75.0]]]}, "properties": {"cell_id": "214_110", "lon": -39.0, "lat": 75.75}}, {"type": "Feature", "geometry": {"type": "Polygon", "coordinates": [[[-39.75, 76.5], [-39.75, 78.0], [-38.25, 78.0], [-38.25, 76.5], [-39.75, 76.5]]]}, "properties": {"cell_id": "214_111", "lon": -39.0, "lat": 77.25}}, {"type": "Feature", "geometry": {"type": "Polygon", "coordinates": [[[-39.75, 78.0], [-39.75, 79.5], [-38.25, 79.5], [-38.25, 78.0], [-39.75, 78.0]]]}, "properties": {"cell_id": "214_112", "lon": -39.0, "lat": 78.75}}, {"type": "Feature", "geometry": {"type": "Polygon", "coordinates": [[[-39.75, 79.5], [-39.75, 81.0], [-38.25, 81.0], [-38.25, 79.5], [-39.75, 79.5]]]}, "properties": {"cell_id": "214_113", "lon": -39.0, "lat": 80.25}}, {"type": "Feature", "geometry": {"type": "Polygon", "coordinates": [[[-38.25, 70.5], [-38.25, 72.0], [-36.75, 72.0], [-36.75, 70.5], [-38.25, 70.5]]]}, "properties": {"cell_id": "215_107", "lon": -37.5, "lat": 71.25}}, {"type": "Feature", "geometry": {"type": "Polygon", "coordinates": [[[-38.25, 72.0], [-38.25, 73.5], [-36.75, 73.5], [-36.75, 72.0], [-38.25, 72.0]]]}, "properties": {"cell_id": "215_108", "lon": -37.5, "lat": 72.75}}, {"type": "Feature", "geometry": {"type": "Polygon", "coordinates": [[[-38.25, 73.5], [-38.25, 75.0], [-36.75, 75.0], [-36.75, 73.5], [-38.25, 73.5]]]}, "properties": {"cell_id": "215_109", "lon": -37.5, "lat": 74.25}}, {"type": "Feature", "geometry": {"type": "Polygon", "coordinates": [[[-38.25, 75.0], [-38.25, 76.5], [-36.75, 76.5], [-36.75, 75.0], [-38.25, 75.0]]]}, "properties": {"cell_id": "215_110", "lon": -37.5, "lat": 75.75}}, {"type": "Feature", "geometry": {"type": "Polygon", "coordinates": [[[-38.25, 76.5], [-38.25, 78.0], [-36.75, 78.0], [-36.75, 76.5], [-38.25, 76.5]]]}, "properties": {"cell_id": "215_111", "lon": -37.5, "lat": 77.25}}, {"type": "Feature", "geometry": {"type": "Polygon", "coordinates": [[[-38.25, 78.0], [-38.25, 79.5], [-36.75, 79.5], [-36.75, 78.0], [-38.25, 78.0]]]}, "properties": {"cell_id": "215_112", "lon": -37.5, "lat": 78.75}}, {"type": "Feature", "geometry": {"type": "Polygon", "coordinates": [[[-38.25, 79.5], [-38.25, 81.0], [-36.75, 81.0], [-36.75, 79.5], [-38.25, 79.5]]]}, "properties": {"cell_id": "215_113", "lon": -37.5, "lat": 80.25}}, {"type": "Feature", "geometry": {"type": "Polygon", "coordinates": [[[-36.75, 70.5], [-36.75, 72.0], [-35.25, 72.0], [-35.25, 70.5], [-36.75, 70.5]]]}, "properties": {"cell_id": "216_107", "lon": -36.0, "lat": 71.25}}, {"type": "Feature", "geometry": {"type": "Polygon", "coordinates": [[[-36.75, 72.0], [-36.75, 73.5], [-35.25, 73.5], [-35.25, 72.0], [-36.75, 72.0]]]}, "properties": {"cell_id": "216_108", "lon": -36.0, "lat": 72.75}}, {"type": "Feature", "geometry": {"type": "Polygon", "coordinates": [[[-36.75, 73.5], [-36.75, 75.0], [-35.25, 75.0], [-35.25, 73.5], [-36.75, 73.5]]]}, "properties": {"cell_id": "216_109", "lon": -36.0, "lat": 74.25}}, {"type": "Feature", "geometry": {"type": "Polygon", "coordinates": [[[-36.75, 75.0], [-36.75, 76.5], [-35.25, 76.5], [-35.25, 75.0], [-36.75, 75.0]]]}, "properties": {"cell_id": "216_110", "lon": -36.0, "lat": 75.75}}, {"type": "Feature", "geometry": {"type": "Polygon", "coordinates": [[[-36.75, 76.5], [-36.75, 78.0], [-35.25, 78.0], [-35.25, 76.5], [-36.75, 76.5]]]}, "properties": {"cell_id": "216_111", "lon": -36.0, "lat": 77.25}}, {"type": "Feature", "geometry": {"type": "Polygon", "coordinates": [[[-36.75, 78.0], [-36.75, 79.5], [-35.25, 79.5], [-35.25, 78.0], [-36.75, 78.0]]]}, "properties": {"cell_id": "216_112", "lon": -36.0, "lat": 78.75}}, {"type": "Feature", "geometry": {"type": "Polygon", "coordinates": [[[-36.75, 79.5], [-36.75, 81.0], [-35.25, 81.0], [-35.25, 79.5], [-36.75, 79.5]]]}, "properties": {"cell_id": "216_113", "lon": -36.0, "lat": 80.25}}, {"type": "Feature", "geometry": {"type": "Polygon", "coordinates": [[[-35.25, 70.5], [-35.25, 72.0], [-33.75, 72.0], [-33.75, 70.5], [-35.25, 70.5]]]}, "properties": {"cell_id": "217_107", "lon": -34.5, "lat": 71.25}}, {"type": "Feature", "geometry": {"type": "Polygon", "coordinates": [[[-35.25, 72.0], [-35.25, 73.5], [-33.75, 73.5], [-33.75, 72.0], [-35.25, 72.0]]]}, "properties": {"cell_id": "217_108", "lon": -34.5, "lat": 72.75}}, {"type": "Feature", "geometry": {"type": "Polygon", "coordinates": [[[-35.25, 73.5], [-35.25, 75.0], [-33.75, 75.0], [-33.75, 73.5], [-35.25, 73.5]]]}, "properties": {"cell_id": "217_109", "lon": -34.5, "lat": 74.25}}, {"type": "Feature", "geometry": {"type": "Polygon", "coordinates": [[[-35.25, 75.0], [-35.25, 76.5], [-33.75, 76.5], [-33.75, 75.0], [-35.25, 75.0]]]}, "properties": {"cell_id": "217_110", "lon": -34.5, "lat": 75.75}}, {"type": "Feature", "geometry": {"type": "Polygon", "coordinates": [[[-35.25, 76.5], [-35.25, 78.0], [-33.75, 78.0], [-33.75, 76.5], [-35.25, 76.5]]]}, "properties": {"cell_id": "217_111", "lon": -34.5, "lat": 77.25}}, {"type": "Feature", "geometry": {"type": "Polygon", "coordinates": [[[-35.25, 78.0], [-35.25, 79.5], [-33.75, 79.5], [-33.75, 78.0], [-35.25, 78.0]]]}, "properties": {"cell_id": "217_112", "lon": -34.5, "lat": 78.75}}, {"type": "Feature", "geometry": {"type": "Polygon", "coordinates": [[[-35.25, 79.5], [-35.25, 81.0], [-33.75, 81.0], [-33.75, 79.5], [-35.25, 79.5]]]}, "properties": {"cell_id": "217_113", "lon": -34.5, "lat": 80.25}}, {"type": "Feature", "geometry": {"type": "Polygon", "coordinates": [[[-33.75, 70.5], [-33.75, 72.0], [-32.25, 72.0], [-32.25, 70.5], [-33.75, 70.5]]]}, "properties": {"cell_id": "218_107", "lon": -33.0, "lat": 71.25}}, {"type": "Feature", "geometry": {"type": "Polygon", "coordinates": [[[-33.75, 72.0], [-33.75, 73.5], [-32.25, 73.5], [-32.25, 72.0], [-33.75, 72.0]]]}, "properties": {"cell_id": "218_108", "lon": -33.0, "lat": 72.75}}, {"type": "Feature", "geometry": {"type": "Polygon", "coordinates": [[[-33.75, 73.5], [-33.75, 75.0], [-32.25, 75.0], [-32.25, 73.5], [-33.75, 73.5]]]}, "properties": {"cell_id": "218_109", "lon": -33.0, "lat": 74.25}}, {"type": "Feature", "geometry": {"type": "Polygon", "coordinates": [[[-33.75, 75.0], [-33.75, 76.5], [-32.25, 76.5], [-32.25, 75.0], [-33.75, 75.0]]]}, "properties": {"cell_id": "218_110", "lon": -33.0, "lat": 75.75}}, {"type": "Feature", "geometry": {"type": "Polygon", "coordinates": [[[-33.75, 76.5], [-33.75, 78.0], [-32.25, 78.0], [-32.25, 76.5], [-33.75, 76.5]]]}, "properties": {"cell_id": "218_111", "lon": -33.0, "lat": 77.25}}, {"type": "Feature", "geometry": {"type": "Polygon", "coordinates": [[[-33.75, 78.0], [-33.75, 79.5], [-32.25, 79.5], [-32.25, 78.0], [-33.75, 78.0]]]}, "properties": {"cell_id": "218_112", "lon": -33.0, "lat": 78.75}}, {"type": "Feature", "geometry": {"type": "Polygon", "coordinates": [[[-33.75, 79.5], [-33.75, 81.0], [-32.25, 81.0], [-32.25, 79.5], [-33.75, 79.5]]]}, "properties": {"cell_id": "218_113", "lon": -33.0, "lat": 80.25}}, {"type": "Feature", "geometry": {"type": "Polygon", "coordinates": [[[-32.25, 70.5], [-32.25, 72.0], [-30.75, 72.0], [-30.75, 70.5], [-32.25, 70.5]]]}, "properties": {"cell_id": "219_107", "lon": -31.5, "lat": 71.25}}, {"type": "Feature", "geometry": {"type": "Polygon", "coordinates": [[[-32.25, 72.0], [-32.25, 73.5], [-30.75, 73.5], [-30.75, 72.0], [-32.25, 72.0]]]}, "properties": {"cell_id": "219_108", "lon": -31.5, "lat": 72.75}}, {"type": "Feature", "geometry": {"type": "Polygon", "coordinates": [[[-32.25, 73.5], [-32.25, 75.0], [-30.75, 75.0], [-30.75, 73.5], [-32.25, 73.5]]]}, "properties": {"cell_id": "219_109", "lon": -31.5, "lat": 74.25}}, {"type": "Feature", "geometry": {"type": "Polygon", "coordinates": [[[-32.25, 75.0], [-32.25, 76.5], [-30.75, 76.5], [-30.75, 75.0], [-32.25, 75.0]]]}, "properties": {"cell_id": "219_110", "lon": -31.5, "lat": 75.75}}, {"type": "Feature", "geometry": {"type": "Polygon", "coordinates": [[[-32.25, 76.5], [-32.25, 78.0], [-30.75, 78.0], [-30.75, 76.5], [-32.25, 76.5]]]}, "properties": {"cell_id": "219_111", "lon": -31.5, "lat": 77.25}}, {"type": "Feature", "geometry": {"type": "Polygon", "coordinates": [[[-32.25, 78.0], [-32.25, 79.5], [-30.75, 79.5], [-30.75, 78.0], [-32.25, 78.0]]]}, "properties": {"cell_id": "219_112", "lon": -31.5, "lat": 78.75}}, {"type": "Feature", "geometry": {"type": "Polygon", "coordinates": [[[-32.25, 79.5], [-32.25, 81.0], [-30.75, 81.0], [-30.75, 79.5], [-32.25, 79.5]]]}, "properties": {"cell_id": "219_113", "lon": -31.5, "lat": 80.25}}, {"type": "Feature", "geometry": {"type": "Polygon", "coordinates": [[[-30.75, 70.5], [-30.75, 72.0], [-29.25, 72.0], [-29.25, 70.5], [-30.75, 70.5]]]}, "properties": {"cell_id": "220_107", "lon": -30.0, "lat": 71.25}}, {"type": "Feature", "geometry": {"type": "Polygon", "coordinates": [[[-30.75, 72.0], [-30.75, 73.5], [-29.25, 73.5], [-29.25, 72.0], [-30.75, 72.0]]]}, "properties": {"cell_id": "220_108", "lon": -30.0, "lat": 72.75}}, {"type": "Feature", "geometry": {"type": "Polygon", "coordinates": [[[-30.75, 73.5], [-30.75, 75.0], [-29.25, 75.0], [-29.25, 73.5], [-30.75, 73.5]]]}, "properties": {"cell_id": "220_109", "lon": -30.0, "lat": 74.25}}, {"type": "Feature", "geometry": {"type": "Polygon", "coordinates": [[[-30.75, 75.0], [-30.75, 76.5], [-29.25, 76.5], [-29.25, 75.0], [-30.75, 75.0]]]}, "properties": {"cell_id": "220_110", "lon": -30.0, "lat": 75.75}}, {"type": "Feature", "geometry": {"type": "Polygon", "coordinates": [[[-30.75, 76.5], [-30.75, 78.0], [-29.25, 78.0], [-29.25, 76.5], [-30.75, 76.5]]]}, "properties": {"cell_id": "220_111", "lon": -30.0, "lat": 77.25}}, {"type": "Feature", "geometry": {"type": "Polygon", "coordinates": [[[-30.75, 78.0], [-30.75, 79.5], [-29.25, 79.5], [-29.25, 78.0], [-30.75, 78.0]]]}, "properties": {"cell_id": "220_112", "lon": -30.0, "lat": 78.75}}, {"type": "Feature", "geometry": {"type": "Polygon", "coordinates": [[[-30.75, 79.5], [-30.75, 81.0], [-29.25, 81.0], [-29.25, 79.5], [-30.75, 79.5]]]}, "properties": {"cell_id": "220_113", "lon": -30.0, "lat": 80.25}}]}