{"type": "FeatureCollection", "features": [{"type": "Feature", "geometry": {"type": "Polygon", "coordinates": [[[110.25, 51.0], [110.25, 52.5], [111.75, 52.5], [111.75, 51.0], [110.25, 51.0]]]}, "properties": {"cell_id": "74_94", "lon": 111.0, "lat": 51.75}}, {"type": "Feature", "geometry": {"type": "Polygon", "coordinates": [[[110.25, 52.5], [110.25, 54.0], [111.75, 54.0], [111.75, 52.5], [110.25, 52.5]]]}, "properties": {"cell_id": "74_95", "lon": 111.0, "lat": 53.25}}, {"type": "Feature", "geometry": {"type": "Polygon", "coordinates": [[[110.25, 54.0], [110.25, 55.5], [111.75, 55.5], [111.75, 54.0], [110.25, 54.0]]]}, "properties": {"cell_id": "74_96", "lon": 111.0, "lat": 54.75}}, {"type": "Feature", "geometry": {"type": "Polygon", "coordinates": [[[110.25, 55.5], [110.25, 57.0], [111.75, 57.0], [111.75, 55.5], [110.25, 55.5]]]}, "properties": {"cell_id": "74_97", "lon": 111.0, "lat": 56.25}}, {"type": "Feature", "geometry": {"type": "Polygon", "coordinates": [[[110.25, 57.0], [110.25, 58.5], [111.75, 58.5], [111.75, 57.0], [110.25, 57.0]]]}, "properties": {"cell_id": "74_98", "lon": 111.0, "lat": 57.75}}, {"type": "Feature", "geometry": {"type": "Polygon", "coordinates": [[[110.25, 58.5], [110.25, 60.0], [111.75, 60.0], [111.75, 58.5], [110.25, 58.5]]]}, "properties": {"cell_id": "74_99", "lon": 111.0, "lat": 59.25}}, {"type": "Feature", "geometry": {"type": "Polygon", "coordinates": [[[111.75, 51.0], [111.75, 52.5], [113.25, 52.5], [113.25, 51.0], [111.75, 51.0]]]}, "properties": {"cell_id": "75_94", "lon": 112.5, "lat": 51.75}}, {"type": "Feature", "geometry": {"type": "Polygon", "coordinates": [[[111.75, 52.5], [111.75, 54.0], [113.25, 54.0], [113.25, 52.5], [111.75, 52.5]]]}, "properties": {"cell_id": "75_95", "lon": 112.5, "lat": 53.25}}, {"type": "Feature", "geometry": {"type": "Polygon", "coordinates": [[[111.75, 54.0], [111.75, 55.5], [113.25, 55.5], [113.25, 54.0], [111.75, 54.0]]]}, "properties": {"cell_id": "75_96", "lon": 112.5, "lat": 54.75}}, {"type": "Feature", "geometry": {"type": "Polygon", "coordinates": [[[111.75, 55.5], [111.75, 57.0], [113.25, 57.0], [113.25, 55.5], [111.75, 55.5]]]}, "properties": {"cell_id": "75_97", "lon": 112.5, "lat": 56.25}}, {"type": "Feature", "geometry": {"type": "Polygon", "coordinates": [[[111.75, 57.0], [111.75, 58.5], [113.25, 58.5], [113.25, 57.0], [111.75, 57.0]]]}, "properties": {"cell_id": "75_98", "lon": 112.5, "lat": 57.75}}, {"type": "Feature", "geometry": {"type": "Polygon", "coordinates": [[[111.75, 58.5], [111.75, 60.0], [113.25, 60.0], [113.25, 58.5], [111.75, 58.5]]]}, "properties": {"cell_id": "75_99", "lon": 112.5, "lat": 59.25}}, {"type": "Feature", "geometry": {"type": "Polygon", "coordinates": [[[113.25, 51.0], [113.25, 52.5], [114.75, 52.5], [114.75, 51.0], [113.25, 51.0]]]}, "properties": {"cell_id": "76_94", "lon": 114.0, "lat": 51.75}}, {"type": "Feature", "geometry": {"type": "Polygon", "coordinates": [[[113.25, 52.5], [113.25, 54.0], [114.75, 54.0], [114.75, 52.5], [113.25, 52.5]]]}, "properties": {"cell_id": "76_95", "lon": 114.0, "lat": 53.25}}, {"type": "Feature", "geometry": {"type": "Polygon", "coordinates": [[[113.25, 54.0], [113.25, 55.5], [114.75, 55.5], [114.75, 54.0], [113.25, 54.0]]]}, "properties": {"cell_id": "76_96", "lon": 114.0, "lat": 54.75}}, {"type": "Feature", "geometry": {"type": "Polygon", "coordinates": [[[113.25, 55.5], [113.25, 57.0], [114.75, 57.0], [114.75, 55.5], [113.25, 55.5]]]}, "properties": {"cell_id": "76_97", "lon": 114.0, "lat": 56.25}}, {"type": "Feature", "geometry": {"type": "Polygon", "coordinates": [[[113.25, 57.0], [113.25, 58.5], [114.75, 58.5], [114.75, 57.0], [113.25, 57.0]]]}, "properties": {"cell_id": "76_98", "lon": 114.0, "lat": 57.75}}, {"type": "Feature", "geometry": {"type": "Polygon", "coordinates": [[[113.25, 58.5], [113.25, 60.0], [114.75, 60.0], [114.75, 58.5], [113.25, 58.5]]]}, "properties": {"cell_id": "76_99", "lon": 114.0, "lat": 59.25}}, {"type": "Feature", "geometry": {"type": "Polygon", "coordinates": [[[114.75, 51.0], [114.75, 52.5], [116.25, 52.5], [116.25, 51.0], [114.75, 51.0]]]}, "properties": {"cell_id": "77_94", "lon": 115.5, "lat": 51.75}}, {"type": "Feature", "geometry": {"type": "Polygon", "coordinates": [[[114.75, 52.5], [114.75, 54.0], [116.25, 54.0], [116.25, 52.5], [114.75, 52.5]]]}, "properties": {"cell_id": "77_95", "lon": 115.5, "lat": 53.25}}, {"type": "Feature", "geometry": {"type": "Polygon", "coordinates": [[[114.75, 54.0], [114.75, 55.5], [116.25, 55.5], [116.25, 54.0], [114.75, 54.0]]]}, "properties": {"cell_id": "77_96", "lon": 115.5, "lat": 54.75}}, {"type": "Feature", "geometry": {"type": "Polygon", "coordinates": [[[114.75, 55.5], [114.75, 57.0], [116.25, 57.0], [116.25, 55.5], [114.75, 55.5]]]}, "properties": {"cell_id": "77_97", "lon": 115.5, "lat": 56.25}}, {"type": "Feature", "geometry": {"type": "Polygon", "coordinates": [[[114.75, 57.0], [114.75, 58.5], [116.25, 58.5], [116.25, 57.0], [114.75, 57.0]]]}, "properties": {"cell_id": "77_98", "lon": 115.5, "lat": 57.75}}, {"type": "Feature", "geometry": {"type": "Polygon", "coordinates": [[[114.75, 58.5], [114.75, 60.0], [116.25, 60.0], [116.25, 58.5], [114.75, 58.5]]]}, "properties": {"cell_id": "77_99", "lon": 115.5, "lat": 59.25}}, {"type": "Feature", "geometry": {"type": "Polygon", "coordinates": [[[116.25, 51.0], [116.25, 52.5], [117.75, 52.5], [117.75, 51.0], [116.25, 51.0]]]}, "properties": {"cell_id": "78_94", "lon": 117.0, "lat": 51.75}}, {"type": "Feature", "geometry": {"type": "Polygon", "coordinates": [[[116.25, 52.5], [116.25, 54.0], [117.75, 54.0], [117.75, 52.5], [116.25, 52.5]]]}, "properties": {"cell_id": "78_95", "lon": 117.0, "lat": 53.25}}, {"type": "Feature", "geometry": {"type": "Polygon", "coordinates": [[[116.25, 54.0], [116.25, 55.5], [117.75, 55.5], [117.75, 54.0], [116.25, 54.0]]]}, "properties": {"cell_id": "78_96", "lon": 117.0, "lat": 54.75}}, {"type": "Feature", "geometry": {"type": "Polygon", "coordinates": [[[116.25, 55.5], [116.25, 57.0], [117.75, 57.0], [117.75, 55.5], [116.25, 55.5]]]}, "properties": {"cell_id": "78_97", "lon": 117.0, "lat": 56.25}}, {"type": "Feature", "geometry": {"type": "Polygon", "coordinates": [[[116.25, 57.0], [116.25, 58.5], [117.75, 58.5], [117.75, 57.0], [116.25, 57.0]]]}, "properties": {"cell_id": "78_98", "lon": 117.0, "lat": 57.75}}, {"type": "Feature", "geometry": {"type": "Polygon", "coordinates": [[[116.25, 58.5], [116.25, 60.0], [117.75, 60.0], [117.75, 58.5], [116.25, 58.5]]]}, "properties": {"cell_id": "78_99", "lon": 117.0, "lat": 59.25}}, {"type": "Feature", "geometry": {"type": "Polygon", "coordinates": [[[117.75, 51.0], [117.75, 52.5], [119.25, 52.5], [119.25, 51.0], [117.75, 51.0]]]}, "properties": {"cell_id": "79_94", "lon": 118.5, "lat": 51.75}}, {"type": "Feature", "geometry": {"type": "Polygon", "coordinates": [[[117.75, 52.5], [117.75, 54.0], [119.25, 54.0], [119.25, 52.5], [117.75, 52.5]]]}, "properties": {"cell_id": "79_95", "lon": 118.5, "lat": 53.25}}, {"type": "Feature", "geometry": {"type": "Polygon", "coordinates": [[[117.75, 54.0], [117.75, 55.5], [119.25, 55.5], [119.25, 54.0], [117.75, 54.0]]]}, "properties": {"cell_id": "79_96", "lon": 118.5, "lat": 54.75}}, {"type": "Feature", "geometry": {"type": "Polygon", "coordinates": [[[117.75, 55.5], [117.75, 57.0], [119.25, 57.0], [119.25, 55.5], [117.75, 55.5]]]}, "properties": {"cell_id": "79_97", "lon": 118.5, "lat": 56.25}}, {"type": "Feature", "geometry": {"type": "Polygon", "coordinates": [[[117.75, 57.0], [117.75, 58.5], [119.25, 58.5], [119.25, 57.0], [117.75, 57.0]]]}, "properties": {"cell_id": "79_98", "lon": 118.5, "lat": 57.75}}, {"type": "Feature", "geometry": {"type": "Polygon", "coordinates": [[[117.75, 58.5], [117.75, 60.0], [119.25, 60.0], [119.25, 58.5], [117.75, 58.5]]]}, "properties": {"cell_id": "79_99", "lon": 118.5, "lat": 59.25}}, {"type": "Feature", "geometry": {"type": "Polygon", "coordinates": [[[119.25, 51.0], [119.25, 52.5], [120.75, 52.5], [120.75, 51.0], [119.25, 51.0]]]}, "properties": {"cell_id": "80_94", "lon": 120.0, "lat": 51.75}}, {"type": "Feature", "geometry": {"type": "Polygon", "coordinates": [[[119.25, 52.5], [119.25, 54.0], [120.75, 54.0], [120.75, 52.5], [119.25, 52.5]]]}, "properties": {"cell_id": "80_95", "lon": 120.0, "lat": 53.25}}, {"type": "Feature", "geometry": {"type": "Polygon", "coordinates": [[[119.25, 54.0], [119.25, 55.5], [120.75, 55.5], [120.75, 54.0], [119.25, 54.0]]]}, "properties": {"cell_id": "80_96", "lon": 120.0, "lat": 54.75}}, {"type": "Feature", "geometry": {"type": "Polygon", "coordinates": [[[119.25, 55.5], [119.25, 57.0], [120.75, 57.0], [120.75, 55.5], [119.25, 55.5]]]}, "properties": {"cell_id": "80_97", "lon": 120.0, "lat": 56.25}}, {"type": "Feature", "geometry": {"type": "Polygon", "coordinates": [[[119.25, 57.0], [119.25, 58.5], [120.75, 58.5], [120.75, 57.0], [119.25, 57.0]]]}, "properties": {"cell_id": "80_98", "lon": 120.0, "lat": 57.75}}, {"type": "Feature", "geometry": {"type": "Polygon", "coordinates": [[[119.25, 58.5], [119.25, 60.0], [120.75, 60.0], [120.75, 58.5], [119.25, 58.5]]]}, "properties": {"cell_id": "80_99", "lon": 120.0, "lat": 59.25}}]}