{"type": "FeatureCollection", "features": [{"type": "Feature", "geometry": {"type": "Polygon", "coordinates": [[[-108.75, 51.0], [-108.75, 52.5], [-107.25, 52.5], [-107.25, 51.0], [-108.75, 51.0]]]}, "properties": {"cell_id": "168_94", "lon": -108.0, "lat": 51.75}}, {"type": "Feature", "geometry": {"type": "Polygon", "coordinates": [[[-108.75, 52.5], [-108.75, 54.0], [-107.25, 54.0], [-107.25, 52.5], [-108.75, 52.5]]]}, "properties": {"cell_id": "168_95", "lon": -108.0, "lat": 53.25}}, {"type": "Feature", "geometry": {"type": "Polygon", "coordinates": [[[-108.75, 54.0], [-108.75, 55.5], [-107.25, 55.5], [-107.25, 54.0], [-108.75, 54.0]]]}, "properties": {"cell_id": "168_96", "lon": -108.0, "lat": 54.75}}, {"type": "Feature", "geometry": {"type": "Polygon", "coordinates": [[[-108.75, 55.5], [-108.75, 57.0], [-107.25, 57.0], [-107.25, 55.5], [-108.75, 55.5]]]}, "properties": {"cell_id": "168_97", "lon": -108.0, "lat": 56.25}}, {"type": "Feature", "geometry": {"type": "Polygon", "coordinates": [[[-108.75, 57.0], [-108.75, 58.5], [-107.25, 58.5], [-107.25, 57.0], [-108.75, 57.0]]]}, "properties": {"cell_id": "168_98", "lon": -108.0, "lat": 57.75}}, {"type": "Feature", "geometry": {"type": "Polygon", "coordinates": [[[-108.75, 58.5], [-108.75, 60.0], [-107.25, 60.0], [-107.25, 58.5], [-108.75, 58.5]]]}, "properties": {"cell_id": "168_99", "lon": -108.0, "lat": 59.25}}, {"type": "Feature", "geometry": {"type": "Polygon", "coordinates": [[[-107.25, 51.0], [-107.25, 52.5], [-105.75, 52.5], [-105.75, 51.0], [-107.25, 51.0]]]}, "properties": {"cell_id": "169_94", "lon": -106.5, "lat": 51.75}}, {"type": "Feature", "geometry": {"type": "Polygon", "coordinates": [[[-107.25, 52.5], [-107.25, 54.0], [-105.75, 54.0], [-105.75, 52.5], [-107.25, 52.5]]]}, "properties": {"cell_id": "169_95", "lon": -106.5, "lat": 53.25}}, {"type": "Feature", "geometry": {"type": "Polygon", "coordinates": [[[-107.25, 54.0], [-107.25, 55.5], [-105.75, 55.5], [-105.75, 54.0], [-107.25, 54.0]]]}, "properties": {"cell_id": "169_96", "lon": -106.5, "lat": 54.75}}, {"type": "Feature", "geometry": {"type": "Polygon", "coordinates": [[[-107.25, 55.5], [-107.25, 57.0], [-105.75, 57.0], [-105.75, 55.5], [-107.25, 55.5]]]}, "properties": {"cell_id": "169_97", "lon": -106.5, "lat": 56.25}}, {"type": "Feature", "geometry": {"type": "Polygon", "coordinates": [[[-107.25, 57.0], [-107.25, 58.5], [-105.75, 58.5], [-105.75, 57.0], [-107.25, 57.0]]]}, "properties": {"cell_id": "169_98", "lon": -106.5, "lat": 57.75}}, {"type": "Feature", "geometry": {"type": "Polygon", "coordinates": [[[-107.25, 58.5], [-107.25, 60.0], [-105.75, 60.0], [-105.75, 58.5], [-107.25, 58.5]]]}, "properties": {"cell_id": "169_99", "lon": -106.5, "lat": 59.25}}, {"type": "Feature", "geometry": {"type": "Polygon", "coordinates": [[[-105.75, 51.0], [-105.75, 52.5], [-104.25, 52.5], [-104.25, 51.0], [-105.75, 51.0]]]}, "properties": {"cell_id": "170_94", "lon": -105.0, "lat": 51.75}}, {"type": "Feature", "geometry": {"type": "Polygon", "coordinates": [[[-105.75, 52.5], [-105.75, 54.0], [-104.25, 54.0], [-104.25, 52.5], [-105.75, 52.5]]]}, "properties": {"cell_id": "170_95", "lon": -105.0, "lat": 53.25}}, {"type": "Feature", "geometry": {"type": "Polygon", "coordinates": [[[-105.75, 54.0], [-105.75, 55.5], [-104.25, 55.5], [-104.25, 54.0], [-105.75, 54.0]]]}, "properties": {"cell_id": "170_96", "lon": -105.0, "lat": 54.75}}, {"type": "Feature", "geometry": {"type": "Polygon", "coordinates": [[[-105.75, 55.5], [-105.75, 57.0], [-104.25, 57.0], [-104.25, 55.5], [-105.75, 55.5]]]}, "properties": {"cell_id": "170_97", "lon": -105.0, "lat": 56.25}}, {"type": "Feature", "geometry": {"type": "Polygon", "coordinates": [[[-105.75, 57.0], [-105.75, 58.5], [-104.25, 58.5], [-104.25, 57.0], [-105.75, 57.0]]]}, "properties": {"cell_id": "170_98", "lon": -105.0, "lat": 57.75}}, {"type": "Feature", "geometry": {"type": "Polygon", "coordinates": [[[-105.75, 58.5], [-105.75, 60.0], [-104.25, 60.0], [-104.25, 58.5], [-105.75, 58.5]]]}, "properties": {"cell_id": "170_99", "lon": -105.0, "lat": 59.25}}, {"type": "Feature", "geometry": {"type": "Polygon", "coordinates": [[[-104.25, 51.0], [-104.25, 52.5], [-102.75, 52.5], [-102.75, 51.0], [-104.25, 51.0]]]}, "properties": {"cell_id": "171_94", "lon": -103.5, "lat": 51.75}}, {"type": "Feature", "geometry": {"type": "Polygon", "coordinates": [[[-104.25, 52.5], [-104.25, 54.0], [-102.75, 54.0], [-102.75, 52.5], [-104.25, 52.5]]]}, "properties": {"cell_id": "171_95", "lon": -103.5, "lat": 53.25}}, {"type": "Feature", "geometry": {"type": "Polygon", "coordinates": [[[-104.25, 54.0], [-104.25, 55.5], [-102.75, 55.5], [-102.75, 54.0], [-104.25, 54.0]]]}, "properties": {"cell_id": "171_96", "lon": -103.5, "lat": 54.75}}, {"type": "Feature", "geometry": {"type": "Polygon", "coordinates": [[[-104.25, 55.5], [-104.25, 57.0], [-102.75, 57.0], [-102.75, 55.5], [-104.25, 55.5]]]}, "properties": {"cell_id": "171_97", "lon": -103.5, "lat": 56.25}}, {"type": "Feature", "geometry": {"type": "Polygon", "coordinates": [[[-104.25, 57.0], [-104.25, 58.5], [-102.75, 58.5], [-102.75, 57.0], [-104.25, 57.0]]]}, "properties": {"cell_id": "171_98", "lon": -103.5, "lat": 57.75}}, {"type": "Feature", "geometry": {"type": "Polygon", "coordinates": [[[-104.25, 58.5], [-104.25, 60.0], [-102.75, 60.0], [-102.75, 58.5], [-104.25, 58.5]]]}, "properties": {"cell_id": "171_99", "lon": -103.5, "lat": 59.25}}, {"type": "Feature", "geometry": {"type": "Polygon", "coordinates": [[[-102.75, 51.0], [-102.75, 52.5], [-101.25, 52.5], [-101.25, 51.0], [-102.75, 51.0]]]}, "properties": {"cell_id": "172_94", "lon": -102.0, "lat": 51.75}}, {"type": "Feature", "geometry": {"type": "Polygon", "coordinates": [[[-102.75, 52.5], [-102.75, 54.0], [-101.25, 54.0], [-101.25, 52.5], [-102.75, 52.5]]]}, "properties": {"cell_id": "172_95", "lon": -102.0, "lat": 53.25}}, {"type": "Feature", "geometry": {"type": "Polygon", "coordinates": [[[-102.75, 54.0], [-102.75, 55.5], [-101.25, 55.5], [-101.25, 54.0], [-102.75, 54.0]]]}, "properties": {"cell_id": "172_96", "lon": -102.0, "lat": 54.75}}, {"type": "Feature", "geometry": {"type": "Polygon", "coordinates": [[[-102.75, 55.5], [-102.75, 57.0], [-101.25, 57.0], [-101.25, 55.5], [-102.75, 55.5]]]}, "properties": {"cell_id": "172_97", "lon": -102.0, "lat": 56.25}}, {"type": "Feature", "geometry": {"type": "Polygon", "coordinates": [[[-102.75, 57.0], [-102.75, 58.5], [-101.25, 58.5], [-101.25, 57.0], [-102.75, 57.0]]]}, "properties": {"cell_id": "172_98", "lon": -102.0, "lat": 57.75}}, {"type": "Feature", "geometry": {"type": "Polygon", "coordinates": [[[-102.75, 58.5], [-102.75, 60.0], [-101.25, 60.0], [-101.25, 58.5], [-102.75, 58.5]]]}, "properties": {"cell_id": "172_99", "lon": -102.0, "lat": 59.25}}, {"type": "Feature", "geometry": {"type": "Polygon", "coordinates": [[[-101.25, 51.0], [-101.25, 52.5], [-99.75, 52.5], [-99.75, 51.0], [-101.25, 51.0]]]}, "properties": {"cell_id": "173_94", "lon": -100.5, "lat": 51.75}}, {"type": "Feature", "geometry": {"type": "Polygon", "coordinates": [[[-101.25, 52.5], [-101.25, 54.0], [-99.75, 54.0], [-99.75, 52.5], [-101.25, 52.5]]]}, "properties": {"cell_id": "173_95", "lon": -100.5, "lat": 53.25}}, {"type": "Feature", "geometry": {"type": "Polygon", "coordinates": [[[-101.25, 54.0], [-101.25, 55.5], [-99.75, 55.5], [-99.75, 54.0], [-101.25, 54.0]]]}, "properties": {"cell_id": "173_96", "lon": -100.5, "lat": 54.75}}, {"type": "Feature", "geometry": {"type": "Polygon", "coordinates": [[[-101.25, 55.5], [-101.25, 57.0], [-99.75, 57.0], [-99.75, 55.5], [-101.25, 55.5]]]}, "properties": {"cell_id": "173_97", "lon": -100.5, "lat": 56.25}}, {"type": "Feature", "geometry": {"type": "Polygon", "coordinates": [[[-101.25, 57.0], [-101.25, 58.5], [-99.75, 58.5], [-99.75, 57.0], [-101.25, 57.0]]]}, "properties": {"cell_id": "173_98", "lon": -100.5, "lat": 57.75}}, {"type": "Feature", "geometry": {"type": "Polygon", "coordinates": [[[-101.25, 58.5], [-101.25, 60.0], [-99.75, 60.0], [-99.75, 58.5], [-101.25, 58.5]]]}, "properties": {"cell_id": "173_99", "lon": -100.5, "lat": 59.25}}]}