{"type": "FeatureCollection", "features": [{"type": "Feature", "geometry": {"type": "Polygon", "coordinates": [[[30.75, 30.0], [30.75, 31.5], [32.25, 31.5], [32.25, 30.0], [30.75, 30.0]]]}, "properties": {"cell_id": "21_80", "lon": 31.5, "lat": 30.75}}, {"type": "Feature", "geometry": {"type": "Polygon", "coordinates": [[[30.75, 36.0], [30.75, 37.5], [32.25, 37.5], [32.25, 36.0], [30.75, 36.0]]]}, "properties": {"cell_id": "21_84", "lon": 31.5, "lat": 36.75}}, {"type": "Feature", "geometry": {"type": "Polygon", "coordinates": [[[30.75, 37.5], [30.75, 39.0], [32.25, 39.0], [32.25, 37.5], [30.75, 37.5]]]}, "properties": {"cell_id": "21_85", "lon": 31.5, "lat": 38.25}}, {"type": "Feature", "geometry": {"type": "Polygon", "coordinates": [[[30.75, 39.0], [30.75, 40.5], [32.25, 40.5], [32.25, 39.0], [30.75, 39.0]]]}, "properties": {"cell_id": "21_86", "lon": 31.5, "lat": 39.75}}, {"type": "Feature", "geometry": {"type": "Polygon", "coordinates": [[[32.25, 30.0], [32.25, 31.5], [33.75, 31.5], [33.75, 30.0], [32.25, 30.0]]]}, "properties": {"cell_id": "22_80", "lon": 33.0, "lat": 30.75}}, {"type": "Feature", "geometry": {"type": "Polygon", "coordinates": [[[32.25, 36.0], [32.25, 37.5], [33.75, 37.5], [33.75, 36.0], [32.25, 36.0]]]}, "properties": {"cell_id": "22_84", "lon": 33.0, "lat": 36.75}}, {"type": "Feature", "geometry": {"type": "Polygon", "coordinates": [[[32.25, 37.5], [32.25, 39.0], [33.75, 39.0], [33.75, 37.5], [32.25, 37.5]]]}, "properties": {"cell_id": "22_85", "lon": 33.0, "lat": 38.25}}, {"type": "Feature", "geometry": {"type": "Polygon", "coordinates": [[[32.25, 39.0], [32.25, 40.5], [33.75, 40.5], [33.75, 39.0], [32.25, 39.0]]]}, "properties": {"cell_id": "22_86", "lon": 33.0, "lat": 39.75}}, {"type": "Feature", "geometry": {"type": "Polygon", "coordinates": [[[33.75, 30.0], [33.75, 31.5], [35.25, 31.5], [35.25, 30.0], [33.75, 30.0]]]}, "properties": {"cell_id": "23_80", "lon": 34.5, "lat": 30.75}}, {"type": "Feature", "geometry": {"type": "Polygon", "coordinates": [[[33.75, 31.5], [33.75, 33.0], [35.25, 33.0], [35.25, 31.5], [33.75, 31.5]]]}, "properties": {"cell_id": "23_81", "lon": 34.5, "lat": 32.25}}, {"type": "Feature", "geometry": {"type": "Polygon", "coordinates": [[[33.75, 33.0], [33.75, 34.5], [35.25, 34.5], [35.25, 33.0], [33.75, 33.0]]]}, "properties": {"cell_id": "23_82", "lon": 34.5, "lat": 33.75}}, {"type": "Feature", "geometry": {"type": "Polygon", "coordinates": [[[33.75, 34.5], [33.75, 36.0], [35.25, 36.0], [35.25, 34.5], [33.75, 34.5]]]}, "properties": {"cell_id": "23_83", "lon": 34.5, "lat": 35.25}}, {"type": "Feature", "geometry": {"type": "Polygon", "coordinates": [[[33.75, 36.0], [33.75, 37.5], [35.25, 37.5], [35.25, 36.0], [33.75, 36.0]]]}, "properties": {"cell_id": "23_84", "lon": 34.5, "lat": 36.75}}, {"type": "Feature", "geometry": {"type": "Polygon", "coordinates": [[[33.75, 37.5], [33.75, 39.0], [35.25, 39.0], [35.25, 37.5], [33.75, 37.5]]]}, "properties": {"cell_id": "23_85", "lon": 34.5, "lat": 38.25}}, {"type": "Feature", "geometry": {"type": "Polygon", "coordinates": [[[33.75, 39.0], [33.75, 40.5], [35.25, 40.5], [35.25, 39.0], [33.75, 39.0]]]}, "properties": {"cell_id": "23_86", "lon": 34.5, "lat": 39.75}}, {"type": "Feature", "geometry": {"type": "Polygon", "coordinates": [[[35.25, 30.0], [35.25, 31.5], [36.75, 31.5], [36.75, 30.0], [35.25, 30.0]]]}, "properties": {"cell_id": "24_80", "lon": 36.0, "lat": 30.75}}, {"type": "Feature", "geometry": {"type": "Polygon", "coordinates": [[[35.25, 31.5], [35.25, 33.0], [36.75, 33.0], [36.75, 31.5], [35.25, 31.5]]]}, "properties": {"cell_id": "24_81", "lon": 36.0, "lat": 32.25}}, {"type": "Feature", "geometry": {"type": "Polygon", "coordinates": [[[35.25, 33.0], [35.25, 34.5], [36.75, 34.5], [36.75, 33.0], [35.25, 33.0]]]}, "properties": {"cell_id": "24_82", "lon": 36.0, "lat": 33.75}}, {"type": "Feature", "geometry": {"type": "Polygon", "coordinates": [[[35.25, 34.5], [35.25, 36.0], [36.75, 36.0], [36.75, 34.5], [35.25, 34.5]]]}, "properties": {"cell_id": "24_83", "lon": 36.0, "lat": 35.25}}, {"type": "Feature", "geometry": {"type": "Polygon", "coordinates": [[[35.25, 36.0], [35.25, 37.5], [36.75, 37.5], [36.75, 36.0], [35.25, 36.0]]]}, "properties": {"cell_id": "24_84", "lon": 36.0, "lat": 36.75}}, {"type": "Feature", "geometry": {"type": "Polygon", "coordinates": [[[35.25, 37.5], [35.25, 39.0], [36.75, 39.0], [36.75, 37.5], [35.25, 37.5]]]}, "properties": {"cell_id": "24_85", "lon": 36.0, "lat": 38.25}}, {"type": "Feature", "geometry": {"type": "Polygon", "coordinates": [[[35.25, 39.0], [35.25, 40.5], [36.75, 40.5], [36.75, 39.0], [35.25, 39.0]]]}, "properties": {"cell_id": "24_86", "lon": 36.0, "lat": 39.75}}, {"type": "Feature", "geometry": {"type": "Polygon", "coordinates": [[[36.75, 30.0], [36.75, 31.5], [38.25, 31.5], [38.25, 30.0], [36.75, 30.0]]]}, "properties": {"cell_id": "25_80", "lon": 37.5, "lat": 30.75}}, {"type": "Feature", "geometry": {"type": "Polygon", "coordinates": [[[36.75, 31.5], [36.75, 33.0], [38.25, 33.0], [38.25, 31.5], [36.75, 31.5]]]}, "properties": {"cell_id": "25_81", "lon": 37.5, "lat": 32.25}}, {"type": "Feature", "geometry": {"type": "Polygon", "coordinates": [[[36.75, 33.0], [36.75, 34.5], [38.25, 34.5], [38.25, 33.0], [36.75, 33.0]]]}, "properties": {"cell_id": "25_82", "lon": 37.5, "lat": 33.75}}, {"type": "Feature", "geometry": {"type": "Polygon", "coordinates": [[[36.75, 34.5], [36.75, 36.0], [38.25, 36.0], [38.25, 34.5], [36.75, 34.5]]]}, "properties": {"cell_id": "25_83", "lon": 37.5, "lat": 35.25}}, {"type": "Feature", "geometry": {"type": "Polygon", "coordinates": [[[36.75, 36.0], [36.75, 37.5], [38.25, 37.5], [38.25, 36.0], [36.75, 36.0]]]}, "properties": {"cell_id": "25_84", "lon": 37.5, "lat": 36.75}}, {"type": "Feature", "geometry": {"type": "Polygon", "coordinates": [[[36.75, 37.5], [36.75, 39.0], [38.25, 39.0], [38.25, 37.5], [36.75, 37.5]]]}, "properties": {"cell_id": "25_85", "lon": 37.5, "lat": 38.25}}, {"type": "Feature", "geometry": {"type": "Polygon", "coordinates": [[[36.75, 39.0], [36.75, 40.5], [38.25, 40.5], [38.25, 39.0], [36.75, 39.0]]]}, "properties": {"cell_id": "25_86", "lon": 37.5, "lat": 39.75}}, {"type": "Feature", "geometry": {"type": "Polygon", "coordinates": [[[38.25, 30.0], [38.25, 31.5], [39.75, 31.5], [39.75, 30.0], [38.25, 30.0]]]}, "properties": {"cell_id": "26_80", "lon": 39.0, "lat": 30.75}}, {"type": "Feature", "geometry": {"type": "Polygon", "coordinates": [[[38.25, 31.5], [38.25, 33.0], [39.75, 33.0], [39.75, 31.5], [38.25, 31.5]]]}, "properties": {"cell_id": "26_81", "lon": 39.0, "lat": 32.25}}, {"type": "Feature", "geometry": {"type": "Polygon", "coordinates": [[[38.25, 33.0], [38.25, 34.5], [39.75, 34.5], [39.75, 33.0], [38.25, 33.0]]]}, "properties": {"cell_id": "26_82", "lon": 39.0, "lat": 33.75}}, {"type": "Feature", "geometry": {"type": "Polygon", "coordinates": [[[38.25, 34.5], [38.25, 36.0], [39.75, 36.0], [39.75, 34.5], [38.25, 34.5]]]}, "properties": {"cell_id": "26_83", "lon": 39.0, "lat": 35.25}}, {"type": "Feature", "geometry": {"type": "Polygon", "coordinates": [[[38.25, 36.0], [38.25, 37.5], [39.75, 37.5], [39.75, 36.0], [38.25, 36.0]]]}, "properties": {"cell_id": "26_84", "lon": 39.0, "lat": 36.75}}, {"type": "Feature", "geometry": {"type": "Polygon", "coordinates": [[[38.25, 37.5], [38.25, 39.0], [39.75, 39.0], [39.75, 37.5], [38.25, 37.5]]]}, "properties": {"cell_id": "26_85", "lon": 39.0, "lat": 38.25}}, {"type": "Feature", "geometry": {"type": "Polygon", "coordinates": [[[38.25, 39.0], [38.25, 40.5], [39.75, 40.5], [39.75, 39.0], [38.25, 39.0]]]}, "properties": {"cell_id": "26_86", "lon": 39.0, "lat": 39.75}}, {"type": "Feature", "geometry": {"type": "Polygon", "coordinates": [[[39.75, 30.0], [39.75, 31.5], [41.25, 31.5], [41.25, 30.0], [39.75, 30.0]]]}, "properties": {"cell_id": "27_80", "lon": 40.5, "lat": 30.75}}, {"type": "Feature", "geometry": {"type": "Polygon", "coordinates": [[[39.75, 31.5], [39.75, 33.0], [41.25, 33.0], [41.25, 31.5], [39.75, 31.5]]]}, "properties": {"cell_id": "27_81", "lon": 40.5, "lat": 32.25}}, {"type": "Feature", "geometry": {"type": "Polygon", "coordinates": [[[39.75, 33.0], [39.75, 34.5], [41.25, 34.5], [41.25, 33.0], [39.75, 33.0]]]}, "properties": {"cell_id": "27_82", "lon": 40.5, "lat": 33.75}}, {"type": "Feature", "geometry": {"type": "Polygon", "coordinates": [[[39.75, 34.5], [39.75, 36.0], [41.25, 36.0], [41.25, 34.5], [39.75, 34.5]]]}, "properties": {"cell_id": "27_83", "lon": 40.5, "lat": 35.25}}, {"type": "Feature", "geometry": {"type": "Polygon", "coordinates": [[[39.75, 36.0], [39.75, 37.5], [41.25, 37.5], [41.25, 36.0], [39.75, 36.0]]]}, "properties": {"cell_id": "27_84", "lon": 40.5, "lat": 36.75}}, {"type": "Feature", "geometry": {"type": "Polygon", "coordinates": [[[39.75, 37.5], [39.75, 39.0], [41.25, 39.0], [41.25, 37.5], [39.75, 37.5]]]}, "properties": {"cell_id": "27_85", "lon": 40.5, "lat": 38.25}}, {"type": "Feature", "geometry": {"type": "Polygon", "coordinates": [[[39.75, 39.0], [39.75, 40.5], [41.25, 40.5], [41.25, 39.0], [39.75, 39.0]]]}, "properties": {"cell_id": "27_86", "lon": 40.5, "lat": 39.75}}]}