{"type": "FeatureCollection", "features": [{"type": "Feature", "geometry": {"type": "Polygon", "coordinates": [[[110.25, 30.0], [110.25, 31.5], [111.75, 31.5], [111.75, 30.0], [110.25, 30.0]]]}, "properties": {"cell_id": "74_80", "lon": 111.0, "lat": 30.75}}, {"type": "Feature", "geometry": {"type": "Polygon", "coordinates": [[[110.25, 31.5], [110.25, 33.0], [111.75, 33.0], [111.75, 31.5], [110.25, 31.5]]]}, "properties": {"cell_id": "74_81", "lon": 111.0, "lat": 32.25}}, {"type": "Feature", "geometry": {"type": "Polygon", "coordinates": [[[110.25, 33.0], [110.25, 34.5], [111.75, 34.5], [111.75, 33.0], [110.25, 33.0]]]}, "properties": {"cell_id": "74_82", "lon": 111.0, "lat": 33.75}}, {"type": "Feature", "geometry": {"type": "Polygon", "coordinates": [[[110.25, 34.5], [110.25, 36.0], [111.75, 36.0], [111.75, 34.5], [110.25, 34.5]]]}, "properties": {"cell_id": "74_83", "lon": 111.0, "lat": 35.25}}, {"type": "Feature", "geometry": {"type": "Polygon", "coordinates": [[[110.25, 36.0], [110.25, 37.5], [111.75, 37.5], [111.75, 36.0], [110.25, 36.0]]]}, "properties": {"cell_id": "74_84", "lon": 111.0, "lat": 36.75}}, {"type": "Feature", "geometry": {"type": "Polygon", "coordinates": [[[110.25, 37.5], [110.25, 39.0], [111.75, 39.0], [111.75, 37.5], [110.25, 37.5]]]}, "properties": {"cell_id": "74_85", "lon": 111.0, "lat": 38.25}}, {"type": "Feature", "geometry": {"type": "Polygon", "coordinates": [[[110.25, 39.0], [110.25, 40.5], [111.75, 40.5], [111.75, 39.0], [110.25, 39.0]]]}, "properties": {"cell_id": "74_86", "lon": 111.0, "lat": 39.75}}, {"type": "Feature", "geometry": {"type": "Polygon", "coordinates": [[[111.75, 30.0], [111.75, 31.5], [113.25, 31.5], [113.25, 30.0], [111.75, 30.0]]]}, "properties": {"cell_id": "75_80", "lon": 112.5, "lat": 30.75}}, {"type": "Feature", "geometry": {"type": "Polygon", "coordinates": [[[111.75, 31.5], [111.75, 33.0], [113.25, 33.0], [113.25, 31.5], [111.75, 31.5]]]}, "properties": {"cell_id": "75_81", "lon": 112.5, "lat": 32.25}}, {"type": "Feature", "geometry": {"type": "Polygon", "coordinates": [[[111.75, 33.0], [111.75, 34.5], [113.25, 34.5], [113.25, 33.0], [111.75, 33.0]]]}, "properties": {"cell_id": "75_82", "lon": 112.5, "lat": 33.75}}, {"type": "Feature", "geometry": {"type": "Polygon", "coordinates": [[[111.75, 34.5], [111.75, 36.0], [113.25, 36.0], [113.25, 34.5], [111.75, 34.5]]]}, "properties": {"cell_id": "75_83", "lon": 112.5, "lat": 35.25}}, {"type": "Feature", "geometry": {"type": "Polygon", "coordinates": [[[111.75, 36.0], [111.75, 37.5], [113.25, 37.5], [113.25, 36.0], [111.75, 36.0]]]}, "properties": {"cell_id": "75_84", "lon": 112.5, "lat": 36.75}}, {"type": "Feature", "geometry": {"type": "Polygon", "coordinates": [[[111.75, 37.5], [111.75, 39.0], [113.25, 39.0], [113.25, 37.5], [111.75, 37.5]]]}, "properties": {"cell_id": "75_85", "lon": 112.5, "lat": 38.25}}, {"type": "Feature", "geometry": {"type": "Polygon", "coordinates": [[[111.75, 39.0], [111.75, 40.5], [113.25, 40.5], [113.25, 39.0], [111.75, 39.0]]]}, "properties": {"cell_id": "75_86", "lon": 112.5, "lat": 39.75}}, {"type": "Feature", "geometry": {"type": "Polygon", "coordinates": [[[113.25, 30.0], [113.25, 31.5], [114.75, 31.5], [114.75, 30.0], [113.25, 30.0]]]}, "properties": {"cell_id": "76_80", "lon": 114.0, "lat": 30.75}}, {"type": "Feature", "geometry": {"type": "Polygon", "coordinates": [[[113.25, 31.5], [113.25, 33.0], [114.75, 33.0], [114.75, 31.5], [113.25, 31.5]]]}, "properties": {"cell_id": "76_81", "lon": 114.0, "lat": 32.25}}, {"type": "Feature", "geometry": {"type": "Polygon", "coordinates": [[[113.25, 33.0], [113.25, 34.5], [114.75, 34.5], [114.75, 33.0], [113.25, 33.0]]]}, "properties": {"cell_id": "76_82", "lon": 114.0, "lat": 33.75}}, {"type": "Feature", "geometry": {"type": "Polygon", "coordinates": [[[113.25, 34.5], [113.25, 36.0], [114.75, 36.0], [114.75, 34.5], [113.25, 34.5]]]}, "properties": {"cell_id": "76_83", "lon": 114.0, "lat": 35.25}}, {"type": "Feature", "geometry": {"type": "Polygon", "coordinates": [[[113.25, 36.0], [113.25, 37.5], [114.75, 37.5], [114.75, 36.0], [113.25, 36.0]]]}, "properties": {"cell_id": "76_84", "lon": 114.0, "lat": 36.75}}, {"type": "Feature", "geometry": {"type": "Polygon", "coordinates": [[[113.25, 37.5], [113.25, 39.0], [114.75, 39.0], [114.75, 37.5], [113.25, 37.5]]]}, "properties": {"cell_id": "76_85", "lon": 114.0, "lat": 38.25}}, {"type": "Feature", "geometry": {"type": "Polygon", "coordinates": [[[113.25, 39.0], [113.25, 40.5], [114.75, 40.5], [114.75, 39.0], [113.25, 39.0]]]}, "properties": {"cell_id": "76_86", "lon": 114.0, "lat": 39.75}}, {"type": "Feature", "geometry": {"type": "Polygon", "coordinates": [[[114.75, 30.0], [114.75, 31.5], [116.25, 31.5], [116.25, 30.0], [114.75, 30.0]]]}, "properties": {"cell_id": "77_80", "lon": 115.5, "lat": 30.75}}, {"type": "Feature", "geometry": {"type": "Polygon", "coordinates": [[[114.75, 31.5], [114.75, 33.0], [116.25, 33.0], [116.25, 31.5], [114.75, 31.5]]]}, "properties": {"cell_id": "77_81", "lon": 115.5, "lat": 32.25}}, {"type": "Feature", "geometry": {"type": "Polygon", "coordinates": [[[114.75, 33.0], [114.75, 34.5], [116.25, 34.5], [116.25, 33.0], [114.75, 33.0]]]}, "properties": {"cell_id": "77_82", "lon": 115.5, "lat": 33.75}}, {"type": "Feature", "geometry": {"type": "Polygon", "coordinates": [[[114.75, 34.5], [114.75, 36.0], [116.25, 36.0], [116.25, 34.5], [114.75, 34.5]]]}, "properties": {"cell_id": "77_83", "lon": 115.5, "lat": 35.25}}, {"type": "Feature", "geometry": {"type": "Polygon", "coordinates": [[[114.75, 36.0], [114.75, 37.5], [116.25, 37.5], [116.25, 36.0], [114.75, 36.0]]]}, "properties": {"cell_id": "77_84", "lon": 115.5, "lat": 36.75}}, {"type": "Feature", "geometry": {"type": "Polygon", "coordinates": [[[114.75, 37.5], [114.75, 39.0], [116.25, 39.0], [116.25, 37.5], [114.75, 37.5]]]}, "properties": {"cell_id": "77_85", "lon": 115.5, "lat": 38.25}}, {"type": "Feature", "geometry": {"type": "Polygon", "coordinates": [[[114.75, 39.0], [114.75, 40.5], [116.25, 40.5], [116.25, 39.0], [114.75, 39.0]]]}, "properties": {"cell_id": "77_86", "lon": 115.5, "lat": 39.75}}, {"type": "Feature", "geometry": {"type": "Polygon", "coordinates": [[[116.25, 30.0], [116.25, 31.5], [117.75, 31.5], [117.75, 30.0], [116.25, 30.0]]]}, "properties": {"cell_id": "78_80", "lon": 117.0, "lat": 30.75}}, {"type": "Feature", "geometry": {"type": "Polygon", "coordinates": [[[116.25, 31.5], [116.25, 33.0], [117.75, 33.0], [117.75, 31.5], [116.25, 31.5]]]}, "properties": {"cell_id": "78_81", "lon": 117.0, "lat": 32.25}}, {"type": "Feature", "geometry": {"type": "Polygon", "coordinates": [[[116.25, 33.0], [116.25, 34.5], [117.75, 34.5], [117.75, 33.0], [116.25, 33.0]]]}, "properties": {"cell_id": "78_82", "lon": 117.0, "lat": 33.75}}, {"type": "Feature", "geometry": {"type": "Polygon", "coordinates": [[[116.25, 34.5], [116.25, 36.0], [117.75, 36.0], [117.75, 34.5], [116.25, 34.5]]]}, "properties": {"cell_id": "78_83", "lon": 117.0, "lat": 35.25}}, {"type": "Feature", "geometry": {"type": "Polygon", "coordinates": [[[116.25, 36.0], [116.25, 37.5], [117.75, 37.5], [117.75, 36.0], [116.25, 36.0]]]}, "properties": {"cell_id": "78_84", "lon": 117.0, "lat": 36.75}}, {"type": "Feature", "geometry": {"type": "Polygon", "coordinates": [[[116.25, 37.5], [116.25, 39.0], [117.75, 39.0], [117.75, 37.5], [116.25, 37.5]]]}, "properties": {"cell_id": "78_85", "lon": 117.0, "lat": 38.25}}, {"type": "Feature", "geometry": {"type": "Polygon", "coordinates": [[[116.25, 39.0], [116.25, 40.5], [117.75, 40.5], [117.75, 39.0], [116.25, 39.0]]]}, "properties": {"cell_id": "78_86", "lon": 117.0, "lat": 39.75}}, {"type": "Feature", "geometry": {"type": "Polygon", "coordinates": [[[117.75, 30.0], [117.75, 31.5], [119.25, 31.5], [119.25, 30.0], [117.75, 30.0]]]}, "properties": {"cell_id": "79_80", "lon": 118.5, "lat": 30.75}}, {"type": "Feature", "geometry": {"type": "Polygon", "coordinates": [[[117.75, 31.5], [117.75, 33.0], [119.25, 33.0], [119.25, 31.5], [117.75, 31.5]]]}, "properties": {"cell_id": "79_81", "lon": 118.5, "lat": 32.25}}, {"type": "Feature", "geometry": {"type": "Polygon", "coordinates": [[[117.75, 33.0], [117.75, 34.5], [119.25, 34.5], [119.25, 33.0], [117.75, 33.0]]]}, "properties": {"cell_id": "79_82", "lon": 118.5, "lat": 33.75}}, {"type": "Feature", "geometry": {"type": "Polygon", "coordinates": [[[117.75, 34.5], [117.75, 36.0], [119.25, 36.0], [119.25, 34.5], [117.75, 34.5]]]}, "properties": {"cell_id": "79_83", "lon": 118.5, "lat": 35.25}}, {"type": "Feature", "geometry": {"type": "Polygon", "coordinates": [[[117.75, 36.0], [117.75, 37.5], [119.25, 37.5], [119.25, 36.0], [117.75, 36.0]]]}, "properties": {"cell_id": "79_84", "lon": 118.5, "lat": 36.75}}, {"type": "Feature", "geometry": {"type": "Polygon", "coordinates": [[[117.75, 37.5], [117.75, 39.0], [119.25, 39.0], [119.25, 37.5], [117.75, 37.5]]]}, "properties": {"cell_id": "79_85", "lon": 118.5, "lat": 38.25}}, {"type": "Feature", "geometry": {"type": "Polygon", "coordinates": [[[117.75, 39.0], [117.75, 40.5], [119.25, 40.5], [119.25, 39.0], [117.75, 39.0]]]}, "properties": {"cell_id": "79_86", "lon": 118.5, "lat": 39.75}}, {"type": "Feature", "geometry": {"type": "Polygon", "coordinates": [[[119.25, 30.0], [119.25, 31.5], [120.75, 31.5], [120.75, 30.0], [119.25, 30.0]]]}, "properties": {"cell_id": "80_80", "lon": 120.0, "lat": 30.75}}, {"type": "Feature", "geometry": {"type": "Polygon", "coordinates": [[[119.25, 31.5], [119.25, 33.0], [120.75, 33.0], [120.75, 31.5], [119.25, 31.5]]]}, "properties": {"cell_id": "80_81", "lon": 120.0, "lat": 32.25}}, {"type": "Feature", "geometry": {"type": "Polygon", "coordinates": [[[119.25, 33.0], [119.25, 34.5], [120.75, 34.5], [120.75, 33.0], [119.25, 33.0]]]}, "properties": {"cell_id": "80_82", "lon": 120.0, "lat": 33.75}}, {"type": "Feature", "geometry": {"type": "Polygon", "coordinates": [[[119.25, 34.5], [119.25, 36.0], [120.75, 36.0], [120.75, 34.5], [119.25, 34.5]]]}, "properties": {"cell_id": "80_83", "lon": 120.0, "lat": 35.25}}, {"type": "Feature", "geometry": {"type": "Polygon", "coordinates": [[[119.25, 36.0], [119.25, 37.5], [120.75, 37.5], [120.75, 36.0], [119.25, 36.0]]]}, "properties": {"cell_id": "80_84", "lon": 120.0, "lat": 36.75}}, {"type": "Feature", "geometry": {"type": "Polygon", "coordinates": [[[119.25, 37.5], [119.25, 39.0], [120.75, 39.0], [120.75, 37.5], [119.25, 37.5]]]}, "properties": {"cell_id": "80_85", "lon": 120.0, "lat": 38.25}}, {"type": "Feature", "geometry": {"type": "Polygon", "coordinates": [[[119.25, 39.0], [119.25, 40.5], [120.75, 40.5], [120.75, 39.0], [119.25, 39.0]]]}, "properties": {"cell_id": "80_86", "lon": 120.0, "lat": 39.75}}]}