{"type": "FeatureCollection", "features": [{"type": "Feature", "geometry": {"type": "Polygon", "coordinates": [[[140.25, -37.5], [140.25, -36.0], [141.75, -36.0], [141.75, -37.5], [140.25, -37.5]]]}, "properties": {"cell_id": "94_35", "lon": 141.0, "lat": -36.75}}, {"type": "Feature", "geometry": {"type": "Polygon", "coordinates": [[[140.25, -36.0], [140.25, -34.5], [141.75, -34.5], [141.75, -36.0], [140.25, -36.0]]]}, "properties": {"cell_id": "94_36", "lon": 141.0, "lat": -35.25}}, {"type": "Feature", "geometry": {"type": "Polygon", "coordinates": [[[140.25, -34.5], [140.25, -33.0], [141.75, -33.0], [141.75, -34.5], [140.25, -34.5]]]}, "properties": {"cell_id": "94_37", "lon": 141.0, "lat": -33.75}}, {"type": "Feature", "geometry": {"type": "Polygon", "coordinates": [[[140.25, -33.0], [140.25, -31.5], [141.75, -31.5], [141.75, -33.0], [140.25, -33.0]]]}, "properties": {"cell_id": "94_38", "lon": 141.0, "lat": -32.25}}, {"type": "Feature", "geometry": {"type": "Polygon", "coordinates": [[[140.25, -31.5], [140.25, -30.0], [141.75, -30.0], [141.75, -31.5], [140.25, -31.5]]]}, "properties": {"cell_id": "94_39", "lon": 141.0, "lat": -30.75}}, {"type": "Feature", "geometry": {"type": "Polygon", "coordinates": [[[141.75, -39.0], [141.75, -37.5], [143.25, -37.5], [143.25, -39.0], [141.75, -39.0]]]}, "properties": {"cell_id": "95_34", "lon": 142.5, "lat": -38.25}}, {"type": "Feature", "geometry": {"type": "Polygon", "coordinates": [[[141.75, -37.5], [141.75, -36.0], [143.25, -36.0], [143.25, -37.5], [141.75, -37.5]]]}, "properties": {"cell_id": "95_35", "lon": 142.5, "lat": -36.75}}, {"type": "Feature", "geometry": {"type": "Polygon", "coordinates": [[[141.75, -36.0], [141.75, -34.5], [143.25, -34.5], [143.25, -36.0], [141.75, -36.0]]]}, "properties": {"cell_id": "95_36", "lon": 142.5, "lat": -35.25}}, {"type": "Feature", "geometry": {"type": "Polygon", "coordinates": [[[141.75, -34.5], [141.75, -33.0], [143.25, -33.0], [143.25, -34.5], [141.75, -34.5]]]}, "properties": {"cell_id": "95_37", "lon": 142.5, "lat": -33.75}}, {"type": "Feature", "geometry": {"type": "Polygon", "coordinates": [[[141.75, -33.0], [141.75, -31.5], [143.25, -31.5], [143.25, -33.0], [141.75, -33.0]]]}, "properties": {"cell_id": "95_38", "lon": 142.5, "lat": -32.25}}, {"type": "Feature", "geometry": {"type": "Polygon", "coordinates": [[[141.75, -31.5], [141.75, -30.0], [143.25, -30.0], [143.25, -31.5], [141.75, -31.5]]]}, "properties": {"cell_id": "95_39", "lon": 142.5, "lat": -30.75}}, {"type": "Feature", "geometry": {"type": "Polygon", "coordinates": [[[143.25, -39.0], [143.25, -37.5], [144.75, -37.5], [144.75, -39.0], [143.25, -39.0]]]}, "properties": {"cell_id": "96_34", "lon": 144.0, "lat": -38.25}}, {"type": "Feature", "geometry": {"type": "Polygon", "coordinates": [[[143.25, -37.5], [143.25, -36.0], [144.75, -36.0], [144.75, -37.5], [143.25, -37.5]]]}, "properties": {"cell_id": "96_35", "lon": 144.0, "lat": -36.75}}, {"type": "Feature", "geometry": {"type": "Polygon", "coordinates": [[[143.25, -36.0], [143.25, -34.5], [144.75, -34.5], [144.75, -36.0], [143.25, -36.0]]]}, "properties": {"cell_id": "96_36", "lon": 144.0, "lat": -35.25}}, {"type": "Feature", "geometry": {"type": "Polygon", "coordinates": [[[143.25, -34.5], [143.25, -33.0], [144.75, -33.0], [144.75, -34.5], [143.25, -34.5]]]}, "properties": {"cell_id": "96_37", "lon": 144.0, "lat": -33.75}}, {"type": "Feature", "geometry": {"type": "Polygon", "coordinates": [[[143.25, -33.0], [143.25, -31.5], [144.75, -31.5], [144.75, -33.0], [143.25, -33.0]]]}, "properties": {"cell_id": "96_38", "lon": 144.0, "lat": -32.25}}, {"type": "Feature", "geometry": {"type": "Polygon", "coordinates": [[[143.25, -31.5], [143.25, -30.0], [144.75, -30.0], [144.75, -31.5], [143.25, -31.5]]]}, "properties": {"cell_id": "96_39", "lon": 144.0, "lat": -30.75}}, {"type": "Feature", "geometry": {"type": "Polygon", "coordinates": [[[144.75, -39.0], [144.75, -37.5], [146.25, -37.5], [146.25, -39.0], [144.75, -39.0]]]}, "properties": {"cell_id": "97_34", "lon": 145.5, "lat": -38.25}}, {"type": "Feature", "geometry": {"type": "Polygon", "coordinates": [[[144.75, -37.5], [144.75, -36.0], [146.25, -36.0], [146.25, -37.5], [144.75, -37.5]]]}, "properties": {"cell_id": "97_35", "lon": 145.5, "lat": -36.75}}, {"type": "Feature", "geometry": {"type": "Polygon", "coordinates": [[[144.75, -36.0], [144.75, -34.5], [146.25, -34.5], [146.25, -36.0], [144.75, -36.0]]]}, "properties": {"cell_id": "97_36", "lon": 145.5, "lat": -35.25}}, {"type": "Feature", "geometry": {"type": "Polygon", "coordinates": [[[144.75, -34.5], [144.75, -33.0], [146.25, -33.0], [146.25, -34.5], [144.75, -34.5]]]}, "properties": {"cell_id": "97_37", "lon": 145.5, "lat": -33.75}}, {"type": "Feature", "geometry": {"type": "Polygon", "coordinates": [[[144.75, -33.0], [144.75, -31.5], [146.25, -31.5], [146.25, -33.0], [144.75, -33.0]]]}, "properties": {"cell_id": "97_38", "lon": 145.5, "lat": -32.25}}, {"type": "Feature", "geometry": {"type": "Polygon", "coordinates": [[[144.75, -31.5], [144.75, -30.0], [146.25, -30.0], [146.25, -31.5], [144.75, -31.5]]]}, "properties": {"cell_id": "97_39", "lon": 145.5, "lat": -30.75}}, {"type": "Feature", "geometry": {"type": "Polygon", "coordinates": [[[146.25, -39.0], [146.25, -37.5], [147.75, -37.5], [147.75, -39.0], [146.25, -39.0]]]}, "properties": {"cell_id": "98_34", "lon": 147.0, "lat": -38.25}}, {"type": "Feature", "geometry": {"type": "Polygon", "coordinates": [[[146.25, -37.5], [146.25, -36.0], [147.75, -36.0], [147.75, -37.5], [146.25, -37.5]]]}, "properties": {"cell_id": "98_35", "lon": 147.0, "lat": -36.75}}, {"type": "Feature", "geometry": {"type": "Polygon", "coordinates": [[[146.25, -36.0], [146.25, -34.5], [147.75, -34.5], [147.75, -36.0], [146.25, -36.0]]]}, "properties": {"cell_id": "98_36", "lon": 147.0, "lat": -35.25}}, {"type": "Feature", "geometry": {"type": "Polygon", "coordinates": [[[146.25, -34.5], [146.25, -33.0], [147.75, -33.0], [147.75, -34.5], [146.25, -34.5]]]}, "properties": {"cell_id": "98_37", "lon": 147.0, "lat": -33.75}}, {"type": "Feature", "geometry": {"type": "Polygon", "coordinates": [[[146.25, -33.0], [146.25, -31.5], [147.75, -31.5], [147.75, -33.0], [146.25, -33.0]]]}, "properties": {"cell_id": "98_38", "lon": 147.0, "lat": -32.25}}, {"type": "Feature", "geometry": {"type": "Polygon", "coordinates": [[[146.25, -31.5], [146.25, -30.0], [147.75, -30.0], [147.75, -31.5], [146.25, -31.5]]]}, "properties": {"cell_id": "98_39", "lon": 147.0, "lat": -30.75}}, {"type": "Feature", "geometry": {"type": "Polygon", "coordinates": [[[147.75, -37.5], [147.75, -36.0], [149.25, -36.0], [149.25, -37.5], [147.75, -37.5]]]}, "properties": {"cell_id": "99_35", "lon": 148.5, "lat": -36.75}}, {"type": "Feature", "geometry": {"type": "Polygon", "coordinates": [[[147.75, -36.0], [147.75, -34.5], [149.25, -34.5], [149.25, -36.0], [147.75, -36.0]]]}, "properties": {"cell_id": "99_36", "lon": 148.5, "lat": -35.25}}, {"type": "Feature", "geometry": {"type": "Polygon", "coordinates": [[[147.75, -34.5], [147.75, -33.0], [149.25, -33.0], [149.25, -34.5], [147.75, -34.5]]]}, "properties": {"cell_id": "99_37", "lon": 148.5, "lat": -33.75}}, {"type": "Feature", "geometry": {"type": "Polygon", "coordinates": [[[147.75, -33.0], [147.75, -31.5], [149.25, -31.5], [149.25, -33.0], [147.75, -33.0]]]}, "properties": {"cell_id": "99_38", "lon": 148.5, "lat": -32.25}}, {"type": "Feature", "geometry": {"type": "Polygon", "coordinates": [[[147.75, -31.5], [147.75, -30.0], [149.25, -30.0], [149.25, -31.5], [147.75, -31.5]]]}, "properties": {"cell_id": "99_39", "lon": 148.5, "lat": -30.75}}, {"type": "Feature", "geometry": {"type": "Polygon", "coordinates": [[[149.25, -37.5], [149.25, -36.0], [150.75, -36.0], [150.75, -37.5], [149.25, -37.5]]]}, "properties": {"cell_id": "100_35", "lon": 150.0, "lat": -36.75}}, {"type": "Feature", "geometry": {"type": "Polygon", "coordinates": [[[149.25, -36.0], [149.25, -34.5], [150.75, -34.5], [150.75, -36.0], [149.25, -36.0]]]}, "properties": {"cell_id": "100_36", "lon": 150.0, "lat": -35.25}}, {"type": "Feature", "geometry": {"type": "Polygon", "coordinates": [[[149.25, -34.5], [149.25, -33.0], [150.75, -33.0], [150.75, -34.5], [149.25, -34.5]]]}, "properties": {"cell_id": "100_37", "lon": 150.0, "lat": -33.75}}, {"type": "Feature", "geometry": {"type": "Polygon", "coordinates": [[[149.25, -33.0], [149.25, -31.5], [150.75, -31.5], [150.75, -33.0], [149.25, -33.0]]]}, "properties": {"cell_id": "100_38", "lon": 150.0, "lat": -32.25}}, {"type": "Feature", "geometry": {"type": "Polygon", "coordinates": [[[149.25, -31.5], [149.25, -30.0], [150.75, -30.0], [150.75, -31.5], [149.25, -31.5]]]}, "properties": {"cell_id": "100_39", "lon": 150.0, "lat": -30.75}}]}