{"type": "FeatureCollection", "features": [{"type": "Feature", "geometry": {"type": "Polygon", "coordinates": [[[150.75, 60.0], [150.75, 61.5], [152.25, 61.5], [152.25, 60.0], [150.75, 60.0]]]}, "properties": {"cell_id": "101_100", "lon": 151.5, "lat": 60.75}}, {"type": "Feature", "geometry": {"type": "Polygon", "coordinates": [[[150.75, 61.5], [150.75, 63.0], [152.25, 63.0], [152.25, 61.5], [150.75, 61.5]]]}, "properties": {"cell_id": "101_101", "lon": 151.5, "lat": 62.25}}, {"type": "Feature", "geometry": {"type": "Polygon", "coordinates": [[[150.75, 63.0], [150.75, 64.5], [152.25, 64.5], [152.25, 63.0], [150.75, 63.0]]]}, "properties": {"cell_id": "101_102", "lon": 151.5, "lat": 63.75}}, {"type": "Feature", "geometry": {"type": "Polygon", "coordinates": [[[150.75, 64.5], [150.75, 66.0], [152.25, 66.0], [152.25, 64.5], [150.75, 64.5]]]}, "properties": {"cell_id": "101_103", "lon": 151.5, "lat": 65.25}}, {"type": "Feature", "geometry": {"type": "Polygon", "coordinates": [[[150.75, 66.0], [150.75, 67.5], [152.25, 67.5], [152.25, 66.0], [150.75, 66.0]]]}, "properties": {"cell_id": "101_104", "lon": 151.5, "lat": 66.75}}, {"type": "Feature", "geometry": {"type": "Polygon", "coordinates": [[[150.75, 67.5], [150.75, 69.0], [152.25, 69.0], [152.25, 67.5], [150.75, 67.5]]]}, "properties": {"cell_id": "101_105", "lon": 151.5, "lat": 68.25}}, {"type": "Feature", "geometry": {"type": "Polygon", "coordinates": [[[150.75, 69.0], [150.75, 70.5], [152.25, 70.5], [152.25, 69.0], [150.75, 69.0]]]}, "properties": {"cell_id": "101_106", "lon": 151.5, "lat": 69.75}}, {"type": "Feature", "geometry": {"type": "Polygon", "coordinates": [[[152.25, 60.0], [152.25, 61.5], [153.75, 61.5], [153.75, 60.0], [152.25, 60.0]]]}, "properties": {"cell_id": "102_100", "lon": 153.0, "lat": 60.75}}, {"type": "Feature", "geometry": {"type": "Polygon", "coordinates": [[[152.25, 61.5], [152.25, 63.0], [153.75, 63.0], [153.75, 61.5], [152.25, 61.5]]]}, "properties": {"cell_id": "102_101", "lon": 153.0, "lat": 62.25}}, {"type": "Feature", "geometry": {"type": "Polygon", "coordinates": [[[152.25, 63.0], [152.25, 64.5], [153.75, 64.5], [153.75, 63.0], [152.25, 63.0]]]}, "properties": {"cell_id": "102_102", "lon": 153.0, "lat": 63.75}}, {"type": "Feature", "geometry": {"type": "Polygon", "coordinates": [[[152.25, 64.5], [152.25, 66.0], [153.75, 66.0], [153.75, 64.5], [152.25, 64.5]]]}, "properties": {"cell_id": "102_103", "lon": 153.0, "lat": 65.25}}, {"type": "Feature", "geometry": {"type": "Polygon", "coordinates": [[[152.25, 66.0], [152.25, 67.5], [153.75, 67.5], [153.75, 66.0], [152.25, 66.0]]]}, "properties": {"cell_id": "102_104", "lon": 153.0, "lat": 66.75}}, {"type": "Feature", "geometry": {"type": "Polygon", "coordinates": [[[152.25, 67.5], [152.25, 69.0], [153.75, 69.0], [153.75, 67.5], [152.25, 67.5]]]}, "properties": {"cell_id": "102_105", "lon": 153.0, "lat": 68.25}}, {"type": "Feature", "geometry": {"type": "Polygon", "coordinates": [[[152.25, 69.0], [152.25, 70.5], [153.75, 70.5], [153.75, 69.0], [152.25, 69.0]]]}, "properties": {"cell_id": "102_106", "lon": 153.0, "lat": 69.75}}, {"type": "Feature", "geometry": {"type": "Polygon", "coordinates": [[[153.75, 60.0], [153.75, 61.5], [155.25, 61.5], [155.25, 60.0], [153.75, 60.0]]]}, "properties": {"cell_id": "103_100", "lon": 154.5, "lat": 60.75}}, {"type": "Feature", "geometry": {"type": "Polygon", "coordinates": [[[153.75, 61.5], [153.75, 63.0], [155.25, 63.0], [155.25, 61.5], [153.75, 61.5]]]}, "properties": {"cell_id": "103_101", "lon": 154.5, "lat": 62.25}}, {"type": "Feature", "geometry": {"type": "Polygon", "coordinates": [[[153.75, 63.0], [153.75, 64.5], [155.25, 64.5], [155.25, 63.0], [153.75, 63.0]]]}, "properties": {"cell_id": "103_102", "lon": 154.5, "lat": 63.75}}, {"type": "Feature", "geometry": {"type": "Polygon", "coordinates": [[[153.75, 64.5], [153.75, 66.0], [155.25, 66.0], [155.25, 64.5], [153.75, 64.5]]]}, "properties": {"cell_id": "103_103", "lon": 154.5, "lat": 65.25}}, {"type": "Feature", "geometry": {"type": "Polygon", "coordinates": [[[153.75, 66.0], [153.75, 67.5], [155.25, 67.5], [155.25, 66.0], [153.75, 66.0]]]}, "properties": {"cell_id": "103_104", "lon": 154.5, "lat": 66.75}}, {"type": "Feature", "geometry": {"type": "Polygon", "coordinates": [[[153.75, 67.5], [153.75, 69.0], [155.25, 69.0], [155.25, 67.5], [153.75, 67.5]]]}, "properties": {"cell_id": "103_105", "lon": 154.5, "lat": 68.25}}, {"type": "Feature", "geometry": {"type": "Polygon", "coordinates": [[[153.75, 69.0], [153.75, 70.5], [155.25, 70.5], [155.25, 69.0], [153.75, 69.0]]]}, "properties": {"cell_id": "103_106", "lon": 154.5, "lat": 69.75}}, {"type": "Feature", "geometry": {"type": "Polygon", "coordinates": [[[155.25, 60.0], [155.25, 61.5], [156.75, 61.5], [156.75, 60.0], [155.25, 60.0]]]}, "properties": {"cell_id": "104_100", "lon": 156.0, "lat": 60.75}}, {"type": "Feature", "geometry": {"type": "Polygon", "coordinates": [[[155.25, 61.5], [155.25, 63.0], [156.75, 63.0], [156.75, 61.5], [155.25, 61.5]]]}, "properties": {"cell_id": "104_101", "lon": 156.0, "lat": 62.25}}, {"type": "Feature", "geometry": {"type": "Polygon", "coordinates": [[[155.25, 63.0], [155.25, 64.5], [156.75, 64.5], [156.75, 63.0], [155.25, 63.0]]]}, "properties": {"cell_id": "104_102", "lon": 156.0, "lat": 63.75}}, {"type": "Feature", "geometry": {"type": "Polygon", "coordinates": [[[155.25, 64.5], [155.25, 66.0], [156.75, 66.0], [156.75, 64.5], [155.25, 64.5]]]}, "properties": {"cell_id": "104_103", "lon": 156.0, "lat": 65.25}}, {"type": "Feature", "geometry": {"type": "Polygon", "coordinates": [[[155.25, 66.0], [155.25, 67.5], [156.75, 67.5], [156.75, 66.0], [155.25, 66.0]]]}, "properties": {"cell_id": "104_104", "lon": 156.0, "lat": 66.75}}, {"type": "Feature", "geometry": {"type": "Polygon", "coordinates": [[[155.25, 67.5], [155.25, 69.0], [156.75, 69.0], [156.75, 67.5], [155.25, 67.5]]]}, "properties": {"cell_id": "104_105", "lon": 156.0, "lat": 68.25}}, {"type": "Feature", "geometry": {"type": "Polygon", "coordinates": [[[155.25, 69.0], [155.25, 70.5], [156.75, 70.5], [156.75, 69.0], [155.25, 69.0]]]}, "properties": {"cell_id": "104_106", "lon": 156.0, "lat": 69.75}}, {"type": "Feature", "geometry": {"type": "Polygon", "coordinates": [[[156.75, 60.0], [156.75, 61.5], [158.25, 61.5], [158.25, 60.0], [156.75, 60.0]]]}, "properties": {"cell_id": "105_100", "lon": 157.5, "lat": 60.75}}, {"type": "Feature", "geometry": {"type": "Polygon", "coordinates": [[[156.75, 61.5], [156.75, 63.0], [158.25, 63.0], [158.25, 61.5], [156.75, 61.5]]]}, "properties": {"cell_id": "105_101", "lon": 157.5, "lat": 62.25}}, {"type": "Feature", "geometry": {"type": "Polygon", "coordinates": [[[156.75, 63.0], [156.75, 64.5], [158.25, 64.5], [158.25, 63.0], [156.75, 63.0]]]}, "properties": {"cell_id": "105_102", "lon": 157.5, "lat": 63.75}}, {"type": "Feature", "geometry": {"type": "Polygon", "coordinates": [[[156.75, 64.5], [156.75, 66.0], [158.25, 66.0], [158.25, 64.5], [156.75, 64.5]]]}, "properties": {"cell_id": "105_103", "lon": 157.5, "lat": 65.25}}, {"type": "Feature", "geometry": {"type": "Polygon", "coordinates": [[[156.75, 66.0], [156.75, 67.5], [158.25, 67.5], [158.25, 66.0], [156.75, 66.0]]]}, "properties": {"cell_id": "105_104", "lon": 157.5, "lat": 66.75}}, {"type": "Feature", "geometry": {"type": "Polygon", "coordinates": [[[156.75, 67.5], [156.75, 69.0], [158.25, 69.0], [158.25, 67.5], [156.75, 67.5]]]}, "properties": {"cell_id": "105_105", "lon": 157.5, "lat": 68.25}}, {"type": "Feature", "geometry": {"type": "Polygon", "coordinates": [[[156.75, 69.0], [156.75, 70.5], [158.25, 70.5], [158.25, 69.0], [156.75, 69.0]]]}, "properties": {"cell_id": "105_106", "lon": 157.5, "lat": 69.75}}, {"type": "Feature", "geometry": {"type": "Polygon", "coordinates": [[[158.25, 60.0], [158.25, 61.5], [159.75, 61.5], [159.75, 60.0], [158.25, 60.0]]]}, "properties": {"cell_id": "106_100", "lon": 159.0, "lat": 60.75}}, {"type": "Feature", "geometry": {"type": "Polygon", "coordinates": [[[158.25, 61.5], [158.25, 63.0], [159.75, 63.0], [159.75, 61.5], [158.25, 61.5]]]}, "properties": {"cell_id": "106_101", "lon": 159.0, "lat": 62.25}}, {"type": "Feature", "geometry": {"type": "Polygon", "coordinates": [[[158.25, 63.0], [158.25, 64.5], [159.75, 64.5], [159.75, 63.0], [158.25, 63.0]]]}, "properties": {"cell_id": "106_102", "lon": 159.0, "lat": 63.75}}, {"type": "Feature", "geometry": {"type": "Polygon", "coordinates": [[[158.25, 64.5], [158.25, 66.0], [159.75, 66.0], [159.75, 64.5], [158.25, 64.5]]]}, "properties": {"cell_id": "106_103", "lon": 159.0, "lat": 65.25}}, {"type": "Feature", "geometry": {"type": "Polygon", "coordinates": [[[158.25, 66.0], [158.25, 67.5], [159.75, 67.5], [159.75, 66.0], [158.25, 66.0]]]}, "properties": {"cell_id": "106_104", "lon": 159.0, "lat": 66.75}}, {"type": "Feature", "geometry": {"type": "Polygon", "coordinates": [[[158.25, 67.5], [158.25, 69.0], [159.75, 69.0], [159.75, 67.5], [158.25, 67.5]]]}, "properties": {"cell_id": "106_105", "lon": 159.0, "lat": 68.25}}, {"type": "Feature", "geometry": {"type": "Polygon", "coordinates": [[[158.25, 69.0], [158.25, 70.5], [159.75, 70.5], [159.75, 69.0], [158.25, 69.0]]]}, "properties": {"cell_id": "106_106", "lon": 159.0, "lat": 69.75}}, {"type": "Feature", "geometry": {"type": "Polygon", "coordinates": [[[159.75, 60.0], [159.75, 61.5], [161.25, 61.5], [161.25, 60.0], [159.75, 60.0]]]}, "properties": {"cell_id": "107_100", "lon": 160.5, "lat": 60.75}}, {"type": "Feature", "geometry": {"type": "Polygon", "coordinates": [[[159.75, 61.5], [159.75, 63.0], [161.25, 63.0], [161.25, 61.5], [159.75, 61.5]]]}, "properties": {"cell_id": "107_101", "lon": 160.5, "lat": 62.25}}, {"type": "Feature", "geometry": {"type": "Polygon", "coordinates": [[[159.75, 63.0], [159.75, 64.5], [161.25, 64.5], [161.25, 63.0], [159.75, 63.0]]]}, "properties": {"cell_id": "107_102", "lon": 160.5, "lat": 63.75}}, {"type": "Feature", "geometry": {"type": "Polygon", "coordinates": [[[159.75, 64.5], [159.75, 66.0], [161.25, 66.0], [161.25, 64.5], [159.75, 64.5]]]}, "properties": {"cell_id": "107_103", "lon": 160.5, "lat": 65.25}}, {"type": "Feature", "geometry": {"type": "Polygon", "coordinates": [[[159.75, 66.0], [159.75, 67.5], [161.25, 67.5], [161.25, 66.0], [159.75, 66.0]]]}, "properties": {"cell_id": "107_104", "lon": 160.5, "lat": 66.75}}, {"type": "Feature", "geometry": {"type": "Polygon", "coordinates": [[[159.75, 67.5], [159.75, 69.0], [161.25, 69.0], [161.25, 67.5], [159.75, 67.5]]]}, "properties": {"cell_id": "107_105", "lon": 160.5, "lat": 68.25}}, {"type": "Feature", "geometry": {"type": "Polygon", "coordinates": [[[159.75, 69.0], [159.75, 70.5], [161.25, 70.5], [161.25, 69.0], [159.75, 69.0]]]}, "properties": {"cell_id": "107_106", "lon": 160.5, "lat": 69.75}}]}