{"type": "FeatureCollection", "features": [{"type": "Feature", "geometry": {"type": "Polygon", "coordinates": [[[-29.25, -90.0], [-29.25, -88.5], [-27.75, -88.5], [-27.75, -90.0], [-29.25, -90.0]]]}, "properties": {"cell_id": "221_0", "lon": -28.5, "lat": -89.25}}, {"type": "Feature", "geometry": {"type": "Polygon", "coordinates": [[[-29.25, -88.5], [-29.25, -87.0], [-27.75, -87.0], [-27.75, -88.5], [-29.25, -88.5]]]}, "properties": {"cell_id": "221_1", "lon": -28.5, "lat": -87.75}}, {"type": "Feature", "geometry": {"type": "Polygon", "coordinates": [[[-29.25, -87.0], [-29.25, -85.5], [-27.75, -85.5], [-27.75, -87.0], [-29.25, -87.0]]]}, "properties": {"cell_id": "221_2", "lon": -28.5, "lat": -86.25}}, {"type": "Feature", "geometry": {"type": "Polygon", "coordinates": [[[-29.25, -85.5], [-29.25, -84.0], [-27.75, -84.0], [-27.75, -85.5], [-29.25, -85.5]]]}, "properties": {"cell_id": "221_3", "lon": -28.5, "lat": -84.75}}, {"type": "Feature", "geometry": {"type": "Polygon", "coordinates": [[[-29.25, -84.0], [-29.25, -82.5], [-27.75, -82.5], [-27.75, -84.0], [-29.25, -84.0]]]}, "properties": {"cell_id": "221_4", "lon": -28.5, "lat": -83.25}}, {"type": "Feature", "geometry": {"type": "Polygon", "coordinates": [[[-29.25, -82.5], [-29.25, -81.0], [-27.75, -81.0], [-27.75, -82.5], [-29.25, -82.5]]]}, "properties": {"cell_id": "221_5", "lon": -28.5, "lat": -81.75}}, {"type": "Feature", "geometry": {"type": "Polygon", "coordinates": [[[-29.25, -81.0], [-29.25, -79.5], [-27.75, -79.5], [-27.75, -81.0], [-29.25, -81.0]]]}, "properties": {"cell_id": "221_6", "lon": -28.5, "lat": -80.25}}, {"type": "Feature", "geometry": {"type": "Polygon", "coordinates": [[[-27.75, -90.0], [-27.75, -88.5], [-26.25, -88.5], [-26.25, -90.0], [-27.75, -90.0]]]}, "properties": {"cell_id": "222_0", "lon": -27.0, "lat": -89.25}}, {"type": "Feature", "geometry": {"type": "Polygon", "coordinates": [[[-27.75, -88.5], [-27.75, -87.0], [-26.25, -87.0], [-26.25, -88.5], [-27.75, -88.5]]]}, "properties": {"cell_id": "222_1", "lon": -27.0, "lat": -87.75}}, {"type": "Feature", "geometry": {"type": "Polygon", "coordinates": [[[-27.75, -87.0], [-27.75, -85.5], [-26.25, -85.5], [-26.25, -87.0], [-27.75, -87.0]]]}, "properties": {"cell_id": "222_2", "lon": -27.0, "lat": -86.25}}, {"type": "Feature", "geometry": {"type": "Polygon", "coordinates": [[[-27.75, -85.5], [-27.75, -84.0], [-26.25, -84.0], [-26.25, -85.5], [-27.75, -85.5]]]}, "properties": {"cell_id": "222_3", "lon": -27.0, "lat": -84.75}}, {"type": "Feature", "geometry": {"type": "Polygon", "coordinates": [[[-27.75, -84.0], [-27.75, -82.5], [-26.25, -82.5], [-26.25, -84.0], [-27.75, -84.0]]]}, "properties": {"cell_id": "222_4", "lon": -27.0, "lat": -83.25}}, {"type": "Feature", "geometry": {"type": "Polygon", "coordinates": [[[-27.75, -82.5], [-27.75, -81.0], [-26.25, -81.0], [-26.25, -82.5], [-27.75, -82.5]]]}, "properties": {"cell_id": "222_5", "lon": -27.0, "lat": -81.75}}, {"type": "Feature", "geometry": {"type": "Polygon", "coordinates": [[[-27.75, -81.0], [-27.75, -79.5], [-26.25, -79.5], [-26.25, -81.0], [-27.75, -81.0]]]}, "properties": {"cell_id": "222_6", "lon": -27.0, "lat": -80.25}}, {"type": "Feature", "geometry": {"type": "Polygon", "coordinates": [[[-26.25, -90.0], [-26.25, -88.5], [-24.75, -88.5], [-24.75, -90.0], [-26.25, -90.0]]]}, "properties": {"cell_id": "223_0", "lon": -25.5, "lat": -89.25}}, {"type": "Feature", "geometry": {"type": "Polygon", "coordinates": [[[-26.25, -88.5], [-26.25, -87.0], [-24.75, -87.0], [-24.75, -88.5], [-26.25, -88.5]]]}, "properties": {"cell_id": "223_1", "lon": -25.5, "lat": -87.75}}, {"type": "Feature", "geometry": {"type": "Polygon", "coordinates": [[[-26.25, -87.0], [-26.25, -85.5], [-24.75, -85.5], [-24.75, -87.0], [-26.25, -87.0]]]}, "properties": {"cell_id": "223_2", "lon": -25.5, "lat": -86.25}}, {"type": "Feature", "geometry": {"type": "Polygon", "coordinates": [[[-26.25, -85.5], [-26.25, -84.0], [-24.75, -84.0], [-24.75, -85.5], [-26.25, -85.5]]]}, "properties": {"cell_id": "223_3", "lon": -25.5, "lat": -84.75}}, {"type": "Feature", "geometry": {"type": "Polygon", "coordinates": [[[-26.25, -84.0], [-26.25, -82.5], [-24.75, -82.5], [-24.75, -84.0], [-26.25, -84.0]]]}, "properties": {"cell_id": "223_4", "lon": -25.5, "lat": -83.25}}, {"type": "Feature", "geometry": {"type": "Polygon", "coordinates": [[[-26.25, -82.5], [-26.25, -81.0], [-24.75, -81.0], [-24.75, -82.5], [-26.25, -82.5]]]}, "properties": {"cell_id": "223_5", "lon": -25.5, "lat": -81.75}}, {"type": "Feature", "geometry": {"type": "Polygon", "coordinates": [[[-26.25, -81.0], [-26.25, -79.5], [-24.75, -79.5], [-24.75, -81.0], [-26.25, -81.0]]]}, "properties": {"cell_id": "223_6", "lon": -25.5, "lat": -80.25}}, {"type": "Feature", "geometry": {"type": "Polygon", "coordinates": [[[-24.75, -90.0], [-24.75, -88.5], [-23.25, -88.5], [-23.25, -90.0], [-24.75, -90.0]]]}, "properties": {"cell_id": "224_0", "lon": -24.0, "lat": -89.25}}, {"type": "Feature", "geometry": {"type": "Polygon", "coordinates": [[[-24.75, -88.5], [-24.75, -87.0], [-23.25, -87.0], [-23.25, -88.5], [-24.75, -88.5]]]}, "properties": {"cell_id": "224_1", "lon": -24.0, "lat": -87.75}}, {"type": "Feature", "geometry": {"type": "Polygon", "coordinates": [[[-24.75, -87.0], [-24.75, -85.5], [-23.25, -85.5], [-23.25, -87.0], [-24.75, -87.0]]]}, "properties": {"cell_id": "224_2", "lon": -24.0, "lat": -86.25}}, {"type": "Feature", "geometry": {"type": "Polygon", "coordinates": [[[-24.75, -85.5], [-24.75, -84.0], [-23.25, -84.0], [-23.25, -85.5], [-24.75, -85.5]]]}, "properties": {"cell_id": "224_3", "lon": -24.0, "lat": -84.75}}, {"type": "Feature", "geometry": {"type": "Polygon", "coordinates": [[[-24.75, -84.0], [-24.75, -82.5], [-23.25, -82.5], [-23.25, -84.0], [-24.75, -84.0]]]}, "properties": {"cell_id": "224_4", "lon": -24.0, "lat": -83.25}}, {"type": "Feature", "geometry": {"type": "Polygon", "coordinates": [[[-24.75, -82.5], [-24.75, -81.0], [-23.25, -81.0], [-23.25, -82.5], [-24.75, -82.5]]]}, "properties": {"cell_id": "224_5", "lon": -24.0, "lat": -81.75}}, {"type": "Feature", "geometry": {"type": "Polygon", "coordinates": [[[-24.75, -81.0], [-24.75, -79.5], [-23.25, -79.5], [-23.25, -81.0], [-24.75, -81.0]]]}, "properties": {"cell_id": "224_6", "lon": -24.0, "lat": -80.25}}, {"type": "Feature", "geometry": {"type": "Polygon", "coordinates": [[[-23.25, -90.0], [-23.25, -88.5], [-21.75, -88.5], [-21.75, -90.0], [-23.25, -90.0]]]}, "properties": {"cell_id": "225_0", "lon": -22.5, "lat": -89.25}}, {"type": "Feature", "geometry": {"type": "Polygon", "coordinates": [[[-23.25, -88.5], [-23.25, -87.0], [-21.75, -87.0], [-21.75, -88.5], [-23.25, -88.5]]]}, "properties": {"cell_id": "225_1", "lon": -22.5, "lat": -87.75}}, {"type": "Feature", "geometry": {"type": "Polygon", "coordinates": [[[-23.25, -87.0], [-23.25, -85.5], [-21.75, -85.5], [-21.75, -87.0], [-23.25, -87.0]]]}, "properties": {"cell_id": "225_2", "lon": -22.5, "lat": -86.25}}, {"type": "Feature", "geometry": {"type": "Polygon", "coordinates": [[[-23.25, -85.5], [-23.25, -84.0], [-21.75, -84.0], [-21.75, -85.5], [-23.25, -85.5]]]}, "properties": {"cell_id": "225_3", "lon": -22.5, "lat": -84.75}}, {"type": "Feature", "geometry": {"type": "Polygon", "coordinates": [[[-23.25, -84.0], [-23.25, -82.5], [-21.75, -82.5], [-21.75, -84.0], [-23.25, -84.0]]]}, "properties": {"cell_id": "225_4", "lon": -22.5, "lat": -83.25}}, {"type": "Feature", "geometry": {"type": "Polygon", "coordinates": [[[-23.25, -82.5], [-23.25, -81.0], [-21.75, -81.0], [-21.75, -82.5], [-23.25, -82.5]]]}, "properties": {"cell_id": "225_5", "lon": -22.5, "lat": -81.75}}, {"type": "Feature", "geometry": {"type": "Polygon", "coordinates": [[[-23.25, -81.0], [-23.25, -79.5], [-21.75, -79.5], [-21.75, -81.0], [-23.25, -81.0]]]}, "properties": {"cell_id": "225_6", "lon": -22.5, "lat": -80.25}}, {"type": "Feature", "geometry": {"type": "Polygon", "coordinates": [[[-21.75, -90.0], [-21.75, -88.5], [-20.25, -88.5], [-20.25, -90.0], [-21.75, -90.0]]]}, "properties": {"cell_id": "226_0", "lon": -21.0, "lat": -89.25}}, {"type": "Feature", "geometry": {"type": "Polygon", "coordinates": [[[-21.75, -88.5], [-21.75, -87.0], [-20.25, -87.0], [-20.25, -88.5], [-21.75, -88.5]]]}, "properties": {"cell_id": "226_1", "lon": -21.0, "lat": -87.75}}, {"type": "Feature", "geometry": {"type": "Polygon", "coordinates": [[[-21.75, -87.0], [-21.75, -85.5], [-20.25, -85.5], [-20.25, -87.0], [-21.75, -87.0]]]}, "properties": {"cell_id": "226_2", "lon": -21.0, "lat": -86.25}}, {"type": "Feature", "geometry": {"type": "Polygon", "coordinates": [[[-21.75, -85.5], [-21.75, -84.0], [-20.25, -84.0], [-20.25, -85.5], [-21.75, -85.5]]]}, "properties": {"cell_id": "226_3", "lon": -21.0, "lat": -84.75}}, {"type": "Feature", "geometry": {"type": "Polygon", "coordinates": [[[-21.75, -84.0], [-21.75, -82.5], [-20.25, -82.5], [-20.25, -84.0], [-21.75, -84.0]]]}, "properties": {"cell_id": "226_4", "lon": -21.0, "lat": -83.25}}, {"type": "Feature", "geometry": {"type": "Polygon", "coordinates": [[[-21.75, -82.5], [-21.75, -81.0], [-20.25, -81.0], [-20.25, -82.5], [-21.75, -82.5]]]}, "properties": {"cell_id": "226_5", "lon": -21.0, "lat": -81.75}}, {"type": "Feature", "geometry": {"type": "Polygon", "coordinates": [[[-21.75, -81.0], [-21.75, -79.5], [-20.25, -79.5], [-20.25, -81.0], [-21.75, -81.0]]]}, "properties": {"cell_id": "226_6", "lon": -21.0, "lat": -80.25}}, {"type": "Feature", "geometry": {"type": "Polygon", "coordinates": [[[-20.25, -90.0], [-20.25, -88.5], [-18.75, -88.5], [-18.75, -90.0], [-20.25, -90.0]]]}, "properties": {"cell_id": "227_0", "lon": -19.5, "lat": -89.25}}, {"type": "Feature", "geometry": {"type": "Polygon", "coordinates": [[[-20.25, -88.5], [-20.25, -87.0], [-18.75, -87.0], [-18.75, -88.5], [-20.25, -88.5]]]}, "properties": {"cell_id": "227_1", "lon": -19.5, "lat": -87.75}}, {"type": "Feature", "geometry": {"type": "Polygon", "coordinates": [[[-20.25, -87.0], [-20.25, -85.5], [-18.75, -85.5], [-18.75, -87.0], [-20.25, -87.0]]]}, "properties": {"cell_id": "227_2", "lon": -19.5, "lat": -86.25}}, {"type": "Feature", "geometry": {"type": "Polygon", "coordinates": [[[-20.25, -85.5], [-20.25, -84.0], [-18.75, -84.0], [-18.75, -85.5], [-20.25, -85.5]]]}, "properties": {"cell_id": "227_3", "lon": -19.5, "lat": -84.75}}, {"type": "Feature", "geometry": {"type": "Polygon", "coordinates": [[[-20.25, -84.0], [-20.25, -82.5], [-18.75, -82.5], [-18.75, -84.0], [-20.25, -84.0]]]}, "properties": {"cell_id": "227_4", "lon": -19.5, "lat": -83.25}}, {"type": "Feature", "geometry": {"type": "Polygon", "coordinates": [[[-20.25, -82.5], [-20.25, -81.0], [-18.75, -81.0], [-18.75, -82.5], [-20.25, -82.5]]]}, "properties": {"cell_id": "227_5", "lon": -19.5, "lat": -81.75}}, {"type": "Feature", "geometry": {"type": "Polygon", "coordinates": [[[-20.25, -81.0], [-20.25, -79.5], [-18.75, -79.5], [-18.75, -81.0], [-20.25, -81.0]]]}, "properties": {"cell_id": "227_6", "lon": -19.5, "lat": -80.25}}]}