{"type": "FeatureCollection", "features": [{"type": "Feature", "geometry": {"type": "Polygon", "coordinates": [[[120.75, -30.0], [120.75, -28.5], [122.25, -28.5], [122.25, -30.0], [120.75, -30.0]]]}, "properties": {"cell_id": "81_40", "lon": 121.5, "lat": -29.25}}, {"type": "Feature", "geometry": {"type": "Polygon", "coordinates": [[[120.75, -28.5], [120.75, -27.0], [122.25, -27.0], [122.25, -28.5], [120.75, -28.5]]]}, "properties": {"cell_id": "81_41", "lon": 121.5, "lat": -27.75}}, {"type": "Feature", "geometry": {"type": "Polygon", "coordinates": [[[120.75, -27.0], [120.75, -25.5], [122.25, -25.5], [122.25, -27.0], [120.75, -27.0]]]}, "properties": {"cell_id": "81_42", "lon": 121.5, "lat": -26.25}}, {"type": "Feature", "geometry": {"type": "Polygon", "coordinates": [[[120.75, -25.5], [120.75, -24.0], [122.25, -24.0], [122.25, -25.5], [120.75, -25.5]]]}, "properties": {"cell_id": "81_43", "lon": 121.5, "lat": -24.75}}, {"type": "Feature", "geometry": {"type": "Polygon", "coordinates": [[[120.75, -24.0], [120.75, -22.5], [122.25, -22.5], [122.25, -24.0], [120.75, -24.0]]]}, "properties": {"cell_id": "81_44", "lon": 121.5, "lat": -23.25}}, {"type": "Feature", "geometry": {"type": "Polygon", "coordinates": [[[120.75, -22.5], [120.75, -21.0], [122.25, -21.0], [122.25, -22.5], [120.75, -22.5]]]}, "properties": {"cell_id": "81_45", "lon": 121.5, "lat": -21.75}}, {"type": "Feature", "geometry": {"type": "Polygon", "coordinates": [[[120.75, -21.0], [120.75, -19.5], [122.25, -19.5], [122.25, -21.0], [120.75, -21.0]]]}, "properties": {"cell_id": "81_46", "lon": 121.5, "lat": -20.25}}, {"type": "Feature", "geometry": {"type": "Polygon", "coordinates": [[[122.25, -30.0], [122.25, -28.5], [123.75, -28.5], [123.75, -30.0], [122.25, -30.0]]]}, "properties": {"cell_id": "82_40", "lon": 123.0, "lat": -29.25}}, {"type": "Feature", "geometry": {"type": "Polygon", "coordinates": [[[122.25, -28.5], [122.25, -27.0], [123.75, -27.0], [123.75, -28.5], [122.25, -28.5]]]}, "properties": {"cell_id": "82_41", "lon": 123.0, "lat": -27.75}}, {"type": "Feature", "geometry": {"type": "Polygon", "coordinates": [[[122.25, -27.0], [122.25, -25.5], [123.75, -25.5], [123.75, -27.0], [122.25, -27.0]]]}, "properties": {"cell_id": "82_42", "lon": 123.0, "lat": -26.25}}, {"type": "Feature", "geometry": {"type": "Polygon", "coordinates": [[[122.25, -25.5], [122.25, -24.0], [123.75, -24.0], [123.75, -25.5], [122.25, -25.5]]]}, "properties": {"cell_id": "82_43", "lon": 123.0, "lat": -24.75}}, {"type": "Feature", "geometry": {"type": "Polygon", "coordinates": [[[122.25, -24.0], [122.25, -22.5], [123.75, -22.5], [123.75, -24.0], [122.25, -24.0]]]}, "properties": {"cell_id": "82_44", "lon": 123.0, "lat": -23.25}}, {"type": "Feature", "geometry": {"type": "Polygon", "coordinates": [[[122.25, -22.5], [122.25, -21.0], [123.75, -21.0], [123.75, -22.5], [122.25, -22.5]]]}, "properties": {"cell_id": "82_45", "lon": 123.0, "lat": -21.75}}, {"type": "Feature", "geometry": {"type": "Polygon", "coordinates": [[[122.25, -21.0], [122.25, -19.5], [123.75, -19.5], [123.75, -21.0], [122.25, -21.0]]]}, "properties": {"cell_id": "82_46", "lon": 123.0, "lat": -20.25}}, {"type": "Feature", "geometry": {"type": "Polygon", "coordinates": [[[123.75, -30.0], [123.75, -28.5], [125.25, -28.5], [125.25, -30.0], [123.75, -30.0]]]}, "properties": {"cell_id": "83_40", "lon": 124.5, "lat": -29.25}}, {"type": "Feature", "geometry": {"type": "Polygon", "coordinates": [[[123.75, -28.5], [123.75, -27.0], [125.25, -27.0], [125.25, -28.5], [123.75, -28.5]]]}, "properties": {"cell_id": "83_41", "lon": 124.5, "lat": -27.75}}, {"type": "Feature", "geometry": {"type": "Polygon", "coordinates": [[[123.75, -27.0], [123.75, -25.5], [125.25, -25.5], [125.25, -27.0], [123.75, -27.0]]]}, "properties": {"cell_id": "83_42", "lon": 124.5, "lat": -26.25}}, {"type": "Feature", "geometry": {"type": "Polygon", "coordinates": [[[123.75, -25.5], [123.75, -24.0], [125.25, -24.0], [125.25, -25.5], [123.75, -25.5]]]}, "properties": {"cell_id": "83_43", "lon": 124.5, "lat": -24.75}}, {"type": "Feature", "geometry": {"type": "Polygon", "coordinates": [[[123.75, -24.0], [123.75, -22.5], [125.25, -22.5], [125.25, -24.0], [123.75, -24.0]]]}, "properties": {"cell_id": "83_44", "lon": 124.5, "lat": -23.25}}, {"type": "Feature", "geometry": {"type": "Polygon", "coordinates": [[[123.75, -22.5], [123.75, -21.0], [125.25, -21.0], [125.25, -22.5], [123.75, -22.5]]]}, "properties": {"cell_id": "83_45", "lon": 124.5, "lat": -21.75}}, {"type": "Feature", "geometry": {"type": "Polygon", "coordinates": [[[123.75, -21.0], [123.75, -19.5], [125.25, -19.5], [125.25, -21.0], [123.75, -21.0]]]}, "properties": {"cell_id": "83_46", "lon": 124.5, "lat": -20.25}}, {"type": "Feature", "geometry": {"type": "Polygon", "coordinates": [[[125.25, -30.0], [125.25, -28.5], [126.75, -28.5], [126.75, -30.0], [125.25, -30.0]]]}, "properties": {"cell_id": "84_40", "lon": 126.0, "lat": -29.25}}, {"type": "Feature", "geometry": {"type": "Polygon", "coordinates": [[[125.25, -28.5], [125.25, -27.0], [126.75, -27.0], [126.75, -28.5], [125.25, -28.5]]]}, "properties": {"cell_id": "84_41", "lon": 126.0, "lat": -27.75}}, {"type": "Feature", "geometry": {"type": "Polygon", "coordinates": [[[125.25, -27.0], [125.25, -25.5], [126.75, -25.5], [126.75, -27.0], [125.25, -27.0]]]}, "properties": {"cell_id": "84_42", "lon": 126.0, "lat": -26.25}}, {"type": "Feature", "geometry": {"type": "Polygon", "coordinates": [[[125.25, -25.5], [125.25, -24.0], [126.75, -24.0], [126.75, -25.5], [125.25, -25.5]]]}, "properties": {"cell_id": "84_43", "lon": 126.0, "lat": -24.75}}, {"type": "Feature", "geometry": {"type": "Polygon", "coordinates": [[[125.25, -24.0], [125.25, -22.5], [126.75, -22.5], [126.75, -24.0], [125.25, -24.0]]]}, "properties": {"cell_id": "84_44", "lon": 126.0, "lat": -23.25}}, {"type": "Feature", "geometry": {"type": "Polygon", "coordinates": [[[125.25, -22.5], [125.25, -21.0], [126.75, -21.0], [126.75, -22.5], [125.25, -22.5]]]}, "properties": {"cell_id": "84_45", "lon": 126.0, "lat": -21.75}}, {"type": "Feature", "geometry": {"type": "Polygon", "coordinates": [[[125.25, -21.0], [125.25, -19.5], [126.75, -19.5], [126.75, -21.0], [125.25, -21.0]]]}, "properties": {"cell_id": "84_46", "lon": 126.0, "lat": -20.25}}, {"type": "Feature", "geometry": {"type": "Polygon", "coordinates": [[[126.75, -30.0], [126.75, -28.5], [128.25, -28.5], [128.25, -30.0], [126.75, -30.0]]]}, "properties": {"cell_id": "85_40", "lon": 127.5, "lat": -29.25}}, {"type": "Feature", "geometry": {"type": "Polygon", "coordinates": [[[126.75, -28.5], [126.75, -27.0], [128.25, -27.0], [128.25, -28.5], [126.75, -28.5]]]}, "properties": {"cell_id": "85_41", "lon": 127.5, "lat": -27.75}}, {"type": "Feature", "geometry": {"type": "Polygon", "coordinates": [[[126.75, -27.0], [126.75, -25.5], [128.25, -25.5], [128.25, -27.0], [126.75, -27.0]]]}, "properties": {"cell_id": "85_42", "lon": 127.5, "lat": -26.25}}, {"type": "Feature", "geometry": {"type": "Polygon", "coordinates": [[[126.75, -25.5], [126.75, -24.0], [128.25, -24.0], [128.25, -25.5], [126.75, -25.5]]]}, "properties": {"cell_id": "85_43", "lon": 127.5, "lat": -24.75}}, {"type": "Feature", "geometry": {"type": "Polygon", "coordinates": [[[126.75, -24.0], [126.75, -22.5], [128.25, -22.5], [128.25, -24.0], [126.75, -24.0]]]}, "properties": {"cell_id": "85_44", "lon": 127.5, "lat": -23.25}}, {"type": "Feature", "geometry": {"type": "Polygon", "coordinates": [[[126.75, -22.5], [126.75, -21.0], [128.25, -21.0], [128.25, -22.5], [126.75, -22.5]]]}, "properties": {"cell_id": "85_45", "lon": 127.5, "lat": -21.75}}, {"type": "Feature", "geometry": {"type": "Polygon", "coordinates": [[[126.75, -21.0], [126.75, -19.5], [128.25, -19.5], [128.25, -21.0], [126.75, -21.0]]]}, "properties": {"cell_id": "85_46", "lon": 127.5, "lat": -20.25}}, {"type": "Feature", "geometry": {"type": "Polygon", "coordinates": [[[128.25, -30.0], [128.25, -28.5], [129.75, -28.5], [129.75, -30.0], [128.25, -30.0]]]}, "properties": {"cell_id": "86_40", "lon": 129.0, "lat": -29.25}}, {"type": "Feature", "geometry": {"type": "Polygon", "coordinates": [[[128.25, -28.5], [128.25, -27.0], [129.75, -27.0], [129.75, -28.5], [128.25, -28.5]]]}, "properties": {"cell_id": "86_41", "lon": 129.0, "lat": -27.75}}, {"type": "Feature", "geometry": {"type": "Polygon", "coordinates": [[[128.25, -27.0], [128.25, -25.5], [129.75, -25.5], [129.75, -27.0], [128.25, -27.0]]]}, "properties": {"cell_id": "86_42", "lon": 129.0, "lat": -26.25}}, {"type": "Feature", "geometry": {"type": "Polygon", "coordinates": [[[128.25, -25.5], [128.25, -24.0], [129.75, -24.0], [129.75, -25.5], [128.25, -25.5]]]}, "properties": {"cell_id": "86_43", "lon": 129.0, "lat": -24.75}}, {"type": "Feature", "geometry": {"type": "Polygon", "coordinates": [[[128.25, -24.0], [128.25, -22.5], [129.75, -22.5], [129.75, -24.0], [128.25, -24.0]]]}, "properties": {"cell_id": "86_44", "lon": 129.0, "lat": -23.25}}, {"type": "Feature", "geometry": {"type": "Polygon", "coordinates": [[[128.25, -22.5], [128.25, -21.0], [129.75, -21.0], [129.75, -22.5], [128.25, -22.5]]]}, "properties": {"cell_id": "86_45", "lon": 129.0, "lat": -21.75}}, {"type": "Feature", "geometry": {"type": "Polygon", "coordinates": [[[128.25, -21.0], [128.25, -19.5], [129.75, -19.5], [129.75, -21.0], [128.25, -21.0]]]}, "properties": {"cell_id": "86_46", "lon": 129.0, "lat": -20.25}}, {"type": "Feature", "geometry": {"type": "Polygon", "coordinates": [[[129.75, -30.0], [129.75, -28.5], [131.25, -28.5], [131.25, -30.0], [129.75, -30.0]]]}, "properties": {"cell_id": "87_40", "lon": 130.5, "lat": -29.25}}, {"type": "Feature", "geometry": {"type": "Polygon", "coordinates": [[[129.75, -28.5], [129.75, -27.0], [131.25, -27.0], [131.25, -28.5], [129.75, -28.5]]]}, "properties": {"cell_id": "87_41", "lon": 130.5, "lat": -27.75}}, {"type": "Feature", "geometry": {"type": "Polygon", "coordinates": [[[129.75, -27.0], [129.75, -25.5], [131.25, -25.5], [131.25, -27.0], [129.75, -27.0]]]}, "properties": {"cell_id": "87_42", "lon": 130.5, "lat": -26.25}}, {"type": "Feature", "geometry": {"type": "Polygon", "coordinates": [[[129.75, -25.5], [129.75, -24.0], [131.25, -24.0], [131.25, -25.5], [129.75, -25.5]]]}, "properties": {"cell_id": "87_43", "lon": 130.5, "lat": -24.75}}, {"type": "Feature", "geometry": {"type": "Polygon", "coordinates": [[[129.75, -24.0], [129.75, -22.5], [131.25, -22.5], [131.25, -24.0], [129.75, -24.0]]]}, "properties": {"cell_id": "87_44", "lon": 130.5, "lat": -23.25}}, {"type": "Feature", "geometry": {"type": "Polygon", "coordinates": [[[129.75, -22.5], [129.75, -21.0], [131.25, -21.0], [131.25, -22.5], [129.75, -22.5]]]}, "properties": {"cell_id": "87_45", "lon": 130.5, "lat": -21.75}}, {"type": "Feature", "geometry": {"type": "Polygon", "coordinates": [[[129.75, -21.0], [129.75, -19.5], [131.25, -19.5], [131.25, -21.0], [129.75, -21.0]]]}, "properties": {"cell_id": "87_46", "lon": 130.5, "lat": -20.25}}]}