{"type": "FeatureCollection", "features": [{"type": "Feature", "geometry": {"type": "Polygon", "coordinates": [[[50.25, -69.0], [50.25, -67.5], [51.75, -67.5], [51.75, -69.0], [50.25, -69.0]]]}, "properties": {"cell_id": "34_14", "lon": 51.0, "lat": -68.25}}, {"type": "Feature", "geometry": {"type": "Polygon", "coordinates": [[[50.25, -67.5], [50.25, -66.0], [51.75, -66.0], [51.75, -67.5], [50.25, -67.5]]]}, "properties": {"cell_id": "34_15", "lon": 51.0, "lat": -66.75}}, {"type": "Feature", "geometry": {"type": "Polygon", "coordinates": [[[51.75, -69.0], [51.75, -67.5], [53.25, -67.5], [53.25, -69.0], [51.75, -69.0]]]}, "properties": {"cell_id": "35_14", "lon": 52.5, "lat": -68.25}}, {"type": "Feature", "geometry": {"type": "Polygon", "coordinates": [[[51.75, -67.5], [51.75, -66.0], [53.25, -66.0], [53.25, -67.5], [51.75, -67.5]]]}, "properties": {"cell_id": "35_15", "lon": 52.5, "lat": -66.75}}, {"type": "Feature", "geometry": {"type": "Polygon", "coordinates": [[[53.25, -69.0], [53.25, -67.5], [54.75, -67.5], [54.75, -69.0], [53.25, -69.0]]]}, "properties": {"cell_id": "36_14", "lon": 54.0, "lat": -68.25}}, {"type": "Feature", "geometry": {"type": "Polygon", "coordinates": [[[53.25, -67.5], [53.25, -66.0], [54.75, -66.0], [54.75, -67.5], [53.25, -67.5]]]}, "properties": {"cell_id": "36_15", "lon": 54.0, "lat": -66.75}}, {"type": "Feature", "geometry": {"type": "Polygon", "coordinates": [[[54.75, -69.0], [54.75, -67.5], [56.25, -67.5], [56.25, -69.0], [54.75, -69.0]]]}, "properties": {"cell_id": "37_14", "lon": 55.5, "lat": -68.25}}, {"type": "Feature", "geometry": {"type": "Polygon", "coordinates": [[[54.75, -67.5], [54.75, -66.0], [56.25, -66.0], [56.25, -67.5], [54.75, -67.5]]]}, "properties": {"cell_id": "37_15", "lon": 55.5, "lat": -66.75}}, {"type": "Feature", "geometry": {"type": "Polygon", "coordinates": [[[56.25, -69.0], [56.25, -67.5], [57.75, -67.5], [57.75, -69.0], [56.25, -69.0]]]}, "properties": {"cell_id": "38_14", "lon": 57.0, "lat": -68.25}}, {"type": "Feature", "geometry": {"type": "Polygon", "coordinates": [[[56.25, -67.5], [56.25, -66.0], [57.75, -66.0], [57.75, -67.5], [56.25, -67.5]]]}, "properties": {"cell_id": "38_15", "lon": 57.0, "lat": -66.75}}, {"type": "Feature", "geometry": {"type": "Polygon", "coordinates": [[[57.75, -69.0], [57.75, -67.5], [59.25, -67.5], [59.25, -69.0], [57.75, -69.0]]]}, "properties": {"cell_id": "39_14", "lon": 58.5, "lat": -68.25}}, {"type": "Feature", "geometry": {"type": "Polygon", "coordinates": [[[57.75, -67.5], [57.75, -66.0], [59.25, -66.0], [59.25, -67.5], [57.75, -67.5]]]}, "properties": {"cell_id": "39_15", "lon": 58.5, "lat": -66.75}}, {"type": "Feature", "geometry": {"type": "Polygon", "coordinates": [[[59.25, -69.0], [59.25, -67.5], [60.75, -67.5], [60.75, -69.0], [59.25, -69.0]]]}, "properties": {"cell_id": "40_14", "lon": 60.0, "lat": -68.25}}, {"type": "Feature", "geometry": {"type": "Polygon", "coordinates": [[[59.25, -67.5], [59.25, -66.0], [60.75, -66.0], [60.75, -67.5], [59.25, -67.5]]]}, "properties": {"cell_id": "40_15", "lon": 60.0, "lat": -66.75}}]}