{"type": "FeatureCollection", "features": [{"type": "Feature", "geometry": {"type": "Polygon", "coordinates": [[[-119.25, -79.5], [-119.25, -78.0], [-117.75, -78.0], [-117.75, -79.5], [-119.25, -79.5]]]}, "properties": {"cell_id": "161_7", "lon": -118.5, "lat": -78.75}}, {"type": "Feature", "geometry": {"type": "Polygon", "coordinates": [[[-119.25, -78.0], [-119.25, -76.5], [-117.75, -76.5], [-117.75, -78.0], [-119.25, -78.0]]]}, "properties": {"cell_id": "161_8", "lon": -118.5, "lat": -77.25}}, {"type": "Feature", "geometry": {"type": "Polygon", "coordinates": [[[-119.25, -76.5], [-119.25, -75.0], [-117.75, -75.0], [-117.75, -76.5], [-119.25, -76.5]]]}, "properties": {"cell_id": "161_9", "lon": -118.5, "lat": -75.75}}, {"type": "Feature", "geometry": {"type": "Polygon", "coordinates": [[[-117.75, -79.5], [-117.75, -78.0], [-116.25, -78.0], [-116.25, -79.5], [-117.75, -79.5]]]}, "properties": {"cell_id": "162_7", "lon": -117.0, "lat": -78.75}}, {"type": "Feature", "geometry": {"type": "Polygon", "coordinates": [[[-117.75, -78.0], [-117.75, -76.5], [-116.25, -76.5], [-116.25, -78.0], [-117.75, -78.0]]]}, "properties": {"cell_id": "162_8", "lon": -117.0, "lat": -77.25}}, {"type": "Feature", "geometry": {"type": "Polygon", "coordinates": [[[-117.75, -76.5], [-117.75, -75.0], [-116.25, -75.0], [-116.25, -76.5], [-117.75, -76.5]]]}, "properties": {"cell_id": "162_9", "lon": -117.0, "lat": -75.75}}, {"type": "Feature", "geometry": {"type": "Polygon", "coordinates": [[[-116.25, -79.5], [-116.25, -78.0], [-114.75, -78.0], [-114.75, -79.5], [-116.25, -79.5]]]}, "properties": {"cell_id": "163_7", "lon": -115.5, "lat": -78.75}}, {"type": "Feature", "geometry": {"type": "Polygon", "coordinates": [[[-116.25, -78.0], [-116.25, -76.5], [-114.75, -76.5], [-114.75, -78.0], [-116.25, -78.0]]]}, "properties": {"cell_id": "163_8", "lon": -115.5, "lat": -77.25}}, {"type": "Feature", "geometry": {"type": "Polygon", "coordinates": [[[-116.25, -76.5], [-116.25, -75.0], [-114.75, -75.0], [-114.75, -76.5], [-116.25, -76.5]]]}, "properties": {"cell_id": "163_9", "lon": -115.5, "lat": -75.75}}, {"type": "Feature", "geometry": {"type": "Polygon", "coordinates": [[[-114.75, -79.5], [-114.75, -78.0], [-113.25, -78.0], [-113.25, -79.5], [-114.75, -79.5]]]}, "properties": {"cell_id": "164_7", "lon": -114.0, "lat": -78.75}}, {"type": "Feature", "geometry": {"type": "Polygon", "coordinates": [[[-114.75, -78.0], [-114.75, -76.5], [-113.25, -76.5], [-113.25, -78.0], [-114.75, -78.0]]]}, "properties": {"cell_id": "164_8", "lon": -114.0, "lat": -77.25}}, {"type": "Feature", "geometry": {"type": "Polygon", "coordinates": [[[-114.75, -76.5], [-114.75, -75.0], [-113.25, -75.0], [-113.25, -76.5], [-114.75, -76.5]]]}, "properties": {"cell_id": "164_9", "lon": -114.0, "lat": -75.75}}, {"type": "Feature", "geometry": {"type": "Polygon", "coordinates": [[[-113.25, -79.5], [-113.25, -78.0], [-111.75, -78.0], [-111.75, -79.5], [-113.25, -79.5]]]}, "properties": {"cell_id": "165_7", "lon": -112.5, "lat": -78.75}}, {"type": "Feature", "geometry": {"type": "Polygon", "coordinates": [[[-113.25, -78.0], [-113.25, -76.5], [-111.75, -76.5], [-111.75, -78.0], [-113.25, -78.0]]]}, "properties": {"cell_id": "165_8", "lon": -112.5, "lat": -77.25}}, {"type": "Feature", "geometry": {"type": "Polygon", "coordinates": [[[-113.25, -76.5], [-113.25, -75.0], [-111.75, -75.0], [-111.75, -76.5], [-113.25, -76.5]]]}, "properties": {"cell_id": "165_9", "lon": -112.5, "lat": -75.75}}, {"type": "Feature", "geometry": {"type": "Polygon", "coordinates": [[[-111.75, -79.5], [-111.75, -78.0], [-110.25, -78.0], [-110.25, -79.5], [-111.75, -79.5]]]}, "properties": {"cell_id": "166_7", "lon": -111.0, "lat": -78.75}}, {"type": "Feature", "geometry": {"type": "Polygon", "coordinates": [[[-111.75, -78.0], [-111.75, -76.5], [-110.25, -76.5], [-110.25, -78.0], [-111.75, -78.0]]]}, "properties": {"cell_id": "166_8", "lon": -111.0, "lat": -77.25}}, {"type": "Feature", "geometry": {"type": "Polygon", "coordinates": [[[-111.75, -76.5], [-111.75, -75.0], [-110.25, -75.0], [-110.25, -76.5], [-111.75, -76.5]]]}, "properties": {"cell_id": "166_9", "lon": -111.0, "lat": -75.75}}, {"type": "Feature", "geometry": {"type": "Polygon", "coordinates": [[[-110.25, -79.5], [-110.25, -78.0], [-108.75, -78.0], [-108.75, -79.5], [-110.25, -79.5]]]}, "properties": {"cell_id": "167_7", "lon": -109.5, "lat": -78.75}}, {"type": "Feature", "geometry": {"type": "Polygon", "coordinates": [[[-110.25, -78.0], [-110.25, -76.5], [-108.75, -76.5], [-108.75, -78.0], [-110.25, -78.0]]]}, "properties": {"cell_id": "167_8", "lon": -109.5, "lat": -77.25}}, {"type": "Feature", "geometry": {"type": "Polygon", "coordinates": [[[-110.25, -76.5], [-110.25, -75.0], [-108.75, -75.0], [-108.75, -76.5], [-110.25, -76.5]]]}, "properties": {"cell_id": "167_9", "lon": -109.5, "lat": -75.75}}]}