{"type": "FeatureCollection", "features": [{"type": "Feature", "geometry": {"type": "Polygon", "coordinates": [[[-78.75, 0.0], [-78.75, 1.5], [-77.25, 1.5], [-77.25, 0.0], [-78.75, 0.0]]]}, "properties": {"cell_id": "188_60", "lon": -78.0, "lat": 0.75}}, {"type": "Feature", "geometry": {"type": "Polygon", "coordinates": [[[-78.75, 1.5], [-78.75, 3.0], [-77.25, 3.0], [-77.25, 1.5], [-78.75, 1.5]]]}, "properties": {"cell_id": "188_61", "lon": -78.0, "lat": 2.25}}, {"type": "Feature", "geometry": {"type": "Polygon", "coordinates": [[[-78.75, 3.0], [-78.75, 4.5], [-77.25, 4.5], [-77.25, 3.0], [-78.75, 3.0]]]}, "properties": {"cell_id": "188_62", "lon": -78.0, "lat": 3.75}}, {"type": "Feature", "geometry": {"type": "Polygon", "coordinates": [[[-78.75, 4.5], [-78.75, 6.0], [-77.25, 6.0], [-77.25, 4.5], [-78.75, 4.5]]]}, "properties": {"cell_id": "188_63", "lon": -78.0, "lat": 5.25}}, {"type": "Feature", "geometry": {"type": "Polygon", "coordinates": [[[-78.75, 6.0], [-78.75, 7.5], [-77.25, 7.5], [-77.25, 6.0], [-78.75, 6.0]]]}, "properties": {"cell_id": "188_64", "lon": -78.0, "lat": 6.75}}, {"type": "Feature", "geometry": {"type": "Polygon", "coordinates": [[[-78.75, 7.5], [-78.75, 9.0], [-77.25, 9.0], [-77.25, 7.5], [-78.75, 7.5]]]}, "properties": {"cell_id": "188_65", "lon": -78.0, "lat": 8.25}}, {"type": "Feature", "geometry": {"type": "Polygon", "coordinates": [[[-77.25, 0.0], [-77.25, 1.5], [-75.75, 1.5], [-75.75, 0.0], [-77.25, 0.0]]]}, "properties": {"cell_id": "189_60", "lon": -76.5, "lat": 0.75}}, {"type": "Feature", "geometry": {"type": "Polygon", "coordinates": [[[-77.25, 1.5], [-77.25, 3.0], [-75.75, 3.0], [-75.75, 1.5], [-77.25, 1.5]]]}, "properties": {"cell_id": "189_61", "lon": -76.5, "lat": 2.25}}, {"type": "Feature", "geometry": {"type": "Polygon", "coordinates": [[[-77.25, 3.0], [-77.25, 4.5], [-75.75, 4.5], [-75.75, 3.0], [-77.25, 3.0]]]}, "properties": {"cell_id": "189_62", "lon": -76.5, "lat": 3.75}}, {"type": "Feature", "geometry": {"type": "Polygon", "coordinates": [[[-77.25, 4.5], [-77.25, 6.0], [-75.75, 6.0], [-75.75, 4.5], [-77.25, 4.5]]]}, "properties": {"cell_id": "189_63", "lon": -76.5, "lat": 5.25}}, {"type": "Feature", "geometry": {"type": "Polygon", "coordinates": [[[-77.25, 6.0], [-77.25, 7.5], [-75.75, 7.5], [-75.75, 6.0], [-77.25, 6.0]]]}, "properties": {"cell_id": "189_64", "lon": -76.5, "lat": 6.75}}, {"type": "Feature", "geometry": {"type": "Polygon", "coordinates": [[[-77.25, 7.5], [-77.25, 9.0], [-75.75, 9.0], [-75.75, 7.5], [-77.25, 7.5]]]}, "properties": {"cell_id": "189_65", "lon": -76.5, "lat": 8.25}}, {"type": "Feature", "geometry": {"type": "Polygon", "coordinates": [[[-75.75, 0.0], [-75.75, 1.5], [-74.25, 1.5], [-74.25, 0.0], [-75.75, 0.0]]]}, "properties": {"cell_id": "190_60", "lon": -75.0, "lat": 0.75}}, {"type": "Feature", "geometry": {"type": "Polygon", "coordinates": [[[-75.75, 1.5], [-75.75, 3.0], [-74.25, 3.0], [-74.25, 1.5], [-75.75, 1.5]]]}, "properties": {"cell_id": "190_61", "lon": -75.0, "lat": 2.25}}, {"type": "Feature", "geometry": {"type": "Polygon", "coordinates": [[[-75.75, 3.0], [-75.75, 4.5], [-74.25, 4.5], [-74.25, 3.0], [-75.75, 3.0]]]}, "properties": {"cell_id": "190_62", "lon": -75.0, "lat": 3.75}}, {"type": "Feature", "geometry": {"type": "Polygon", "coordinates": [[[-75.75, 4.5], [-75.75, 6.0], [-74.25, 6.0], [-74.25, 4.5], [-75.75, 4.5]]]}, "properties": {"cell_id": "190_63", "lon": -75.0, "lat": 5.25}}, {"type": "Feature", "geometry": {"type": "Polygon", "coordinates": [[[-75.75, 6.0], [-75.75, 7.5], [-74.25, 7.5], [-74.25, 6.0], [-75.75, 6.0]]]}, "properties": {"cell_id": "190_64", "lon": -75.0, "lat": 6.75}}, {"type": "Feature", "geometry": {"type": "Polygon", "coordinates": [[[-75.75, 7.5], [-75.75, 9.0], [-74.25, 9.0], [-74.25, 7.5], [-75.75, 7.5]]]}, "properties": {"cell_id": "190_65", "lon": -75.0, "lat": 8.25}}, {"type": "Feature", "geometry": {"type": "Polygon", "coordinates": [[[-75.75, 9.0], [-75.75, 10.5], [-74.25, 10.5], [-74.25, 9.0], [-75.75, 9.0]]]}, "properties": {"cell_id": "190_66", "lon": -75.0, "lat": 9.75}}, {"type": "Feature", "geometry": {"type": "Polygon", "coordinates": [[[-74.25, 0.0], [-74.25, 1.5], [-72.75, 1.5], [-72.75, 0.0], [-74.25, 0.0]]]}, "properties": {"cell_id": "191_60", "lon": -73.5, "lat": 0.75}}, {"type": "Feature", "geometry": {"type": "Polygon", "coordinates": [[[-74.25, 1.5], [-74.25, 3.0], [-72.75, 3.0], [-72.75, 1.5], [-74.25, 1.5]]]}, "properties": {"cell_id": "191_61", "lon": -73.5, "lat": 2.25}}, {"type": "Feature", "geometry": {"type": "Polygon", "coordinates": [[[-74.25, 3.0], [-74.25, 4.5], [-72.75, 4.5], [-72.75, 3.0], [-74.25, 3.0]]]}, "properties": {"cell_id": "191_62", "lon": -73.5, "lat": 3.75}}, {"type": "Feature", "geometry": {"type": "Polygon", "coordinates": [[[-74.25, 4.5], [-74.25, 6.0], [-72.75, 6.0], [-72.75, 4.5], [-74.25, 4.5]]]}, "properties": {"cell_id": "191_63", "lon": -73.5, "lat": 5.25}}, {"type": "Feature", "geometry": {"type": "Polygon", "coordinates": [[[-74.25, 6.0], [-74.25, 7.5], [-72.75, 7.5], [-72.75, 6.0], [-74.25, 6.0]]]}, "properties": {"cell_id": "191_64", "lon": -73.5, "lat": 6.75}}, {"type": "Feature", "geometry": {"type": "Polygon", "coordinates": [[[-74.25, 7.5], [-74.25, 9.0], [-72.75, 9.0], [-72.75, 7.5], [-74.25, 7.5]]]}, "properties": {"cell_id": "191_65", "lon": -73.5, "lat": 8.25}}, {"type": "Feature", "geometry": {"type": "Polygon", "coordinates": [[[-74.25, 9.0], [-74.25, 10.5], [-72.75, 10.5], [-72.75, 9.0], [-74.25, 9.0]]]}, "properties": {"cell_id": "191_66", "lon": -73.5, "lat": 9.75}}, {"type": "Feature", "geometry": {"type": "Polygon", "coordinates": [[[-72.75, 0.0], [-72.75, 1.5], [-71.25, 1.5], [-71.25, 0.0], [-72.75, 0.0]]]}, "properties": {"cell_id": "192_60", "lon": -72.0, "lat": 0.75}}, {"type": "Feature", "geometry": {"type": "Polygon", "coordinates": [[[-72.75, 1.5], [-72.75, 3.0], [-71.25, 3.0], [-71.25, 1.5], [-72.75, 1.5]]]}, "properties": {"cell_id": "192_61", "lon": -72.0, "lat": 2.25}}, {"type": "Feature", "geometry": {"type": "Polygon", "coordinates": [[[-72.75, 3.0], [-72.75, 4.5], [-71.25, 4.5], [-71.25, 3.0], [-72.75, 3.0]]]}, "properties": {"cell_id": "192_62", "lon": -72.0, "lat": 3.75}}, {"type": "Feature", "geometry": {"type": "Polygon", "coordinates": [[[-72.75, 4.5], [-72.75, 6.0], [-71.25, 6.0], [-71.25, 4.5], [-72.75, 4.5]]]}, "properties": {"cell_id": "192_63", "lon": -72.0, "lat": 5.25}}, {"type": "Feature", "geometry": {"type": "Polygon", "coordinates": [[[-72.75, 6.0], [-72.75, 7.5], [-71.25, 7.5], [-71.25, 6.0], [-72.75, 6.0]]]}, "properties": {"cell_id": "192_64", "lon": -72.0, "lat": 6.75}}, {"type": "Feature", "geometry": {"type": "Polygon", "coordinates": [[[-72.75, 7.5], [-72.75, 9.0], [-71.25, 9.0], [-71.25, 7.5], [-72.75, 7.5]]]}, "properties": {"cell_id": "192_65", "lon": -72.0, "lat": 8.25}}, {"type": "Feature", "geometry": {"type": "Polygon", "coordinates": [[[-72.75, 9.0], [-72.75, 10.5], [-71.25, 10.5], [-71.25, 9.0], [-72.75, 9.0]]]}, "properties": {"cell_id": "192_66", "lon": -72.0, "lat": 9.75}}, {"type": "Feature", "geometry": {"type": "Polygon", "coordinates": [[[-71.25, 0.0], [-71.25, 1.5], [-69.75, 1.5], [-69.75, 0.0], [-71.25, 0.0]]]}, "properties": {"cell_id": "193_60", "lon": -70.5, "lat": 0.75}}, {"type": "Feature", "geometry": {"type": "Polygon", "coordinates": [[[-71.25, 1.5], [-71.25, 3.0], [-69.75, 3.0], [-69.75, 1.5], [-71.25, 1.5]]]}, "properties": {"cell_id": "193_61", "lon": -70.5, "lat": 2.25}}, {"type": "Feature", "geometry": {"type": "Polygon", "coordinates": [[[-71.25, 3.0], [-71.25, 4.5], [-69.75, 4.5], [-69.75, 3.0], [-71.25, 3.0]]]}, "properties": {"cell_id": "193_62", "lon": -70.5, "lat": 3.75}}, {"type": "Feature", "geometry": {"type": "Polygon", "coordinates": [[[-71.25, 4.5], [-71.25, 6.0], [-69.75, 6.0], [-69.75, 4.5], [-71.25, 4.5]]]}, "properties": {"cell_id": "193_63", "lon": -70.5, "lat": 5.25}}, {"type": "Feature", "geometry": {"type": "Polygon", "coordinates": [[[-71.25, 6.0], [-71.25, 7.5], [-69.75, 7.5], [-69.75, 6.0], [-71.25, 6.0]]]}, "properties": {"cell_id": "193_64", "lon": -70.5, "lat": 6.75}}, {"type": "Feature", "geometry": {"type": "Polygon", "coordinates": [[[-71.25, 7.5], [-71.25, 9.0], [-69.75, 9.0], [-69.75, 7.5], [-71.25, 7.5]]]}, "properties": {"cell_id": "193_65", "lon": -70.5, "lat": 8.25}}, {"type": "Feature", "geometry": {"type": "Polygon", "coordinates": [[[-71.25, 9.0], [-71.25, 10.5], [-69.75, 10.5], [-69.75, 9.0], [-71.25, 9.0]]]}, "properties": {"cell_id": "193_66", "lon": -70.5, "lat": 9.75}}]}