{"type": "FeatureCollection", "features": [{"type": "Feature", "geometry": {"type": "Polygon", "coordinates": [[[170.25, -79.5], [170.25, -78.0], [171.75, -78.0], [171.75, -79.5], [170.25, -79.5]]]}, "properties": {"cell_id": "114_7", "lon": 171.0, "lat": -78.75}}, {"type": "Feature", "geometry": {"type": "Polygon", "coordinates": [[[171.75, -79.5], [171.75, -78.0], [173.25, -78.0], [173.25, -79.5], [171.75, -79.5]]]}, "properties": {"cell_id": "115_7", "lon": 172.5, "lat": -78.75}}, {"type": "Feature", "geometry": {"type": "Polygon", "coordinates": [[[173.25, -79.5], [173.25, -78.0], [174.75, -78.0], [174.75, -79.5], [173.25, -79.5]]]}, "properties": {"cell_id": "116_7", "lon": 174.0, "lat": -78.75}}, {"type": "Feature", "geometry": {"type": "Polygon", "coordinates": [[[174.75, -79.5], [174.75, -78.0], [176.25, -78.0], [176.25, -79.5], [174.75, -79.5]]]}, "properties": {"cell_id": "117_7", "lon": 175.5, "lat": -78.75}}, {"type": "Feature", "geometry": {"type": "Polygon", "coordinates": [[[176.25, -79.5], [176.25, -78.0], [177.75, -78.0], [177.75, -79.5], [176.25, -79.5]]]}, "properties": {"cell_id": "118_7", "lon": 177.0, "lat": -78.75}}, {"type": "Feature", "geometry": {"type": "Polygon", "coordinates": [[[177.75, -79.5], [177.75, -78.0], [179.25, -78.0], [179.25, -79.5], [177.75, -79.5]]]}, "properties": {"cell_id": "119_7", "lon": 178.5, "lat": -78.75}}, {"type": "Feature", "geometry": {"type": "Polygon", "coordinates": [[[179.25, -79.5], [179.25, -78.0], [180.75, -78.0], [180.75, -79.5], [179.25, -79.5]]]}, "properties": {"cell_id": "120_7", "lon": 180.0, "lat": -78.75}}]}