{"type": "FeatureCollection", "features": [{"type": "Feature", "geometry": {"type": "Polygon", "coordinates": [[[170.25, 60.0], [170.25, 61.5], [171.75, 61.5], [171.75, 60.0], [170.25, 60.0]]]}, "properties": {"cell_id": "114_100", "lon": 171.0, "lat": 60.75}}, {"type": "Feature", "geometry": {"type": "Polygon", "coordinates": [[[170.25, 61.5], [170.25, 63.0], [171.75, 63.0], [171.75, 61.5], [170.25, 61.5]]]}, "properties": {"cell_id": "114_101", "lon": 171.0, "lat": 62.25}}, {"type": "Feature", "geometry": {"type": "Polygon", "coordinates": [[[170.25, 63.0], [170.25, 64.5], [171.75, 64.5], [171.75, 63.0], [170.25, 63.0]]]}, "properties": {"cell_id": "114_102", "lon": 171.0, "lat": 63.75}}, {"type": "Feature", "geometry": {"type": "Polygon", "coordinates": [[[170.25, 64.5], [170.25, 66.0], [171.75, 66.0], [171.75, 64.5], [170.25, 64.5]]]}, "properties": {"cell_id": "114_103", "lon": 171.0, "lat": 65.25}}, {"type": "Feature", "geometry": {"type": "Polygon", "coordinates": [[[170.25, 66.0], [170.25, 67.5], [171.75, 67.5], [171.75, 66.0], [170.25, 66.0]]]}, "properties": {"cell_id": "114_104", "lon": 171.0, "lat": 66.75}}, {"type": "Feature", "geometry": {"type": "Polygon", "coordinates": [[[170.25, 67.5], [170.25, 69.0], [171.75, 69.0], [171.75, 67.5], [170.25, 67.5]]]}, "properties": {"cell_id": "114_105", "lon": 171.0, "lat": 68.25}}, {"type": "Feature", "geometry": {"type": "Polygon", "coordinates": [[[170.25, 69.0], [170.25, 70.5], [171.75, 70.5], [171.75, 69.0], [170.25, 69.0]]]}, "properties": {"cell_id": "114_106", "lon": 171.0, "lat": 69.75}}, {"type": "Feature", "geometry": {"type": "Polygon", "coordinates": [[[171.75, 60.0], [171.75, 61.5], [173.25, 61.5], [173.25, 60.0], [171.75, 60.0]]]}, "properties": {"cell_id": "115_100", "lon": 172.5, "lat": 60.75}}, {"type": "Feature", "geometry": {"type": "Polygon", "coordinates": [[[171.75, 61.5], [171.75, 63.0], [173.25, 63.0], [173.25, 61.5], [171.75, 61.5]]]}, "properties": {"cell_id": "115_101", "lon": 172.5, "lat": 62.25}}, {"type": "Feature", "geometry": {"type": "Polygon", "coordinates": [[[171.75, 63.0], [171.75, 64.5], [173.25, 64.5], [173.25, 63.0], [171.75, 63.0]]]}, "properties": {"cell_id": "115_102", "lon": 172.5, "lat": 63.75}}, {"type": "Feature", "geometry": {"type": "Polygon", "coordinates": [[[171.75, 64.5], [171.75, 66.0], [173.25, 66.0], [173.25, 64.5], [171.75, 64.5]]]}, "properties": {"cell_id": "115_103", "lon": 172.5, "lat": 65.25}}, {"type": "Feature", "geometry": {"type": "Polygon", "coordinates": [[[171.75, 66.0], [171.75, 67.5], [173.25, 67.5], [173.25, 66.0], [171.75, 66.0]]]}, "properties": {"cell_id": "115_104", "lon": 172.5, "lat": 66.75}}, {"type": "Feature", "geometry": {"type": "Polygon", "coordinates": [[[171.75, 67.5], [171.75, 69.0], [173.25, 69.0], [173.25, 67.5], [171.75, 67.5]]]}, "properties": {"cell_id": "115_105", "lon": 172.5, "lat": 68.25}}, {"type": "Feature", "geometry": {"type": "Polygon", "coordinates": [[[171.75, 69.0], [171.75, 70.5], [173.25, 70.5], [173.25, 69.0], [171.75, 69.0]]]}, "properties": {"cell_id": "115_106", "lon": 172.5, "lat": 69.75}}, {"type": "Feature", "geometry": {"type": "Polygon", "coordinates": [[[173.25, 60.0], [173.25, 61.5], [174.75, 61.5], [174.75, 60.0], [173.25, 60.0]]]}, "properties": {"cell_id": "116_100", "lon": 174.0, "lat": 60.75}}, {"type": "Feature", "geometry": {"type": "Polygon", "coordinates": [[[173.25, 61.5], [173.25, 63.0], [174.75, 63.0], [174.75, 61.5], [173.25, 61.5]]]}, "properties": {"cell_id": "116_101", "lon": 174.0, "lat": 62.25}}, {"type": "Feature", "geometry": {"type": "Polygon", "coordinates": [[[173.25, 63.0], [173.25, 64.5], [174.75, 64.5], [174.75, 63.0], [173.25, 63.0]]]}, "properties": {"cell_id": "116_102", "lon": 174.0, "lat": 63.75}}, {"type": "Feature", "geometry": {"type": "Polygon", "coordinates": [[[173.25, 64.5], [173.25, 66.0], [174.75, 66.0], [174.75, 64.5], [173.25, 64.5]]]}, "properties": {"cell_id": "116_103", "lon": 174.0, "lat": 65.25}}, {"type": "Feature", "geometry": {"type": "Polygon", "coordinates": [[[173.25, 66.0], [173.25, 67.5], [174.75, 67.5], [174.75, 66.0], [173.25, 66.0]]]}, "properties": {"cell_id": "116_104", "lon": 174.0, "lat": 66.75}}, {"type": "Feature", "geometry": {"type": "Polygon", "coordinates": [[[173.25, 67.5], [173.25, 69.0], [174.75, 69.0], [174.75, 67.5], [173.25, 67.5]]]}, "properties": {"cell_id": "116_105", "lon": 174.0, "lat": 68.25}}, {"type": "Feature", "geometry": {"type": "Polygon", "coordinates": [[[173.25, 69.0], [173.25, 70.5], [174.75, 70.5], [174.75, 69.0], [173.25, 69.0]]]}, "properties": {"cell_id": "116_106", "lon": 174.0, "lat": 69.75}}, {"type": "Feature", "geometry": {"type": "Polygon", "coordinates": [[[174.75, 60.0], [174.75, 61.5], [176.25, 61.5], [176.25, 60.0], [174.75, 60.0]]]}, "properties": {"cell_id": "117_100", "lon": 175.5, "lat": 60.75}}, {"type": "Feature", "geometry": {"type": "Polygon", "coordinates": [[[174.75, 61.5], [174.75, 63.0], [176.25, 63.0], [176.25, 61.5], [174.75, 61.5]]]}, "properties": {"cell_id": "117_101", "lon": 175.5, "lat": 62.25}}, {"type": "Feature", "geometry": {"type": "Polygon", "coordinates": [[[174.75, 63.0], [174.75, 64.5], [176.25, 64.5], [176.25, 63.0], [174.75, 63.0]]]}, "properties": {"cell_id": "117_102", "lon": 175.5, "lat": 63.75}}, {"type": "Feature", "geometry": {"type": "Polygon", "coordinates": [[[174.75, 64.5], [174.75, 66.0], [176.25, 66.0], [176.25, 64.5], [174.75, 64.5]]]}, "properties": {"cell_id": "117_103", "lon": 175.5, "lat": 65.25}}, {"type": "Feature", "geometry": {"type": "Polygon", "coordinates": [[[174.75, 66.0], [174.75, 67.5], [176.25, 67.5], [176.25, 66.0], [174.75, 66.0]]]}, "properties": {"cell_id": "117_104", "lon": 175.5, "lat": 66.75}}, {"type": "Feature", "geometry": {"type": "Polygon", "coordinates": [[[174.75, 67.5], [174.75, 69.0], [176.25, 69.0], [176.25, 67.5], [174.75, 67.5]]]}, "properties": {"cell_id": "117_105", "lon": 175.5, "lat": 68.25}}, {"type": "Feature", "geometry": {"type": "Polygon", "coordinates": [[[174.75, 69.0], [174.75, 70.5], [176.25, 70.5], [176.25, 69.0], [174.75, 69.0]]]}, "properties": {"cell_id": "117_106", "lon": 175.5, "lat": 69.75}}, {"type": "Feature", "geometry": {"type": "Polygon", "coordinates": [[[176.25, 60.0], [176.25, 61.5], [177.75, 61.5], [177.75, 60.0], [176.25, 60.0]]]}, "properties": {"cell_id": "118_100", "lon": 177.0, "lat": 60.75}}, {"type": "Feature", "geometry": {"type": "Polygon", "coordinates": [[[176.25, 61.5], [176.25, 63.0], [177.75, 63.0], [177.75, 61.5], [176.25, 61.5]]]}, "properties": {"cell_id": "118_101", "lon": 177.0, "lat": 62.25}}, {"type": "Feature", "geometry": {"type": "Polygon", "coordinates": [[[176.25, 63.0], [176.25, 64.5], [177.75, 64.5], [177.75, 63.0], [176.25, 63.0]]]}, "properties": {"cell_id": "118_102", "lon": 177.0, "lat": 63.75}}, {"type": "Feature", "geometry": {"type": "Polygon", "coordinates": [[[176.25, 64.5], [176.25, 66.0], [177.75, 66.0], [177.75, 64.5], [176.25, 64.5]]]}, "properties": {"cell_id": "118_103", "lon": 177.0, "lat": 65.25}}, {"type": "Feature", "geometry": {"type": "Polygon", "coordinates": [[[176.25, 66.0], [176.25, 67.5], [177.75, 67.5], [177.75, 66.0], [176.25, 66.0]]]}, "properties": {"cell_id": "118_104", "lon": 177.0, "lat": 66.75}}, {"type": "Feature", "geometry": {"type": "Polygon", "coordinates": [[[176.25, 67.5], [176.25, 69.0], [177.75, 69.0], [177.75, 67.5], [176.25, 67.5]]]}, "properties": {"cell_id": "118_105", "lon": 177.0, "lat": 68.25}}, {"type": "Feature", "geometry": {"type": "Polygon", "coordinates": [[[176.25, 69.0], [176.25, 70.5], [177.75, 70.5], [177.75, 69.0], [176.25, 69.0]]]}, "properties": {"cell_id": "118_106", "lon": 177.0, "lat": 69.75}}, {"type": "Feature", "geometry": {"type": "Polygon", "coordinates": [[[177.75, 60.0], [177.75, 61.5], [179.25, 61.5], [179.25, 60.0], [177.75, 60.0]]]}, "properties": {"cell_id": "119_100", "lon": 178.5, "lat": 60.75}}, {"type": "Feature", "geometry": {"type": "Polygon", "coordinates": [[[177.75, 61.5], [177.75, 63.0], [179.25, 63.0], [179.25, 61.5], [177.75, 61.5]]]}, "properties": {"cell_id": "119_101", "lon": 178.5, "lat": 62.25}}, {"type": "Feature", "geometry": {"type": "Polygon", "coordinates": [[[177.75, 63.0], [177.75, 64.5], [179.25, 64.5], [179.25, 63.0], [177.75, 63.0]]]}, "properties": {"cell_id": "119_102", "lon": 178.5, "lat": 63.75}}, {"type": "Feature", "geometry": {"type": "Polygon", "coordinates": [[[177.75, 64.5], [177.75, 66.0], [179.25, 66.0], [179.25, 64.5], [177.75, 64.5]]]}, "properties": {"cell_id": "119_103", "lon": 178.5, "lat": 65.25}}, {"type": "Feature", "geometry": {"type": "Polygon", "coordinates": [[[177.75, 66.0], [177.75, 67.5], [179.25, 67.5], [179.25, 66.0], [177.75, 66.0]]]}, "properties": {"cell_id": "119_104", "lon": 178.5, "lat": 66.75}}, {"type": "Feature", "geometry": {"type": "Polygon", "coordinates": [[[177.75, 67.5], [177.75, 69.0], [179.25, 69.0], [179.25, 67.5], [177.75, 67.5]]]}, "properties": {"cell_id": "119_105", "lon": 178.5, "lat": 68.25}}, {"type": "Feature", "geometry": {"type": "Polygon", "coordinates": [[[177.75, 69.0], [177.75, 70.5], [179.25, 70.5], [179.25, 69.0], [177.75, 69.0]]]}, "properties": {"cell_id": "119_106", "lon": 178.5, "lat": 69.75}}, {"type": "Feature", "geometry": {"type": "Polygon", "coordinates": [[[179.25, 63.0], [179.25, 64.5], [180.75, 64.5], [180.75, 63.0], [179.25, 63.0]]]}, "properties": {"cell_id": "120_102", "lon": 180.0, "lat": 63.75}}, {"type": "Feature", "geometry": {"type": "Polygon", "coordinates": [[[179.25, 64.5], [179.25, 66.0], [180.75, 66.0], [180.75, 64.5], [179.25, 64.5]]]}, "properties": {"cell_id": "120_103", "lon": 180.0, "lat": 65.25}}, {"type": "Feature", "geometry": {"type": "Polygon", "coordinates": [[[179.25, 66.0], [179.25, 67.5], [180.75, 67.5], [180.75, 66.0], [179.25, 66.0]]]}, "properties": {"cell_id": "120_104", "lon": 180.0, "lat": 66.75}}, {"type": "Feature", "geometry": {"type": "Polygon", "coordinates": [[[179.25, 67.5], [179.25, 69.0], [180.75, 69.0], [180.75, 67.5], [179.25, 67.5]]]}, "properties": {"cell_id": "120_105", "lon": 180.0, "lat": 68.25}}, {"type": "Feature", "geometry": {"type": "Polygon", "coordinates": [[[179.25, 69.0], [179.25, 70.5], [180.75, 70.5], [180.75, 69.0], [179.25, 69.0]]]}, "properties": {"cell_id": "120_106", "lon": 180.0, "lat": 69.75}}]}