{"type": "FeatureCollection", "features": [{"type": "Feature", "geometry": {"type": "Polygon", "coordinates": [[[60.75, 30.0], [60.75, 31.5], [62.25, 31.5], [62.25, 30.0], [60.75, 30.0]]]}, "properties": {"cell_id": "41_80", "lon": 61.5, "lat": 30.75}}, {"type": "Feature", "geometry": {"type": "Polygon", "coordinates": [[[60.75, 31.5], [60.75, 33.0], [62.25, 33.0], [62.25, 31.5], [60.75, 31.5]]]}, "properties": {"cell_id": "41_81", "lon": 61.5, "lat": 32.25}}, {"type": "Feature", "geometry": {"type": "Polygon", "coordinates": [[[60.75, 33.0], [60.75, 34.5], [62.25, 34.5], [62.25, 33.0], [60.75, 33.0]]]}, "properties": {"cell_id": "41_82", "lon": 61.5, "lat": 33.75}}, {"type": "Feature", "geometry": {"type": "Polygon", "coordinates": [[[60.75, 34.5], [60.75, 36.0], [62.25, 36.0], [62.25, 34.5], [60.75, 34.5]]]}, "properties": {"cell_id": "41_83", "lon": 61.5, "lat": 35.25}}, {"type": "Feature", "geometry": {"type": "Polygon", "coordinates": [[[60.75, 36.0], [60.75, 37.5], [62.25, 37.5], [62.25, 36.0], [60.75, 36.0]]]}, "properties": {"cell_id": "41_84", "lon": 61.5, "lat": 36.75}}, {"type": "Feature", "geometry": {"type": "Polygon", "coordinates": [[[60.75, 37.5], [60.75, 39.0], [62.25, 39.0], [62.25, 37.5], [60.75, 37.5]]]}, "properties": {"cell_id": "41_85", "lon": 61.5, "lat": 38.25}}, {"type": "Feature", "geometry": {"type": "Polygon", "coordinates": [[[60.75, 39.0], [60.75, 40.5], [62.25, 40.5], [62.25, 39.0], [60.75, 39.0]]]}, "properties": {"cell_id": "41_86", "lon": 61.5, "lat": 39.75}}, {"type": "Feature", "geometry": {"type": "Polygon", "coordinates": [[[62.25, 30.0], [62.25, 31.5], [63.75, 31.5], [63.75, 30.0], [62.25, 30.0]]]}, "properties": {"cell_id": "42_80", "lon": 63.0, "lat": 30.75}}, {"type": "Feature", "geometry": {"type": "Polygon", "coordinates": [[[62.25, 31.5], [62.25, 33.0], [63.75, 33.0], [63.75, 31.5], [62.25, 31.5]]]}, "properties": {"cell_id": "42_81", "lon": 63.0, "lat": 32.25}}, {"type": "Feature", "geometry": {"type": "Polygon", "coordinates": [[[62.25, 33.0], [62.25, 34.5], [63.75, 34.5], [63.75, 33.0], [62.25, 33.0]]]}, "properties": {"cell_id": "42_82", "lon": 63.0, "lat": 33.75}}, {"type": "Feature", "geometry": {"type": "Polygon", "coordinates": [[[62.25, 34.5], [62.25, 36.0], [63.75, 36.0], [63.75, 34.5], [62.25, 34.5]]]}, "properties": {"cell_id": "42_83", "lon": 63.0, "lat": 35.25}}, {"type": "Feature", "geometry": {"type": "Polygon", "coordinates": [[[62.25, 36.0], [62.25, 37.5], [63.75, 37.5], [63.75, 36.0], [62.25, 36.0]]]}, "properties": {"cell_id": "42_84", "lon": 63.0, "lat": 36.75}}, {"type": "Feature", "geometry": {"type": "Polygon", "coordinates": [[[62.25, 37.5], [62.25, 39.0], [63.75, 39.0], [63.75, 37.5], [62.25, 37.5]]]}, "properties": {"cell_id": "42_85", "lon": 63.0, "lat": 38.25}}, {"type": "Feature", "geometry": {"type": "Polygon", "coordinates": [[[62.25, 39.0], [62.25, 40.5], [63.75, 40.5], [63.75, 39.0], [62.25, 39.0]]]}, "properties": {"cell_id": "42_86", "lon": 63.0, "lat": 39.75}}, {"type": "Feature", "geometry": {"type": "Polygon", "coordinates": [[[63.75, 30.0], [63.75, 31.5], [65.25, 31.5], [65.25, 30.0], [63.75, 30.0]]]}, "properties": {"cell_id": "43_80", "lon": 64.5, "lat": 30.75}}, {"type": "Feature", "geometry": {"type": "Polygon", "coordinates": [[[63.75, 31.5], [63.75, 33.0], [65.25, 33.0], [65.25, 31.5], [63.75, 31.5]]]}, "properties": {"cell_id": "43_81", "lon": 64.5, "lat": 32.25}}, {"type": "Feature", "geometry": {"type": "Polygon", "coordinates": [[[63.75, 33.0], [63.75, 34.5], [65.25, 34.5], [65.25, 33.0], [63.75, 33.0]]]}, "properties": {"cell_id": "43_82", "lon": 64.5, "lat": 33.75}}, {"type": "Feature", "geometry": {"type": "Polygon", "coordinates": [[[63.75, 34.5], [63.75, 36.0], [65.25, 36.0], [65.25, 34.5], [63.75, 34.5]]]}, "properties": {"cell_id": "43_83", "lon": 64.5, "lat": 35.25}}, {"type": "Feature", "geometry": {"type": "Polygon", "coordinates": [[[63.75, 36.0], [63.75, 37.5], [65.25, 37.5], [65.25, 36.0], [63.75, 36.0]]]}, "properties": {"cell_id": "43_84", "lon": 64.5, "lat": 36.75}}, {"type": "Feature", "geometry": {"type": "Polygon", "coordinates": [[[63.75, 37.5], [63.75, 39.0], [65.25, 39.0], [65.25, 37.5], [63.75, 37.5]]]}, "properties": {"cell_id": "43_85", "lon": 64.5, "lat": 38.25}}, {"type": "Feature", "geometry": {"type": "Polygon", "coordinates": [[[63.75, 39.0], [63.75, 40.5], [65.25, 40.5], [65.25, 39.0], [63.75, 39.0]]]}, "properties": {"cell_id": "43_86", "lon": 64.5, "lat": 39.75}}, {"type": "Feature", "geometry": {"type": "Polygon", "coordinates": [[[65.25, 30.0], [65.25, 31.5], [66.75, 31.5], [66.75, 30.0], [65.25, 30.0]]]}, "properties": {"cell_id": "44_80", "lon": 66.0, "lat": 30.75}}, {"type": "Feature", "geometry": {"type": "Polygon", "coordinates": [[[65.25, 31.5], [65.25, 33.0], [66.75, 33.0], [66.75, 31.5], [65.25, 31.5]]]}, "properties": {"cell_id": "44_81", "lon": 66.0, "lat": 32.25}}, {"type": "Feature", "geometry": {"type": "Polygon", "coordinates": [[[65.25, 33.0], [65.25, 34.5], [66.75, 34.5], [66.75, 33.0], [65.25, 33.0]]]}, "properties": {"cell_id": "44_82", "lon": 66.0, "lat": 33.75}}, {"type": "Feature", "geometry": {"type": "Polygon", "coordinates": [[[65.25, 34.5], [65.25, 36.0], [66.75, 36.0], [66.75, 34.5], [65.25, 34.5]]]}, "properties": {"cell_id": "44_83", "lon": 66.0, "lat": 35.25}}, {"type": "Feature", "geometry": {"type": "Polygon", "coordinates": [[[65.25, 36.0], [65.25, 37.5], [66.75, 37.5], [66.75, 36.0], [65.25, 36.0]]]}, "properties": {"cell_id": "44_84", "lon": 66.0, "lat": 36.75}}, {"type": "Feature", "geometry": {"type": "Polygon", "coordinates": [[[65.25, 37.5], [65.25, 39.0], [66.75, 39.0], [66.75, 37.5], [65.25, 37.5]]]}, "properties": {"cell_id": "44_85", "lon": 66.0, "lat": 38.25}}, {"type": "Feature", "geometry": {"type": "Polygon", "coordinates": [[[65.25, 39.0], [65.25, 40.5], [66.75, 40.5], [66.75, 39.0], [65.25, 39.0]]]}, "properties": {"cell_id": "44_86", "lon": 66.0, "lat": 39.75}}, {"type": "Feature", "geometry": {"type": "Polygon", "coordinates": [[[66.75, 30.0], [66.75, 31.5], [68.25, 31.5], [68.25, 30.0], [66.75, 30.0]]]}, "properties": {"cell_id": "45_80", "lon": 67.5, "lat": 30.75}}, {"type": "Feature", "geometry": {"type": "Polygon", "coordinates": [[[66.75, 31.5], [66.75, 33.0], [68.25, 33.0], [68.25, 31.5], [66.75, 31.5]]]}, "properties": {"cell_id": "45_81", "lon": 67.5, "lat": 32.25}}, {"type": "Feature", "geometry": {"type": "Polygon", "coordinates": [[[66.75, 33.0], [66.75, 34.5], [68.25, 34.5], [68.25, 33.0], [66.75, 33.0]]]}, "properties": {"cell_id": "45_82", "lon": 67.5, "lat": 33.75}}, {"type": "Feature", "geometry": {"type": "Polygon", "coordinates": [[[66.75, 34.5], [66.75, 36.0], [68.25, 36.0], [68.25, 34.5], [66.75, 34.5]]]}, "properties": {"cell_id": "45_83", "lon": 67.5, "lat": 35.25}}, {"type": "Feature", "geometry": {"type": "Polygon", "coordinates": [[[66.75, 36.0], [66.75, 37.5], [68.25, 37.5], [68.25, 36.0], [66.75, 36.0]]]}, "properties": {"cell_id": "45_84", "lon": 67.5, "lat": 36.75}}, {"type": "Feature", "geometry": {"type": "Polygon", "coordinates": [[[66.75, 37.5], [66.75, 39.0], [68.25, 39.0], [68.25, 37.5], [66.75, 37.5]]]}, "properties": {"cell_id": "45_85", "lon": 67.5, "lat": 38.25}}, {"type": "Feature", "geometry": {"type": "Polygon", "coordinates": [[[66.75, 39.0], [66.75, 40.5], [68.25, 40.5], [68.25, 39.0], [66.75, 39.0]]]}, "properties": {"cell_id": "45_86", "lon": 67.5, "lat": 39.75}}, {"type": "Feature", "geometry": {"type": "Polygon", "coordinates": [[[68.25, 30.0], [68.25, 31.5], [69.75, 31.5], [69.75, 30.0], [68.25, 30.0]]]}, "properties": {"cell_id": "46_80", "lon": 69.0, "lat": 30.75}}, {"type": "Feature", "geometry": {"type": "Polygon", "coordinates": [[[68.25, 31.5], [68.25, 33.0], [69.75, 33.0], [69.75, 31.5], [68.25, 31.5]]]}, "properties": {"cell_id": "46_81", "lon": 69.0, "lat": 32.25}}, {"type": "Feature", "geometry": {"type": "Polygon", "coordinates": [[[68.25, 33.0], [68.25, 34.5], [69.75, 34.5], [69.75, 33.0], [68.25, 33.0]]]}, "properties": {"cell_id": "46_82", "lon": 69.0, "lat": 33.75}}, {"type": "Feature", "geometry": {"type": "Polygon", "coordinates": [[[68.25, 34.5], [68.25, 36.0], [69.75, 36.0], [69.75, 34.5], [68.25, 34.5]]]}, "properties": {"cell_id": "46_83", "lon": 69.0, "lat": 35.25}}, {"type": "Feature", "geometry": {"type": "Polygon", "coordinates": [[[68.25, 36.0], [68.25, 37.5], [69.75, 37.5], [69.75, 36.0], [68.25, 36.0]]]}, "properties": {"cell_id": "46_84", "lon": 69.0, "lat": 36.75}}, {"type": "Feature", "geometry": {"type": "Polygon", "coordinates": [[[68.25, 37.5], [68.25, 39.0], [69.75, 39.0], [69.75, 37.5], [68.25, 37.5]]]}, "properties": {"cell_id": "46_85", "lon": 69.0, "lat": 38.25}}, {"type": "Feature", "geometry": {"type": "Polygon", "coordinates": [[[68.25, 39.0], [68.25, 40.5], [69.75, 40.5], [69.75, 39.0], [68.25, 39.0]]]}, "properties": {"cell_id": "46_86", "lon": 69.0, "lat": 39.75}}, {"type": "Feature", "geometry": {"type": "Polygon", "coordinates": [[[69.75, 30.0], [69.75, 31.5], [71.25, 31.5], [71.25, 30.0], [69.75, 30.0]]]}, "properties": {"cell_id": "47_80", "lon": 70.5, "lat": 30.75}}, {"type": "Feature", "geometry": {"type": "Polygon", "coordinates": [[[69.75, 31.5], [69.75, 33.0], [71.25, 33.0], [71.25, 31.5], [69.75, 31.5]]]}, "properties": {"cell_id": "47_81", "lon": 70.5, "lat": 32.25}}, {"type": "Feature", "geometry": {"type": "Polygon", "coordinates": [[[69.75, 33.0], [69.75, 34.5], [71.25, 34.5], [71.25, 33.0], [69.75, 33.0]]]}, "properties": {"cell_id": "47_82", "lon": 70.5, "lat": 33.75}}, {"type": "Feature", "geometry": {"type": "Polygon", "coordinates": [[[69.75, 34.5], [69.75, 36.0], [71.25, 36.0], [71.25, 34.5], [69.75, 34.5]]]}, "properties": {"cell_id": "47_83", "lon": 70.5, "lat": 35.25}}, {"type": "Feature", "geometry": {"type": "Polygon", "coordinates": [[[69.75, 36.0], [69.75, 37.5], [71.25, 37.5], [71.25, 36.0], [69.75, 36.0]]]}, "properties": {"cell_id": "47_84", "lon": 70.5, "lat": 36.75}}, {"type": "Feature", "geometry": {"type": "Polygon", "coordinates": [[[69.75, 37.5], [69.75, 39.0], [71.25, 39.0], [71.25, 37.5], [69.75, 37.5]]]}, "properties": {"cell_id": "47_85", "lon": 70.5, "lat": 38.25}}, {"type": "Feature", "geometry": {"type": "Polygon", "coordinates": [[[69.75, 39.0], [69.75, 40.5], [71.25, 40.5], [71.25, 39.0], [69.75, 39.0]]]}, "properties": {"cell_id": "47_86", "lon": 70.5, "lat": 39.75}}]}