{"type": "FeatureCollection", "features": [{"type": "Feature", "geometry": {"type": "Polygon", "coordinates": [[[-119.25, 72.0], [-119.25, 73.5], [-117.75, 73.5], [-117.75, 72.0], [-119.25, 72.0]]]}, "properties": {"cell_id": "161_108", "lon": -118.5, "lat": 72.75}}, {"type": "Feature", "geometry": {"type": "Polygon", "coordinates": [[[-119.25, 73.5], [-119.25, 75.0], [-117.75, 75.0], [-117.75, 73.5], [-119.25, 73.5]]]}, "properties": {"cell_id": "161_109", "lon": -118.5, "lat": 74.25}}, {"type": "Feature", "geometry": {"type": "Polygon", "coordinates": [[[-119.25, 75.0], [-119.25, 76.5], [-117.75, 76.5], [-117.75, 75.0], [-119.25, 75.0]]]}, "properties": {"cell_id": "161_110", "lon": -118.5, "lat": 75.75}}, {"type": "Feature", "geometry": {"type": "Polygon", "coordinates": [[[-117.75, 70.5], [-117.75, 72.0], [-116.25, 72.0], [-116.25, 70.5], [-117.75, 70.5]]]}, "properties": {"cell_id": "162_107", "lon": -117.0, "lat": 71.25}}, {"type": "Feature", "geometry": {"type": "Polygon", "coordinates": [[[-117.75, 72.0], [-117.75, 73.5], [-116.25, 73.5], [-116.25, 72.0], [-117.75, 72.0]]]}, "properties": {"cell_id": "162_108", "lon": -117.0, "lat": 72.75}}, {"type": "Feature", "geometry": {"type": "Polygon", "coordinates": [[[-117.75, 73.5], [-117.75, 75.0], [-116.25, 75.0], [-116.25, 73.5], [-117.75, 73.5]]]}, "properties": {"cell_id": "162_109", "lon": -117.0, "lat": 74.25}}, {"type": "Feature", "geometry": {"type": "Polygon", "coordinates": [[[-117.75, 75.0], [-117.75, 76.5], [-116.25, 76.5], [-116.25, 75.0], [-117.75, 75.0]]]}, "properties": {"cell_id": "162_110", "lon": -117.0, "lat": 75.75}}, {"type": "Feature", "geometry": {"type": "Polygon", "coordinates": [[[-116.25, 70.5], [-116.25, 72.0], [-114.75, 72.0], [-114.75, 70.5], [-116.25, 70.5]]]}, "properties": {"cell_id": "163_107", "lon": -115.5, "lat": 71.25}}, {"type": "Feature", "geometry": {"type": "Polygon", "coordinates": [[[-116.25, 72.0], [-116.25, 73.5], [-114.75, 73.5], [-114.75, 72.0], [-116.25, 72.0]]]}, "properties": {"cell_id": "163_108", "lon": -115.5, "lat": 72.75}}, {"type": "Feature", "geometry": {"type": "Polygon", "coordinates": [[[-116.25, 73.5], [-116.25, 75.0], [-114.75, 75.0], [-114.75, 73.5], [-116.25, 73.5]]]}, "properties": {"cell_id": "163_109", "lon": -115.5, "lat": 74.25}}, {"type": "Feature", "geometry": {"type": "Polygon", "coordinates": [[[-116.25, 75.0], [-116.25, 76.5], [-114.75, 76.5], [-114.75, 75.0], [-116.25, 75.0]]]}, "properties": {"cell_id": "163_110", "lon": -115.5, "lat": 75.75}}, {"type": "Feature", "geometry": {"type": "Polygon", "coordinates": [[[-114.75, 70.5], [-114.75, 72.0], [-113.25, 72.0], [-113.25, 70.5], [-114.75, 70.5]]]}, "properties": {"cell_id": "164_107", "lon": -114.0, "lat": 71.25}}, {"type": "Feature", "geometry": {"type": "Polygon", "coordinates": [[[-114.75, 72.0], [-114.75, 73.5], [-113.25, 73.5], [-113.25, 72.0], [-114.75, 72.0]]]}, "properties": {"cell_id": "164_108", "lon": -114.0, "lat": 72.75}}, {"type": "Feature", "geometry": {"type": "Polygon", "coordinates": [[[-114.75, 73.5], [-114.75, 75.0], [-113.25, 75.0], [-113.25, 73.5], [-114.75, 73.5]]]}, "properties": {"cell_id": "164_109", "lon": -114.0, "lat": 74.25}}, {"type": "Feature", "geometry": {"type": "Polygon", "coordinates": [[[-114.75, 75.0], [-114.75, 76.5], [-113.25, 76.5], [-113.25, 75.0], [-114.75, 75.0]]]}, "properties": {"cell_id": "164_110", "lon": -114.0, "lat": 75.75}}, {"type": "Feature", "geometry": {"type": "Polygon", "coordinates": [[[-113.25, 70.5], [-113.25, 72.0], [-111.75, 72.0], [-111.75, 70.5], [-113.25, 70.5]]]}, "properties": {"cell_id": "165_107", "lon": -112.5, "lat": 71.25}}, {"type": "Feature", "geometry": {"type": "Polygon", "coordinates": [[[-113.25, 72.0], [-113.25, 73.5], [-111.75, 73.5], [-111.75, 72.0], [-113.25, 72.0]]]}, "properties": {"cell_id": "165_108", "lon": -112.5, "lat": 72.75}}, {"type": "Feature", "geometry": {"type": "Polygon", "coordinates": [[[-111.75, 70.5], [-111.75, 72.0], [-110.25, 72.0], [-110.25, 70.5], [-111.75, 70.5]]]}, "properties": {"cell_id": "166_107", "lon": -111.0, "lat": 71.25}}, {"type": "Feature", "geometry": {"type": "Polygon", "coordinates": [[[-111.75, 72.0], [-111.75, 73.5], [-110.25, 73.5], [-110.25, 72.0], [-111.75, 72.0]]]}, "properties": {"cell_id": "166_108", "lon": -111.0, "lat": 72.75}}, {"type": "Feature", "geometry": {"type": "Polygon", "coordinates": [[[-110.25, 70.5], [-110.25, 72.0], [-108.75, 72.0], [-108.75, 70.5], [-110.25, 70.5]]]}, "properties": {"cell_id": "167_107", "lon": -109.5, "lat": 71.25}}, {"type": "Feature", "geometry": {"type": "Polygon", "coordinates": [[[-110.25, 72.0], [-110.25, 73.5], [-108.75, 73.5], [-108.75, 72.0], [-110.25, 72.0]]]}, "properties": {"cell_id": "167_108", "lon": -109.5, "lat": 72.75}}]}