{"type": "FeatureCollection", "features": [{"type": "Feature", "geometry": {"type": "Polygon", "coordinates": [[[90.75, 51.0], [90.75, 52.5], [92.25, 52.5], [92.25, 51.0], [90.75, 51.0]]]}, "properties": {"cell_id": "61_94", "lon": 91.5, "lat": 51.75}}, {"type": "Feature", "geometry": {"type": "Polygon", "coordinates": [[[90.75, 52.5], [90.75, 54.0], [92.25, 54.0], [92.25, 52.5], [90.75, 52.5]]]}, "properties": {"cell_id": "61_95", "lon": 91.5, "lat": 53.25}}, {"type": "Feature", "geometry": {"type": "Polygon", "coordinates": [[[90.75, 54.0], [90.75, 55.5], [92.25, 55.5], [92.25, 54.0], [90.75, 54.0]]]}, "properties": {"cell_id": "61_96", "lon": 91.5, "lat": 54.75}}, {"type": "Feature", "geometry": {"type": "Polygon", "coordinates": [[[90.75, 55.5], [90.75, 57.0], [92.25, 57.0], [92.25, 55.5], [90.75, 55.5]]]}, "properties": {"cell_id": "61_97", "lon": 91.5, "lat": 56.25}}, {"type": "Feature", "geometry": {"type": "Polygon", "coordinates": [[[90.75, 57.0], [90.75, 58.5], [92.25, 58.5], [92.25, 57.0], [90.75, 57.0]]]}, "properties": {"cell_id": "61_98", "lon": 91.5, "lat": 57.75}}, {"type": "Feature", "geometry": {"type": "Polygon", "coordinates": [[[90.75, 58.5], [90.75, 60.0], [92.25, 60.0], [92.25, 58.5], [90.75, 58.5]]]}, "properties": {"cell_id": "61_99", "lon": 91.5, "lat": 59.25}}, {"type": "Feature", "geometry": {"type": "Polygon", "coordinates": [[[92.25, 51.0], [92.25, 52.5], [93.75, 52.5], [93.75, 51.0], [92.25, 51.0]]]}, "properties": {"cell_id": "62_94", "lon": 93.0, "lat": 51.75}}, {"type": "Feature", "geometry": {"type": "Polygon", "coordinates": [[[92.25, 52.5], [92.25, 54.0], [93.75, 54.0], [93.75, 52.5], [92.25, 52.5]]]}, "properties": {"cell_id": "62_95", "lon": 93.0, "lat": 53.25}}, {"type": "Feature", "geometry": {"type": "Polygon", "coordinates": [[[92.25, 54.0], [92.25, 55.5], [93.75, 55.5], [93.75, 54.0], [92.25, 54.0]]]}, "properties": {"cell_id": "62_96", "lon": 93.0, "lat": 54.75}}, {"type": "Feature", "geometry": {"type": "Polygon", "coordinates": [[[92.25, 55.5], [92.25, 57.0], [93.75, 57.0], [93.75, 55.5], [92.25, 55.5]]]}, "properties": {"cell_id": "62_97", "lon": 93.0, "lat": 56.25}}, {"type": "Feature", "geometry": {"type": "Polygon", "coordinates": [[[92.25, 57.0], [92.25, 58.5], [93.75, 58.5], [93.75, 57.0], [92.25, 57.0]]]}, "properties": {"cell_id": "62_98", "lon": 93.0, "lat": 57.75}}, {"type": "Feature", "geometry": {"type": "Polygon", "coordinates": [[[92.25, 58.5], [92.25, 60.0], [93.75, 60.0], [93.75, 58.5], [92.25, 58.5]]]}, "properties": {"cell_id": "62_99", "lon": 93.0, "lat": 59.25}}, {"type": "Feature", "geometry": {"type": "Polygon", "coordinates": [[[93.75, 51.0], [93.75, 52.5], [95.25, 52.5], [95.25, 51.0], [93.75, 51.0]]]}, "properties": {"cell_id": "63_94", "lon": 94.5, "lat": 51.75}}, {"type": "Feature", "geometry": {"type": "Polygon", "coordinates": [[[93.75, 52.5], [93.75, 54.0], [95.25, 54.0], [95.25, 52.5], [93.75, 52.5]]]}, "properties": {"cell_id": "63_95", "lon": 94.5, "lat": 53.25}}, {"type": "Feature", "geometry": {"type": "Polygon", "coordinates": [[[93.75, 54.0], [93.75, 55.5], [95.25, 55.5], [95.25, 54.0], [93.75, 54.0]]]}, "properties": {"cell_id": "63_96", "lon": 94.5, "lat": 54.75}}, {"type": "Feature", "geometry": {"type": "Polygon", "coordinates": [[[93.75, 55.5], [93.75, 57.0], [95.25, 57.0], [95.25, 55.5], [93.75, 55.5]]]}, "properties": {"cell_id": "63_97", "lon": 94.5, "lat": 56.25}}, {"type": "Feature", "geometry": {"type": "Polygon", "coordinates": [[[93.75, 57.0], [93.75, 58.5], [95.25, 58.5], [95.25, 57.0], [93.75, 57.0]]]}, "properties": {"cell_id": "63_98", "lon": 94.5, "lat": 57.75}}, {"type": "Feature", "geometry": {"type": "Polygon", "coordinates": [[[93.75, 58.5], [93.75, 60.0], [95.25, 60.0], [95.25, 58.5], [93.75, 58.5]]]}, "properties": {"cell_id": "63_99", "lon": 94.5, "lat": 59.25}}, {"type": "Feature", "geometry": {"type": "Polygon", "coordinates": [[[95.25, 51.0], [95.25, 52.5], [96.75, 52.5], [96.75, 51.0], [95.25, 51.0]]]}, "properties": {"cell_id": "64_94", "lon": 96.0, "lat": 51.75}}, {"type": "Feature", "geometry": {"type": "Polygon", "coordinates": [[[95.25, 52.5], [95.25, 54.0], [96.75, 54.0], [96.75, 52.5], [95.25, 52.5]]]}, "properties": {"cell_id": "64_95", "lon": 96.0, "lat": 53.25}}, {"type": "Feature", "geometry": {"type": "Polygon", "coordinates": [[[95.25, 54.0], [95.25, 55.5], [96.75, 55.5], [96.75, 54.0], [95.25, 54.0]]]}, "properties": {"cell_id": "64_96", "lon": 96.0, "lat": 54.75}}, {"type": "Feature", "geometry": {"type": "Polygon", "coordinates": [[[95.25, 55.5], [95.25, 57.0], [96.75, 57.0], [96.75, 55.5], [95.25, 55.5]]]}, "properties": {"cell_id": "64_97", "lon": 96.0, "lat": 56.25}}, {"type": "Feature", "geometry": {"type": "Polygon", "coordinates": [[[95.25, 57.0], [95.25, 58.5], [96.75, 58.5], [96.75, 57.0], [95.25, 57.0]]]}, "properties": {"cell_id": "64_98", "lon": 96.0, "lat": 57.75}}, {"type": "Feature", "geometry": {"type": "Polygon", "coordinates": [[[95.25, 58.5], [95.25, 60.0], [96.75, 60.0], [96.75, 58.5], [95.25, 58.5]]]}, "properties": {"cell_id": "64_99", "lon": 96.0, "lat": 59.25}}, {"type": "Feature", "geometry": {"type": "Polygon", "coordinates": [[[96.75, 51.0], [96.75, 52.5], [98.25, 52.5], [98.25, 51.0], [96.75, 51.0]]]}, "properties": {"cell_id": "65_94", "lon": 97.5, "lat": 51.75}}, {"type": "Feature", "geometry": {"type": "Polygon", "coordinates": [[[96.75, 52.5], [96.75, 54.0], [98.25, 54.0], [98.25, 52.5], [96.75, 52.5]]]}, "properties": {"cell_id": "65_95", "lon": 97.5, "lat": 53.25}}, {"type": "Feature", "geometry": {"type": "Polygon", "coordinates": [[[96.75, 54.0], [96.75, 55.5], [98.25, 55.5], [98.25, 54.0], [96.75, 54.0]]]}, "properties": {"cell_id": "65_96", "lon": 97.5, "lat": 54.75}}, {"type": "Feature", "geometry": {"type": "Polygon", "coordinates": [[[96.75, 55.5], [96.75, 57.0], [98.25, 57.0], [98.25, 55.5], [96.75, 55.5]]]}, "properties": {"cell_id": "65_97", "lon": 97.5, "lat": 56.25}}, {"type": "Feature", "geometry": {"type": "Polygon", "coordinates": [[[96.75, 57.0], [96.75, 58.5], [98.25, 58.5], [98.25, 57.0], [96.75, 57.0]]]}, "properties": {"cell_id": "65_98", "lon": 97.5, "lat": 57.75}}, {"type": "Feature", "geometry": {"type": "Polygon", "coordinates": [[[96.75, 58.5], [96.75, 60.0], [98.25, 60.0], [98.25, 58.5], [96.75, 58.5]]]}, "properties": {"cell_id": "65_99", "lon": 97.5, "lat": 59.25}}, {"type": "Feature", "geometry": {"type": "Polygon", "coordinates": [[[98.25, 51.0], [98.25, 52.5], [99.75, 52.5], [99.75, 51.0], [98.25, 51.0]]]}, "properties": {"cell_id": "66_94", "lon": 99.0, "lat": 51.75}}, {"type": "Feature", "geometry": {"type": "Polygon", "coordinates": [[[98.25, 52.5], [98.25, 54.0], [99.75, 54.0], [99.75, 52.5], [98.25, 52.5]]]}, "properties": {"cell_id": "66_95", "lon": 99.0, "lat": 53.25}}, {"type": "Feature", "geometry": {"type": "Polygon", "coordinates": [[[98.25, 54.0], [98.25, 55.5], [99.75, 55.5], [99.75, 54.0], [98.25, 54.0]]]}, "properties": {"cell_id": "66_96", "lon": 99.0, "lat": 54.75}}, {"type": "Feature", "geometry": {"type": "Polygon", "coordinates": [[[98.25, 55.5], [98.25, 57.0], [99.75, 57.0], [99.75, 55.5], [98.25, 55.5]]]}, "properties": {"cell_id": "66_97", "lon": 99.0, "lat": 56.25}}, {"type": "Feature", "geometry": {"type": "Polygon", "coordinates": [[[98.25, 57.0], [98.25, 58.5], [99.75, 58.5], [99.75, 57.0], [98.25, 57.0]]]}, "properties": {"cell_id": "66_98", "lon": 99.0, "lat": 57.75}}, {"type": "Feature", "geometry": {"type": "Polygon", "coordinates": [[[98.25, 58.5], [98.25, 60.0], [99.75, 60.0], [99.75, 58.5], [98.25, 58.5]]]}, "properties": {"cell_id": "66_99", "lon": 99.0, "lat": 59.25}}, {"type": "Feature", "geometry": {"type": "Polygon", "coordinates": [[[99.75, 51.0], [99.75, 52.5], [101.25, 52.5], [101.25, 51.0], [99.75, 51.0]]]}, "properties": {"cell_id": "67_94", "lon": 100.5, "lat": 51.75}}, {"type": "Feature", "geometry": {"type": "Polygon", "coordinates": [[[99.75, 52.5], [99.75, 54.0], [101.25, 54.0], [101.25, 52.5], [99.75, 52.5]]]}, "properties": {"cell_id": "67_95", "lon": 100.5, "lat": 53.25}}, {"type": "Feature", "geometry": {"type": "Polygon", "coordinates": [[[99.75, 54.0], [99.75, 55.5], [101.25, 55.5], [101.25, 54.0], [99.75, 54.0]]]}, "properties": {"cell_id": "67_96", "lon": 100.5, "lat": 54.75}}, {"type": "Feature", "geometry": {"type": "Polygon", "coordinates": [[[99.75, 55.5], [99.75, 57.0], [101.25, 57.0], [101.25, 55.5], [99.75, 55.5]]]}, "properties": {"cell_id": "67_97", "lon": 100.5, "lat": 56.25}}, {"type": "Feature", "geometry": {"type": "Polygon", "coordinates": [[[99.75, 57.0], [99.75, 58.5], [101.25, 58.5], [101.25, 57.0], [99.75, 57.0]]]}, "properties": {"cell_id": "67_98", "lon": 100.5, "lat": 57.75}}, {"type": "Feature", "geometry": {"type": "Polygon", "coordinates": [[[99.75, 58.5], [99.75, 60.0], [101.25, 60.0], [101.25, 58.5], [99.75, 58.5]]]}, "properties": {"cell_id": "67_99", "lon": 100.5, "lat": 59.25}}]}