{"type": "FeatureCollection", "features": [{"type": "Feature", "geometry": {"type": "Polygon", "coordinates": [[[80.25, 30.0], [80.25, 31.5], [81.75, 31.5], [81.75, 30.0], [80.25, 30.0]]]}, "properties": {"cell_id": "54_80", "lon": 81.0, "lat": 30.75}}, {"type": "Feature", "geometry": {"type": "Polygon", "coordinates": [[[80.25, 31.5], [80.25, 33.0], [81.75, 33.0], [81.75, 31.5], [80.25, 31.5]]]}, "properties": {"cell_id": "54_81", "lon": 81.0, "lat": 32.25}}, {"type": "Feature", "geometry": {"type": "Polygon", "coordinates": [[[80.25, 33.0], [80.25, 34.5], [81.75, 34.5], [81.75, 33.0], [80.25, 33.0]]]}, "properties": {"cell_id": "54_82", "lon": 81.0, "lat": 33.75}}, {"type": "Feature", "geometry": {"type": "Polygon", "coordinates": [[[80.25, 34.5], [80.25, 36.0], [81.75, 36.0], [81.75, 34.5], [80.25, 34.5]]]}, "properties": {"cell_id": "54_83", "lon": 81.0, "lat": 35.25}}, {"type": "Feature", "geometry": {"type": "Polygon", "coordinates": [[[80.25, 36.0], [80.25, 37.5], [81.75, 37.5], [81.75, 36.0], [80.25, 36.0]]]}, "properties": {"cell_id": "54_84", "lon": 81.0, "lat": 36.75}}, {"type": "Feature", "geometry": {"type": "Polygon", "coordinates": [[[80.25, 37.5], [80.25, 39.0], [81.75, 39.0], [81.75, 37.5], [80.25, 37.5]]]}, "properties": {"cell_id": "54_85", "lon": 81.0, "lat": 38.25}}, {"type": "Feature", "geometry": {"type": "Polygon", "coordinates": [[[80.25, 39.0], [80.25, 40.5], [81.75, 40.5], [81.75, 39.0], [80.25, 39.0]]]}, "properties": {"cell_id": "54_86", "lon": 81.0, "lat": 39.75}}, {"type": "Feature", "geometry": {"type": "Polygon", "coordinates": [[[81.75, 30.0], [81.75, 31.5], [83.25, 31.5], [83.25, 30.0], [81.75, 30.0]]]}, "properties": {"cell_id": "55_80", "lon": 82.5, "lat": 30.75}}, {"type": "Feature", "geometry": {"type": "Polygon", "coordinates": [[[81.75, 31.5], [81.75, 33.0], [83.25, 33.0], [83.25, 31.5], [81.75, 31.5]]]}, "properties": {"cell_id": "55_81", "lon": 82.5, "lat": 32.25}}, {"type": "Feature", "geometry": {"type": "Polygon", "coordinates": [[[81.75, 33.0], [81.75, 34.5], [83.25, 34.5], [83.25, 33.0], [81.75, 33.0]]]}, "properties": {"cell_id": "55_82", "lon": 82.5, "lat": 33.75}}, {"type": "Feature", "geometry": {"type": "Polygon", "coordinates": [[[81.75, 34.5], [81.75, 36.0], [83.25, 36.0], [83.25, 34.5], [81.75, 34.5]]]}, "properties": {"cell_id": "55_83", "lon": 82.5, "lat": 35.25}}, {"type": "Feature", "geometry": {"type": "Polygon", "coordinates": [[[81.75, 36.0], [81.75, 37.5], [83.25, 37.5], [83.25, 36.0], [81.75, 36.0]]]}, "properties": {"cell_id": "55_84", "lon": 82.5, "lat": 36.75}}, {"type": "Feature", "geometry": {"type": "Polygon", "coordinates": [[[81.75, 37.5], [81.75, 39.0], [83.25, 39.0], [83.25, 37.5], [81.75, 37.5]]]}, "properties": {"cell_id": "55_85", "lon": 82.5, "lat": 38.25}}, {"type": "Feature", "geometry": {"type": "Polygon", "coordinates": [[[81.75, 39.0], [81.75, 40.5], [83.25, 40.5], [83.25, 39.0], [81.75, 39.0]]]}, "properties": {"cell_id": "55_86", "lon": 82.5, "lat": 39.75}}, {"type": "Feature", "geometry": {"type": "Polygon", "coordinates": [[[83.25, 30.0], [83.25, 31.5], [84.75, 31.5], [84.75, 30.0], [83.25, 30.0]]]}, "properties": {"cell_id": "56_80", "lon": 84.0, "lat": 30.75}}, {"type": "Feature", "geometry": {"type": "Polygon", "coordinates": [[[83.25, 31.5], [83.25, 33.0], [84.75, 33.0], [84.75, 31.5], [83.25, 31.5]]]}, "properties": {"cell_id": "56_81", "lon": 84.0, "lat": 32.25}}, {"type": "Feature", "geometry": {"type": "Polygon", "coordinates": [[[83.25, 33.0], [83.25, 34.5], [84.75, 34.5], [84.75, 33.0], [83.25, 33.0]]]}, "properties": {"cell_id": "56_82", "lon": 84.0, "lat": 33.75}}, {"type": "Feature", "geometry": {"type": "Polygon", "coordinates": [[[83.25, 34.5], [83.25, 36.0], [84.75, 36.0], [84.75, 34.5], [83.25, 34.5]]]}, "properties": {"cell_id": "56_83", "lon": 84.0, "lat": 35.25}}, {"type": "Feature", "geometry": {"type": "Polygon", "coordinates": [[[83.25, 36.0], [83.25, 37.5], [84.75, 37.5], [84.75, 36.0], [83.25, 36.0]]]}, "properties": {"cell_id": "56_84", "lon": 84.0, "lat": 36.75}}, {"type": "Feature", "geometry": {"type": "Polygon", "coordinates": [[[83.25, 37.5], [83.25, 39.0], [84.75, 39.0], [84.75, 37.5], [83.25, 37.5]]]}, "properties": {"cell_id": "56_85", "lon": 84.0, "lat": 38.25}}, {"type": "Feature", "geometry": {"type": "Polygon", "coordinates": [[[83.25, 39.0], [83.25, 40.5], [84.75, 40.5], [84.75, 39.0], [83.25, 39.0]]]}, "properties": {"cell_id": "56_86", "lon": 84.0, "lat": 39.75}}, {"type": "Feature", "geometry": {"type": "Polygon", "coordinates": [[[84.75, 30.0], [84.75, 31.5], [86.25, 31.5], [86.25, 30.0], [84.75, 30.0]]]}, "properties": {"cell_id": "57_80", "lon": 85.5, "lat": 30.75}}, {"type": "Feature", "geometry": {"type": "Polygon", "coordinates": [[[84.75, 31.5], [84.75, 33.0], [86.25, 33.0], [86.25, 31.5], [84.75, 31.5]]]}, "properties": {"cell_id": "57_81", "lon": 85.5, "lat": 32.25}}, {"type": "Feature", "geometry": {"type": "Polygon", "coordinates": [[[84.75, 33.0], [84.75, 34.5], [86.25, 34.5], [86.25, 33.0], [84.75, 33.0]]]}, "properties": {"cell_id": "57_82", "lon": 85.5, "lat": 33.75}}, {"type": "Feature", "geometry": {"type": "Polygon", "coordinates": [[[84.75, 34.5], [84.75, 36.0], [86.25, 36.0], [86.25, 34.5], [84.75, 34.5]]]}, "properties": {"cell_id": "57_83", "lon": 85.5, "lat": 35.25}}, {"type": "Feature", "geometry": {"type": "Polygon", "coordinates": [[[84.75, 36.0], [84.75, 37.5], [86.25, 37.5], [86.25, 36.0], [84.75, 36.0]]]}, "properties": {"cell_id": "57_84", "lon": 85.5, "lat": 36.75}}, {"type": "Feature", "geometry": {"type": "Polygon", "coordinates": [[[84.75, 37.5], [84.75, 39.0], [86.25, 39.0], [86.25, 37.5], [84.75, 37.5]]]}, "properties": {"cell_id": "57_85", "lon": 85.5, "lat": 38.25}}, {"type": "Feature", "geometry": {"type": "Polygon", "coordinates": [[[84.75, 39.0], [84.75, 40.5], [86.25, 40.5], [86.25, 39.0], [84.75, 39.0]]]}, "properties": {"cell_id": "57_86", "lon": 85.5, "lat": 39.75}}, {"type": "Feature", "geometry": {"type": "Polygon", "coordinates": [[[86.25, 30.0], [86.25, 31.5], [87.75, 31.5], [87.75, 30.0], [86.25, 30.0]]]}, "properties": {"cell_id": "58_80", "lon": 87.0, "lat": 30.75}}, {"type": "Feature", "geometry": {"type": "Polygon", "coordinates": [[[86.25, 31.5], [86.25, 33.0], [87.75, 33.0], [87.75, 31.5], [86.25, 31.5]]]}, "properties": {"cell_id": "58_81", "lon": 87.0, "lat": 32.25}}, {"type": "Feature", "geometry": {"type": "Polygon", "coordinates": [[[86.25, 33.0], [86.25, 34.5], [87.75, 34.5], [87.75, 33.0], [86.25, 33.0]]]}, "properties": {"cell_id": "58_82", "lon": 87.0, "lat": 33.75}}, {"type": "Feature", "geometry": {"type": "Polygon", "coordinates": [[[86.25, 34.5], [86.25, 36.0], [87.75, 36.0], [87.75, 34.5], [86.25, 34.5]]]}, "properties": {"cell_id": "58_83", "lon": 87.0, "lat": 35.25}}, {"type": "Feature", "geometry": {"type": "Polygon", "coordinates": [[[86.25, 36.0], [86.25, 37.5], [87.75, 37.5], [87.75, 36.0], [86.25, 36.0]]]}, "properties": {"cell_id": "58_84", "lon": 87.0, "lat": 36.75}}, {"type": "Feature", "geometry": {"type": "Polygon", "coordinates": [[[86.25, 37.5], [86.25, 39.0], [87.75, 39.0], [87.75, 37.5], [86.25, 37.5]]]}, "properties": {"cell_id": "58_85", "lon": 87.0, "lat": 38.25}}, {"type": "Feature", "geometry": {"type": "Polygon", "coordinates": [[[86.25, 39.0], [86.25, 40.5], [87.75, 40.5], [87.75, 39.0], [86.25, 39.0]]]}, "properties": {"cell_id": "58_86", "lon": 87.0, "lat": 39.75}}, {"type": "Feature", "geometry": {"type": "Polygon", "coordinates": [[[87.75, 30.0], [87.75, 31.5], [89.25, 31.5], [89.25, 30.0], [87.75, 30.0]]]}, "properties": {"cell_id": "59_80", "lon": 88.5, "lat": 30.75}}, {"type": "Feature", "geometry": {"type": "Polygon", "coordinates": [[[87.75, 31.5], [87.75, 33.0], [89.25, 33.0], [89.25, 31.5], [87.75, 31.5]]]}, "properties": {"cell_id": "59_81", "lon": 88.5, "lat": 32.25}}, {"type": "Feature", "geometry": {"type": "Polygon", "coordinates": [[[87.75, 33.0], [87.75, 34.5], [89.25, 34.5], [89.25, 33.0], [87.75, 33.0]]]}, "properties": {"cell_id": "59_82", "lon": 88.5, "lat": 33.75}}, {"type": "Feature", "geometry": {"type": "Polygon", "coordinates": [[[87.75, 34.5], [87.75, 36.0], [89.25, 36.0], [89.25, 34.5], [87.75, 34.5]]]}, "properties": {"cell_id": "59_83", "lon": 88.5, "lat": 35.25}}, {"type": "Feature", "geometry": {"type": "Polygon", "coordinates": [[[87.75, 36.0], [87.75, 37.5], [89.25, 37.5], [89.25, 36.0], [87.75, 36.0]]]}, "properties": {"cell_id": "59_84", "lon": 88.5, "lat": 36.75}}, {"type": "Feature", "geometry": {"type": "Polygon", "coordinates": [[[87.75, 37.5], [87.75, 39.0], [89.25, 39.0], [89.25, 37.5], [87.75, 37.5]]]}, "properties": {"cell_id": "59_85", "lon": 88.5, "lat": 38.25}}, {"type": "Feature", "geometry": {"type": "Polygon", "coordinates": [[[87.75, 39.0], [87.75, 40.5], [89.25, 40.5], [89.25, 39.0], [87.75, 39.0]]]}, "properties": {"cell_id": "59_86", "lon": 88.5, "lat": 39.75}}, {"type": "Feature", "geometry": {"type": "Polygon", "coordinates": [[[89.25, 30.0], [89.25, 31.5], [90.75, 31.5], [90.75, 30.0], [89.25, 30.0]]]}, "properties": {"cell_id": "60_80", "lon": 90.0, "lat": 30.75}}, {"type": "Feature", "geometry": {"type": "Polygon", "coordinates": [[[89.25, 31.5], [89.25, 33.0], [90.75, 33.0], [90.75, 31.5], [89.25, 31.5]]]}, "properties": {"cell_id": "60_81", "lon": 90.0, "lat": 32.25}}, {"type": "Feature", "geometry": {"type": "Polygon", "coordinates": [[[89.25, 33.0], [89.25, 34.5], [90.75, 34.5], [90.75, 33.0], [89.25, 33.0]]]}, "properties": {"cell_id": "60_82", "lon": 90.0, "lat": 33.75}}, {"type": "Feature", "geometry": {"type": "Polygon", "coordinates": [[[89.25, 34.5], [89.25, 36.0], [90.75, 36.0], [90.75, 34.5], [89.25, 34.5]]]}, "properties": {"cell_id": "60_83", "lon": 90.0, "lat": 35.25}}, {"type": "Feature", "geometry": {"type": "Polygon", "coordinates": [[[89.25, 36.0], [89.25, 37.5], [90.75, 37.5], [90.75, 36.0], [89.25, 36.0]]]}, "properties": {"cell_id": "60_84", "lon": 90.0, "lat": 36.75}}, {"type": "Feature", "geometry": {"type": "Polygon", "coordinates": [[[89.25, 37.5], [89.25, 39.0], [90.75, 39.0], [90.75, 37.5], [89.25, 37.5]]]}, "properties": {"cell_id": "60_85", "lon": 90.0, "lat": 38.25}}, {"type": "Feature", "geometry": {"type": "Polygon", "coordinates": [[[89.25, 39.0], [89.25, 40.5], [90.75, 40.5], [90.75, 39.0], [89.25, 39.0]]]}, "properties": {"cell_id": "60_86", "lon": 90.0, "lat": 39.75}}]}