{"type": "FeatureCollection", "features": [{"type": "Feature", "geometry": {"type": "Polygon", "coordinates": [[[71.25, 40.5], [71.25, 42.0], [72.75, 42.0], [72.75, 40.5], [71.25, 40.5]]]}, "properties": {"cell_id": "48_87", "lon": 72.0, "lat": 41.25}}, {"type": "Feature", "geometry": {"type": "Polygon", "coordinates": [[[71.25, 42.0], [71.25, 43.5], [72.75, 43.5], [72.75, 42.0], [71.25, 42.0]]]}, "properties": {"cell_id": "48_88", "lon": 72.0, "lat": 42.75}}, {"type": "Feature", "geometry": {"type": "Polygon", "coordinates": [[[71.25, 43.5], [71.25, 45.0], [72.75, 45.0], [72.75, 43.5], [71.25, 43.5]]]}, "properties": {"cell_id": "48_89", "lon": 72.0, "lat": 44.25}}, {"type": "Feature", "geometry": {"type": "Polygon", "coordinates": [[[71.25, 45.0], [71.25, 46.5], [72.75, 46.5], [72.75, 45.0], [71.25, 45.0]]]}, "properties": {"cell_id": "48_90", "lon": 72.0, "lat": 45.75}}, {"type": "Feature", "geometry": {"type": "Polygon", "coordinates": [[[71.25, 46.5], [71.25, 48.0], [72.75, 48.0], [72.75, 46.5], [71.25, 46.5]]]}, "properties": {"cell_id": "48_91", "lon": 72.0, "lat": 47.25}}, {"type": "Feature", "geometry": {"type": "Polygon", "coordinates": [[[71.25, 48.0], [71.25, 49.5], [72.75, 49.5], [72.75, 48.0], [71.25, 48.0]]]}, "properties": {"cell_id": "48_92", "lon": 72.0, "lat": 48.75}}, {"type": "Feature", "geometry": {"type": "Polygon", "coordinates": [[[71.25, 49.5], [71.25, 51.0], [72.75, 51.0], [72.75, 49.5], [71.25, 49.5]]]}, "properties": {"cell_id": "48_93", "lon": 72.0, "lat": 50.25}}, {"type": "Feature", "geometry": {"type": "Polygon", "coordinates": [[[72.75, 40.5], [72.75, 42.0], [74.25, 42.0], [74.25, 40.5], [72.75, 40.5]]]}, "properties": {"cell_id": "49_87", "lon": 73.5, "lat": 41.25}}, {"type": "Feature", "geometry": {"type": "Polygon", "coordinates": [[[72.75, 42.0], [72.75, 43.5], [74.25, 43.5], [74.25, 42.0], [72.75, 42.0]]]}, "properties": {"cell_id": "49_88", "lon": 73.5, "lat": 42.75}}, {"type": "Feature", "geometry": {"type": "Polygon", "coordinates": [[[72.75, 43.5], [72.75, 45.0], [74.25, 45.0], [74.25, 43.5], [72.75, 43.5]]]}, "properties": {"cell_id": "49_89", "lon": 73.5, "lat": 44.25}}, {"type": "Feature", "geometry": {"type": "Polygon", "coordinates": [[[72.75, 45.0], [72.75, 46.5], [74.25, 46.5], [74.25, 45.0], [72.75, 45.0]]]}, "properties": {"cell_id": "49_90", "lon": 73.5, "lat": 45.75}}, {"type": "Feature", "geometry": {"type": "Polygon", "coordinates": [[[72.75, 46.5], [72.75, 48.0], [74.25, 48.0], [74.25, 46.5], [72.75, 46.5]]]}, "properties": {"cell_id": "49_91", "lon": 73.5, "lat": 47.25}}, {"type": "Feature", "geometry": {"type": "Polygon", "coordinates": [[[72.75, 48.0], [72.75, 49.5], [74.25, 49.5], [74.25, 48.0], [72.75, 48.0]]]}, "properties": {"cell_id": "49_92", "lon": 73.5, "lat": 48.75}}, {"type": "Feature", "geometry": {"type": "Polygon", "coordinates": [[[72.75, 49.5], [72.75, 51.0], [74.25, 51.0], [74.25, 49.5], [72.75, 49.5]]]}, "properties": {"cell_id": "49_93", "lon": 73.5, "lat": 50.25}}, {"type": "Feature", "geometry": {"type": "Polygon", "coordinates": [[[74.25, 40.5], [74.25, 42.0], [75.75, 42.0], [75.75, 40.5], [74.25, 40.5]]]}, "properties": {"cell_id": "50_87", "lon": 75.0, "lat": 41.25}}, {"type": "Feature", "geometry": {"type": "Polygon", "coordinates": [[[74.25, 42.0], [74.25, 43.5], [75.75, 43.5], [75.75, 42.0], [74.25, 42.0]]]}, "properties": {"cell_id": "50_88", "lon": 75.0, "lat": 42.75}}, {"type": "Feature", "geometry": {"type": "Polygon", "coordinates": [[[74.25, 43.5], [74.25, 45.0], [75.75, 45.0], [75.75, 43.5], [74.25, 43.5]]]}, "properties": {"cell_id": "50_89", "lon": 75.0, "lat": 44.25}}, {"type": "Feature", "geometry": {"type": "Polygon", "coordinates": [[[74.25, 45.0], [74.25, 46.5], [75.75, 46.5], [75.75, 45.0], [74.25, 45.0]]]}, "properties": {"cell_id": "50_90", "lon": 75.0, "lat": 45.75}}, {"type": "Feature", "geometry": {"type": "Polygon", "coordinates": [[[74.25, 46.5], [74.25, 48.0], [75.75, 48.0], [75.75, 46.5], [74.25, 46.5]]]}, "properties": {"cell_id": "50_91", "lon": 75.0, "lat": 47.25}}, {"type": "Feature", "geometry": {"type": "Polygon", "coordinates": [[[74.25, 48.0], [74.25, 49.5], [75.75, 49.5], [75.75, 48.0], [74.25, 48.0]]]}, "properties": {"cell_id": "50_92", "lon": 75.0, "lat": 48.75}}, {"type": "Feature", "geometry": {"type": "Polygon", "coordinates": [[[74.25, 49.5], [74.25, 51.0], [75.75, 51.0], [75.75, 49.5], [74.25, 49.5]]]}, "properties": {"cell_id": "50_93", "lon": 75.0, "lat": 50.25}}, {"type": "Feature", "geometry": {"type": "Polygon", "coordinates": [[[75.75, 40.5], [75.75, 42.0], [77.25, 42.0], [77.25, 40.5], [75.75, 40.5]]]}, "properties": {"cell_id": "51_87", "lon": 76.5, "lat": 41.25}}, {"type": "Feature", "geometry": {"type": "Polygon", "coordinates": [[[75.75, 42.0], [75.75, 43.5], [77.25, 43.5], [77.25, 42.0], [75.75, 42.0]]]}, "properties": {"cell_id": "51_88", "lon": 76.5, "lat": 42.75}}, {"type": "Feature", "geometry": {"type": "Polygon", "coordinates": [[[75.75, 43.5], [75.75, 45.0], [77.25, 45.0], [77.25, 43.5], [75.75, 43.5]]]}, "properties": {"cell_id": "51_89", "lon": 76.5, "lat": 44.25}}, {"type": "Feature", "geometry": {"type": "Polygon", "coordinates": [[[75.75, 45.0], [75.75, 46.5], [77.25, 46.5], [77.25, 45.0], [75.75, 45.0]]]}, "properties": {"cell_id": "51_90", "lon": 76.5, "lat": 45.75}}, {"type": "Feature", "geometry": {"type": "Polygon", "coordinates": [[[75.75, 46.5], [75.75, 48.0], [77.25, 48.0], [77.25, 46.5], [75.75, 46.5]]]}, "properties": {"cell_id": "51_91", "lon": 76.5, "lat": 47.25}}, {"type": "Feature", "geometry": {"type": "Polygon", "coordinates": [[[75.75, 48.0], [75.75, 49.5], [77.25, 49.5], [77.25, 48.0], [75.75, 48.0]]]}, "properties": {"cell_id": "51_92", "lon": 76.5, "lat": 48.75}}, {"type": "Feature", "geometry": {"type": "Polygon", "coordinates": [[[75.75, 49.5], [75.75, 51.0], [77.25, 51.0], [77.25, 49.5], [75.75, 49.5]]]}, "properties": {"cell_id": "51_93", "lon": 76.5, "lat": 50.25}}, {"type": "Feature", "geometry": {"type": "Polygon", "coordinates": [[[77.25, 40.5], [77.25, 42.0], [78.75, 42.0], [78.75, 40.5], [77.25, 40.5]]]}, "properties": {"cell_id": "52_87", "lon": 78.0, "lat": 41.25}}, {"type": "Feature", "geometry": {"type": "Polygon", "coordinates": [[[77.25, 42.0], [77.25, 43.5], [78.75, 43.5], [78.75, 42.0], [77.25, 42.0]]]}, "properties": {"cell_id": "52_88", "lon": 78.0, "lat": 42.75}}, {"type": "Feature", "geometry": {"type": "Polygon", "coordinates": [[[77.25, 43.5], [77.25, 45.0], [78.75, 45.0], [78.75, 43.5], [77.25, 43.5]]]}, "properties": {"cell_id": "52_89", "lon": 78.0, "lat": 44.25}}, {"type": "Feature", "geometry": {"type": "Polygon", "coordinates": [[[77.25, 45.0], [77.25, 46.5], [78.75, 46.5], [78.75, 45.0], [77.25, 45.0]]]}, "properties": {"cell_id": "52_90", "lon": 78.0, "lat": 45.75}}, {"type": "Feature", "geometry": {"type": "Polygon", "coordinates": [[[77.25, 46.5], [77.25, 48.0], [78.75, 48.0], [78.75, 46.5], [77.25, 46.5]]]}, "properties": {"cell_id": "52_91", "lon": 78.0, "lat": 47.25}}, {"type": "Feature", "geometry": {"type": "Polygon", "coordinates": [[[77.25, 48.0], [77.25, 49.5], [78.75, 49.5], [78.75, 48.0], [77.25, 48.0]]]}, "properties": {"cell_id": "52_92", "lon": 78.0, "lat": 48.75}}, {"type": "Feature", "geometry": {"type": "Polygon", "coordinates": [[[77.25, 49.5], [77.25, 51.0], [78.75, 51.0], [78.75, 49.5], [77.25, 49.5]]]}, "properties": {"cell_id": "52_93", "lon": 78.0, "lat": 50.25}}, {"type": "Feature", "geometry": {"type": "Polygon", "coordinates": [[[78.75, 40.5], [78.75, 42.0], [80.25, 42.0], [80.25, 40.5], [78.75, 40.5]]]}, "properties": {"cell_id": "53_87", "lon": 79.5, "lat": 41.25}}, {"type": "Feature", "geometry": {"type": "Polygon", "coordinates": [[[78.75, 42.0], [78.75, 43.5], [80.25, 43.5], [80.25, 42.0], [78.75, 42.0]]]}, "properties": {"cell_id": "53_88", "lon": 79.5, "lat": 42.75}}, {"type": "Feature", "geometry": {"type": "Polygon", "coordinates": [[[78.75, 43.5], [78.75, 45.0], [80.25, 45.0], [80.25, 43.5], [78.75, 43.5]]]}, "properties": {"cell_id": "53_89", "lon": 79.5, "lat": 44.25}}, {"type": "Feature", "geometry": {"type": "Polygon", "coordinates": [[[78.75, 45.0], [78.75, 46.5], [80.25, 46.5], [80.25, 45.0], [78.75, 45.0]]]}, "properties": {"cell_id": "53_90", "lon": 79.5, "lat": 45.75}}, {"type": "Feature", "geometry": {"type": "Polygon", "coordinates": [[[78.75, 46.5], [78.75, 48.0], [80.25, 48.0], [80.25, 46.5], [78.75, 46.5]]]}, "properties": {"cell_id": "53_91", "lon": 79.5, "lat": 47.25}}, {"type": "Feature", "geometry": {"type": "Polygon", "coordinates": [[[78.75, 48.0], [78.75, 49.5], [80.25, 49.5], [80.25, 48.0], [78.75, 48.0]]]}, "properties": {"cell_id": "53_92", "lon": 79.5, "lat": 48.75}}, {"type": "Feature", "geometry": {"type": "Polygon", "coordinates": [[[78.75, 49.5], [78.75, 51.0], [80.25, 51.0], [80.25, 49.5], [78.75, 49.5]]]}, "properties": {"cell_id": "53_93", "lon": 79.5, "lat": 50.25}}]}