{"type": "FeatureCollection", "features": [{"type": "Feature", "geometry": {"type": "Polygon", "coordinates": [[[110.25, 21.0], [110.25, 22.5], [111.75, 22.5], [111.75, 21.0], [110.25, 21.0]]]}, "properties": {"cell_id": "74_74", "lon": 111.0, "lat": 21.75}}, {"type": "Feature", "geometry": {"type": "Polygon", "coordinates": [[[110.25, 22.5], [110.25, 24.0], [111.75, 24.0], [111.75, 22.5], [110.25, 22.5]]]}, "properties": {"cell_id": "74_75", "lon": 111.0, "lat": 23.25}}, {"type": "Feature", "geometry": {"type": "Polygon", "coordinates": [[[110.25, 24.0], [110.25, 25.5], [111.75, 25.5], [111.75, 24.0], [110.25, 24.0]]]}, "properties": {"cell_id": "74_76", "lon": 111.0, "lat": 24.75}}, {"type": "Feature", "geometry": {"type": "Polygon", "coordinates": [[[110.25, 25.5], [110.25, 27.0], [111.75, 27.0], [111.75, 25.5], [110.25, 25.5]]]}, "properties": {"cell_id": "74_77", "lon": 111.0, "lat": 26.25}}, {"type": "Feature", "geometry": {"type": "Polygon", "coordinates": [[[110.25, 27.0], [110.25, 28.5], [111.75, 28.5], [111.75, 27.0], [110.25, 27.0]]]}, "properties": {"cell_id": "74_78", "lon": 111.0, "lat": 27.75}}, {"type": "Feature", "geometry": {"type": "Polygon", "coordinates": [[[110.25, 28.5], [110.25, 30.0], [111.75, 30.0], [111.75, 28.5], [110.25, 28.5]]]}, "properties": {"cell_id": "74_79", "lon": 111.0, "lat": 29.25}}, {"type": "Feature", "geometry": {"type": "Polygon", "coordinates": [[[111.75, 21.0], [111.75, 22.5], [113.25, 22.5], [113.25, 21.0], [111.75, 21.0]]]}, "properties": {"cell_id": "75_74", "lon": 112.5, "lat": 21.75}}, {"type": "Feature", "geometry": {"type": "Polygon", "coordinates": [[[111.75, 22.5], [111.75, 24.0], [113.25, 24.0], [113.25, 22.5], [111.75, 22.5]]]}, "properties": {"cell_id": "75_75", "lon": 112.5, "lat": 23.25}}, {"type": "Feature", "geometry": {"type": "Polygon", "coordinates": [[[111.75, 24.0], [111.75, 25.5], [113.25, 25.5], [113.25, 24.0], [111.75, 24.0]]]}, "properties": {"cell_id": "75_76", "lon": 112.5, "lat": 24.75}}, {"type": "Feature", "geometry": {"type": "Polygon", "coordinates": [[[111.75, 25.5], [111.75, 27.0], [113.25, 27.0], [113.25, 25.5], [111.75, 25.5]]]}, "properties": {"cell_id": "75_77", "lon": 112.5, "lat": 26.25}}, {"type": "Feature", "geometry": {"type": "Polygon", "coordinates": [[[111.75, 27.0], [111.75, 28.5], [113.25, 28.5], [113.25, 27.0], [111.75, 27.0]]]}, "properties": {"cell_id": "75_78", "lon": 112.5, "lat": 27.75}}, {"type": "Feature", "geometry": {"type": "Polygon", "coordinates": [[[111.75, 28.5], [111.75, 30.0], [113.25, 30.0], [113.25, 28.5], [111.75, 28.5]]]}, "properties": {"cell_id": "75_79", "lon": 112.5, "lat": 29.25}}, {"type": "Feature", "geometry": {"type": "Polygon", "coordinates": [[[113.25, 21.0], [113.25, 22.5], [114.75, 22.5], [114.75, 21.0], [113.25, 21.0]]]}, "properties": {"cell_id": "76_74", "lon": 114.0, "lat": 21.75}}, {"type": "Feature", "geometry": {"type": "Polygon", "coordinates": [[[113.25, 22.5], [113.25, 24.0], [114.75, 24.0], [114.75, 22.5], [113.25, 22.5]]]}, "properties": {"cell_id": "76_75", "lon": 114.0, "lat": 23.25}}, {"type": "Feature", "geometry": {"type": "Polygon", "coordinates": [[[113.25, 24.0], [113.25, 25.5], [114.75, 25.5], [114.75, 24.0], [113.25, 24.0]]]}, "properties": {"cell_id": "76_76", "lon": 114.0, "lat": 24.75}}, {"type": "Feature", "geometry": {"type": "Polygon", "coordinates": [[[113.25, 25.5], [113.25, 27.0], [114.75, 27.0], [114.75, 25.5], [113.25, 25.5]]]}, "properties": {"cell_id": "76_77", "lon": 114.0, "lat": 26.25}}, {"type": "Feature", "geometry": {"type": "Polygon", "coordinates": [[[113.25, 27.0], [113.25, 28.5], [114.75, 28.5], [114.75, 27.0], [113.25, 27.0]]]}, "properties": {"cell_id": "76_78", "lon": 114.0, "lat": 27.75}}, {"type": "Feature", "geometry": {"type": "Polygon", "coordinates": [[[113.25, 28.5], [113.25, 30.0], [114.75, 30.0], [114.75, 28.5], [113.25, 28.5]]]}, "properties": {"cell_id": "76_79", "lon": 114.0, "lat": 29.25}}, {"type": "Feature", "geometry": {"type": "Polygon", "coordinates": [[[114.75, 21.0], [114.75, 22.5], [116.25, 22.5], [116.25, 21.0], [114.75, 21.0]]]}, "properties": {"cell_id": "77_74", "lon": 115.5, "lat": 21.75}}, {"type": "Feature", "geometry": {"type": "Polygon", "coordinates": [[[114.75, 22.5], [114.75, 24.0], [116.25, 24.0], [116.25, 22.5], [114.75, 22.5]]]}, "properties": {"cell_id": "77_75", "lon": 115.5, "lat": 23.25}}, {"type": "Feature", "geometry": {"type": "Polygon", "coordinates": [[[114.75, 24.0], [114.75, 25.5], [116.25, 25.5], [116.25, 24.0], [114.75, 24.0]]]}, "properties": {"cell_id": "77_76", "lon": 115.5, "lat": 24.75}}, {"type": "Feature", "geometry": {"type": "Polygon", "coordinates": [[[114.75, 25.5], [114.75, 27.0], [116.25, 27.0], [116.25, 25.5], [114.75, 25.5]]]}, "properties": {"cell_id": "77_77", "lon": 115.5, "lat": 26.25}}, {"type": "Feature", "geometry": {"type": "Polygon", "coordinates": [[[114.75, 27.0], [114.75, 28.5], [116.25, 28.5], [116.25, 27.0], [114.75, 27.0]]]}, "properties": {"cell_id": "77_78", "lon": 115.5, "lat": 27.75}}, {"type": "Feature", "geometry": {"type": "Polygon", "coordinates": [[[114.75, 28.5], [114.75, 30.0], [116.25, 30.0], [116.25, 28.5], [114.75, 28.5]]]}, "properties": {"cell_id": "77_79", "lon": 115.5, "lat": 29.25}}, {"type": "Feature", "geometry": {"type": "Polygon", "coordinates": [[[116.25, 21.0], [116.25, 22.5], [117.75, 22.5], [117.75, 21.0], [116.25, 21.0]]]}, "properties": {"cell_id": "78_74", "lon": 117.0, "lat": 21.75}}, {"type": "Feature", "geometry": {"type": "Polygon", "coordinates": [[[116.25, 22.5], [116.25, 24.0], [117.75, 24.0], [117.75, 22.5], [116.25, 22.5]]]}, "properties": {"cell_id": "78_75", "lon": 117.0, "lat": 23.25}}, {"type": "Feature", "geometry": {"type": "Polygon", "coordinates": [[[116.25, 24.0], [116.25, 25.5], [117.75, 25.5], [117.75, 24.0], [116.25, 24.0]]]}, "properties": {"cell_id": "78_76", "lon": 117.0, "lat": 24.75}}, {"type": "Feature", "geometry": {"type": "Polygon", "coordinates": [[[116.25, 25.5], [116.25, 27.0], [117.75, 27.0], [117.75, 25.5], [116.25, 25.5]]]}, "properties": {"cell_id": "78_77", "lon": 117.0, "lat": 26.25}}, {"type": "Feature", "geometry": {"type": "Polygon", "coordinates": [[[116.25, 27.0], [116.25, 28.5], [117.75, 28.5], [117.75, 27.0], [116.25, 27.0]]]}, "properties": {"cell_id": "78_78", "lon": 117.0, "lat": 27.75}}, {"type": "Feature", "geometry": {"type": "Polygon", "coordinates": [[[116.25, 28.5], [116.25, 30.0], [117.75, 30.0], [117.75, 28.5], [116.25, 28.5]]]}, "properties": {"cell_id": "78_79", "lon": 117.0, "lat": 29.25}}, {"type": "Feature", "geometry": {"type": "Polygon", "coordinates": [[[117.75, 24.0], [117.75, 25.5], [119.25, 25.5], [119.25, 24.0], [117.75, 24.0]]]}, "properties": {"cell_id": "79_76", "lon": 118.5, "lat": 24.75}}, {"type": "Feature", "geometry": {"type": "Polygon", "coordinates": [[[117.75, 25.5], [117.75, 27.0], [119.25, 27.0], [119.25, 25.5], [117.75, 25.5]]]}, "properties": {"cell_id": "79_77", "lon": 118.5, "lat": 26.25}}, {"type": "Feature", "geometry": {"type": "Polygon", "coordinates": [[[117.75, 27.0], [117.75, 28.5], [119.25, 28.5], [119.25, 27.0], [117.75, 27.0]]]}, "properties": {"cell_id": "79_78", "lon": 118.5, "lat": 27.75}}, {"type": "Feature", "geometry": {"type": "Polygon", "coordinates": [[[117.75, 28.5], [117.75, 30.0], [119.25, 30.0], [119.25, 28.5], [117.75, 28.5]]]}, "properties": {"cell_id": "79_79", "lon": 118.5, "lat": 29.25}}, {"type": "Feature", "geometry": {"type": "Polygon", "coordinates": [[[119.25, 24.0], [119.25, 25.5], [120.75, 25.5], [120.75, 24.0], [119.25, 24.0]]]}, "properties": {"cell_id": "80_76", "lon": 120.0, "lat": 24.75}}, {"type": "Feature", "geometry": {"type": "Polygon", "coordinates": [[[119.25, 25.5], [119.25, 27.0], [120.75, 27.0], [120.75, 25.5], [119.25, 25.5]]]}, "properties": {"cell_id": "80_77", "lon": 120.0, "lat": 26.25}}, {"type": "Feature", "geometry": {"type": "Polygon", "coordinates": [[[119.25, 27.0], [119.25, 28.5], [120.75, 28.5], [120.75, 27.0], [119.25, 27.0]]]}, "properties": {"cell_id": "80_78", "lon": 120.0, "lat": 27.75}}, {"type": "Feature", "geometry": {"type": "Polygon", "coordinates": [[[119.25, 28.5], [119.25, 30.0], [120.75, 30.0], [120.75, 28.5], [119.25, 28.5]]]}, "properties": {"cell_id": "80_79", "lon": 120.0, "lat": 29.25}}]}