{"type": "FeatureCollection", "features": [{"type": "Feature", "geometry": {"type": "Polygon", "coordinates": [[[90.75, 21.0], [90.75, 22.5], [92.25, 22.5], [92.25, 21.0], [90.75, 21.0]]]}, "properties": {"cell_id": "61_74", "lon": 91.5, "lat": 21.75}}, {"type": "Feature", "geometry": {"type": "Polygon", "coordinates": [[[90.75, 22.5], [90.75, 24.0], [92.25, 24.0], [92.25, 22.5], [90.75, 22.5]]]}, "properties": {"cell_id": "61_75", "lon": 91.5, "lat": 23.25}}, {"type": "Feature", "geometry": {"type": "Polygon", "coordinates": [[[90.75, 24.0], [90.75, 25.5], [92.25, 25.5], [92.25, 24.0], [90.75, 24.0]]]}, "properties": {"cell_id": "61_76", "lon": 91.5, "lat": 24.75}}, {"type": "Feature", "geometry": {"type": "Polygon", "coordinates": [[[90.75, 25.5], [90.75, 27.0], [92.25, 27.0], [92.25, 25.5], [90.75, 25.5]]]}, "properties": {"cell_id": "61_77", "lon": 91.5, "lat": 26.25}}, {"type": "Feature", "geometry": {"type": "Polygon", "coordinates": [[[90.75, 27.0], [90.75, 28.5], [92.25, 28.5], [92.25, 27.0], [90.75, 27.0]]]}, "properties": {"cell_id": "61_78", "lon": 91.5, "lat": 27.75}}, {"type": "Feature", "geometry": {"type": "Polygon", "coordinates": [[[90.75, 28.5], [90.75, 30.0], [92.25, 30.0], [92.25, 28.5], [90.75, 28.5]]]}, "properties": {"cell_id": "61_79", "lon": 91.5, "lat": 29.25}}, {"type": "Feature", "geometry": {"type": "Polygon", "coordinates": [[[92.25, 21.0], [92.25, 22.5], [93.75, 22.5], [93.75, 21.0], [92.25, 21.0]]]}, "properties": {"cell_id": "62_74", "lon": 93.0, "lat": 21.75}}, {"type": "Feature", "geometry": {"type": "Polygon", "coordinates": [[[92.25, 22.5], [92.25, 24.0], [93.75, 24.0], [93.75, 22.5], [92.25, 22.5]]]}, "properties": {"cell_id": "62_75", "lon": 93.0, "lat": 23.25}}, {"type": "Feature", "geometry": {"type": "Polygon", "coordinates": [[[92.25, 24.0], [92.25, 25.5], [93.75, 25.5], [93.75, 24.0], [92.25, 24.0]]]}, "properties": {"cell_id": "62_76", "lon": 93.0, "lat": 24.75}}, {"type": "Feature", "geometry": {"type": "Polygon", "coordinates": [[[92.25, 25.5], [92.25, 27.0], [93.75, 27.0], [93.75, 25.5], [92.25, 25.5]]]}, "properties": {"cell_id": "62_77", "lon": 93.0, "lat": 26.25}}, {"type": "Feature", "geometry": {"type": "Polygon", "coordinates": [[[92.25, 27.0], [92.25, 28.5], [93.75, 28.5], [93.75, 27.0], [92.25, 27.0]]]}, "properties": {"cell_id": "62_78", "lon": 93.0, "lat": 27.75}}, {"type": "Feature", "geometry": {"type": "Polygon", "coordinates": [[[92.25, 28.5], [92.25, 30.0], [93.75, 30.0], [93.75, 28.5], [92.25, 28.5]]]}, "properties": {"cell_id": "62_79", "lon": 93.0, "lat": 29.25}}, {"type": "Feature", "geometry": {"type": "Polygon", "coordinates": [[[93.75, 21.0], [93.75, 22.5], [95.25, 22.5], [95.25, 21.0], [93.75, 21.0]]]}, "properties": {"cell_id": "63_74", "lon": 94.5, "lat": 21.75}}, {"type": "Feature", "geometry": {"type": "Polygon", "coordinates": [[[93.75, 22.5], [93.75, 24.0], [95.25, 24.0], [95.25, 22.5], [93.75, 22.5]]]}, "properties": {"cell_id": "63_75", "lon": 94.5, "lat": 23.25}}, {"type": "Feature", "geometry": {"type": "Polygon", "coordinates": [[[93.75, 24.0], [93.75, 25.5], [95.25, 25.5], [95.25, 24.0], [93.75, 24.0]]]}, "properties": {"cell_id": "63_76", "lon": 94.5, "lat": 24.75}}, {"type": "Feature", "geometry": {"type": "Polygon", "coordinates": [[[93.75, 25.5], [93.75, 27.0], [95.25, 27.0], [95.25, 25.5], [93.75, 25.5]]]}, "properties": {"cell_id": "63_77", "lon": 94.5, "lat": 26.25}}, {"type": "Feature", "geometry": {"type": "Polygon", "coordinates": [[[93.75, 27.0], [93.75, 28.5], [95.25, 28.5], [95.25, 27.0], [93.75, 27.0]]]}, "properties": {"cell_id": "63_78", "lon": 94.5, "lat": 27.75}}, {"type": "Feature", "geometry": {"type": "Polygon", "coordinates": [[[93.75, 28.5], [93.75, 30.0], [95.25, 30.0], [95.25, 28.5], [93.75, 28.5]]]}, "properties": {"cell_id": "63_79", "lon": 94.5, "lat": 29.25}}, {"type": "Feature", "geometry": {"type": "Polygon", "coordinates": [[[95.25, 21.0], [95.25, 22.5], [96.75, 22.5], [96.75, 21.0], [95.25, 21.0]]]}, "properties": {"cell_id": "64_74", "lon": 96.0, "lat": 21.75}}, {"type": "Feature", "geometry": {"type": "Polygon", "coordinates": [[[95.25, 22.5], [95.25, 24.0], [96.75, 24.0], [96.75, 22.5], [95.25, 22.5]]]}, "properties": {"cell_id": "64_75", "lon": 96.0, "lat": 23.25}}, {"type": "Feature", "geometry": {"type": "Polygon", "coordinates": [[[95.25, 24.0], [95.25, 25.5], [96.75, 25.5], [96.75, 24.0], [95.25, 24.0]]]}, "properties": {"cell_id": "64_76", "lon": 96.0, "lat": 24.75}}, {"type": "Feature", "geometry": {"type": "Polygon", "coordinates": [[[95.25, 25.5], [95.25, 27.0], [96.75, 27.0], [96.75, 25.5], [95.25, 25.5]]]}, "properties": {"cell_id": "64_77", "lon": 96.0, "lat": 26.25}}, {"type": "Feature", "geometry": {"type": "Polygon", "coordinates": [[[95.25, 27.0], [95.25, 28.5], [96.75, 28.5], [96.75, 27.0], [95.25, 27.0]]]}, "properties": {"cell_id": "64_78", "lon": 96.0, "lat": 27.75}}, {"type": "Feature", "geometry": {"type": "Polygon", "coordinates": [[[95.25, 28.5], [95.25, 30.0], [96.75, 30.0], [96.75, 28.5], [95.25, 28.5]]]}, "properties": {"cell_id": "64_79", "lon": 96.0, "lat": 29.25}}, {"type": "Feature", "geometry": {"type": "Polygon", "coordinates": [[[96.75, 21.0], [96.75, 22.5], [98.25, 22.5], [98.25, 21.0], [96.75, 21.0]]]}, "properties": {"cell_id": "65_74", "lon": 97.5, "lat": 21.75}}, {"type": "Feature", "geometry": {"type": "Polygon", "coordinates": [[[96.75, 22.5], [96.75, 24.0], [98.25, 24.0], [98.25, 22.5], [96.75, 22.5]]]}, "properties": {"cell_id": "65_75", "lon": 97.5, "lat": 23.25}}, {"type": "Feature", "geometry": {"type": "Polygon", "coordinates": [[[96.75, 24.0], [96.75, 25.5], [98.25, 25.5], [98.25, 24.0], [96.75, 24.0]]]}, "properties": {"cell_id": "65_76", "lon": 97.5, "lat": 24.75}}, {"type": "Feature", "geometry": {"type": "Polygon", "coordinates": [[[96.75, 25.5], [96.75, 27.0], [98.25, 27.0], [98.25, 25.5], [96.75, 25.5]]]}, "properties": {"cell_id": "65_77", "lon": 97.5, "lat": 26.25}}, {"type": "Feature", "geometry": {"type": "Polygon", "coordinates": [[[96.75, 27.0], [96.75, 28.5], [98.25, 28.5], [98.25, 27.0], [96.75, 27.0]]]}, "properties": {"cell_id": "65_78", "lon": 97.5, "lat": 27.75}}, {"type": "Feature", "geometry": {"type": "Polygon", "coordinates": [[[96.75, 28.5], [96.75, 30.0], [98.25, 30.0], [98.25, 28.5], [96.75, 28.5]]]}, "properties": {"cell_id": "65_79", "lon": 97.5, "lat": 29.25}}, {"type": "Feature", "geometry": {"type": "Polygon", "coordinates": [[[98.25, 21.0], [98.25, 22.5], [99.75, 22.5], [99.75, 21.0], [98.25, 21.0]]]}, "properties": {"cell_id": "66_74", "lon": 99.0, "lat": 21.75}}, {"type": "Feature", "geometry": {"type": "Polygon", "coordinates": [[[98.25, 22.5], [98.25, 24.0], [99.75, 24.0], [99.75, 22.5], [98.25, 22.5]]]}, "properties": {"cell_id": "66_75", "lon": 99.0, "lat": 23.25}}, {"type": "Feature", "geometry": {"type": "Polygon", "coordinates": [[[98.25, 24.0], [98.25, 25.5], [99.75, 25.5], [99.75, 24.0], [98.25, 24.0]]]}, "properties": {"cell_id": "66_76", "lon": 99.0, "lat": 24.75}}, {"type": "Feature", "geometry": {"type": "Polygon", "coordinates": [[[98.25, 25.5], [98.25, 27.0], [99.75, 27.0], [99.75, 25.5], [98.25, 25.5]]]}, "properties": {"cell_id": "66_77", "lon": 99.0, "lat": 26.25}}, {"type": "Feature", "geometry": {"type": "Polygon", "coordinates": [[[98.25, 27.0], [98.25, 28.5], [99.75, 28.5], [99.75, 27.0], [98.25, 27.0]]]}, "properties": {"cell_id": "66_78", "lon": 99.0, "lat": 27.75}}, {"type": "Feature", "geometry": {"type": "Polygon", "coordinates": [[[98.25, 28.5], [98.25, 30.0], [99.75, 30.0], [99.75, 28.5], [98.25, 28.5]]]}, "properties": {"cell_id": "66_79", "lon": 99.0, "lat": 29.25}}, {"type": "Feature", "geometry": {"type": "Polygon", "coordinates": [[[99.75, 21.0], [99.75, 22.5], [101.25, 22.5], [101.25, 21.0], [99.75, 21.0]]]}, "properties": {"cell_id": "67_74", "lon": 100.5, "lat": 21.75}}, {"type": "Feature", "geometry": {"type": "Polygon", "coordinates": [[[99.75, 22.5], [99.75, 24.0], [101.25, 24.0], [101.25, 22.5], [99.75, 22.5]]]}, "properties": {"cell_id": "67_75", "lon": 100.5, "lat": 23.25}}, {"type": "Feature", "geometry": {"type": "Polygon", "coordinates": [[[99.75, 24.0], [99.75, 25.5], [101.25, 25.5], [101.25, 24.0], [99.75, 24.0]]]}, "properties": {"cell_id": "67_76", "lon": 100.5, "lat": 24.75}}, {"type": "Feature", "geometry": {"type": "Polygon", "coordinates": [[[99.75, 25.5], [99.75, 27.0], [101.25, 27.0], [101.25, 25.5], [99.75, 25.5]]]}, "properties": {"cell_id": "67_77", "lon": 100.5, "lat": 26.25}}, {"type": "Feature", "geometry": {"type": "Polygon", "coordinates": [[[99.75, 27.0], [99.75, 28.5], [101.25, 28.5], [101.25, 27.0], [99.75, 27.0]]]}, "properties": {"cell_id": "67_78", "lon": 100.5, "lat": 27.75}}, {"type": "Feature", "geometry": {"type": "Polygon", "coordinates": [[[99.75, 28.5], [99.75, 30.0], [101.25, 30.0], [101.25, 28.5], [99.75, 28.5]]]}, "properties": {"cell_id": "67_79", "lon": 100.5, "lat": 29.25}}]}