{"type": "FeatureCollection", "features": [{"type": "Feature", "geometry": {"type": "Polygon", "coordinates": [[[101.25, 30.0], [101.25, 31.5], [102.75, 31.5], [102.75, 30.0], [101.25, 30.0]]]}, "properties": {"cell_id": "68_80", "lon": 102.0, "lat": 30.75}}, {"type": "Feature", "geometry": {"type": "Polygon", "coordinates": [[[101.25, 31.5], [101.25, 33.0], [102.75, 33.0], [102.75, 31.5], [101.25, 31.5]]]}, "properties": {"cell_id": "68_81", "lon": 102.0, "lat": 32.25}}, {"type": "Feature", "geometry": {"type": "Polygon", "coordinates": [[[101.25, 33.0], [101.25, 34.5], [102.75, 34.5], [102.75, 33.0], [101.25, 33.0]]]}, "properties": {"cell_id": "68_82", "lon": 102.0, "lat": 33.75}}, {"type": "Feature", "geometry": {"type": "Polygon", "coordinates": [[[101.25, 34.5], [101.25, 36.0], [102.75, 36.0], [102.75, 34.5], [101.25, 34.5]]]}, "properties": {"cell_id": "68_83", "lon": 102.0, "lat": 35.25}}, {"type": "Feature", "geometry": {"type": "Polygon", "coordinates": [[[101.25, 36.0], [101.25, 37.5], [102.75, 37.5], [102.75, 36.0], [101.25, 36.0]]]}, "properties": {"cell_id": "68_84", "lon": 102.0, "lat": 36.75}}, {"type": "Feature", "geometry": {"type": "Polygon", "coordinates": [[[101.25, 37.5], [101.25, 39.0], [102.75, 39.0], [102.75, 37.5], [101.25, 37.5]]]}, "properties": {"cell_id": "68_85", "lon": 102.0, "lat": 38.25}}, {"type": "Feature", "geometry": {"type": "Polygon", "coordinates": [[[101.25, 39.0], [101.25, 40.5], [102.75, 40.5], [102.75, 39.0], [101.25, 39.0]]]}, "properties": {"cell_id": "68_86", "lon": 102.0, "lat": 39.75}}, {"type": "Feature", "geometry": {"type": "Polygon", "coordinates": [[[102.75, 30.0], [102.75, 31.5], [104.25, 31.5], [104.25, 30.0], [102.75, 30.0]]]}, "properties": {"cell_id": "69_80", "lon": 103.5, "lat": 30.75}}, {"type": "Feature", "geometry": {"type": "Polygon", "coordinates": [[[102.75, 31.5], [102.75, 33.0], [104.25, 33.0], [104.25, 31.5], [102.75, 31.5]]]}, "properties": {"cell_id": "69_81", "lon": 103.5, "lat": 32.25}}, {"type": "Feature", "geometry": {"type": "Polygon", "coordinates": [[[102.75, 33.0], [102.75, 34.5], [104.25, 34.5], [104.25, 33.0], [102.75, 33.0]]]}, "properties": {"cell_id": "69_82", "lon": 103.5, "lat": 33.75}}, {"type": "Feature", "geometry": {"type": "Polygon", "coordinates": [[[102.75, 34.5], [102.75, 36.0], [104.25, 36.0], [104.25, 34.5], [102.75, 34.5]]]}, "properties": {"cell_id": "69_83", "lon": 103.5, "lat": 35.25}}, {"type": "Feature", "geometry": {"type": "Polygon", "coordinates": [[[102.75, 36.0], [102.75, 37.5], [104.25, 37.5], [104.25, 36.0], [102.75, 36.0]]]}, "properties": {"cell_id": "69_84", "lon": 103.5, "lat": 36.75}}, {"type": "Feature", "geometry": {"type": "Polygon", "coordinates": [[[102.75, 37.5], [102.75, 39.0], [104.25, 39.0], [104.25, 37.5], [102.75, 37.5]]]}, "properties": {"cell_id": "69_85", "lon": 103.5, "lat": 38.25}}, {"type": "Feature", "geometry": {"type": "Polygon", "coordinates": [[[102.75, 39.0], [102.75, 40.5], [104.25, 40.5], [104.25, 39.0], [102.75, 39.0]]]}, "properties": {"cell_id": "69_86", "lon": 103.5, "lat": 39.75}}, {"type": "Feature", "geometry": {"type": "Polygon", "coordinates": [[[104.25, 30.0], [104.25, 31.5], [105.75, 31.5], [105.75, 30.0], [104.25, 30.0]]]}, "properties": {"cell_id": "70_80", "lon": 105.0, "lat": 30.75}}, {"type": "Feature", "geometry": {"type": "Polygon", "coordinates": [[[104.25, 31.5], [104.25, 33.0], [105.75, 33.0], [105.75, 31.5], [104.25, 31.5]]]}, "properties": {"cell_id": "70_81", "lon": 105.0, "lat": 32.25}}, {"type": "Feature", "geometry": {"type": "Polygon", "coordinates": [[[104.25, 33.0], [104.25, 34.5], [105.75, 34.5], [105.75, 33.0], [104.25, 33.0]]]}, "properties": {"cell_id": "70_82", "lon": 105.0, "lat": 33.75}}, {"type": "Feature", "geometry": {"type": "Polygon", "coordinates": [[[104.25, 34.5], [104.25, 36.0], [105.75, 36.0], [105.75, 34.5], [104.25, 34.5]]]}, "properties": {"cell_id": "70_83", "lon": 105.0, "lat": 35.25}}, {"type": "Feature", "geometry": {"type": "Polygon", "coordinates": [[[104.25, 36.0], [104.25, 37.5], [105.75, 37.5], [105.75, 36.0], [104.25, 36.0]]]}, "properties": {"cell_id": "70_84", "lon": 105.0, "lat": 36.75}}, {"type": "Feature", "geometry": {"type": "Polygon", "coordinates": [[[104.25, 37.5], [104.25, 39.0], [105.75, 39.0], [105.75, 37.5], [104.25, 37.5]]]}, "properties": {"cell_id": "70_85", "lon": 105.0, "lat": 38.25}}, {"type": "Feature", "geometry": {"type": "Polygon", "coordinates": [[[104.25, 39.0], [104.25, 40.5], [105.75, 40.5], [105.75, 39.0], [104.25, 39.0]]]}, "properties": {"cell_id": "70_86", "lon": 105.0, "lat": 39.75}}, {"type": "Feature", "geometry": {"type": "Polygon", "coordinates": [[[105.75, 30.0], [105.75, 31.5], [107.25, 31.5], [107.25, 30.0], [105.75, 30.0]]]}, "properties": {"cell_id": "71_80", "lon": 106.5, "lat": 30.75}}, {"type": "Feature", "geometry": {"type": "Polygon", "coordinates": [[[105.75, 31.5], [105.75, 33.0], [107.25, 33.0], [107.25, 31.5], [105.75, 31.5]]]}, "properties": {"cell_id": "71_81", "lon": 106.5, "lat": 32.25}}, {"type": "Feature", "geometry": {"type": "Polygon", "coordinates": [[[105.75, 33.0], [105.75, 34.5], [107.25, 34.5], [107.25, 33.0], [105.75, 33.0]]]}, "properties": {"cell_id": "71_82", "lon": 106.5, "lat": 33.75}}, {"type": "Feature", "geometry": {"type": "Polygon", "coordinates": [[[105.75, 34.5], [105.75, 36.0], [107.25, 36.0], [107.25, 34.5], [105.75, 34.5]]]}, "properties": {"cell_id": "71_83", "lon": 106.5, "lat": 35.25}}, {"type": "Feature", "geometry": {"type": "Polygon", "coordinates": [[[105.75, 36.0], [105.75, 37.5], [107.25, 37.5], [107.25, 36.0], [105.75, 36.0]]]}, "properties": {"cell_id": "71_84", "lon": 106.5, "lat": 36.75}}, {"type": "Feature", "geometry": {"type": "Polygon", "coordinates": [[[105.75, 37.5], [105.75, 39.0], [107.25, 39.0], [107.25, 37.5], [105.75, 37.5]]]}, "properties": {"cell_id": "71_85", "lon": 106.5, "lat": 38.25}}, {"type": "Feature", "geometry": {"type": "Polygon", "coordinates": [[[105.75, 39.0], [105.75, 40.5], [107.25, 40.5], [107.25, 39.0], [105.75, 39.0]]]}, "properties": {"cell_id": "71_86", "lon": 106.5, "lat": 39.75}}, {"type": "Feature", "geometry": {"type": "Polygon", "coordinates": [[[107.25, 30.0], [107.25, 31.5], [108.75, 31.5], [108.75, 30.0], [107.25, 30.0]]]}, "properties": {"cell_id": "72_80", "lon": 108.0, "lat": 30.75}}, {"type": "Feature", "geometry": {"type": "Polygon", "coordinates": [[[107.25, 31.5], [107.25, 33.0], [108.75, 33.0], [108.75, 31.5], [107.25, 31.5]]]}, "properties": {"cell_id": "72_81", "lon": 108.0, "lat": 32.25}}, {"type": "Feature", "geometry": {"type": "Polygon", "coordinates": [[[107.25, 33.0], [107.25, 34.5], [108.75, 34.5], [108.75, 33.0], [107.25, 33.0]]]}, "properties": {"cell_id": "72_82", "lon": 108.0, "lat": 33.75}}, {"type": "Feature", "geometry": {"type": "Polygon", "coordinates": [[[107.25, 34.5], [107.25, 36.0], [108.75, 36.0], [108.75, 34.5], [107.25, 34.5]]]}, "properties": {"cell_id": "72_83", "lon": 108.0, "lat": 35.25}}, {"type": "Feature", "geometry": {"type": "Polygon", "coordinates": [[[107.25, 36.0], [107.25, 37.5], [108.75, 37.5], [108.75, 36.0], [107.25, 36.0]]]}, "properties": {"cell_id": "72_84", "lon": 108.0, "lat": 36.75}}, {"type": "Feature", "geometry": {"type": "Polygon", "coordinates": [[[107.25, 37.5], [107.25, 39.0], [108.75, 39.0], [108.75, 37.5], [107.25, 37.5]]]}, "properties": {"cell_id": "72_85", "lon": 108.0, "lat": 38.25}}, {"type": "Feature", "geometry": {"type": "Polygon", "coordinates": [[[107.25, 39.0], [107.25, 40.5], [108.75, 40.5], [108.75, 39.0], [107.25, 39.0]]]}, "properties": {"cell_id": "72_86", "lon": 108.0, "lat": 39.75}}, {"type": "Feature", "geometry": {"type": "Polygon", "coordinates": [[[108.75, 30.0], [108.75, 31.5], [110.25, 31.5], [110.25, 30.0], [108.75, 30.0]]]}, "properties": {"cell_id": "73_80", "lon": 109.5, "lat": 30.75}}, {"type": "Feature", "geometry": {"type": "Polygon", "coordinates": [[[108.75, 31.5], [108.75, 33.0], [110.25, 33.0], [110.25, 31.5], [108.75, 31.5]]]}, "properties": {"cell_id": "73_81", "lon": 109.5, "lat": 32.25}}, {"type": "Feature", "geometry": {"type": "Polygon", "coordinates": [[[108.75, 33.0], [108.75, 34.5], [110.25, 34.5], [110.25, 33.0], [108.75, 33.0]]]}, "properties": {"cell_id": "73_82", "lon": 109.5, "lat": 33.75}}, {"type": "Feature", "geometry": {"type": "Polygon", "coordinates": [[[108.75, 34.5], [108.75, 36.0], [110.25, 36.0], [110.25, 34.5], [108.75, 34.5]]]}, "properties": {"cell_id": "73_83", "lon": 109.5, "lat": 35.25}}, {"type": "Feature", "geometry": {"type": "Polygon", "coordinates": [[[108.75, 36.0], [108.75, 37.5], [110.25, 37.5], [110.25, 36.0], [108.75, 36.0]]]}, "properties": {"cell_id": "73_84", "lon": 109.5, "lat": 36.75}}, {"type": "Feature", "geometry": {"type": "Polygon", "coordinates": [[[108.75, 37.5], [108.75, 39.0], [110.25, 39.0], [110.25, 37.5], [108.75, 37.5]]]}, "properties": {"cell_id": "73_85", "lon": 109.5, "lat": 38.25}}, {"type": "Feature", "geometry": {"type": "Polygon", "coordinates": [[[108.75, 39.0], [108.75, 40.5], [110.25, 40.5], [110.25, 39.0], [108.75, 39.0]]]}, "properties": {"cell_id": "73_86", "lon": 109.5, "lat": 39.75}}]}