{"type": "FeatureCollection", "features": [{"type": "Feature", "geometry": {"type": "Polygon", "coordinates": [[[131.25, -30.0], [131.25, -28.5], [132.75, -28.5], [132.75, -30.0], [131.25, -30.0]]]}, "properties": {"cell_id": "88_40", "lon": 132.0, "lat": -29.25}}, {"type": "Feature", "geometry": {"type": "Polygon", "coordinates": [[[131.25, -28.5], [131.25, -27.0], [132.75, -27.0], [132.75, -28.5], [131.25, -28.5]]]}, "properties": {"cell_id": "88_41", "lon": 132.0, "lat": -27.75}}, {"type": "Feature", "geometry": {"type": "Polygon", "coordinates": [[[131.25, -27.0], [131.25, -25.5], [132.75, -25.5], [132.75, -27.0], [131.25, -27.0]]]}, "properties": {"cell_id": "88_42", "lon": 132.0, "lat": -26.25}}, {"type": "Feature", "geometry": {"type": "Polygon", "coordinates": [[[131.25, -25.5], [131.25, -24.0], [132.75, -24.0], [132.75, -25.5], [131.25, -25.5]]]}, "properties": {"cell_id": "88_43", "lon": 132.0, "lat": -24.75}}, {"type": "Feature", "geometry": {"type": "Polygon", "coordinates": [[[131.25, -24.0], [131.25, -22.5], [132.75, -22.5], [132.75, -24.0], [131.25, -24.0]]]}, "properties": {"cell_id": "88_44", "lon": 132.0, "lat": -23.25}}, {"type": "Feature", "geometry": {"type": "Polygon", "coordinates": [[[131.25, -22.5], [131.25, -21.0], [132.75, -21.0], [132.75, -22.5], [131.25, -22.5]]]}, "properties": {"cell_id": "88_45", "lon": 132.0, "lat": -21.75}}, {"type": "Feature", "geometry": {"type": "Polygon", "coordinates": [[[131.25, -21.0], [131.25, -19.5], [132.75, -19.5], [132.75, -21.0], [131.25, -21.0]]]}, "properties": {"cell_id": "88_46", "lon": 132.0, "lat": -20.25}}, {"type": "Feature", "geometry": {"type": "Polygon", "coordinates": [[[132.75, -30.0], [132.75, -28.5], [134.25, -28.5], [134.25, -30.0], [132.75, -30.0]]]}, "properties": {"cell_id": "89_40", "lon": 133.5, "lat": -29.25}}, {"type": "Feature", "geometry": {"type": "Polygon", "coordinates": [[[132.75, -28.5], [132.75, -27.0], [134.25, -27.0], [134.25, -28.5], [132.75, -28.5]]]}, "properties": {"cell_id": "89_41", "lon": 133.5, "lat": -27.75}}, {"type": "Feature", "geometry": {"type": "Polygon", "coordinates": [[[132.75, -27.0], [132.75, -25.5], [134.25, -25.5], [134.25, -27.0], [132.75, -27.0]]]}, "properties": {"cell_id": "89_42", "lon": 133.5, "lat": -26.25}}, {"type": "Feature", "geometry": {"type": "Polygon", "coordinates": [[[132.75, -25.5], [132.75, -24.0], [134.25, -24.0], [134.25, -25.5], [132.75, -25.5]]]}, "properties": {"cell_id": "89_43", "lon": 133.5, "lat": -24.75}}, {"type": "Feature", "geometry": {"type": "Polygon", "coordinates": [[[132.75, -24.0], [132.75, -22.5], [134.25, -22.5], [134.25, -24.0], [132.75, -24.0]]]}, "properties": {"cell_id": "89_44", "lon": 133.5, "lat": -23.25}}, {"type": "Feature", "geometry": {"type": "Polygon", "coordinates": [[[132.75, -22.5], [132.75, -21.0], [134.25, -21.0], [134.25, -22.5], [132.75, -22.5]]]}, "properties": {"cell_id": "89_45", "lon": 133.5, "lat": -21.75}}, {"type": "Feature", "geometry": {"type": "Polygon", "coordinates": [[[132.75, -21.0], [132.75, -19.5], [134.25, -19.5], [134.25, -21.0], [132.75, -21.0]]]}, "properties": {"cell_id": "89_46", "lon": 133.5, "lat": -20.25}}, {"type": "Feature", "geometry": {"type": "Polygon", "coordinates": [[[134.25, -30.0], [134.25, -28.5], [135.75, -28.5], [135.75, -30.0], [134.25, -30.0]]]}, "properties": {"cell_id": "90_40", "lon": 135.0, "lat": -29.25}}, {"type": "Feature", "geometry": {"type": "Polygon", "coordinates": [[[134.25, -28.5], [134.25, -27.0], [135.75, -27.0], [135.75, -28.5], [134.25, -28.5]]]}, "properties": {"cell_id": "90_41", "lon": 135.0, "lat": -27.75}}, {"type": "Feature", "geometry": {"type": "Polygon", "coordinates": [[[134.25, -27.0], [134.25, -25.5], [135.75, -25.5], [135.75, -27.0], [134.25, -27.0]]]}, "properties": {"cell_id": "90_42", "lon": 135.0, "lat": -26.25}}, {"type": "Feature", "geometry": {"type": "Polygon", "coordinates": [[[134.25, -25.5], [134.25, -24.0], [135.75, -24.0], [135.75, -25.5], [134.25, -25.5]]]}, "properties": {"cell_id": "90_43", "lon": 135.0, "lat": -24.75}}, {"type": "Feature", "geometry": {"type": "Polygon", "coordinates": [[[134.25, -24.0], [134.25, -22.5], [135.75, -22.5], [135.75, -24.0], [134.25, -24.0]]]}, "properties": {"cell_id": "90_44", "lon": 135.0, "lat": -23.25}}, {"type": "Feature", "geometry": {"type": "Polygon", "coordinates": [[[134.25, -22.5], [134.25, -21.0], [135.75, -21.0], [135.75, -22.5], [134.25, -22.5]]]}, "properties": {"cell_id": "90_45", "lon": 135.0, "lat": -21.75}}, {"type": "Feature", "geometry": {"type": "Polygon", "coordinates": [[[134.25, -21.0], [134.25, -19.5], [135.75, -19.5], [135.75, -21.0], [134.25, -21.0]]]}, "properties": {"cell_id": "90_46", "lon": 135.0, "lat": -20.25}}, {"type": "Feature", "geometry": {"type": "Polygon", "coordinates": [[[135.75, -30.0], [135.75, -28.5], [137.25, -28.5], [137.25, -30.0], [135.75, -30.0]]]}, "properties": {"cell_id": "91_40", "lon": 136.5, "lat": -29.25}}, {"type": "Feature", "geometry": {"type": "Polygon", "coordinates": [[[135.75, -28.5], [135.75, -27.0], [137.25, -27.0], [137.25, -28.5], [135.75, -28.5]]]}, "properties": {"cell_id": "91_41", "lon": 136.5, "lat": -27.75}}, {"type": "Feature", "geometry": {"type": "Polygon", "coordinates": [[[135.75, -27.0], [135.75, -25.5], [137.25, -25.5], [137.25, -27.0], [135.75, -27.0]]]}, "properties": {"cell_id": "91_42", "lon": 136.5, "lat": -26.25}}, {"type": "Feature", "geometry": {"type": "Polygon", "coordinates": [[[135.75, -25.5], [135.75, -24.0], [137.25, -24.0], [137.25, -25.5], [135.75, -25.5]]]}, "properties": {"cell_id": "91_43", "lon": 136.5, "lat": -24.75}}, {"type": "Feature", "geometry": {"type": "Polygon", "coordinates": [[[135.75, -24.0], [135.75, -22.5], [137.25, -22.5], [137.25, -24.0], [135.75, -24.0]]]}, "properties": {"cell_id": "91_44", "lon": 136.5, "lat": -23.25}}, {"type": "Feature", "geometry": {"type": "Polygon", "coordinates": [[[135.75, -22.5], [135.75, -21.0], [137.25, -21.0], [137.25, -22.5], [135.75, -22.5]]]}, "properties": {"cell_id": "91_45", "lon": 136.5, "lat": -21.75}}, {"type": "Feature", "geometry": {"type": "Polygon", "coordinates": [[[135.75, -21.0], [135.75, -19.5], [137.25, -19.5], [137.25, -21.0], [135.75, -21.0]]]}, "properties": {"cell_id": "91_46", "lon": 136.5, "lat": -20.25}}, {"type": "Feature", "geometry": {"type": "Polygon", "coordinates": [[[137.25, -30.0], [137.25, -28.5], [138.75, -28.5], [138.75, -30.0], [137.25, -30.0]]]}, "properties": {"cell_id": "92_40", "lon": 138.0, "lat": -29.25}}, {"type": "Feature", "geometry": {"type": "Polygon", "coordinates": [[[137.25, -28.5], [137.25, -27.0], [138.75, -27.0], [138.75, -28.5], [137.25, -28.5]]]}, "properties": {"cell_id": "92_41", "lon": 138.0, "lat": -27.75}}, {"type": "Feature", "geometry": {"type": "Polygon", "coordinates": [[[137.25, -27.0], [137.25, -25.5], [138.75, -25.5], [138.75, -27.0], [137.25, -27.0]]]}, "properties": {"cell_id": "92_42", "lon": 138.0, "lat": -26.25}}, {"type": "Feature", "geometry": {"type": "Polygon", "coordinates": [[[137.25, -25.5], [137.25, -24.0], [138.75, -24.0], [138.75, -25.5], [137.25, -25.5]]]}, "properties": {"cell_id": "92_43", "lon": 138.0, "lat": -24.75}}, {"type": "Feature", "geometry": {"type": "Polygon", "coordinates": [[[137.25, -24.0], [137.25, -22.5], [138.75, -22.5], [138.75, -24.0], [137.25, -24.0]]]}, "properties": {"cell_id": "92_44", "lon": 138.0, "lat": -23.25}}, {"type": "Feature", "geometry": {"type": "Polygon", "coordinates": [[[137.25, -22.5], [137.25, -21.0], [138.75, -21.0], [138.75, -22.5], [137.25, -22.5]]]}, "properties": {"cell_id": "92_45", "lon": 138.0, "lat": -21.75}}, {"type": "Feature", "geometry": {"type": "Polygon", "coordinates": [[[137.25, -21.0], [137.25, -19.5], [138.75, -19.5], [138.75, -21.0], [137.25, -21.0]]]}, "properties": {"cell_id": "92_46", "lon": 138.0, "lat": -20.25}}, {"type": "Feature", "geometry": {"type": "Polygon", "coordinates": [[[138.75, -30.0], [138.75, -28.5], [140.25, -28.5], [140.25, -30.0], [138.75, -30.0]]]}, "properties": {"cell_id": "93_40", "lon": 139.5, "lat": -29.25}}, {"type": "Feature", "geometry": {"type": "Polygon", "coordinates": [[[138.75, -28.5], [138.75, -27.0], [140.25, -27.0], [140.25, -28.5], [138.75, -28.5]]]}, "properties": {"cell_id": "93_41", "lon": 139.5, "lat": -27.75}}, {"type": "Feature", "geometry": {"type": "Polygon", "coordinates": [[[138.75, -27.0], [138.75, -25.5], [140.25, -25.5], [140.25, -27.0], [138.75, -27.0]]]}, "properties": {"cell_id": "93_42", "lon": 139.5, "lat": -26.25}}, {"type": "Feature", "geometry": {"type": "Polygon", "coordinates": [[[138.75, -25.5], [138.75, -24.0], [140.25, -24.0], [140.25, -25.5], [138.75, -25.5]]]}, "properties": {"cell_id": "93_43", "lon": 139.5, "lat": -24.75}}, {"type": "Feature", "geometry": {"type": "Polygon", "coordinates": [[[138.75, -24.0], [138.75, -22.5], [140.25, -22.5], [140.25, -24.0], [138.75, -24.0]]]}, "properties": {"cell_id": "93_44", "lon": 139.5, "lat": -23.25}}, {"type": "Feature", "geometry": {"type": "Polygon", "coordinates": [[[138.75, -22.5], [138.75, -21.0], [140.25, -21.0], [140.25, -22.5], [138.75, -22.5]]]}, "properties": {"cell_id": "93_45", "lon": 139.5, "lat": -21.75}}, {"type": "Feature", "geometry": {"type": "Polygon", "coordinates": [[[138.75, -21.0], [138.75, -19.5], [140.25, -19.5], [140.25, -21.0], [138.75, -21.0]]]}, "properties": {"cell_id": "93_46", "lon": 139.5, "lat": -20.25}}]}