{"type": "FeatureCollection", "features": [{"type": "Feature", "geometry": {"type": "Polygon", "coordinates": [[[41.25, -79.5], [41.25, -78.0], [42.75, -78.0], [42.75, -79.5], [41.25, -79.5]]]}, "properties": {"cell_id": "28_7", "lon": 42.0, "lat": -78.75}}, {"type": "Feature", "geometry": {"type": "Polygon", "coordinates": [[[41.25, -78.0], [41.25, -76.5], [42.75, -76.5], [42.75, -78.0], [41.25, -78.0]]]}, "properties": {"cell_id": "28_8", "lon": 42.0, "lat": -77.25}}, {"type": "Feature", "geometry": {"type": "Polygon", "coordinates": [[[41.25, -76.5], [41.25, -75.0], [42.75, -75.0], [42.75, -76.5], [41.25, -76.5]]]}, "properties": {"cell_id": "28_9", "lon": 42.0, "lat": -75.75}}, {"type": "Feature", "geometry": {"type": "Polygon", "coordinates": [[[41.25, -75.0], [41.25, -73.5], [42.75, -73.5], [42.75, -75.0], [41.25, -75.0]]]}, "properties": {"cell_id": "28_10", "lon": 42.0, "lat": -74.25}}, {"type": "Feature", "geometry": {"type": "Polygon", "coordinates": [[[41.25, -73.5], [41.25, -72.0], [42.75, -72.0], [42.75, -73.5], [41.25, -73.5]]]}, "properties": {"cell_id": "28_11", "lon": 42.0, "lat": -72.75}}, {"type": "Feature", "geometry": {"type": "Polygon", "coordinates": [[[41.25, -72.0], [41.25, -70.5], [42.75, -70.5], [42.75, -72.0], [41.25, -72.0]]]}, "properties": {"cell_id": "28_12", "lon": 42.0, "lat": -71.25}}, {"type": "Feature", "geometry": {"type": "Polygon", "coordinates": [[[41.25, -70.5], [41.25, -69.0], [42.75, -69.0], [42.75, -70.5], [41.25, -70.5]]]}, "properties": {"cell_id": "28_13", "lon": 42.0, "lat": -69.75}}, {"type": "Feature", "geometry": {"type": "Polygon", "coordinates": [[[42.75, -79.5], [42.75, -78.0], [44.25, -78.0], [44.25, -79.5], [42.75, -79.5]]]}, "properties": {"cell_id": "29_7", "lon": 43.5, "lat": -78.75}}, {"type": "Feature", "geometry": {"type": "Polygon", "coordinates": [[[42.75, -78.0], [42.75, -76.5], [44.25, -76.5], [44.25, -78.0], [42.75, -78.0]]]}, "properties": {"cell_id": "29_8", "lon": 43.5, "lat": -77.25}}, {"type": "Feature", "geometry": {"type": "Polygon", "coordinates": [[[42.75, -76.5], [42.75, -75.0], [44.25, -75.0], [44.25, -76.5], [42.75, -76.5]]]}, "properties": {"cell_id": "29_9", "lon": 43.5, "lat": -75.75}}, {"type": "Feature", "geometry": {"type": "Polygon", "coordinates": [[[42.75, -75.0], [42.75, -73.5], [44.25, -73.5], [44.25, -75.0], [42.75, -75.0]]]}, "properties": {"cell_id": "29_10", "lon": 43.5, "lat": -74.25}}, {"type": "Feature", "geometry": {"type": "Polygon", "coordinates": [[[42.75, -73.5], [42.75, -72.0], [44.25, -72.0], [44.25, -73.5], [42.75, -73.5]]]}, "properties": {"cell_id": "29_11", "lon": 43.5, "lat": -72.75}}, {"type": "Feature", "geometry": {"type": "Polygon", "coordinates": [[[42.75, -72.0], [42.75, -70.5], [44.25, -70.5], [44.25, -72.0], [42.75, -72.0]]]}, "properties": {"cell_id": "29_12", "lon": 43.5, "lat": -71.25}}, {"type": "Feature", "geometry": {"type": "Polygon", "coordinates": [[[42.75, -70.5], [42.75, -69.0], [44.25, -69.0], [44.25, -70.5], [42.75, -70.5]]]}, "properties": {"cell_id": "29_13", "lon": 43.5, "lat": -69.75}}, {"type": "Feature", "geometry": {"type": "Polygon", "coordinates": [[[44.25, -79.5], [44.25, -78.0], [45.75, -78.0], [45.75, -79.5], [44.25, -79.5]]]}, "properties": {"cell_id": "30_7", "lon": 45.0, "lat": -78.75}}, {"type": "Feature", "geometry": {"type": "Polygon", "coordinates": [[[44.25, -78.0], [44.25, -76.5], [45.75, -76.5], [45.75, -78.0], [44.25, -78.0]]]}, "properties": {"cell_id": "30_8", "lon": 45.0, "lat": -77.25}}, {"type": "Feature", "geometry": {"type": "Polygon", "coordinates": [[[44.25, -76.5], [44.25, -75.0], [45.75, -75.0], [45.75, -76.5], [44.25, -76.5]]]}, "properties": {"cell_id": "30_9", "lon": 45.0, "lat": -75.75}}, {"type": "Feature", "geometry": {"type": "Polygon", "coordinates": [[[44.25, -75.0], [44.25, -73.5], [45.75, -73.5], [45.75, -75.0], [44.25, -75.0]]]}, "properties": {"cell_id": "30_10", "lon": 45.0, "lat": -74.25}}, {"type": "Feature", "geometry": {"type": "Polygon", "coordinates": [[[44.25, -73.5], [44.25, -72.0], [45.75, -72.0], [45.75, -73.5], [44.25, -73.5]]]}, "properties": {"cell_id": "30_11", "lon": 45.0, "lat": -72.75}}, {"type": "Feature", "geometry": {"type": "Polygon", "coordinates": [[[44.25, -72.0], [44.25, -70.5], [45.75, -70.5], [45.75, -72.0], [44.25, -72.0]]]}, "properties": {"cell_id": "30_12", "lon": 45.0, "lat": -71.25}}, {"type": "Feature", "geometry": {"type": "Polygon", "coordinates": [[[44.25, -70.5], [44.25, -69.0], [45.75, -69.0], [45.75, -70.5], [44.25, -70.5]]]}, "properties": {"cell_id": "30_13", "lon": 45.0, "lat": -69.75}}, {"type": "Feature", "geometry": {"type": "Polygon", "coordinates": [[[45.75, -79.5], [45.75, -78.0], [47.25, -78.0], [47.25, -79.5], [45.75, -79.5]]]}, "properties": {"cell_id": "31_7", "lon": 46.5, "lat": -78.75}}, {"type": "Feature", "geometry": {"type": "Polygon", "coordinates": [[[45.75, -78.0], [45.75, -76.5], [47.25, -76.5], [47.25, -78.0], [45.75, -78.0]]]}, "properties": {"cell_id": "31_8", "lon": 46.5, "lat": -77.25}}, {"type": "Feature", "geometry": {"type": "Polygon", "coordinates": [[[45.75, -76.5], [45.75, -75.0], [47.25, -75.0], [47.25, -76.5], [45.75, -76.5]]]}, "properties": {"cell_id": "31_9", "lon": 46.5, "lat": -75.75}}, {"type": "Feature", "geometry": {"type": "Polygon", "coordinates": [[[45.75, -75.0], [45.75, -73.5], [47.25, -73.5], [47.25, -75.0], [45.75, -75.0]]]}, "properties": {"cell_id": "31_10", "lon": 46.5, "lat": -74.25}}, {"type": "Feature", "geometry": {"type": "Polygon", "coordinates": [[[45.75, -73.5], [45.75, -72.0], [47.25, -72.0], [47.25, -73.5], [45.75, -73.5]]]}, "properties": {"cell_id": "31_11", "lon": 46.5, "lat": -72.75}}, {"type": "Feature", "geometry": {"type": "Polygon", "coordinates": [[[45.75, -72.0], [45.75, -70.5], [47.25, -70.5], [47.25, -72.0], [45.75, -72.0]]]}, "properties": {"cell_id": "31_12", "lon": 46.5, "lat": -71.25}}, {"type": "Feature", "geometry": {"type": "Polygon", "coordinates": [[[45.75, -70.5], [45.75, -69.0], [47.25, -69.0], [47.25, -70.5], [45.75, -70.5]]]}, "properties": {"cell_id": "31_13", "lon": 46.5, "lat": -69.75}}, {"type": "Feature", "geometry": {"type": "Polygon", "coordinates": [[[47.25, -79.5], [47.25, -78.0], [48.75, -78.0], [48.75, -79.5], [47.25, -79.5]]]}, "properties": {"cell_id": "32_7", "lon": 48.0, "lat": -78.75}}, {"type": "Feature", "geometry": {"type": "Polygon", "coordinates": [[[47.25, -78.0], [47.25, -76.5], [48.75, -76.5], [48.75, -78.0], [47.25, -78.0]]]}, "properties": {"cell_id": "32_8", "lon": 48.0, "lat": -77.25}}, {"type": "Feature", "geometry": {"type": "Polygon", "coordinates": [[[47.25, -76.5], [47.25, -75.0], [48.75, -75.0], [48.75, -76.5], [47.25, -76.5]]]}, "properties": {"cell_id": "32_9", "lon": 48.0, "lat": -75.75}}, {"type": "Feature", "geometry": {"type": "Polygon", "coordinates": [[[47.25, -75.0], [47.25, -73.5], [48.75, -73.5], [48.75, -75.0], [47.25, -75.0]]]}, "properties": {"cell_id": "32_10", "lon": 48.0, "lat": -74.25}}, {"type": "Feature", "geometry": {"type": "Polygon", "coordinates": [[[47.25, -73.5], [47.25, -72.0], [48.75, -72.0], [48.75, -73.5], [47.25, -73.5]]]}, "properties": {"cell_id": "32_11", "lon": 48.0, "lat": -72.75}}, {"type": "Feature", "geometry": {"type": "Polygon", "coordinates": [[[47.25, -72.0], [47.25, -70.5], [48.75, -70.5], [48.75, -72.0], [47.25, -72.0]]]}, "properties": {"cell_id": "32_12", "lon": 48.0, "lat": -71.25}}, {"type": "Feature", "geometry": {"type": "Polygon", "coordinates": [[[47.25, -70.5], [47.25, -69.0], [48.75, -69.0], [48.75, -70.5], [47.25, -70.5]]]}, "properties": {"cell_id": "32_13", "lon": 48.0, "lat": -69.75}}, {"type": "Feature", "geometry": {"type": "Polygon", "coordinates": [[[48.75, -79.5], [48.75, -78.0], [50.25, -78.0], [50.25, -79.5], [48.75, -79.5]]]}, "properties": {"cell_id": "33_7", "lon": 49.5, "lat": -78.75}}, {"type": "Feature", "geometry": {"type": "Polygon", "coordinates": [[[48.75, -78.0], [48.75, -76.5], [50.25, -76.5], [50.25, -78.0], [48.75, -78.0]]]}, "properties": {"cell_id": "33_8", "lon": 49.5, "lat": -77.25}}, {"type": "Feature", "geometry": {"type": "Polygon", "coordinates": [[[48.75, -76.5], [48.75, -75.0], [50.25, -75.0], [50.25, -76.5], [48.75, -76.5]]]}, "properties": {"cell_id": "33_9", "lon": 49.5, "lat": -75.75}}, {"type": "Feature", "geometry": {"type": "Polygon", "coordinates": [[[48.75, -75.0], [48.75, -73.5], [50.25, -73.5], [50.25, -75.0], [48.75, -75.0]]]}, "properties": {"cell_id": "33_10", "lon": 49.5, "lat": -74.25}}, {"type": "Feature", "geometry": {"type": "Polygon", "coordinates": [[[48.75, -73.5], [48.75, -72.0], [50.25, -72.0], [50.25, -73.5], [48.75, -73.5]]]}, "properties": {"cell_id": "33_11", "lon": 49.5, "lat": -72.75}}, {"type": "Feature", "geometry": {"type": "Polygon", "coordinates": [[[48.75, -72.0], [48.75, -70.5], [50.25, -70.5], [50.25, -72.0], [48.75, -72.0]]]}, "properties": {"cell_id": "33_12", "lon": 49.5, "lat": -71.25}}, {"type": "Feature", "geometry": {"type": "Polygon", "coordinates": [[[48.75, -70.5], [48.75, -69.0], [50.25, -69.0], [50.25, -70.5], [48.75, -70.5]]]}, "properties": {"cell_id": "33_13", "lon": 49.5, "lat": -69.75}}]}