{"type": "FeatureCollection", "features": [{"type": "Feature", "geometry": {"type": "Polygon", "coordinates": [[[-18.75, 75.0], [-18.75, 76.5], [-17.25, 76.5], [-17.25, 75.0], [-18.75, 75.0]]]}, "properties": {"cell_id": "228_110", "lon": -18.0, "lat": 75.75}}, {"type": "Feature", "geometry": {"type": "Polygon", "coordinates": [[[-18.75, 76.5], [-18.75, 78.0], [-17.25, 78.0], [-17.25, 76.5], [-18.75, 76.5]]]}, "properties": {"cell_id": "228_111", "lon": -18.0, "lat": 77.25}}, {"type": "Feature", "geometry": {"type": "Polygon", "coordinates": [[[-18.75, 78.0], [-18.75, 79.5], [-17.25, 79.5], [-17.25, 78.0], [-18.75, 78.0]]]}, "properties": {"cell_id": "228_112", "lon": -18.0, "lat": 78.75}}, {"type": "Feature", "geometry": {"type": "Polygon", "coordinates": [[[-18.75, 79.5], [-18.75, 81.0], [-17.25, 81.0], [-17.25, 79.5], [-18.75, 79.5]]]}, "properties": {"cell_id": "228_113", "lon": -18.0, "lat": 80.25}}]}