{"type": "FeatureCollection", "features": [{"type": "Feature", "geometry": {"type": "Polygon", "coordinates": [[[-18.75, -79.5], [-18.75, -78.0], [-17.25, -78.0], [-17.25, -79.5], [-18.75, -79.5]]]}, "properties": {"cell_id": "228_7", "lon": -18.0, "lat": -78.75}}, {"type": "Feature", "geometry": {"type": "Polygon", "coordinates": [[[-18.75, -78.0], [-18.75, -76.5], [-17.25, -76.5], [-17.25, -78.0], [-18.75, -78.0]]]}, "properties": {"cell_id": "228_8", "lon": -18.0, "lat": -77.25}}, {"type": "Feature", "geometry": {"type": "Polygon", "coordinates": [[[-18.75, -76.5], [-18.75, -75.0], [-17.25, -75.0], [-17.25, -76.5], [-18.75, -76.5]]]}, "properties": {"cell_id": "228_9", "lon": -18.0, "lat": -75.75}}, {"type": "Feature", "geometry": {"type": "Polygon", "coordinates": [[[-18.75, -75.0], [-18.75, -73.5], [-17.25, -73.5], [-17.25, -75.0], [-18.75, -75.0]]]}, "properties": {"cell_id": "228_10", "lon": -18.0, "lat": -74.25}}, {"type": "Feature", "geometry": {"type": "Polygon", "coordinates": [[[-18.75, -73.5], [-18.75, -72.0], [-17.25, -72.0], [-17.25, -73.5], [-18.75, -73.5]]]}, "properties": {"cell_id": "228_11", "lon": -18.0, "lat": -72.75}}, {"type": "Feature", "geometry": {"type": "Polygon", "coordinates": [[[-17.25, -79.5], [-17.25, -78.0], [-15.75, -78.0], [-15.75, -79.5], [-17.25, -79.5]]]}, "properties": {"cell_id": "229_7", "lon": -16.5, "lat": -78.75}}, {"type": "Feature", "geometry": {"type": "Polygon", "coordinates": [[[-17.25, -78.0], [-17.25, -76.5], [-15.75, -76.5], [-15.75, -78.0], [-17.25, -78.0]]]}, "properties": {"cell_id": "229_8", "lon": -16.5, "lat": -77.25}}, {"type": "Feature", "geometry": {"type": "Polygon", "coordinates": [[[-17.25, -76.5], [-17.25, -75.0], [-15.75, -75.0], [-15.75, -76.5], [-17.25, -76.5]]]}, "properties": {"cell_id": "229_9", "lon": -16.5, "lat": -75.75}}, {"type": "Feature", "geometry": {"type": "Polygon", "coordinates": [[[-17.25, -75.0], [-17.25, -73.5], [-15.75, -73.5], [-15.75, -75.0], [-17.25, -75.0]]]}, "properties": {"cell_id": "229_10", "lon": -16.5, "lat": -74.25}}, {"type": "Feature", "geometry": {"type": "Polygon", "coordinates": [[[-17.25, -73.5], [-17.25, -72.0], [-15.75, -72.0], [-15.75, -73.5], [-17.25, -73.5]]]}, "properties": {"cell_id": "229_11", "lon": -16.5, "lat": -72.75}}, {"type": "Feature", "geometry": {"type": "Polygon", "coordinates": [[[-15.75, -79.5], [-15.75, -78.0], [-14.25, -78.0], [-14.25, -79.5], [-15.75, -79.5]]]}, "properties": {"cell_id": "230_7", "lon": -15.0, "lat": -78.75}}, {"type": "Feature", "geometry": {"type": "Polygon", "coordinates": [[[-15.75, -78.0], [-15.75, -76.5], [-14.25, -76.5], [-14.25, -78.0], [-15.75, -78.0]]]}, "properties": {"cell_id": "230_8", "lon": -15.0, "lat": -77.25}}, {"type": "Feature", "geometry": {"type": "Polygon", "coordinates": [[[-15.75, -76.5], [-15.75, -75.0], [-14.25, -75.0], [-14.25, -76.5], [-15.75, -76.5]]]}, "properties": {"cell_id": "230_9", "lon": -15.0, "lat": -75.75}}, {"type": "Feature", "geometry": {"type": "Polygon", "coordinates": [[[-15.75, -75.0], [-15.75, -73.5], [-14.25, -73.5], [-14.25, -75.0], [-15.75, -75.0]]]}, "properties": {"cell_id": "230_10", "lon": -15.0, "lat": -74.25}}, {"type": "Feature", "geometry": {"type": "Polygon", "coordinates": [[[-15.75, -73.5], [-15.75, -72.0], [-14.25, -72.0], [-14.25, -73.5], [-15.75, -73.5]]]}, "properties": {"cell_id": "230_11", "lon": -15.0, "lat": -72.75}}, {"type": "Feature", "geometry": {"type": "Polygon", "coordinates": [[[-14.25, -79.5], [-14.25, -78.0], [-12.75, -78.0], [-12.75, -79.5], [-14.25, -79.5]]]}, "properties": {"cell_id": "231_7", "lon": -13.5, "lat": -78.75}}, {"type": "Feature", "geometry": {"type": "Polygon", "coordinates": [[[-14.25, -78.0], [-14.25, -76.5], [-12.75, -76.5], [-12.75, -78.0], [-14.25, -78.0]]]}, "properties": {"cell_id": "231_8", "lon": -13.5, "lat": -77.25}}, {"type": "Feature", "geometry": {"type": "Polygon", "coordinates": [[[-14.25, -76.5], [-14.25, -75.0], [-12.75, -75.0], [-12.75, -76.5], [-14.25, -76.5]]]}, "properties": {"cell_id": "231_9", "lon": -13.5, "lat": -75.75}}, {"type": "Feature", "geometry": {"type": "Polygon", "coordinates": [[[-14.25, -75.0], [-14.25, -73.5], [-12.75, -73.5], [-12.75, -75.0], [-14.25, -75.0]]]}, "properties": {"cell_id": "231_10", "lon": -13.5, "lat": -74.25}}, {"type": "Feature", "geometry": {"type": "Polygon", "coordinates": [[[-14.25, -73.5], [-14.25, -72.0], [-12.75, -72.0], [-12.75, -73.5], [-14.25, -73.5]]]}, "properties": {"cell_id": "231_11", "lon": -13.5, "lat": -72.75}}, {"type": "Feature", "geometry": {"type": "Polygon", "coordinates": [[[-12.75, -79.5], [-12.75, -78.0], [-11.25, -78.0], [-11.25, -79.5], [-12.75, -79.5]]]}, "properties": {"cell_id": "232_7", "lon": -12.0, "lat": -78.75}}, {"type": "Feature", "geometry": {"type": "Polygon", "coordinates": [[[-12.75, -78.0], [-12.75, -76.5], [-11.25, -76.5], [-11.25, -78.0], [-12.75, -78.0]]]}, "properties": {"cell_id": "232_8", "lon": -12.0, "lat": -77.25}}, {"type": "Feature", "geometry": {"type": "Polygon", "coordinates": [[[-12.75, -76.5], [-12.75, -75.0], [-11.25, -75.0], [-11.25, -76.5], [-12.75, -76.5]]]}, "properties": {"cell_id": "232_9", "lon": -12.0, "lat": -75.75}}, {"type": "Feature", "geometry": {"type": "Polygon", "coordinates": [[[-12.75, -75.0], [-12.75, -73.5], [-11.25, -73.5], [-11.25, -75.0], [-12.75, -75.0]]]}, "properties": {"cell_id": "232_10", "lon": -12.0, "lat": -74.25}}, {"type": "Feature", "geometry": {"type": "Polygon", "coordinates": [[[-12.75, -73.5], [-12.75, -72.0], [-11.25, -72.0], [-11.25, -73.5], [-12.75, -73.5]]]}, "properties": {"cell_id": "232_11", "lon": -12.0, "lat": -72.75}}, {"type": "Feature", "geometry": {"type": "Polygon", "coordinates": [[[-11.25, -79.5], [-11.25, -78.0], [-9.75, -78.0], [-9.75, -79.5], [-11.25, -79.5]]]}, "properties": {"cell_id": "233_7", "lon": -10.5, "lat": -78.75}}, {"type": "Feature", "geometry": {"type": "Polygon", "coordinates": [[[-11.25, -78.0], [-11.25, -76.5], [-9.75, -76.5], [-9.75, -78.0], [-11.25, -78.0]]]}, "properties": {"cell_id": "233_8", "lon": -10.5, "lat": -77.25}}, {"type": "Feature", "geometry": {"type": "Polygon", "coordinates": [[[-11.25, -76.5], [-11.25, -75.0], [-9.75, -75.0], [-9.75, -76.5], [-11.25, -76.5]]]}, "properties": {"cell_id": "233_9", "lon": -10.5, "lat": -75.75}}, {"type": "Feature", "geometry": {"type": "Polygon", "coordinates": [[[-11.25, -75.0], [-11.25, -73.5], [-9.75, -73.5], [-9.75, -75.0], [-11.25, -75.0]]]}, "properties": {"cell_id": "233_10", "lon": -10.5, "lat": -74.25}}, {"type": "Feature", "geometry": {"type": "Polygon", "coordinates": [[[-11.25, -73.5], [-11.25, -72.0], [-9.75, -72.0], [-9.75, -73.5], [-11.25, -73.5]]]}, "properties": {"cell_id": "233_11", "lon": -10.5, "lat": -72.75}}, {"type": "Feature", "geometry": {"type": "Polygon", "coordinates": [[[-11.25, -72.0], [-11.25, -70.5], [-9.75, -70.5], [-9.75, -72.0], [-11.25, -72.0]]]}, "properties": {"cell_id": "233_12", "lon": -10.5, "lat": -71.25}}, {"type": "Feature", "geometry": {"type": "Polygon", "coordinates": [[[-11.25, -70.5], [-11.25, -69.0], [-9.75, -69.0], [-9.75, -70.5], [-11.25, -70.5]]]}, "properties": {"cell_id": "233_13", "lon": -10.5, "lat": -69.75}}]}