{"type": "FeatureCollection", "features": [{"type": "Feature", "geometry": {"type": "Polygon", "coordinates": [[[-119.25, -90.0], [-119.25, -88.5], [-117.75, -88.5], [-117.75, -90.0], [-119.25, -90.0]]]}, "properties": {"cell_id": "161_0", "lon": -118.5, "lat": -89.25}}, {"type": "Feature", "geometry": {"type": "Polygon", "coordinates": [[[-119.25, -88.5], [-119.25, -87.0], [-117.75, -87.0], [-117.75, -88.5], [-119.25, -88.5]]]}, "properties": {"cell_id": "161_1", "lon": -118.5, "lat": -87.75}}, {"type": "Feature", "geometry": {"type": "Polygon", "coordinates": [[[-119.25, -87.0], [-119.25, -85.5], [-117.75, -85.5], [-117.75, -87.0], [-119.25, -87.0]]]}, "properties": {"cell_id": "161_2", "lon": -118.5, "lat": -86.25}}, {"type": "Feature", "geometry": {"type": "Polygon", "coordinates": [[[-119.25, -85.5], [-119.25, -84.0], [-117.75, -84.0], [-117.75, -85.5], [-119.25, -85.5]]]}, "properties": {"cell_id": "161_3", "lon": -118.5, "lat": -84.75}}, {"type": "Feature", "geometry": {"type": "Polygon", "coordinates": [[[-119.25, -84.0], [-119.25, -82.5], [-117.75, -82.5], [-117.75, -84.0], [-119.25, -84.0]]]}, "properties": {"cell_id": "161_4", "lon": -118.5, "lat": -83.25}}, {"type": "Feature", "geometry": {"type": "Polygon", "coordinates": [[[-119.25, -82.5], [-119.25, -81.0], [-117.75, -81.0], [-117.75, -82.5], [-119.25, -82.5]]]}, "properties": {"cell_id": "161_5", "lon": -118.5, "lat": -81.75}}, {"type": "Feature", "geometry": {"type": "Polygon", "coordinates": [[[-119.25, -81.0], [-119.25, -79.5], [-117.75, -79.5], [-117.75, -81.0], [-119.25, -81.0]]]}, "properties": {"cell_id": "161_6", "lon": -118.5, "lat": -80.25}}, {"type": "Feature", "geometry": {"type": "Polygon", "coordinates": [[[-117.75, -90.0], [-117.75, -88.5], [-116.25, -88.5], [-116.25, -90.0], [-117.75, -90.0]]]}, "properties": {"cell_id": "162_0", "lon": -117.0, "lat": -89.25}}, {"type": "Feature", "geometry": {"type": "Polygon", "coordinates": [[[-117.75, -88.5], [-117.75, -87.0], [-116.25, -87.0], [-116.25, -88.5], [-117.75, -88.5]]]}, "properties": {"cell_id": "162_1", "lon": -117.0, "lat": -87.75}}, {"type": "Feature", "geometry": {"type": "Polygon", "coordinates": [[[-117.75, -87.0], [-117.75, -85.5], [-116.25, -85.5], [-116.25, -87.0], [-117.75, -87.0]]]}, "properties": {"cell_id": "162_2", "lon": -117.0, "lat": -86.25}}, {"type": "Feature", "geometry": {"type": "Polygon", "coordinates": [[[-117.75, -85.5], [-117.75, -84.0], [-116.25, -84.0], [-116.25, -85.5], [-117.75, -85.5]]]}, "properties": {"cell_id": "162_3", "lon": -117.0, "lat": -84.75}}, {"type": "Feature", "geometry": {"type": "Polygon", "coordinates": [[[-117.75, -84.0], [-117.75, -82.5], [-116.25, -82.5], [-116.25, -84.0], [-117.75, -84.0]]]}, "properties": {"cell_id": "162_4", "lon": -117.0, "lat": -83.25}}, {"type": "Feature", "geometry": {"type": "Polygon", "coordinates": [[[-117.75, -82.5], [-117.75, -81.0], [-116.25, -81.0], [-116.25, -82.5], [-117.75, -82.5]]]}, "properties": {"cell_id": "162_5", "lon": -117.0, "lat": -81.75}}, {"type": "Feature", "geometry": {"type": "Polygon", "coordinates": [[[-117.75, -81.0], [-117.75, -79.5], [-116.25, -79.5], [-116.25, -81.0], [-117.75, -81.0]]]}, "properties": {"cell_id": "162_6", "lon": -117.0, "lat": -80.25}}, {"type": "Feature", "geometry": {"type": "Polygon", "coordinates": [[[-116.25, -90.0], [-116.25, -88.5], [-114.75, -88.5], [-114.75, -90.0], [-116.25, -90.0]]]}, "properties": {"cell_id": "163_0", "lon": -115.5, "lat": -89.25}}, {"type": "Feature", "geometry": {"type": "Polygon", "coordinates": [[[-116.25, -88.5], [-116.25, -87.0], [-114.75, -87.0], [-114.75, -88.5], [-116.25, -88.5]]]}, "properties": {"cell_id": "163_1", "lon": -115.5, "lat": -87.75}}, {"type": "Feature", "geometry": {"type": "Polygon", "coordinates": [[[-116.25, -87.0], [-116.25, -85.5], [-114.75, -85.5], [-114.75, -87.0], [-116.25, -87.0]]]}, "properties": {"cell_id": "163_2", "lon": -115.5, "lat": -86.25}}, {"type": "Feature", "geometry": {"type": "Polygon", "coordinates": [[[-116.25, -85.5], [-116.25, -84.0], [-114.75, -84.0], [-114.75, -85.5], [-116.25, -85.5]]]}, "properties": {"cell_id": "163_3", "lon": -115.5, "lat": -84.75}}, {"type": "Feature", "geometry": {"type": "Polygon", "coordinates": [[[-116.25, -84.0], [-116.25, -82.5], [-114.75, -82.5], [-114.75, -84.0], [-116.25, -84.0]]]}, "properties": {"cell_id": "163_4", "lon": -115.5, "lat": -83.25}}, {"type": "Feature", "geometry": {"type": "Polygon", "coordinates": [[[-116.25, -82.5], [-116.25, -81.0], [-114.75, -81.0], [-114.75, -82.5], [-116.25, -82.5]]]}, "properties": {"cell_id": "163_5", "lon": -115.5, "lat": -81.75}}, {"type": "Feature", "geometry": {"type": "Polygon", "coordinates": [[[-116.25, -81.0], [-116.25, -79.5], [-114.75, -79.5], [-114.75, -81.0], [-116.25, -81.0]]]}, "properties": {"cell_id": "163_6", "lon": -115.5, "lat": -80.25}}, {"type": "Feature", "geometry": {"type": "Polygon", "coordinates": [[[-114.75, -90.0], [-114.75, -88.5], [-113.25, -88.5], [-113.25, -90.0], [-114.75, -90.0]]]}, "properties": {"cell_id": "164_0", "lon": -114.0, "lat": -89.25}}, {"type": "Feature", "geometry": {"type": "Polygon", "coordinates": [[[-114.75, -88.5], [-114.75, -87.0], [-113.25, -87.0], [-113.25, -88.5], [-114.75, -88.5]]]}, "properties": {"cell_id": "164_1", "lon": -114.0, "lat": -87.75}}, {"type": "Feature", "geometry": {"type": "Polygon", "coordinates": [[[-114.75, -87.0], [-114.75, -85.5], [-113.25, -85.5], [-113.25, -87.0], [-114.75, -87.0]]]}, "properties": {"cell_id": "164_2", "lon": -114.0, "lat": -86.25}}, {"type": "Feature", "geometry": {"type": "Polygon", "coordinates": [[[-114.75, -85.5], [-114.75, -84.0], [-113.25, -84.0], [-113.25, -85.5], [-114.75, -85.5]]]}, "properties": {"cell_id": "164_3", "lon": -114.0, "lat": -84.75}}, {"type": "Feature", "geometry": {"type": "Polygon", "coordinates": [[[-114.75, -84.0], [-114.75, -82.5], [-113.25, -82.5], [-113.25, -84.0], [-114.75, -84.0]]]}, "properties": {"cell_id": "164_4", "lon": -114.0, "lat": -83.25}}, {"type": "Feature", "geometry": {"type": "Polygon", "coordinates": [[[-114.75, -82.5], [-114.75, -81.0], [-113.25, -81.0], [-113.25, -82.5], [-114.75, -82.5]]]}, "properties": {"cell_id": "164_5", "lon": -114.0, "lat": -81.75}}, {"type": "Feature", "geometry": {"type": "Polygon", "coordinates": [[[-114.75, -81.0], [-114.75, -79.5], [-113.25, -79.5], [-113.25, -81.0], [-114.75, -81.0]]]}, "properties": {"cell_id": "164_6", "lon": -114.0, "lat": -80.25}}, {"type": "Feature", "geometry": {"type": "Polygon", "coordinates": [[[-113.25, -90.0], [-113.25, -88.5], [-111.75, -88.5], [-111.75, -90.0], [-113.25, -90.0]]]}, "properties": {"cell_id": "165_0", "lon": -112.5, "lat": -89.25}}, {"type": "Feature", "geometry": {"type": "Polygon", "coordinates": [[[-113.25, -88.5], [-113.25, -87.0], [-111.75, -87.0], [-111.75, -88.5], [-113.25, -88.5]]]}, "properties": {"cell_id": "165_1", "lon": -112.5, "lat": -87.75}}, {"type": "Feature", "geometry": {"type": "Polygon", "coordinates": [[[-113.25, -87.0], [-113.25, -85.5], [-111.75, -85.5], [-111.75, -87.0], [-113.25, -87.0]]]}, "properties": {"cell_id": "165_2", "lon": -112.5, "lat": -86.25}}, {"type": "Feature", "geometry": {"type": "Polygon", "coordinates": [[[-113.25, -85.5], [-113.25, -84.0], [-111.75, -84.0], [-111.75, -85.5], [-113.25, -85.5]]]}, "properties": {"cell_id": "165_3", "lon": -112.5, "lat": -84.75}}, {"type": "Feature", "geometry": {"type": "Polygon", "coordinates": [[[-113.25, -84.0], [-113.25, -82.5], [-111.75, -82.5], [-111.75, -84.0], [-113.25, -84.0]]]}, "properties": {"cell_id": "165_4", "lon": -112.5, "lat": -83.25}}, {"type": "Feature", "geometry": {"type": "Polygon", "coordinates": [[[-113.25, -82.5], [-113.25, -81.0], [-111.75, -81.0], [-111.75, -82.5], [-113.25, -82.5]]]}, "properties": {"cell_id": "165_5", "lon": -112.5, "lat": -81.75}}, {"type": "Feature", "geometry": {"type": "Polygon", "coordinates": [[[-113.25, -81.0], [-113.25, -79.5], [-111.75, -79.5], [-111.75, -81.0], [-113.25, -81.0]]]}, "properties": {"cell_id": "165_6", "lon": -112.5, "lat": -80.25}}, {"type": "Feature", "geometry": {"type": "Polygon", "coordinates": [[[-111.75, -90.0], [-111.75, -88.5], [-110.25, -88.5], [-110.25, -90.0], [-111.75, -90.0]]]}, "properties": {"cell_id": "166_0", "lon": -111.0, "lat": -89.25}}, {"type": "Feature", "geometry": {"type": "Polygon", "coordinates": [[[-111.75, -88.5], [-111.75, -87.0], [-110.25, -87.0], [-110.25, -88.5], [-111.75, -88.5]]]}, "properties": {"cell_id": "166_1", "lon": -111.0, "lat": -87.75}}, {"type": "Feature", "geometry": {"type": "Polygon", "coordinates": [[[-111.75, -87.0], [-111.75, -85.5], [-110.25, -85.5], [-110.25, -87.0], [-111.75, -87.0]]]}, "properties": {"cell_id": "166_2", "lon": -111.0, "lat": -86.25}}, {"type": "Feature", "geometry": {"type": "Polygon", "coordinates": [[[-111.75, -85.5], [-111.75, -84.0], [-110.25, -84.0], [-110.25, -85.5], [-111.75, -85.5]]]}, "properties": {"cell_id": "166_3", "lon": -111.0, "lat": -84.75}}, {"type": "Feature", "geometry": {"type": "Polygon", "coordinates": [[[-111.75, -84.0], [-111.75, -82.5], [-110.25, -82.5], [-110.25, -84.0], [-111.75, -84.0]]]}, "properties": {"cell_id": "166_4", "lon": -111.0, "lat": -83.25}}, {"type": "Feature", "geometry": {"type": "Polygon", "coordinates": [[[-111.75, -82.5], [-111.75, -81.0], [-110.25, -81.0], [-110.25, -82.5], [-111.75, -82.5]]]}, "properties": {"cell_id": "166_5", "lon": -111.0, "lat": -81.75}}, {"type": "Feature", "geometry": {"type": "Polygon", "coordinates": [[[-111.75, -81.0], [-111.75, -79.5], [-110.25, -79.5], [-110.25, -81.0], [-111.75, -81.0]]]}, "properties": {"cell_id": "166_6", "lon": -111.0, "lat": -80.25}}, {"type": "Feature", "geometry": {"type": "Polygon", "coordinates": [[[-110.25, -90.0], [-110.25, -88.5], [-108.75, -88.5], [-108.75, -90.0], [-110.25, -90.0]]]}, "properties": {"cell_id": "167_0", "lon": -109.5, "lat": -89.25}}, {"type": "Feature", "geometry": {"type": "Polygon", "coordinates": [[[-110.25, -88.5], [-110.25, -87.0], [-108.75, -87.0], [-108.75, -88.5], [-110.25, -88.5]]]}, "properties": {"cell_id": "167_1", "lon": -109.5, "lat": -87.75}}, {"type": "Feature", "geometry": {"type": "Polygon", "coordinates": [[[-110.25, -87.0], [-110.25, -85.5], [-108.75, -85.5], [-108.75, -87.0], [-110.25, -87.0]]]}, "properties": {"cell_id": "167_2", "lon": -109.5, "lat": -86.25}}, {"type": "Feature", "geometry": {"type": "Polygon", "coordinates": [[[-110.25, -85.5], [-110.25, -84.0], [-108.75, -84.0], [-108.75, -85.5], [-110.25, -85.5]]]}, "properties": {"cell_id": "167_3", "lon": -109.5, "lat": -84.75}}, {"type": "Feature", "geometry": {"type": "Polygon", "coordinates": [[[-110.25, -84.0], [-110.25, -82.5], [-108.75, -82.5], [-108.75, -84.0], [-110.25, -84.0]]]}, "properties": {"cell_id": "167_4", "lon": -109.5, "lat": -83.25}}, {"type": "Feature", "geometry": {"type": "Polygon", "coordinates": [[[-110.25, -82.5], [-110.25, -81.0], [-108.75, -81.0], [-108.75, -82.5], [-110.25, -82.5]]]}, "properties": {"cell_id": "167_5", "lon": -109.5, "lat": -81.75}}, {"type": "Feature", "geometry": {"type": "Polygon", "coordinates": [[[-110.25, -81.0], [-110.25, -79.5], [-108.75, -79.5], [-108.75, -81.0], [-110.25, -81.0]]]}, "properties": {"cell_id": "167_6", "lon": -109.5, "lat": -80.25}}]}