{"type": "FeatureCollection", "features": [{"type": "Feature", "geometry": {"type": "Polygon", "coordinates": [[[-0.75, 10.5], [-0.75, 12.0], [0.75, 12.0], [0.75, 10.5], [-0.75, 10.5]]]}, "properties": {"cell_id": "0_67", "lon": 0.0, "lat": 11.25}}, {"type": "Feature", "geometry": {"type": "Polygon", "coordinates": [[[-0.75, 12.0], [-0.75, 13.5], [0.75, 13.5], [0.75, 12.0], [-0.75, 12.0]]]}, "properties": {"cell_id": "0_68", "lon": 0.0, "lat": 12.75}}, {"type": "Feature", "geometry": {"type": "Polygon", "coordinates": [[[-0.75, 13.5], [-0.75, 15.0], [0.75, 15.0], [0.75, 13.5], [-0.75, 13.5]]]}, "properties": {"cell_id": "0_69", "lon": 0.0, "lat": 14.25}}, {"type": "Feature", "geometry": {"type": "Polygon", "coordinates": [[[-0.75, 15.0], [-0.75, 16.5], [0.75, 16.5], [0.75, 15.0], [-0.75, 15.0]]]}, "properties": {"cell_id": "0_70", "lon": 0.0, "lat": 15.75}}, {"type": "Feature", "geometry": {"type": "Polygon", "coordinates": [[[-0.75, 16.5], [-0.75, 18.0], [0.75, 18.0], [0.75, 16.5], [-0.75, 16.5]]]}, "properties": {"cell_id": "0_71", "lon": 0.0, "lat": 17.25}}, {"type": "Feature", "geometry": {"type": "Polygon", "coordinates": [[[-0.75, 18.0], [-0.75, 19.5], [0.75, 19.5], [0.75, 18.0], [-0.75, 18.0]]]}, "properties": {"cell_id": "0_72", "lon": 0.0, "lat": 18.75}}, {"type": "Feature", "geometry": {"type": "Polygon", "coordinates": [[[-0.75, 19.5], [-0.75, 21.0], [0.75, 21.0], [0.75, 19.5], [-0.75, 19.5]]]}, "properties": {"cell_id": "0_73", "lon": 0.0, "lat": 20.25}}, {"type": "Feature", "geometry": {"type": "Polygon", "coordinates": [[[-9.75, 10.5], [-9.75, 12.0], [-8.25, 12.0], [-8.25, 10.5], [-9.75, 10.5]]]}, "properties": {"cell_id": "234_67", "lon": -9.0, "lat": 11.25}}, {"type": "Feature", "geometry": {"type": "Polygon", "coordinates": [[[-9.75, 12.0], [-9.75, 13.5], [-8.25, 13.5], [-8.25, 12.0], [-9.75, 12.0]]]}, "properties": {"cell_id": "234_68", "lon": -9.0, "lat": 12.75}}, {"type": "Feature", "geometry": {"type": "Polygon", "coordinates": [[[-9.75, 13.5], [-9.75, 15.0], [-8.25, 15.0], [-8.25, 13.5], [-9.75, 13.5]]]}, "properties": {"cell_id": "234_69", "lon": -9.0, "lat": 14.25}}, {"type": "Feature", "geometry": {"type": "Polygon", "coordinates": [[[-9.75, 15.0], [-9.75, 16.5], [-8.25, 16.5], [-8.25, 15.0], [-9.75, 15.0]]]}, "properties": {"cell_id": "234_70", "lon": -9.0, "lat": 15.75}}, {"type": "Feature", "geometry": {"type": "Polygon", "coordinates": [[[-9.75, 16.5], [-9.75, 18.0], [-8.25, 18.0], [-8.25, 16.5], [-9.75, 16.5]]]}, "properties": {"cell_id": "234_71", "lon": -9.0, "lat": 17.25}}, {"type": "Feature", "geometry": {"type": "Polygon", "coordinates": [[[-9.75, 18.0], [-9.75, 19.5], [-8.25, 19.5], [-8.25, 18.0], [-9.75, 18.0]]]}, "properties": {"cell_id": "234_72", "lon": -9.0, "lat": 18.75}}, {"type": "Feature", "geometry": {"type": "Polygon", "coordinates": [[[-9.75, 19.5], [-9.75, 21.0], [-8.25, 21.0], [-8.25, 19.5], [-9.75, 19.5]]]}, "properties": {"cell_id": "234_73", "lon": -9.0, "lat": 20.25}}, {"type": "Feature", "geometry": {"type": "Polygon", "coordinates": [[[-8.25, 10.5], [-8.25, 12.0], [-6.75, 12.0], [-6.75, 10.5], [-8.25, 10.5]]]}, "properties": {"cell_id": "235_67", "lon": -7.5, "lat": 11.25}}, {"type": "Feature", "geometry": {"type": "Polygon", "coordinates": [[[-8.25, 12.0], [-8.25, 13.5], [-6.75, 13.5], [-6.75, 12.0], [-8.25, 12.0]]]}, "properties": {"cell_id": "235_68", "lon": -7.5, "lat": 12.75}}, {"type": "Feature", "geometry": {"type": "Polygon", "coordinates": [[[-8.25, 13.5], [-8.25, 15.0], [-6.75, 15.0], [-6.75, 13.5], [-8.25, 13.5]]]}, "properties": {"cell_id": "235_69", "lon": -7.5, "lat": 14.25}}, {"type": "Feature", "geometry": {"type": "Polygon", "coordinates": [[[-8.25, 15.0], [-8.25, 16.5], [-6.75, 16.5], [-6.75, 15.0], [-8.25, 15.0]]]}, "properties": {"cell_id": "235_70", "lon": -7.5, "lat": 15.75}}, {"type": "Feature", "geometry": {"type": "Polygon", "coordinates": [[[-8.25, 16.5], [-8.25, 18.0], [-6.75, 18.0], [-6.75, 16.5], [-8.25, 16.5]]]}, "properties": {"cell_id": "235_71", "lon": -7.5, "lat": 17.25}}, {"type": "Feature", "geometry": {"type": "Polygon", "coordinates": [[[-8.25, 18.0], [-8.25, 19.5], [-6.75, 19.5], [-6.75, 18.0], [-8.25, 18.0]]]}, "properties": {"cell_id": "235_72", "lon": -7.5, "lat": 18.75}}, {"type": "Feature", "geometry": {"type": "Polygon", "coordinates": [[[-8.25, 19.5], [-8.25, 21.0], [-6.75, 21.0], [-6.75, 19.5], [-8.25, 19.5]]]}, "properties": {"cell_id": "235_73", "lon": -7.5, "lat": 20.25}}, {"type": "Feature", "geometry": {"type": "Polygon", "coordinates": [[[-6.75, 10.5], [-6.75, 12.0], [-5.25, 12.0], [-5.25, 10.5], [-6.75, 10.5]]]}, "properties": {"cell_id": "236_67", "lon": -6.0, "lat": 11.25}}, {"type": "Feature", "geometry": {"type": "Polygon", "coordinates": [[[-6.75, 12.0], [-6.75, 13.5], [-5.25, 13.5], [-5.25, 12.0], [-6.75, 12.0]]]}, "properties": {"cell_id": "236_68", "lon": -6.0, "lat": 12.75}}, {"type": "Feature", "geometry": {"type": "Polygon", "coordinates": [[[-6.75, 13.5], [-6.75, 15.0], [-5.25, 15.0], [-5.25, 13.5], [-6.75, 13.5]]]}, "properties": {"cell_id": "236_69", "lon": -6.0, "lat": 14.25}}, {"type": "Feature", "geometry": {"type": "Polygon", "coordinates": [[[-6.75, 15.0], [-6.75, 16.5], [-5.25, 16.5], [-5.25, 15.0], [-6.75, 15.0]]]}, "properties": {"cell_id": "236_70", "lon": -6.0, "lat": 15.75}}, {"type": "Feature", "geometry": {"type": "Polygon", "coordinates": [[[-6.75, 16.5], [-6.75, 18.0], [-5.25, 18.0], [-5.25, 16.5], [-6.75, 16.5]]]}, "properties": {"cell_id": "236_71", "lon": -6.0, "lat": 17.25}}, {"type": "Feature", "geometry": {"type": "Polygon", "coordinates": [[[-6.75, 18.0], [-6.75, 19.5], [-5.25, 19.5], [-5.25, 18.0], [-6.75, 18.0]]]}, "properties": {"cell_id": "236_72", "lon": -6.0, "lat": 18.75}}, {"type": "Feature", "geometry": {"type": "Polygon", "coordinates": [[[-6.75, 19.5], [-6.75, 21.0], [-5.25, 21.0], [-5.25, 19.5], [-6.75, 19.5]]]}, "properties": {"cell_id": "236_73", "lon": -6.0, "lat": 20.25}}, {"type": "Feature", "geometry": {"type": "Polygon", "coordinates": [[[-5.25, 10.5], [-5.25, 12.0], [-3.75, 12.0], [-3.75, 10.5], [-5.25, 10.5]]]}, "properties": {"cell_id": "237_67", "lon": -4.5, "lat": 11.25}}, {"type": "Feature", "geometry": {"type": "Polygon", "coordinates": [[[-5.25, 12.0], [-5.25, 13.5], [-3.75, 13.5], [-3.75, 12.0], [-5.25, 12.0]]]}, "properties": {"cell_id": "237_68", "lon": -4.5, "lat": 12.75}}, {"type": "Feature", "geometry": {"type": "Polygon", "coordinates": [[[-5.25, 13.5], [-5.25, 15.0], [-3.75, 15.0], [-3.75, 13.5], [-5.25, 13.5]]]}, "properties": {"cell_id": "237_69", "lon": -4.5, "lat": 14.25}}, {"type": "Feature", "geometry": {"type": "Polygon", "coordinates": [[[-5.25, 15.0], [-5.25, 16.5], [-3.75, 16.5], [-3.75, 15.0], [-5.25, 15.0]]]}, "properties": {"cell_id": "237_70", "lon": -4.5, "lat": 15.75}}, {"type": "Feature", "geometry": {"type": "Polygon", "coordinates": [[[-5.25, 16.5], [-5.25, 18.0], [-3.75, 18.0], [-3.75, 16.5], [-5.25, 16.5]]]}, "properties": {"cell_id": "237_71", "lon": -4.5, "lat": 17.25}}, {"type": "Feature", "geometry": {"type": "Polygon", "coordinates": [[[-5.25, 18.0], [-5.25, 19.5], [-3.75, 19.5], [-3.75, 18.0], [-5.25, 18.0]]]}, "properties": {"cell_id": "237_72", "lon": -4.5, "lat": 18.75}}, {"type": "Feature", "geometry": {"type": "Polygon", "coordinates": [[[-5.25, 19.5], [-5.25, 21.0], [-3.75, 21.0], [-3.75, 19.5], [-5.25, 19.5]]]}, "properties": {"cell_id": "237_73", "lon": -4.5, "lat": 20.25}}, {"type": "Feature", "geometry": {"type": "Polygon", "coordinates": [[[-3.75, 10.5], [-3.75, 12.0], [-2.25, 12.0], [-2.25, 10.5], [-3.75, 10.5]]]}, "properties": {"cell_id": "238_67", "lon": -3.0, "lat": 11.25}}, {"type": "Feature", "geometry": {"type": "Polygon", "coordinates": [[[-3.75, 12.0], [-3.75, 13.5], [-2.25, 13.5], [-2.25, 12.0], [-3.75, 12.0]]]}, "properties": {"cell_id": "238_68", "lon": -3.0, "lat": 12.75}}, {"type": "Feature", "geometry": {"type": "Polygon", "coordinates": [[[-3.75, 13.5], [-3.75, 15.0], [-2.25, 15.0], [-2.25, 13.5], [-3.75, 13.5]]]}, "properties": {"cell_id": "238_69", "lon": -3.0, "lat": 14.25}}, {"type": "Feature", "geometry": {"type": "Polygon", "coordinates": [[[-3.75, 15.0], [-3.75, 16.5], [-2.25, 16.5], [-2.25, 15.0], [-3.75, 15.0]]]}, "properties": {"cell_id": "238_70", "lon": -3.0, "lat": 15.75}}, {"type": "Feature", "geometry": {"type": "Polygon", "coordinates": [[[-3.75, 16.5], [-3.75, 18.0], [-2.25, 18.0], [-2.25, 16.5], [-3.75, 16.5]]]}, "properties": {"cell_id": "238_71", "lon": -3.0, "lat": 17.25}}, {"type": "Feature", "geometry": {"type": "Polygon", "coordinates": [[[-3.75, 18.0], [-3.75, 19.5], [-2.25, 19.5], [-2.25, 18.0], [-3.75, 18.0]]]}, "properties": {"cell_id": "238_72", "lon": -3.0, "lat": 18.75}}, {"type": "Feature", "geometry": {"type": "Polygon", "coordinates": [[[-3.75, 19.5], [-3.75, 21.0], [-2.25, 21.0], [-2.25, 19.5], [-3.75, 19.5]]]}, "properties": {"cell_id": "238_73", "lon": -3.0, "lat": 20.25}}, {"type": "Feature", "geometry": {"type": "Polygon", "coordinates": [[[-2.25, 10.5], [-2.25, 12.0], [-0.75, 12.0], [-0.75, 10.5], [-2.25, 10.5]]]}, "properties": {"cell_id": "239_67", "lon": -1.5, "lat": 11.25}}, {"type": "Feature", "geometry": {"type": "Polygon", "coordinates": [[[-2.25, 12.0], [-2.25, 13.5], [-0.75, 13.5], [-0.75, 12.0], [-2.25, 12.0]]]}, "properties": {"cell_id": "239_68", "lon": -1.5, "lat": 12.75}}, {"type": "Feature", "geometry": {"type": "Polygon", "coordinates": [[[-2.25, 13.5], [-2.25, 15.0], [-0.75, 15.0], [-0.75, 13.5], [-2.25, 13.5]]]}, "properties": {"cell_id": "239_69", "lon": -1.5, "lat": 14.25}}, {"type": "Feature", "geometry": {"type": "Polygon", "coordinates": [[[-2.25, 15.0], [-2.25, 16.5], [-0.75, 16.5], [-0.75, 15.0], [-2.25, 15.0]]]}, "properties": {"cell_id": "239_70", "lon": -1.5, "lat": 15.75}}, {"type": "Feature", "geometry": {"type": "Polygon", "coordinates": [[[-2.25, 16.5], [-2.25, 18.0], [-0.75, 18.0], [-0.75, 16.5], [-2.25, 16.5]]]}, "properties": {"cell_id": "239_71", "lon": -1.5, "lat": 17.25}}, {"type": "Feature", "geometry": {"type": "Polygon", "coordinates": [[[-2.25, 18.0], [-2.25, 19.5], [-0.75, 19.5], [-0.75, 18.0], [-2.25, 18.0]]]}, "properties": {"cell_id": "239_72", "lon": -1.5, "lat": 18.75}}, {"type": "Feature", "geometry": {"type": "Polygon", "coordinates": [[[-2.25, 19.5], [-2.25, 21.0], [-0.75, 21.0], [-0.75, 19.5], [-2.25, 19.5]]]}, "properties": {"cell_id": "239_73", "lon": -1.5, "lat": 20.25}}]}