{"type": "FeatureCollection", "features": [{"type": "Feature", "geometry": {"type": "Polygon", "coordinates": [[[140.25, -9.0], [140.25, -7.5], [141.75, -7.5], [141.75, -9.0], [140.25, -9.0]]]}, "properties": {"cell_id": "94_54", "lon": 141.0, "lat": -8.25}}, {"type": "Feature", "geometry": {"type": "Polygon", "coordinates": [[[140.25, -7.5], [140.25, -6.0], [141.75, -6.0], [141.75, -7.5], [140.25, -7.5]]]}, "properties": {"cell_id": "94_55", "lon": 141.0, "lat": -6.75}}, {"type": "Feature", "geometry": {"type": "Polygon", "coordinates": [[[140.25, -6.0], [140.25, -4.5], [141.75, -4.5], [141.75, -6.0], [140.25, -6.0]]]}, "properties": {"cell_id": "94_56", "lon": 141.0, "lat": -5.25}}, {"type": "Feature", "geometry": {"type": "Polygon", "coordinates": [[[140.25, -4.5], [140.25, -3.0], [141.75, -3.0], [141.75, -4.5], [140.25, -4.5]]]}, "properties": {"cell_id": "94_57", "lon": 141.0, "lat": -3.75}}, {"type": "Feature", "geometry": {"type": "Polygon", "coordinates": [[[140.25, -3.0], [140.25, -1.5], [141.75, -1.5], [141.75, -3.0], [140.25, -3.0]]]}, "properties": {"cell_id": "94_58", "lon": 141.0, "lat": -2.25}}, {"type": "Feature", "geometry": {"type": "Polygon", "coordinates": [[[141.75, -9.0], [141.75, -7.5], [143.25, -7.5], [143.25, -9.0], [141.75, -9.0]]]}, "properties": {"cell_id": "95_54", "lon": 142.5, "lat": -8.25}}, {"type": "Feature", "geometry": {"type": "Polygon", "coordinates": [[[141.75, -7.5], [141.75, -6.0], [143.25, -6.0], [143.25, -7.5], [141.75, -7.5]]]}, "properties": {"cell_id": "95_55", "lon": 142.5, "lat": -6.75}}, {"type": "Feature", "geometry": {"type": "Polygon", "coordinates": [[[141.75, -6.0], [141.75, -4.5], [143.25, -4.5], [143.25, -6.0], [141.75, -6.0]]]}, "properties": {"cell_id": "95_56", "lon": 142.5, "lat": -5.25}}, {"type": "Feature", "geometry": {"type": "Polygon", "coordinates": [[[141.75, -4.5], [141.75, -3.0], [143.25, -3.0], [143.25, -4.5], [141.75, -4.5]]]}, "properties": {"cell_id": "95_57", "lon": 142.5, "lat": -3.75}}, {"type": "Feature", "geometry": {"type": "Polygon", "coordinates": [[[141.75, -3.0], [141.75, -1.5], [143.25, -1.5], [143.25, -3.0], [141.75, -3.0]]]}, "properties": {"cell_id": "95_58", "lon": 142.5, "lat": -2.25}}, {"type": "Feature", "geometry": {"type": "Polygon", "coordinates": [[[143.25, -9.0], [143.25, -7.5], [144.75, -7.5], [144.75, -9.0], [143.25, -9.0]]]}, "properties": {"cell_id": "96_54", "lon": 144.0, "lat": -8.25}}, {"type": "Feature", "geometry": {"type": "Polygon", "coordinates": [[[143.25, -7.5], [143.25, -6.0], [144.75, -6.0], [144.75, -7.5], [143.25, -7.5]]]}, "properties": {"cell_id": "96_55", "lon": 144.0, "lat": -6.75}}, {"type": "Feature", "geometry": {"type": "Polygon", "coordinates": [[[143.25, -6.0], [143.25, -4.5], [144.75, -4.5], [144.75, -6.0], [143.25, -6.0]]]}, "properties": {"cell_id": "96_56", "lon": 144.0, "lat": -5.25}}, {"type": "Feature", "geometry": {"type": "Polygon", "coordinates": [[[143.25, -4.5], [143.25, -3.0], [144.75, -3.0], [144.75, -4.5], [143.25, -4.5]]]}, "properties": {"cell_id": "96_57", "lon": 144.0, "lat": -3.75}}, {"type": "Feature", "geometry": {"type": "Polygon", "coordinates": [[[143.25, -3.0], [143.25, -1.5], [144.75, -1.5], [144.75, -3.0], [143.25, -3.0]]]}, "properties": {"cell_id": "96_58", "lon": 144.0, "lat": -2.25}}, {"type": "Feature", "geometry": {"type": "Polygon", "coordinates": [[[144.75, -9.0], [144.75, -7.5], [146.25, -7.5], [146.25, -9.0], [144.75, -9.0]]]}, "properties": {"cell_id": "97_54", "lon": 145.5, "lat": -8.25}}, {"type": "Feature", "geometry": {"type": "Polygon", "coordinates": [[[144.75, -7.5], [144.75, -6.0], [146.25, -6.0], [146.25, -7.5], [144.75, -7.5]]]}, "properties": {"cell_id": "97_55", "lon": 145.5, "lat": -6.75}}, {"type": "Feature", "geometry": {"type": "Polygon", "coordinates": [[[144.75, -6.0], [144.75, -4.5], [146.25, -4.5], [146.25, -6.0], [144.75, -6.0]]]}, "properties": {"cell_id": "97_56", "lon": 145.5, "lat": -5.25}}, {"type": "Feature", "geometry": {"type": "Polygon", "coordinates": [[[144.75, -4.5], [144.75, -3.0], [146.25, -3.0], [146.25, -4.5], [144.75, -4.5]]]}, "properties": {"cell_id": "97_57", "lon": 145.5, "lat": -3.75}}, {"type": "Feature", "geometry": {"type": "Polygon", "coordinates": [[[144.75, -3.0], [144.75, -1.5], [146.25, -1.5], [146.25, -3.0], [144.75, -3.0]]]}, "properties": {"cell_id": "97_58", "lon": 145.5, "lat": -2.25}}, {"type": "Feature", "geometry": {"type": "Polygon", "coordinates": [[[146.25, -9.0], [146.25, -7.5], [147.75, -7.5], [147.75, -9.0], [146.25, -9.0]]]}, "properties": {"cell_id": "98_54", "lon": 147.0, "lat": -8.25}}, {"type": "Feature", "geometry": {"type": "Polygon", "coordinates": [[[146.25, -7.5], [146.25, -6.0], [147.75, -6.0], [147.75, -7.5], [146.25, -7.5]]]}, "properties": {"cell_id": "98_55", "lon": 147.0, "lat": -6.75}}, {"type": "Feature", "geometry": {"type": "Polygon", "coordinates": [[[146.25, -6.0], [146.25, -4.5], [147.75, -4.5], [147.75, -6.0], [146.25, -6.0]]]}, "properties": {"cell_id": "98_56", "lon": 147.0, "lat": -5.25}}]}