{"type": "FeatureCollection", "features": [{"type": "Feature", "geometry": {"type": "Polygon", "coordinates": [[[-48.75, -25.5], [-48.75, -24.0], [-47.25, -24.0], [-47.25, -25.5], [-48.75, -25.5]]]}, "properties": {"cell_id": "208_43", "lon": -48.0, "lat": -24.75}}, {"type": "Feature", "geometry": {"type": "Polygon", "coordinates": [[[-48.75, -24.0], [-48.75, -22.5], [-47.25, -22.5], [-47.25, -24.0], [-48.75, -24.0]]]}, "properties": {"cell_id": "208_44", "lon": -48.0, "lat": -23.25}}, {"type": "Feature", "geometry": {"type": "Polygon", "coordinates": [[[-48.75, -22.5], [-48.75, -21.0], [-47.25, -21.0], [-47.25, -22.5], [-48.75, -22.5]]]}, "properties": {"cell_id": "208_45", "lon": -48.0, "lat": -21.75}}, {"type": "Feature", "geometry": {"type": "Polygon", "coordinates": [[[-48.75, -21.0], [-48.75, -19.5], [-47.25, -19.5], [-47.25, -21.0], [-48.75, -21.0]]]}, "properties": {"cell_id": "208_46", "lon": -48.0, "lat": -20.25}}, {"type": "Feature", "geometry": {"type": "Polygon", "coordinates": [[[-47.25, -25.5], [-47.25, -24.0], [-45.75, -24.0], [-45.75, -25.5], [-47.25, -25.5]]]}, "properties": {"cell_id": "209_43", "lon": -46.5, "lat": -24.75}}, {"type": "Feature", "geometry": {"type": "Polygon", "coordinates": [[[-47.25, -24.0], [-47.25, -22.5], [-45.75, -22.5], [-45.75, -24.0], [-47.25, -24.0]]]}, "properties": {"cell_id": "209_44", "lon": -46.5, "lat": -23.25}}, {"type": "Feature", "geometry": {"type": "Polygon", "coordinates": [[[-47.25, -22.5], [-47.25, -21.0], [-45.75, -21.0], [-45.75, -22.5], [-47.25, -22.5]]]}, "properties": {"cell_id": "209_45", "lon": -46.5, "lat": -21.75}}, {"type": "Feature", "geometry": {"type": "Polygon", "coordinates": [[[-47.25, -21.0], [-47.25, -19.5], [-45.75, -19.5], [-45.75, -21.0], [-47.25, -21.0]]]}, "properties": {"cell_id": "209_46", "lon": -46.5, "lat": -20.25}}, {"type": "Feature", "geometry": {"type": "Polygon", "coordinates": [[[-45.75, -22.5], [-45.75, -21.0], [-44.25, -21.0], [-44.25, -22.5], [-45.75, -22.5]]]}, "properties": {"cell_id": "210_45", "lon": -45.0, "lat": -21.75}}, {"type": "Feature", "geometry": {"type": "Polygon", "coordinates": [[[-45.75, -21.0], [-45.75, -19.5], [-44.25, -19.5], [-44.25, -21.0], [-45.75, -21.0]]]}, "properties": {"cell_id": "210_46", "lon": -45.0, "lat": -20.25}}, {"type": "Feature", "geometry": {"type": "Polygon", "coordinates": [[[-44.25, -22.5], [-44.25, -21.0], [-42.75, -21.0], [-42.75, -22.5], [-44.25, -22.5]]]}, "properties": {"cell_id": "211_45", "lon": -43.5, "lat": -21.75}}, {"type": "Feature", "geometry": {"type": "Polygon", "coordinates": [[[-44.25, -21.0], [-44.25, -19.5], [-42.75, -19.5], [-42.75, -21.0], [-44.25, -21.0]]]}, "properties": {"cell_id": "211_46", "lon": -43.5, "lat": -20.25}}, {"type": "Feature", "geometry": {"type": "Polygon", "coordinates": [[[-42.75, -22.5], [-42.75, -21.0], [-41.25, -21.0], [-41.25, -22.5], [-42.75, -22.5]]]}, "properties": {"cell_id": "212_45", "lon": -42.0, "lat": -21.75}}, {"type": "Feature", "geometry": {"type": "Polygon", "coordinates": [[[-42.75, -21.0], [-42.75, -19.5], [-41.25, -19.5], [-41.25, -21.0], [-42.75, -21.0]]]}, "properties": {"cell_id": "212_46", "lon": -42.0, "lat": -20.25}}, {"type": "Feature", "geometry": {"type": "Polygon", "coordinates": [[[-41.25, -22.5], [-41.25, -21.0], [-39.75, -21.0], [-39.75, -22.5], [-41.25, -22.5]]]}, "properties": {"cell_id": "213_45", "lon": -40.5, "lat": -21.75}}, {"type": "Feature", "geometry": {"type": "Polygon", "coordinates": [[[-41.25, -21.0], [-41.25, -19.5], [-39.75, -19.5], [-39.75, -21.0], [-41.25, -21.0]]]}, "properties": {"cell_id": "213_46", "lon": -40.5, "lat": -20.25}}]}