{"type": "FeatureCollection", "features": [{"type": "Feature", "geometry": {"type": "Polygon", "coordinates": [[[-48.75, 60.0], [-48.75, 61.5], [-47.25, 61.5], [-47.25, 60.0], [-48.75, 60.0]]]}, "properties": {"cell_id": "208_100", "lon": -48.0, "lat": 60.75}}, {"type": "Feature", "geometry": {"type": "Polygon", "coordinates": [[[-48.75, 61.5], [-48.75, 63.0], [-47.25, 63.0], [-47.25, 61.5], [-48.75, 61.5]]]}, "properties": {"cell_id": "208_101", "lon": -48.0, "lat": 62.25}}, {"type": "Feature", "geometry": {"type": "Polygon", "coordinates": [[[-48.75, 63.0], [-48.75, 64.5], [-47.25, 64.5], [-47.25, 63.0], [-48.75, 63.0]]]}, "properties": {"cell_id": "208_102", "lon": -48.0, "lat": 63.75}}, {"type": "Feature", "geometry": {"type": "Polygon", "coordinates": [[[-48.75, 64.5], [-48.75, 66.0], [-47.25, 66.0], [-47.25, 64.5], [-48.75, 64.5]]]}, "properties": {"cell_id": "208_103", "lon": -48.0, "lat": 65.25}}, {"type": "Feature", "geometry": {"type": "Polygon", "coordinates": [[[-48.75, 66.0], [-48.75, 67.5], [-47.25, 67.5], [-47.25, 66.0], [-48.75, 66.0]]]}, "properties": {"cell_id": "208_104", "lon": -48.0, "lat": 66.75}}, {"type": "Feature", "geometry": {"type": "Polygon", "coordinates": [[[-48.75, 67.5], [-48.75, 69.0], [-47.25, 69.0], [-47.25, 67.5], [-48.75, 67.5]]]}, "properties": {"cell_id": "208_105", "lon": -48.0, "lat": 68.25}}, {"type": "Feature", "geometry": {"type": "Polygon", "coordinates": [[[-48.75, 69.0], [-48.75, 70.5], [-47.25, 70.5], [-47.25, 69.0], [-48.75, 69.0]]]}, "properties": {"cell_id": "208_106", "lon": -48.0, "lat": 69.75}}, {"type": "Feature", "geometry": {"type": "Polygon", "coordinates": [[[-47.25, 60.0], [-47.25, 61.5], [-45.75, 61.5], [-45.75, 60.0], [-47.25, 60.0]]]}, "properties": {"cell_id": "209_100", "lon": -46.5, "lat": 60.75}}, {"type": "Feature", "geometry": {"type": "Polygon", "coordinates": [[[-47.25, 61.5], [-47.25, 63.0], [-45.75, 63.0], [-45.75, 61.5], [-47.25, 61.5]]]}, "properties": {"cell_id": "209_101", "lon": -46.5, "lat": 62.25}}, {"type": "Feature", "geometry": {"type": "Polygon", "coordinates": [[[-47.25, 63.0], [-47.25, 64.5], [-45.75, 64.5], [-45.75, 63.0], [-47.25, 63.0]]]}, "properties": {"cell_id": "209_102", "lon": -46.5, "lat": 63.75}}, {"type": "Feature", "geometry": {"type": "Polygon", "coordinates": [[[-47.25, 64.5], [-47.25, 66.0], [-45.75, 66.0], [-45.75, 64.5], [-47.25, 64.5]]]}, "properties": {"cell_id": "209_103", "lon": -46.5, "lat": 65.25}}, {"type": "Feature", "geometry": {"type": "Polygon", "coordinates": [[[-47.25, 66.0], [-47.25, 67.5], [-45.75, 67.5], [-45.75, 66.0], [-47.25, 66.0]]]}, "properties": {"cell_id": "209_104", "lon": -46.5, "lat": 66.75}}, {"type": "Feature", "geometry": {"type": "Polygon", "coordinates": [[[-47.25, 67.5], [-47.25, 69.0], [-45.75, 69.0], [-45.75, 67.5], [-47.25, 67.5]]]}, "properties": {"cell_id": "209_105", "lon": -46.5, "lat": 68.25}}, {"type": "Feature", "geometry": {"type": "Polygon", "coordinates": [[[-47.25, 69.0], [-47.25, 70.5], [-45.75, 70.5], [-45.75, 69.0], [-47.25, 69.0]]]}, "properties": {"cell_id": "209_106", "lon": -46.5, "lat": 69.75}}, {"type": "Feature", "geometry": {"type": "Polygon", "coordinates": [[[-45.75, 60.0], [-45.75, 61.5], [-44.25, 61.5], [-44.25, 60.0], [-45.75, 60.0]]]}, "properties": {"cell_id": "210_100", "lon": -45.0, "lat": 60.75}}, {"type": "Feature", "geometry": {"type": "Polygon", "coordinates": [[[-45.75, 61.5], [-45.75, 63.0], [-44.25, 63.0], [-44.25, 61.5], [-45.75, 61.5]]]}, "properties": {"cell_id": "210_101", "lon": -45.0, "lat": 62.25}}, {"type": "Feature", "geometry": {"type": "Polygon", "coordinates": [[[-45.75, 63.0], [-45.75, 64.5], [-44.25, 64.5], [-44.25, 63.0], [-45.75, 63.0]]]}, "properties": {"cell_id": "210_102", "lon": -45.0, "lat": 63.75}}, {"type": "Feature", "geometry": {"type": "Polygon", "coordinates": [[[-45.75, 64.5], [-45.75, 66.0], [-44.25, 66.0], [-44.25, 64.5], [-45.75, 64.5]]]}, "properties": {"cell_id": "210_103", "lon": -45.0, "lat": 65.25}}, {"type": "Feature", "geometry": {"type": "Polygon", "coordinates": [[[-45.75, 66.0], [-45.75, 67.5], [-44.25, 67.5], [-44.25, 66.0], [-45.75, 66.0]]]}, "properties": {"cell_id": "210_104", "lon": -45.0, "lat": 66.75}}, {"type": "Feature", "geometry": {"type": "Polygon", "coordinates": [[[-45.75, 67.5], [-45.75, 69.0], [-44.25, 69.0], [-44.25, 67.5], [-45.75, 67.5]]]}, "properties": {"cell_id": "210_105", "lon": -45.0, "lat": 68.25}}, {"type": "Feature", "geometry": {"type": "Polygon", "coordinates": [[[-45.75, 69.0], [-45.75, 70.5], [-44.25, 70.5], [-44.25, 69.0], [-45.75, 69.0]]]}, "properties": {"cell_id": "210_106", "lon": -45.0, "lat": 69.75}}, {"type": "Feature", "geometry": {"type": "Polygon", "coordinates": [[[-44.25, 60.0], [-44.25, 61.5], [-42.75, 61.5], [-42.75, 60.0], [-44.25, 60.0]]]}, "properties": {"cell_id": "211_100", "lon": -43.5, "lat": 60.75}}, {"type": "Feature", "geometry": {"type": "Polygon", "coordinates": [[[-44.25, 61.5], [-44.25, 63.0], [-42.75, 63.0], [-42.75, 61.5], [-44.25, 61.5]]]}, "properties": {"cell_id": "211_101", "lon": -43.5, "lat": 62.25}}, {"type": "Feature", "geometry": {"type": "Polygon", "coordinates": [[[-44.25, 63.0], [-44.25, 64.5], [-42.75, 64.5], [-42.75, 63.0], [-44.25, 63.0]]]}, "properties": {"cell_id": "211_102", "lon": -43.5, "lat": 63.75}}, {"type": "Feature", "geometry": {"type": "Polygon", "coordinates": [[[-44.25, 64.5], [-44.25, 66.0], [-42.75, 66.0], [-42.75, 64.5], [-44.25, 64.5]]]}, "properties": {"cell_id": "211_103", "lon": -43.5, "lat": 65.25}}, {"type": "Feature", "geometry": {"type": "Polygon", "coordinates": [[[-44.25, 66.0], [-44.25, 67.5], [-42.75, 67.5], [-42.75, 66.0], [-44.25, 66.0]]]}, "properties": {"cell_id": "211_104", "lon": -43.5, "lat": 66.75}}, {"type": "Feature", "geometry": {"type": "Polygon", "coordinates": [[[-44.25, 67.5], [-44.25, 69.0], [-42.75, 69.0], [-42.75, 67.5], [-44.25, 67.5]]]}, "properties": {"cell_id": "211_105", "lon": -43.5, "lat": 68.25}}, {"type": "Feature", "geometry": {"type": "Polygon", "coordinates": [[[-44.25, 69.0], [-44.25, 70.5], [-42.75, 70.5], [-42.75, 69.0], [-44.25, 69.0]]]}, "properties": {"cell_id": "211_106", "lon": -43.5, "lat": 69.75}}, {"type": "Feature", "geometry": {"type": "Polygon", "coordinates": [[[-42.75, 60.0], [-42.75, 61.5], [-41.25, 61.5], [-41.25, 60.0], [-42.75, 60.0]]]}, "properties": {"cell_id": "212_100", "lon": -42.0, "lat": 60.75}}, {"type": "Feature", "geometry": {"type": "Polygon", "coordinates": [[[-42.75, 61.5], [-42.75, 63.0], [-41.25, 63.0], [-41.25, 61.5], [-42.75, 61.5]]]}, "properties": {"cell_id": "212_101", "lon": -42.0, "lat": 62.25}}, {"type": "Feature", "geometry": {"type": "Polygon", "coordinates": [[[-42.75, 63.0], [-42.75, 64.5], [-41.25, 64.5], [-41.25, 63.0], [-42.75, 63.0]]]}, "properties": {"cell_id": "212_102", "lon": -42.0, "lat": 63.75}}, {"type": "Feature", "geometry": {"type": "Polygon", "coordinates": [[[-42.75, 64.5], [-42.75, 66.0], [-41.25, 66.0], [-41.25, 64.5], [-42.75, 64.5]]]}, "properties": {"cell_id": "212_103", "lon": -42.0, "lat": 65.25}}, {"type": "Feature", "geometry": {"type": "Polygon", "coordinates": [[[-42.75, 66.0], [-42.75, 67.5], [-41.25, 67.5], [-41.25, 66.0], [-42.75, 66.0]]]}, "properties": {"cell_id": "212_104", "lon": -42.0, "lat": 66.75}}, {"type": "Feature", "geometry": {"type": "Polygon", "coordinates": [[[-42.75, 67.5], [-42.75, 69.0], [-41.25, 69.0], [-41.25, 67.5], [-42.75, 67.5]]]}, "properties": {"cell_id": "212_105", "lon": -42.0, "lat": 68.25}}, {"type": "Feature", "geometry": {"type": "Polygon", "coordinates": [[[-42.75, 69.0], [-42.75, 70.5], [-41.25, 70.5], [-41.25, 69.0], [-42.75, 69.0]]]}, "properties": {"cell_id": "212_106", "lon": -42.0, "lat": 69.75}}, {"type": "Feature", "geometry": {"type": "Polygon", "coordinates": [[[-41.25, 60.0], [-41.25, 61.5], [-39.75, 61.5], [-39.75, 60.0], [-41.25, 60.0]]]}, "properties": {"cell_id": "213_100", "lon": -40.5, "lat": 60.75}}, {"type": "Feature", "geometry": {"type": "Polygon", "coordinates": [[[-41.25, 61.5], [-41.25, 63.0], [-39.75, 63.0], [-39.75, 61.5], [-41.25, 61.5]]]}, "properties": {"cell_id": "213_101", "lon": -40.5, "lat": 62.25}}, {"type": "Feature", "geometry": {"type": "Polygon", "coordinates": [[[-41.25, 63.0], [-41.25, 64.5], [-39.75, 64.5], [-39.75, 63.0], [-41.25, 63.0]]]}, "properties": {"cell_id": "213_102", "lon": -40.5, "lat": 63.75}}, {"type": "Feature", "geometry": {"type": "Polygon", "coordinates": [[[-41.25, 64.5], [-41.25, 66.0], [-39.75, 66.0], [-39.75, 64.5], [-41.25, 64.5]]]}, "properties": {"cell_id": "213_103", "lon": -40.5, "lat": 65.25}}, {"type": "Feature", "geometry": {"type": "Polygon", "coordinates": [[[-41.25, 66.0], [-41.25, 67.5], [-39.75, 67.5], [-39.75, 66.0], [-41.25, 66.0]]]}, "properties": {"cell_id": "213_104", "lon": -40.5, "lat": 66.75}}, {"type": "Feature", "geometry": {"type": "Polygon", "coordinates": [[[-41.25, 67.5], [-41.25, 69.0], [-39.75, 69.0], [-39.75, 67.5], [-41.25, 67.5]]]}, "properties": {"cell_id": "213_105", "lon": -40.5, "lat": 68.25}}, {"type": "Feature", "geometry": {"type": "Polygon", "coordinates": [[[-41.25, 69.0], [-41.25, 70.5], [-39.75, 70.5], [-39.75, 69.0], [-41.25, 69.0]]]}, "properties": {"cell_id": "213_106", "lon": -40.5, "lat": 69.75}}]}