{"type": "FeatureCollection", "features": [{"type": "Feature", "geometry": {"type": "Polygon", "coordinates": [[[-11.25, 30.0], [-11.25, 31.5], [-9.75, 31.5], [-9.75, 30.0], [-11.25, 30.0]]]}, "properties": {"cell_id": "233_80", "lon": -10.5, "lat": 30.75}}, {"type": "Feature", "geometry": {"type": "Polygon", "coordinates": [[[-11.25, 31.5], [-11.25, 33.0], [-9.75, 33.0], [-9.75, 31.5], [-11.25, 31.5]]]}, "properties": {"cell_id": "233_81", "lon": -10.5, "lat": 32.25}}, {"type": "Feature", "geometry": {"type": "Polygon", "coordinates": [[[-11.25, 33.0], [-11.25, 34.5], [-9.75, 34.5], [-9.75, 33.0], [-11.25, 33.0]]]}, "properties": {"cell_id": "233_82", "lon": -10.5, "lat": 33.75}}, {"type": "Feature", "geometry": {"type": "Polygon", "coordinates": [[[-11.25, 39.0], [-11.25, 40.5], [-9.75, 40.5], [-9.75, 39.0], [-11.25, 39.0]]]}, "properties": {"cell_id": "233_86", "lon": -10.5, "lat": 39.75}}]}