{"type": "FeatureCollection", "features": [{"type": "Feature", "geometry": {"type": "Polygon", "coordinates": [[[150.75, -30.0], [150.75, -28.5], [152.25, -28.5], [152.25, -30.0], [150.75, -30.0]]]}, "properties": {"cell_id": "101_40", "lon": 151.5, "lat": -29.25}}, {"type": "Feature", "geometry": {"type": "Polygon", "coordinates": [[[150.75, -28.5], [150.75, -27.0], [152.25, -27.0], [152.25, -28.5], [150.75, -28.5]]]}, "properties": {"cell_id": "101_41", "lon": 151.5, "lat": -27.75}}, {"type": "Feature", "geometry": {"type": "Polygon", "coordinates": [[[150.75, -27.0], [150.75, -25.5], [152.25, -25.5], [152.25, -27.0], [150.75, -27.0]]]}, "properties": {"cell_id": "101_42", "lon": 151.5, "lat": -26.25}}, {"type": "Feature", "geometry": {"type": "Polygon", "coordinates": [[[150.75, -25.5], [150.75, -24.0], [152.25, -24.0], [152.25, -25.5], [150.75, -25.5]]]}, "properties": {"cell_id": "101_43", "lon": 151.5, "lat": -24.75}}, {"type": "Feature", "geometry": {"type": "Polygon", "coordinates": [[[152.25, -30.0], [152.25, -28.5], [153.75, -28.5], [153.75, -30.0], [152.25, -30.0]]]}, "properties": {"cell_id": "102_40", "lon": 153.0, "lat": -29.25}}, {"type": "Feature", "geometry": {"type": "Polygon", "coordinates": [[[152.25, -28.5], [152.25, -27.0], [153.75, -27.0], [153.75, -28.5], [152.25, -28.5]]]}, "properties": {"cell_id": "102_41", "lon": 153.0, "lat": -27.75}}, {"type": "Feature", "geometry": {"type": "Polygon", "coordinates": [[[152.25, -27.0], [152.25, -25.5], [153.75, -25.5], [153.75, -27.0], [152.25, -27.0]]]}, "properties": {"cell_id": "102_42", "lon": 153.0, "lat": -26.25}}, {"type": "Feature", "geometry": {"type": "Polygon", "coordinates": [[[152.25, -25.5], [152.25, -24.0], [153.75, -24.0], [153.75, -25.5], [152.25, -25.5]]]}, "properties": {"cell_id": "102_43", "lon": 153.0, "lat": -24.75}}]}