{"type": "FeatureCollection", "features": [{"type": "Feature", "geometry": {"type": "Polygon", "coordinates": [[[-99.75, 30.0], [-99.75, 31.5], [-98.25, 31.5], [-98.25, 30.0], [-99.75, 30.0]]]}, "properties": {"cell_id": "174_80", "lon": -99.0, "lat": 30.75}}, {"type": "Feature", "geometry": {"type": "Polygon", "coordinates": [[[-99.75, 31.5], [-99.75, 33.0], [-98.25, 33.0], [-98.25, 31.5], [-99.75, 31.5]]]}, "properties": {"cell_id": "174_81", "lon": -99.0, "lat": 32.25}}, {"type": "Feature", "geometry": {"type": "Polygon", "coordinates": [[[-99.75, 33.0], [-99.75, 34.5], [-98.25, 34.5], [-98.25, 33.0], [-99.75, 33.0]]]}, "properties": {"cell_id": "174_82", "lon": -99.0, "lat": 33.75}}, {"type": "Feature", "geometry": {"type": "Polygon", "coordinates": [[[-99.75, 34.5], [-99.75, 36.0], [-98.25, 36.0], [-98.25, 34.5], [-99.75, 34.5]]]}, "properties": {"cell_id": "174_83", "lon": -99.0, "lat": 35.25}}, {"type": "Feature", "geometry": {"type": "Polygon", "coordinates": [[[-99.75, 36.0], [-99.75, 37.5], [-98.25, 37.5], [-98.25, 36.0], [-99.75, 36.0]]]}, "properties": {"cell_id": "174_84", "lon": -99.0, "lat": 36.75}}, {"type": "Feature", "geometry": {"type": "Polygon", "coordinates": [[[-99.75, 37.5], [-99.75, 39.0], [-98.25, 39.0], [-98.25, 37.5], [-99.75, 37.5]]]}, "properties": {"cell_id": "174_85", "lon": -99.0, "lat": 38.25}}, {"type": "Feature", "geometry": {"type": "Polygon", "coordinates": [[[-99.75, 39.0], [-99.75, 40.5], [-98.25, 40.5], [-98.25, 39.0], [-99.75, 39.0]]]}, "properties": {"cell_id": "174_86", "lon": -99.0, "lat": 39.75}}, {"type": "Feature", "geometry": {"type": "Polygon", "coordinates": [[[-98.25, 30.0], [-98.25, 31.5], [-96.75, 31.5], [-96.75, 30.0], [-98.25, 30.0]]]}, "properties": {"cell_id": "175_80", "lon": -97.5, "lat": 30.75}}, {"type": "Feature", "geometry": {"type": "Polygon", "coordinates": [[[-98.25, 31.5], [-98.25, 33.0], [-96.75, 33.0], [-96.75, 31.5], [-98.25, 31.5]]]}, "properties": {"cell_id": "175_81", "lon": -97.5, "lat": 32.25}}, {"type": "Feature", "geometry": {"type": "Polygon", "coordinates": [[[-98.25, 33.0], [-98.25, 34.5], [-96.75, 34.5], [-96.75, 33.0], [-98.25, 33.0]]]}, "properties": {"cell_id": "175_82", "lon": -97.5, "lat": 33.75}}, {"type": "Feature", "geometry": {"type": "Polygon", "coordinates": [[[-98.25, 34.5], [-98.25, 36.0], [-96.75, 36.0], [-96.75, 34.5], [-98.25, 34.5]]]}, "properties": {"cell_id": "175_83", "lon": -97.5, "lat": 35.25}}, {"type": "Feature", "geometry": {"type": "Polygon", "coordinates": [[[-98.25, 36.0], [-98.25, 37.5], [-96.75, 37.5], [-96.75, 36.0], [-98.25, 36.0]]]}, "properties": {"cell_id": "175_84", "lon": -97.5, "lat": 36.75}}, {"type": "Feature", "geometry": {"type": "Polygon", "coordinates": [[[-98.25, 37.5], [-98.25, 39.0], [-96.75, 39.0], [-96.75, 37.5], [-98.25, 37.5]]]}, "properties": {"cell_id": "175_85", "lon": -97.5, "lat": 38.25}}, {"type": "Feature", "geometry": {"type": "Polygon", "coordinates": [[[-98.25, 39.0], [-98.25, 40.5], [-96.75, 40.5], [-96.75, 39.0], [-98.25, 39.0]]]}, "properties": {"cell_id": "175_86", "lon": -97.5, "lat": 39.75}}, {"type": "Feature", "geometry": {"type": "Polygon", "coordinates": [[[-96.75, 30.0], [-96.75, 31.5], [-95.25, 31.5], [-95.25, 30.0], [-96.75, 30.0]]]}, "properties": {"cell_id": "176_80", "lon": -96.0, "lat": 30.75}}, {"type": "Feature", "geometry": {"type": "Polygon", "coordinates": [[[-96.75, 31.5], [-96.75, 33.0], [-95.25, 33.0], [-95.25, 31.5], [-96.75, 31.5]]]}, "properties": {"cell_id": "176_81", "lon": -96.0, "lat": 32.25}}, {"type": "Feature", "geometry": {"type": "Polygon", "coordinates": [[[-96.75, 33.0], [-96.75, 34.5], [-95.25, 34.5], [-95.25, 33.0], [-96.75, 33.0]]]}, "properties": {"cell_id": "176_82", "lon": -96.0, "lat": 33.75}}, {"type": "Feature", "geometry": {"type": "Polygon", "coordinates": [[[-96.75, 34.5], [-96.75, 36.0], [-95.25, 36.0], [-95.25, 34.5], [-96.75, 34.5]]]}, "properties": {"cell_id": "176_83", "lon": -96.0, "lat": 35.25}}, {"type": "Feature", "geometry": {"type": "Polygon", "coordinates": [[[-96.75, 36.0], [-96.75, 37.5], [-95.25, 37.5], [-95.25, 36.0], [-96.75, 36.0]]]}, "properties": {"cell_id": "176_84", "lon": -96.0, "lat": 36.75}}, {"type": "Feature", "geometry": {"type": "Polygon", "coordinates": [[[-96.75, 37.5], [-96.75, 39.0], [-95.25, 39.0], [-95.25, 37.5], [-96.75, 37.5]]]}, "properties": {"cell_id": "176_85", "lon": -96.0, "lat": 38.25}}, {"type": "Feature", "geometry": {"type": "Polygon", "coordinates": [[[-96.75, 39.0], [-96.75, 40.5], [-95.25, 40.5], [-95.25, 39.0], [-96.75, 39.0]]]}, "properties": {"cell_id": "176_86", "lon": -96.0, "lat": 39.75}}, {"type": "Feature", "geometry": {"type": "Polygon", "coordinates": [[[-95.25, 30.0], [-95.25, 31.5], [-93.75, 31.5], [-93.75, 30.0], [-95.25, 30.0]]]}, "properties": {"cell_id": "177_80", "lon": -94.5, "lat": 30.75}}, {"type": "Feature", "geometry": {"type": "Polygon", "coordinates": [[[-95.25, 31.5], [-95.25, 33.0], [-93.75, 33.0], [-93.75, 31.5], [-95.25, 31.5]]]}, "properties": {"cell_id": "177_81", "lon": -94.5, "lat": 32.25}}, {"type": "Feature", "geometry": {"type": "Polygon", "coordinates": [[[-95.25, 33.0], [-95.25, 34.5], [-93.75, 34.5], [-93.75, 33.0], [-95.25, 33.0]]]}, "properties": {"cell_id": "177_82", "lon": -94.5, "lat": 33.75}}, {"type": "Feature", "geometry": {"type": "Polygon", "coordinates": [[[-95.25, 34.5], [-95.25, 36.0], [-93.75, 36.0], [-93.75, 34.5], [-95.25, 34.5]]]}, "properties": {"cell_id": "177_83", "lon": -94.5, "lat": 35.25}}, {"type": "Feature", "geometry": {"type": "Polygon", "coordinates": [[[-95.25, 36.0], [-95.25, 37.5], [-93.75, 37.5], [-93.75, 36.0], [-95.25, 36.0]]]}, "properties": {"cell_id": "177_84", "lon": -94.5, "lat": 36.75}}, {"type": "Feature", "geometry": {"type": "Polygon", "coordinates": [[[-95.25, 37.5], [-95.25, 39.0], [-93.75, 39.0], [-93.75, 37.5], [-95.25, 37.5]]]}, "properties": {"cell_id": "177_85", "lon": -94.5, "lat": 38.25}}, {"type": "Feature", "geometry": {"type": "Polygon", "coordinates": [[[-95.25, 39.0], [-95.25, 40.5], [-93.75, 40.5], [-93.75, 39.0], [-95.25, 39.0]]]}, "properties": {"cell_id": "177_86", "lon": -94.5, "lat": 39.75}}, {"type": "Feature", "geometry": {"type": "Polygon", "coordinates": [[[-93.75, 30.0], [-93.75, 31.5], [-92.25, 31.5], [-92.25, 30.0], [-93.75, 30.0]]]}, "properties": {"cell_id": "178_80", "lon": -93.0, "lat": 30.75}}, {"type": "Feature", "geometry": {"type": "Polygon", "coordinates": [[[-93.75, 31.5], [-93.75, 33.0], [-92.25, 33.0], [-92.25, 31.5], [-93.75, 31.5]]]}, "properties": {"cell_id": "178_81", "lon": -93.0, "lat": 32.25}}, {"type": "Feature", "geometry": {"type": "Polygon", "coordinates": [[[-93.75, 33.0], [-93.75, 34.5], [-92.25, 34.5], [-92.25, 33.0], [-93.75, 33.0]]]}, "properties": {"cell_id": "178_82", "lon": -93.0, "lat": 33.75}}, {"type": "Feature", "geometry": {"type": "Polygon", "coordinates": [[[-93.75, 34.5], [-93.75, 36.0], [-92.25, 36.0], [-92.25, 34.5], [-93.75, 34.5]]]}, "properties": {"cell_id": "178_83", "lon": -93.0, "lat": 35.25}}, {"type": "Feature", "geometry": {"type": "Polygon", "coordinates": [[[-93.75, 36.0], [-93.75, 37.5], [-92.25, 37.5], [-92.25, 36.0], [-93.75, 36.0]]]}, "properties": {"cell_id": "178_84", "lon": -93.0, "lat": 36.75}}, {"type": "Feature", "geometry": {"type": "Polygon", "coordinates": [[[-93.75, 37.5], [-93.75, 39.0], [-92.25, 39.0], [-92.25, 37.5], [-93.75, 37.5]]]}, "properties": {"cell_id": "178_85", "lon": -93.0, "lat": 38.25}}, {"type": "Feature", "geometry": {"type": "Polygon", "coordinates": [[[-93.75, 39.0], [-93.75, 40.5], [-92.25, 40.5], [-92.25, 39.0], [-93.75, 39.0]]]}, "properties": {"cell_id": "178_86", "lon": -93.0, "lat": 39.75}}, {"type": "Feature", "geometry": {"type": "Polygon", "coordinates": [[[-92.25, 30.0], [-92.25, 31.5], [-90.75, 31.5], [-90.75, 30.0], [-92.25, 30.0]]]}, "properties": {"cell_id": "179_80", "lon": -91.5, "lat": 30.75}}, {"type": "Feature", "geometry": {"type": "Polygon", "coordinates": [[[-92.25, 31.5], [-92.25, 33.0], [-90.75, 33.0], [-90.75, 31.5], [-92.25, 31.5]]]}, "properties": {"cell_id": "179_81", "lon": -91.5, "lat": 32.25}}, {"type": "Feature", "geometry": {"type": "Polygon", "coordinates": [[[-92.25, 33.0], [-92.25, 34.5], [-90.75, 34.5], [-90.75, 33.0], [-92.25, 33.0]]]}, "properties": {"cell_id": "179_82", "lon": -91.5, "lat": 33.75}}, {"type": "Feature", "geometry": {"type": "Polygon", "coordinates": [[[-92.25, 34.5], [-92.25, 36.0], [-90.75, 36.0], [-90.75, 34.5], [-92.25, 34.5]]]}, "properties": {"cell_id": "179_83", "lon": -91.5, "lat": 35.25}}, {"type": "Feature", "geometry": {"type": "Polygon", "coordinates": [[[-92.25, 36.0], [-92.25, 37.5], [-90.75, 37.5], [-90.75, 36.0], [-92.25, 36.0]]]}, "properties": {"cell_id": "179_84", "lon": -91.5, "lat": 36.75}}, {"type": "Feature", "geometry": {"type": "Polygon", "coordinates": [[[-92.25, 37.5], [-92.25, 39.0], [-90.75, 39.0], [-90.75, 37.5], [-92.25, 37.5]]]}, "properties": {"cell_id": "179_85", "lon": -91.5, "lat": 38.25}}, {"type": "Feature", "geometry": {"type": "Polygon", "coordinates": [[[-92.25, 39.0], [-92.25, 40.5], [-90.75, 40.5], [-90.75, 39.0], [-92.25, 39.0]]]}, "properties": {"cell_id": "179_86", "lon": -91.5, "lat": 39.75}}, {"type": "Feature", "geometry": {"type": "Polygon", "coordinates": [[[-90.75, 30.0], [-90.75, 31.5], [-89.25, 31.5], [-89.25, 30.0], [-90.75, 30.0]]]}, "properties": {"cell_id": "180_80", "lon": -90.0, "lat": 30.75}}, {"type": "Feature", "geometry": {"type": "Polygon", "coordinates": [[[-90.75, 31.5], [-90.75, 33.0], [-89.25, 33.0], [-89.25, 31.5], [-90.75, 31.5]]]}, "properties": {"cell_id": "180_81", "lon": -90.0, "lat": 32.25}}, {"type": "Feature", "geometry": {"type": "Polygon", "coordinates": [[[-90.75, 33.0], [-90.75, 34.5], [-89.25, 34.5], [-89.25, 33.0], [-90.75, 33.0]]]}, "properties": {"cell_id": "180_82", "lon": -90.0, "lat": 33.75}}, {"type": "Feature", "geometry": {"type": "Polygon", "coordinates": [[[-90.75, 34.5], [-90.75, 36.0], [-89.25, 36.0], [-89.25, 34.5], [-90.75, 34.5]]]}, "properties": {"cell_id": "180_83", "lon": -90.0, "lat": 35.25}}, {"type": "Feature", "geometry": {"type": "Polygon", "coordinates": [[[-90.75, 36.0], [-90.75, 37.5], [-89.25, 37.5], [-89.25, 36.0], [-90.75, 36.0]]]}, "properties": {"cell_id": "180_84", "lon": -90.0, "lat": 36.75}}, {"type": "Feature", "geometry": {"type": "Polygon", "coordinates": [[[-90.75, 37.5], [-90.75, 39.0], [-89.25, 39.0], [-89.25, 37.5], [-90.75, 37.5]]]}, "properties": {"cell_id": "180_85", "lon": -90.0, "lat": 38.25}}, {"type": "Feature", "geometry": {"type": "Polygon", "coordinates": [[[-90.75, 39.0], [-90.75, 40.5], [-89.25, 40.5], [-89.25, 39.0], [-90.75, 39.0]]]}, "properties": {"cell_id": "180_86", "lon": -90.0, "lat": 39.75}}]}