{"type": "FeatureCollection", "features": [{"type": "Feature", "geometry": {"type": "Polygon", "coordinates": [[[150.75, 58.5], [150.75, 60.0], [152.25, 60.0], [152.25, 58.5], [150.75, 58.5]]]}, "properties": {"cell_id": "101_99", "lon": 151.5, "lat": 59.25}}, {"type": "Feature", "geometry": {"type": "Polygon", "coordinates": [[[152.25, 58.5], [152.25, 60.0], [153.75, 60.0], [153.75, 58.5], [152.25, 58.5]]]}, "properties": {"cell_id": "102_99", "lon": 153.0, "lat": 59.25}}, {"type": "Feature", "geometry": {"type": "Polygon", "coordinates": [[[155.25, 52.5], [155.25, 54.0], [156.75, 54.0], [156.75, 52.5], [155.25, 52.5]]]}, "properties": {"cell_id": "104_95", "lon": 156.0, "lat": 53.25}}, {"type": "Feature", "geometry": {"type": "Polygon", "coordinates": [[[155.25, 54.0], [155.25, 55.5], [156.75, 55.5], [156.75, 54.0], [155.25, 54.0]]]}, "properties": {"cell_id": "104_96", "lon": 156.0, "lat": 54.75}}, {"type": "Feature", "geometry": {"type": "Polygon", "coordinates": [[[155.25, 55.5], [155.25, 57.0], [156.75, 57.0], [156.75, 55.5], [155.25, 55.5]]]}, "properties": {"cell_id": "104_97", "lon": 156.0, "lat": 56.25}}, {"type": "Feature", "geometry": {"type": "Polygon", "coordinates": [[[155.25, 57.0], [155.25, 58.5], [156.75, 58.5], [156.75, 57.0], [155.25, 57.0]]]}, "properties": {"cell_id": "104_98", "lon": 156.0, "lat": 57.75}}, {"type": "Feature", "geometry": {"type": "Polygon", "coordinates": [[[155.25, 58.5], [155.25, 60.0], [156.75, 60.0], [156.75, 58.5], [155.25, 58.5]]]}, "properties": {"cell_id": "104_99", "lon": 156.0, "lat": 59.25}}, {"type": "Feature", "geometry": {"type": "Polygon", "coordinates": [[[156.75, 52.5], [156.75, 54.0], [158.25, 54.0], [158.25, 52.5], [156.75, 52.5]]]}, "properties": {"cell_id": "105_95", "lon": 157.5, "lat": 53.25}}, {"type": "Feature", "geometry": {"type": "Polygon", "coordinates": [[[156.75, 54.0], [156.75, 55.5], [158.25, 55.5], [158.25, 54.0], [156.75, 54.0]]]}, "properties": {"cell_id": "105_96", "lon": 157.5, "lat": 54.75}}, {"type": "Feature", "geometry": {"type": "Polygon", "coordinates": [[[156.75, 55.5], [156.75, 57.0], [158.25, 57.0], [158.25, 55.5], [156.75, 55.5]]]}, "properties": {"cell_id": "105_97", "lon": 157.5, "lat": 56.25}}, {"type": "Feature", "geometry": {"type": "Polygon", "coordinates": [[[156.75, 57.0], [156.75, 58.5], [158.25, 58.5], [158.25, 57.0], [156.75, 57.0]]]}, "properties": {"cell_id": "105_98", "lon": 157.5, "lat": 57.75}}, {"type": "Feature", "geometry": {"type": "Polygon", "coordinates": [[[156.75, 58.5], [156.75, 60.0], [158.25, 60.0], [158.25, 58.5], [156.75, 58.5]]]}, "properties": {"cell_id": "105_99", "lon": 157.5, "lat": 59.25}}, {"type": "Feature", "geometry": {"type": "Polygon", "coordinates": [[[158.25, 52.5], [158.25, 54.0], [159.75, 54.0], [159.75, 52.5], [158.25, 52.5]]]}, "properties": {"cell_id": "106_95", "lon": 159.0, "lat": 53.25}}, {"type": "Feature", "geometry": {"type": "Polygon", "coordinates": [[[158.25, 54.0], [158.25, 55.5], [159.75, 55.5], [159.75, 54.0], [158.25, 54.0]]]}, "properties": {"cell_id": "106_96", "lon": 159.0, "lat": 54.75}}, {"type": "Feature", "geometry": {"type": "Polygon", "coordinates": [[[158.25, 55.5], [158.25, 57.0], [159.75, 57.0], [159.75, 55.5], [158.25, 55.5]]]}, "properties": {"cell_id": "106_97", "lon": 159.0, "lat": 56.25}}, {"type": "Feature", "geometry": {"type": "Polygon", "coordinates": [[[158.25, 57.0], [158.25, 58.5], [159.75, 58.5], [159.75, 57.0], [158.25, 57.0]]]}, "properties": {"cell_id": "106_98", "lon": 159.0, "lat": 57.75}}, {"type": "Feature", "geometry": {"type": "Polygon", "coordinates": [[[158.25, 58.5], [158.25, 60.0], [159.75, 60.0], [159.75, 58.5], [158.25, 58.5]]]}, "properties": {"cell_id": "106_99", "lon": 159.0, "lat": 59.25}}, {"type": "Feature", "geometry": {"type": "Polygon", "coordinates": [[[159.75, 52.5], [159.75, 54.0], [161.25, 54.0], [161.25, 52.5], [159.75, 52.5]]]}, "properties": {"cell_id": "107_95", "lon": 160.5, "lat": 53.25}}, {"type": "Feature", "geometry": {"type": "Polygon", "coordinates": [[[159.75, 54.0], [159.75, 55.5], [161.25, 55.5], [161.25, 54.0], [159.75, 54.0]]]}, "properties": {"cell_id": "107_96", "lon": 160.5, "lat": 54.75}}, {"type": "Feature", "geometry": {"type": "Polygon", "coordinates": [[[159.75, 55.5], [159.75, 57.0], [161.25, 57.0], [161.25, 55.5], [159.75, 55.5]]]}, "properties": {"cell_id": "107_97", "lon": 160.5, "lat": 56.25}}, {"type": "Feature", "geometry": {"type": "Polygon", "coordinates": [[[159.75, 57.0], [159.75, 58.5], [161.25, 58.5], [161.25, 57.0], [159.75, 57.0]]]}, "properties": {"cell_id": "107_98", "lon": 160.5, "lat": 57.75}}, {"type": "Feature", "geometry": {"type": "Polygon", "coordinates": [[[159.75, 58.5], [159.75, 60.0], [161.25, 60.0], [161.25, 58.5], [159.75, 58.5]]]}, "properties": {"cell_id": "107_99", "lon": 160.5, "lat": 59.25}}]}