{"type": "FeatureCollection", "features": [{"type": "Feature", "geometry": {"type": "Polygon", "coordinates": [[[60.75, 24.0], [60.75, 25.5], [62.25, 25.5], [62.25, 24.0], [60.75, 24.0]]]}, "properties": {"cell_id": "41_76", "lon": 61.5, "lat": 24.75}}, {"type": "Feature", "geometry": {"type": "Polygon", "coordinates": [[[60.75, 25.5], [60.75, 27.0], [62.25, 27.0], [62.25, 25.5], [60.75, 25.5]]]}, "properties": {"cell_id": "41_77", "lon": 61.5, "lat": 26.25}}, {"type": "Feature", "geometry": {"type": "Polygon", "coordinates": [[[60.75, 27.0], [60.75, 28.5], [62.25, 28.5], [62.25, 27.0], [60.75, 27.0]]]}, "properties": {"cell_id": "41_78", "lon": 61.5, "lat": 27.75}}, {"type": "Feature", "geometry": {"type": "Polygon", "coordinates": [[[60.75, 28.5], [60.75, 30.0], [62.25, 30.0], [62.25, 28.5], [60.75, 28.5]]]}, "properties": {"cell_id": "41_79", "lon": 61.5, "lat": 29.25}}, {"type": "Feature", "geometry": {"type": "Polygon", "coordinates": [[[62.25, 24.0], [62.25, 25.5], [63.75, 25.5], [63.75, 24.0], [62.25, 24.0]]]}, "properties": {"cell_id": "42_76", "lon": 63.0, "lat": 24.75}}, {"type": "Feature", "geometry": {"type": "Polygon", "coordinates": [[[62.25, 25.5], [62.25, 27.0], [63.75, 27.0], [63.75, 25.5], [62.25, 25.5]]]}, "properties": {"cell_id": "42_77", "lon": 63.0, "lat": 26.25}}, {"type": "Feature", "geometry": {"type": "Polygon", "coordinates": [[[62.25, 27.0], [62.25, 28.5], [63.75, 28.5], [63.75, 27.0], [62.25, 27.0]]]}, "properties": {"cell_id": "42_78", "lon": 63.0, "lat": 27.75}}, {"type": "Feature", "geometry": {"type": "Polygon", "coordinates": [[[62.25, 28.5], [62.25, 30.0], [63.75, 30.0], [63.75, 28.5], [62.25, 28.5]]]}, "properties": {"cell_id": "42_79", "lon": 63.0, "lat": 29.25}}, {"type": "Feature", "geometry": {"type": "Polygon", "coordinates": [[[63.75, 24.0], [63.75, 25.5], [65.25, 25.5], [65.25, 24.0], [63.75, 24.0]]]}, "properties": {"cell_id": "43_76", "lon": 64.5, "lat": 24.75}}, {"type": "Feature", "geometry": {"type": "Polygon", "coordinates": [[[63.75, 25.5], [63.75, 27.0], [65.25, 27.0], [65.25, 25.5], [63.75, 25.5]]]}, "properties": {"cell_id": "43_77", "lon": 64.5, "lat": 26.25}}, {"type": "Feature", "geometry": {"type": "Polygon", "coordinates": [[[63.75, 27.0], [63.75, 28.5], [65.25, 28.5], [65.25, 27.0], [63.75, 27.0]]]}, "properties": {"cell_id": "43_78", "lon": 64.5, "lat": 27.75}}, {"type": "Feature", "geometry": {"type": "Polygon", "coordinates": [[[63.75, 28.5], [63.75, 30.0], [65.25, 30.0], [65.25, 28.5], [63.75, 28.5]]]}, "properties": {"cell_id": "43_79", "lon": 64.5, "lat": 29.25}}, {"type": "Feature", "geometry": {"type": "Polygon", "coordinates": [[[65.25, 24.0], [65.25, 25.5], [66.75, 25.5], [66.75, 24.0], [65.25, 24.0]]]}, "properties": {"cell_id": "44_76", "lon": 66.0, "lat": 24.75}}, {"type": "Feature", "geometry": {"type": "Polygon", "coordinates": [[[65.25, 25.5], [65.25, 27.0], [66.75, 27.0], [66.75, 25.5], [65.25, 25.5]]]}, "properties": {"cell_id": "44_77", "lon": 66.0, "lat": 26.25}}, {"type": "Feature", "geometry": {"type": "Polygon", "coordinates": [[[65.25, 27.0], [65.25, 28.5], [66.75, 28.5], [66.75, 27.0], [65.25, 27.0]]]}, "properties": {"cell_id": "44_78", "lon": 66.0, "lat": 27.75}}, {"type": "Feature", "geometry": {"type": "Polygon", "coordinates": [[[65.25, 28.5], [65.25, 30.0], [66.75, 30.0], [66.75, 28.5], [65.25, 28.5]]]}, "properties": {"cell_id": "44_79", "lon": 66.0, "lat": 29.25}}, {"type": "Feature", "geometry": {"type": "Polygon", "coordinates": [[[66.75, 24.0], [66.75, 25.5], [68.25, 25.5], [68.25, 24.0], [66.75, 24.0]]]}, "properties": {"cell_id": "45_76", "lon": 67.5, "lat": 24.75}}, {"type": "Feature", "geometry": {"type": "Polygon", "coordinates": [[[66.75, 25.5], [66.75, 27.0], [68.25, 27.0], [68.25, 25.5], [66.75, 25.5]]]}, "properties": {"cell_id": "45_77", "lon": 67.5, "lat": 26.25}}, {"type": "Feature", "geometry": {"type": "Polygon", "coordinates": [[[66.75, 27.0], [66.75, 28.5], [68.25, 28.5], [68.25, 27.0], [66.75, 27.0]]]}, "properties": {"cell_id": "45_78", "lon": 67.5, "lat": 27.75}}, {"type": "Feature", "geometry": {"type": "Polygon", "coordinates": [[[66.75, 28.5], [66.75, 30.0], [68.25, 30.0], [68.25, 28.5], [66.75, 28.5]]]}, "properties": {"cell_id": "45_79", "lon": 67.5, "lat": 29.25}}, {"type": "Feature", "geometry": {"type": "Polygon", "coordinates": [[[68.25, 21.0], [68.25, 22.5], [69.75, 22.5], [69.75, 21.0], [68.25, 21.0]]]}, "properties": {"cell_id": "46_74", "lon": 69.0, "lat": 21.75}}, {"type": "Feature", "geometry": {"type": "Polygon", "coordinates": [[[68.25, 22.5], [68.25, 24.0], [69.75, 24.0], [69.75, 22.5], [68.25, 22.5]]]}, "properties": {"cell_id": "46_75", "lon": 69.0, "lat": 23.25}}, {"type": "Feature", "geometry": {"type": "Polygon", "coordinates": [[[68.25, 24.0], [68.25, 25.5], [69.75, 25.5], [69.75, 24.0], [68.25, 24.0]]]}, "properties": {"cell_id": "46_76", "lon": 69.0, "lat": 24.75}}, {"type": "Feature", "geometry": {"type": "Polygon", "coordinates": [[[68.25, 25.5], [68.25, 27.0], [69.75, 27.0], [69.75, 25.5], [68.25, 25.5]]]}, "properties": {"cell_id": "46_77", "lon": 69.0, "lat": 26.25}}, {"type": "Feature", "geometry": {"type": "Polygon", "coordinates": [[[68.25, 27.0], [68.25, 28.5], [69.75, 28.5], [69.75, 27.0], [68.25, 27.0]]]}, "properties": {"cell_id": "46_78", "lon": 69.0, "lat": 27.75}}, {"type": "Feature", "geometry": {"type": "Polygon", "coordinates": [[[68.25, 28.5], [68.25, 30.0], [69.75, 30.0], [69.75, 28.5], [68.25, 28.5]]]}, "properties": {"cell_id": "46_79", "lon": 69.0, "lat": 29.25}}, {"type": "Feature", "geometry": {"type": "Polygon", "coordinates": [[[69.75, 21.0], [69.75, 22.5], [71.25, 22.5], [71.25, 21.0], [69.75, 21.0]]]}, "properties": {"cell_id": "47_74", "lon": 70.5, "lat": 21.75}}, {"type": "Feature", "geometry": {"type": "Polygon", "coordinates": [[[69.75, 22.5], [69.75, 24.0], [71.25, 24.0], [71.25, 22.5], [69.75, 22.5]]]}, "properties": {"cell_id": "47_75", "lon": 70.5, "lat": 23.25}}, {"type": "Feature", "geometry": {"type": "Polygon", "coordinates": [[[69.75, 24.0], [69.75, 25.5], [71.25, 25.5], [71.25, 24.0], [69.75, 24.0]]]}, "properties": {"cell_id": "47_76", "lon": 70.5, "lat": 24.75}}, {"type": "Feature", "geometry": {"type": "Polygon", "coordinates": [[[69.75, 25.5], [69.75, 27.0], [71.25, 27.0], [71.25, 25.5], [69.75, 25.5]]]}, "properties": {"cell_id": "47_77", "lon": 70.5, "lat": 26.25}}, {"type": "Feature", "geometry": {"type": "Polygon", "coordinates": [[[69.75, 27.0], [69.75, 28.5], [71.25, 28.5], [71.25, 27.0], [69.75, 27.0]]]}, "properties": {"cell_id": "47_78", "lon": 70.5, "lat": 27.75}}, {"type": "Feature", "geometry": {"type": "Polygon", "coordinates": [[[69.75, 28.5], [69.75, 30.0], [71.25, 30.0], [71.25, 28.5], [69.75, 28.5]]]}, "properties": {"cell_id": "47_79", "lon": 70.5, "lat": 29.25}}]}