{"type": "FeatureCollection", "features": [{"type": "Feature", "geometry": {"type": "Polygon", "coordinates": [[[-0.75, -79.5], [-0.75, -78.0], [0.75, -78.0], [0.75, -79.5], [-0.75, -79.5]]]}, "properties": {"cell_id": "0_7", "lon": 0.0, "lat": -78.75}}, {"type": "Feature", "geometry": {"type": "Polygon", "coordinates": [[[-0.75, -78.0], [-0.75, -76.5], [0.75, -76.5], [0.75, -78.0], [-0.75, -78.0]]]}, "properties": {"cell_id": "0_8", "lon": 0.0, "lat": -77.25}}, {"type": "Feature", "geometry": {"type": "Polygon", "coordinates": [[[-0.75, -76.5], [-0.75, -75.0], [0.75, -75.0], [0.75, -76.5], [-0.75, -76.5]]]}, "properties": {"cell_id": "0_9", "lon": 0.0, "lat": -75.75}}, {"type": "Feature", "geometry": {"type": "Polygon", "coordinates": [[[-0.75, -75.0], [-0.75, -73.5], [0.75, -73.5], [0.75, -75.0], [-0.75, -75.0]]]}, "properties": {"cell_id": "0_10", "lon": 0.0, "lat": -74.25}}, {"type": "Feature", "geometry": {"type": "Polygon", "coordinates": [[[-0.75, -73.5], [-0.75, -72.0], [0.75, -72.0], [0.75, -73.5], [-0.75, -73.5]]]}, "properties": {"cell_id": "0_11", "lon": 0.0, "lat": -72.75}}, {"type": "Feature", "geometry": {"type": "Polygon", "coordinates": [[[-0.75, -72.0], [-0.75, -70.5], [0.75, -70.5], [0.75, -72.0], [-0.75, -72.0]]]}, "properties": {"cell_id": "0_12", "lon": 0.0, "lat": -71.25}}, {"type": "Feature", "geometry": {"type": "Polygon", "coordinates": [[[-0.75, -70.5], [-0.75, -69.0], [0.75, -69.0], [0.75, -70.5], [-0.75, -70.5]]]}, "properties": {"cell_id": "0_13", "lon": 0.0, "lat": -69.75}}, {"type": "Feature", "geometry": {"type": "Polygon", "coordinates": [[[-9.75, -79.5], [-9.75, -78.0], [-8.25, -78.0], [-8.25, -79.5], [-9.75, -79.5]]]}, "properties": {"cell_id": "234_7", "lon": -9.0, "lat": -78.75}}, {"type": "Feature", "geometry": {"type": "Polygon", "coordinates": [[[-9.75, -78.0], [-9.75, -76.5], [-8.25, -76.5], [-8.25, -78.0], [-9.75, -78.0]]]}, "properties": {"cell_id": "234_8", "lon": -9.0, "lat": -77.25}}, {"type": "Feature", "geometry": {"type": "Polygon", "coordinates": [[[-9.75, -76.5], [-9.75, -75.0], [-8.25, -75.0], [-8.25, -76.5], [-9.75, -76.5]]]}, "properties": {"cell_id": "234_9", "lon": -9.0, "lat": -75.75}}, {"type": "Feature", "geometry": {"type": "Polygon", "coordinates": [[[-9.75, -75.0], [-9.75, -73.5], [-8.25, -73.5], [-8.25, -75.0], [-9.75, -75.0]]]}, "properties": {"cell_id": "234_10", "lon": -9.0, "lat": -74.25}}, {"type": "Feature", "geometry": {"type": "Polygon", "coordinates": [[[-9.75, -73.5], [-9.75, -72.0], [-8.25, -72.0], [-8.25, -73.5], [-9.75, -73.5]]]}, "properties": {"cell_id": "234_11", "lon": -9.0, "lat": -72.75}}, {"type": "Feature", "geometry": {"type": "Polygon", "coordinates": [[[-9.75, -72.0], [-9.75, -70.5], [-8.25, -70.5], [-8.25, -72.0], [-9.75, -72.0]]]}, "properties": {"cell_id": "234_12", "lon": -9.0, "lat": -71.25}}, {"type": "Feature", "geometry": {"type": "Polygon", "coordinates": [[[-9.75, -70.5], [-9.75, -69.0], [-8.25, -69.0], [-8.25, -70.5], [-9.75, -70.5]]]}, "properties": {"cell_id": "234_13", "lon": -9.0, "lat": -69.75}}, {"type": "Feature", "geometry": {"type": "Polygon", "coordinates": [[[-8.25, -79.5], [-8.25, -78.0], [-6.75, -78.0], [-6.75, -79.5], [-8.25, -79.5]]]}, "properties": {"cell_id": "235_7", "lon": -7.5, "lat": -78.75}}, {"type": "Feature", "geometry": {"type": "Polygon", "coordinates": [[[-8.25, -78.0], [-8.25, -76.5], [-6.75, -76.5], [-6.75, -78.0], [-8.25, -78.0]]]}, "properties": {"cell_id": "235_8", "lon": -7.5, "lat": -77.25}}, {"type": "Feature", "geometry": {"type": "Polygon", "coordinates": [[[-8.25, -76.5], [-8.25, -75.0], [-6.75, -75.0], [-6.75, -76.5], [-8.25, -76.5]]]}, "properties": {"cell_id": "235_9", "lon": -7.5, "lat": -75.75}}, {"type": "Feature", "geometry": {"type": "Polygon", "coordinates": [[[-8.25, -75.0], [-8.25, -73.5], [-6.75, -73.5], [-6.75, -75.0], [-8.25, -75.0]]]}, "properties": {"cell_id": "235_10", "lon": -7.5, "lat": -74.25}}, {"type": "Feature", "geometry": {"type": "Polygon", "coordinates": [[[-8.25, -73.5], [-8.25, -72.0], [-6.75, -72.0], [-6.75, -73.5], [-8.25, -73.5]]]}, "properties": {"cell_id": "235_11", "lon": -7.5, "lat": -72.75}}, {"type": "Feature", "geometry": {"type": "Polygon", "coordinates": [[[-8.25, -72.0], [-8.25, -70.5], [-6.75, -70.5], [-6.75, -72.0], [-8.25, -72.0]]]}, "properties": {"cell_id": "235_12", "lon": -7.5, "lat": -71.25}}, {"type": "Feature", "geometry": {"type": "Polygon", "coordinates": [[[-8.25, -70.5], [-8.25, -69.0], [-6.75, -69.0], [-6.75, -70.5], [-8.25, -70.5]]]}, "properties": {"cell_id": "235_13", "lon": -7.5, "lat": -69.75}}, {"type": "Feature", "geometry": {"type": "Polygon", "coordinates": [[[-6.75, -79.5], [-6.75, -78.0], [-5.25, -78.0], [-5.25, -79.5], [-6.75, -79.5]]]}, "properties": {"cell_id": "236_7", "lon": -6.0, "lat": -78.75}}, {"type": "Feature", "geometry": {"type": "Polygon", "coordinates": [[[-6.75, -78.0], [-6.75, -76.5], [-5.25, -76.5], [-5.25, -78.0], [-6.75, -78.0]]]}, "properties": {"cell_id": "236_8", "lon": -6.0, "lat": -77.25}}, {"type": "Feature", "geometry": {"type": "Polygon", "coordinates": [[[-6.75, -76.5], [-6.75, -75.0], [-5.25, -75.0], [-5.25, -76.5], [-6.75, -76.5]]]}, "properties": {"cell_id": "236_9", "lon": -6.0, "lat": -75.75}}, {"type": "Feature", "geometry": {"type": "Polygon", "coordinates": [[[-6.75, -75.0], [-6.75, -73.5], [-5.25, -73.5], [-5.25, -75.0], [-6.75, -75.0]]]}, "properties": {"cell_id": "236_10", "lon": -6.0, "lat": -74.25}}, {"type": "Feature", "geometry": {"type": "Polygon", "coordinates": [[[-6.75, -73.5], [-6.75, -72.0], [-5.25, -72.0], [-5.25, -73.5], [-6.75, -73.5]]]}, "properties": {"cell_id": "236_11", "lon": -6.0, "lat": -72.75}}, {"type": "Feature", "geometry": {"type": "Polygon", "coordinates": [[[-6.75, -72.0], [-6.75, -70.5], [-5.25, -70.5], [-5.25, -72.0], [-6.75, -72.0]]]}, "properties": {"cell_id": "236_12", "lon": -6.0, "lat": -71.25}}, {"type": "Feature", "geometry": {"type": "Polygon", "coordinates": [[[-6.75, -70.5], [-6.75, -69.0], [-5.25, -69.0], [-5.25, -70.5], [-6.75, -70.5]]]}, "properties": {"cell_id": "236_13", "lon": -6.0, "lat": -69.75}}, {"type": "Feature", "geometry": {"type": "Polygon", "coordinates": [[[-5.25, -79.5], [-5.25, -78.0], [-3.75, -78.0], [-3.75, -79.5], [-5.25, -79.5]]]}, "properties": {"cell_id": "237_7", "lon": -4.5, "lat": -78.75}}, {"type": "Feature", "geometry": {"type": "Polygon", "coordinates": [[[-5.25, -78.0], [-5.25, -76.5], [-3.75, -76.5], [-3.75, -78.0], [-5.25, -78.0]]]}, "properties": {"cell_id": "237_8", "lon": -4.5, "lat": -77.25}}, {"type": "Feature", "geometry": {"type": "Polygon", "coordinates": [[[-5.25, -76.5], [-5.25, -75.0], [-3.75, -75.0], [-3.75, -76.5], [-5.25, -76.5]]]}, "properties": {"cell_id": "237_9", "lon": -4.5, "lat": -75.75}}, {"type": "Feature", "geometry": {"type": "Polygon", "coordinates": [[[-5.25, -75.0], [-5.25, -73.5], [-3.75, -73.5], [-3.75, -75.0], [-5.25, -75.0]]]}, "properties": {"cell_id": "237_10", "lon": -4.5, "lat": -74.25}}, {"type": "Feature", "geometry": {"type": "Polygon", "coordinates": [[[-5.25, -73.5], [-5.25, -72.0], [-3.75, -72.0], [-3.75, -73.5], [-5.25, -73.5]]]}, "properties": {"cell_id": "237_11", "lon": -4.5, "lat": -72.75}}, {"type": "Feature", "geometry": {"type": "Polygon", "coordinates": [[[-5.25, -72.0], [-5.25, -70.5], [-3.75, -70.5], [-3.75, -72.0], [-5.25, -72.0]]]}, "properties": {"cell_id": "237_12", "lon": -4.5, "lat": -71.25}}, {"type": "Feature", "geometry": {"type": "Polygon", "coordinates": [[[-5.25, -70.5], [-5.25, -69.0], [-3.75, -69.0], [-3.75, -70.5], [-5.25, -70.5]]]}, "properties": {"cell_id": "237_13", "lon": -4.5, "lat": -69.75}}, {"type": "Feature", "geometry": {"type": "Polygon", "coordinates": [[[-3.75, -79.5], [-3.75, -78.0], [-2.25, -78.0], [-2.25, -79.5], [-3.75, -79.5]]]}, "properties": {"cell_id": "238_7", "lon": -3.0, "lat": -78.75}}, {"type": "Feature", "geometry": {"type": "Polygon", "coordinates": [[[-3.75, -78.0], [-3.75, -76.5], [-2.25, -76.5], [-2.25, -78.0], [-3.75, -78.0]]]}, "properties": {"cell_id": "238_8", "lon": -3.0, "lat": -77.25}}, {"type": "Feature", "geometry": {"type": "Polygon", "coordinates": [[[-3.75, -76.5], [-3.75, -75.0], [-2.25, -75.0], [-2.25, -76.5], [-3.75, -76.5]]]}, "properties": {"cell_id": "238_9", "lon": -3.0, "lat": -75.75}}, {"type": "Feature", "geometry": {"type": "Polygon", "coordinates": [[[-3.75, -75.0], [-3.75, -73.5], [-2.25, -73.5], [-2.25, -75.0], [-3.75, -75.0]]]}, "properties": {"cell_id": "238_10", "lon": -3.0, "lat": -74.25}}, {"type": "Feature", "geometry": {"type": "Polygon", "coordinates": [[[-3.75, -73.5], [-3.75, -72.0], [-2.25, -72.0], [-2.25, -73.5], [-3.75, -73.5]]]}, "properties": {"cell_id": "238_11", "lon": -3.0, "lat": -72.75}}, {"type": "Feature", "geometry": {"type": "Polygon", "coordinates": [[[-3.75, -72.0], [-3.75, -70.5], [-2.25, -70.5], [-2.25, -72.0], [-3.75, -72.0]]]}, "properties": {"cell_id": "238_12", "lon": -3.0, "lat": -71.25}}, {"type": "Feature", "geometry": {"type": "Polygon", "coordinates": [[[-3.75, -70.5], [-3.75, -69.0], [-2.25, -69.0], [-2.25, -70.5], [-3.75, -70.5]]]}, "properties": {"cell_id": "238_13", "lon": -3.0, "lat": -69.75}}, {"type": "Feature", "geometry": {"type": "Polygon", "coordinates": [[[-2.25, -79.5], [-2.25, -78.0], [-0.75, -78.0], [-0.75, -79.5], [-2.25, -79.5]]]}, "properties": {"cell_id": "239_7", "lon": -1.5, "lat": -78.75}}, {"type": "Feature", "geometry": {"type": "Polygon", "coordinates": [[[-2.25, -78.0], [-2.25, -76.5], [-0.75, -76.5], [-0.75, -78.0], [-2.25, -78.0]]]}, "properties": {"cell_id": "239_8", "lon": -1.5, "lat": -77.25}}, {"type": "Feature", "geometry": {"type": "Polygon", "coordinates": [[[-2.25, -76.5], [-2.25, -75.0], [-0.75, -75.0], [-0.75, -76.5], [-2.25, -76.5]]]}, "properties": {"cell_id": "239_9", "lon": -1.5, "lat": -75.75}}, {"type": "Feature", "geometry": {"type": "Polygon", "coordinates": [[[-2.25, -75.0], [-2.25, -73.5], [-0.75, -73.5], [-0.75, -75.0], [-2.25, -75.0]]]}, "properties": {"cell_id": "239_10", "lon": -1.5, "lat": -74.25}}, {"type": "Feature", "geometry": {"type": "Polygon", "coordinates": [[[-2.25, -73.5], [-2.25, -72.0], [-0.75, -72.0], [-0.75, -73.5], [-2.25, -73.5]]]}, "properties": {"cell_id": "239_11", "lon": -1.5, "lat": -72.75}}, {"type": "Feature", "geometry": {"type": "Polygon", "coordinates": [[[-2.25, -72.0], [-2.25, -70.5], [-0.75, -70.5], [-0.75, -72.0], [-2.25, -72.0]]]}, "properties": {"cell_id": "239_12", "lon": -1.5, "lat": -71.25}}, {"type": "Feature", "geometry": {"type": "Polygon", "coordinates": [[[-2.25, -70.5], [-2.25, -69.0], [-0.75, -69.0], [-0.75, -70.5], [-2.25, -70.5]]]}, "properties": {"cell_id": "239_13", "lon": -1.5, "lat": -69.75}}]}