{"type": "FeatureCollection", "features": [{"type": "Feature", "geometry": {"type": "Polygon", "coordinates": [[[-159.75, 58.5], [-159.75, 60.0], [-158.25, 60.0], [-158.25, 58.5], [-159.75, 58.5]]]}, "properties": {"cell_id": "134_99", "lon": -159.0, "lat": 59.25}}, {"type": "Feature", "geometry": {"type": "Polygon", "coordinates": [[[-158.25, 58.5], [-158.25, 60.0], [-156.75, 60.0], [-156.75, 58.5], [-158.25, 58.5]]]}, "properties": {"cell_id": "135_99", "lon": -157.5, "lat": 59.25}}, {"type": "Feature", "geometry": {"type": "Polygon", "coordinates": [[[-156.75, 58.5], [-156.75, 60.0], [-155.25, 60.0], [-155.25, 58.5], [-156.75, 58.5]]]}, "properties": {"cell_id": "136_99", "lon": -156.0, "lat": 59.25}}, {"type": "Feature", "geometry": {"type": "Polygon", "coordinates": [[[-155.25, 58.5], [-155.25, 60.0], [-153.75, 60.0], [-153.75, 58.5], [-155.25, 58.5]]]}, "properties": {"cell_id": "137_99", "lon": -154.5, "lat": 59.25}}, {"type": "Feature", "geometry": {"type": "Polygon", "coordinates": [[[-153.75, 58.5], [-153.75, 60.0], [-152.25, 60.0], [-152.25, 58.5], [-153.75, 58.5]]]}, "properties": {"cell_id": "138_99", "lon": -153.0, "lat": 59.25}}, {"type": "Feature", "geometry": {"type": "Polygon", "coordinates": [[[-152.25, 58.5], [-152.25, 60.0], [-150.75, 60.0], [-150.75, 58.5], [-152.25, 58.5]]]}, "properties": {"cell_id": "139_99", "lon": -151.5, "lat": 59.25}}, {"type": "Feature", "geometry": {"type": "Polygon", "coordinates": [[[-150.75, 58.5], [-150.75, 60.0], [-149.25, 60.0], [-149.25, 58.5], [-150.75, 58.5]]]}, "properties": {"cell_id": "140_99", "lon": -150.0, "lat": 59.25}}]}