{"type": "FeatureCollection", "features": [{"type": "Feature", "geometry": {"type": "Polygon", "coordinates": [[[80.25, -90.0], [80.25, -88.5], [81.75, -88.5], [81.75, -90.0], [80.25, -90.0]]]}, "properties": {"cell_id": "54_0", "lon": 81.0, "lat": -89.25}}, {"type": "Feature", "geometry": {"type": "Polygon", "coordinates": [[[80.25, -88.5], [80.25, -87.0], [81.75, -87.0], [81.75, -88.5], [80.25, -88.5]]]}, "properties": {"cell_id": "54_1", "lon": 81.0, "lat": -87.75}}, {"type": "Feature", "geometry": {"type": "Polygon", "coordinates": [[[80.25, -87.0], [80.25, -85.5], [81.75, -85.5], [81.75, -87.0], [80.25, -87.0]]]}, "properties": {"cell_id": "54_2", "lon": 81.0, "lat": -86.25}}, {"type": "Feature", "geometry": {"type": "Polygon", "coordinates": [[[80.25, -85.5], [80.25, -84.0], [81.75, -84.0], [81.75, -85.5], [80.25, -85.5]]]}, "properties": {"cell_id": "54_3", "lon": 81.0, "lat": -84.75}}, {"type": "Feature", "geometry": {"type": "Polygon", "coordinates": [[[80.25, -84.0], [80.25, -82.5], [81.75, -82.5], [81.75, -84.0], [80.25, -84.0]]]}, "properties": {"cell_id": "54_4", "lon": 81.0, "lat": -83.25}}, {"type": "Feature", "geometry": {"type": "Polygon", "coordinates": [[[80.25, -82.5], [80.25, -81.0], [81.75, -81.0], [81.75, -82.5], [80.25, -82.5]]]}, "properties": {"cell_id": "54_5", "lon": 81.0, "lat": -81.75}}, {"type": "Feature", "geometry": {"type": "Polygon", "coordinates": [[[80.25, -81.0], [80.25, -79.5], [81.75, -79.5], [81.75, -81.0], [80.25, -81.0]]]}, "properties": {"cell_id": "54_6", "lon": 81.0, "lat": -80.25}}, {"type": "Feature", "geometry": {"type": "Polygon", "coordinates": [[[81.75, -90.0], [81.75, -88.5], [83.25, -88.5], [83.25, -90.0], [81.75, -90.0]]]}, "properties": {"cell_id": "55_0", "lon": 82.5, "lat": -89.25}}, {"type": "Feature", "geometry": {"type": "Polygon", "coordinates": [[[81.75, -88.5], [81.75, -87.0], [83.25, -87.0], [83.25, -88.5], [81.75, -88.5]]]}, "properties": {"cell_id": "55_1", "lon": 82.5, "lat": -87.75}}, {"type": "Feature", "geometry": {"type": "Polygon", "coordinates": [[[81.75, -87.0], [81.75, -85.5], [83.25, -85.5], [83.25, -87.0], [81.75, -87.0]]]}, "properties": {"cell_id": "55_2", "lon": 82.5, "lat": -86.25}}, {"type": "Feature", "geometry": {"type": "Polygon", "coordinates": [[[81.75, -85.5], [81.75, -84.0], [83.25, -84.0], [83.25, -85.5], [81.75, -85.5]]]}, "properties": {"cell_id": "55_3", "lon": 82.5, "lat": -84.75}}, {"type": "Feature", "geometry": {"type": "Polygon", "coordinates": [[[81.75, -84.0], [81.75, -82.5], [83.25, -82.5], [83.25, -84.0], [81.75, -84.0]]]}, "properties": {"cell_id": "55_4", "lon": 82.5, "lat": -83.25}}, {"type": "Feature", "geometry": {"type": "Polygon", "coordinates": [[[81.75, -82.5], [81.75, -81.0], [83.25, -81.0], [83.25, -82.5], [81.75, -82.5]]]}, "properties": {"cell_id": "55_5", "lon": 82.5, "lat": -81.75}}, {"type": "Feature", "geometry": {"type": "Polygon", "coordinates": [[[81.75, -81.0], [81.75, -79.5], [83.25, -79.5], [83.25, -81.0], [81.75, -81.0]]]}, "properties": {"cell_id": "55_6", "lon": 82.5, "lat": -80.25}}, {"type": "Feature", "geometry": {"type": "Polygon", "coordinates": [[[83.25, -90.0], [83.25, -88.5], [84.75, -88.5], [84.75, -90.0], [83.25, -90.0]]]}, "properties": {"cell_id": "56_0", "lon": 84.0, "lat": -89.25}}, {"type": "Feature", "geometry": {"type": "Polygon", "coordinates": [[[83.25, -88.5], [83.25, -87.0], [84.75, -87.0], [84.75, -88.5], [83.25, -88.5]]]}, "properties": {"cell_id": "56_1", "lon": 84.0, "lat": -87.75}}, {"type": "Feature", "geometry": {"type": "Polygon", "coordinates": [[[83.25, -87.0], [83.25, -85.5], [84.75, -85.5], [84.75, -87.0], [83.25, -87.0]]]}, "properties": {"cell_id": "56_2", "lon": 84.0, "lat": -86.25}}, {"type": "Feature", "geometry": {"type": "Polygon", "coordinates": [[[83.25, -85.5], [83.25, -84.0], [84.75, -84.0], [84.75, -85.5], [83.25, -85.5]]]}, "properties": {"cell_id": "56_3", "lon": 84.0, "lat": -84.75}}, {"type": "Feature", "geometry": {"type": "Polygon", "coordinates": [[[83.25, -84.0], [83.25, -82.5], [84.75, -82.5], [84.75, -84.0], [83.25, -84.0]]]}, "properties": {"cell_id": "56_4", "lon": 84.0, "lat": -83.25}}, {"type": "Feature", "geometry": {"type": "Polygon", "coordinates": [[[83.25, -82.5], [83.25, -81.0], [84.75, -81.0], [84.75, -82.5], [83.25, -82.5]]]}, "properties": {"cell_id": "56_5", "lon": 84.0, "lat": -81.75}}, {"type": "Feature", "geometry": {"type": "Polygon", "coordinates": [[[83.25, -81.0], [83.25, -79.5], [84.75, -79.5], [84.75, -81.0], [83.25, -81.0]]]}, "properties": {"cell_id": "56_6", "lon": 84.0, "lat": -80.25}}, {"type": "Feature", "geometry": {"type": "Polygon", "coordinates": [[[84.75, -90.0], [84.75, -88.5], [86.25, -88.5], [86.25, -90.0], [84.75, -90.0]]]}, "properties": {"cell_id": "57_0", "lon": 85.5, "lat": -89.25}}, {"type": "Feature", "geometry": {"type": "Polygon", "coordinates": [[[84.75, -88.5], [84.75, -87.0], [86.25, -87.0], [86.25, -88.5], [84.75, -88.5]]]}, "properties": {"cell_id": "57_1", "lon": 85.5, "lat": -87.75}}, {"type": "Feature", "geometry": {"type": "Polygon", "coordinates": [[[84.75, -87.0], [84.75, -85.5], [86.25, -85.5], [86.25, -87.0], [84.75, -87.0]]]}, "properties": {"cell_id": "57_2", "lon": 85.5, "lat": -86.25}}, {"type": "Feature", "geometry": {"type": "Polygon", "coordinates": [[[84.75, -85.5], [84.75, -84.0], [86.25, -84.0], [86.25, -85.5], [84.75, -85.5]]]}, "properties": {"cell_id": "57_3", "lon": 85.5, "lat": -84.75}}, {"type": "Feature", "geometry": {"type": "Polygon", "coordinates": [[[84.75, -84.0], [84.75, -82.5], [86.25, -82.5], [86.25, -84.0], [84.75, -84.0]]]}, "properties": {"cell_id": "57_4", "lon": 85.5, "lat": -83.25}}, {"type": "Feature", "geometry": {"type": "Polygon", "coordinates": [[[84.75, -82.5], [84.75, -81.0], [86.25, -81.0], [86.25, -82.5], [84.75, -82.5]]]}, "properties": {"cell_id": "57_5", "lon": 85.5, "lat": -81.75}}, {"type": "Feature", "geometry": {"type": "Polygon", "coordinates": [[[84.75, -81.0], [84.75, -79.5], [86.25, -79.5], [86.25, -81.0], [84.75, -81.0]]]}, "properties": {"cell_id": "57_6", "lon": 85.5, "lat": -80.25}}, {"type": "Feature", "geometry": {"type": "Polygon", "coordinates": [[[86.25, -90.0], [86.25, -88.5], [87.75, -88.5], [87.75, -90.0], [86.25, -90.0]]]}, "properties": {"cell_id": "58_0", "lon": 87.0, "lat": -89.25}}, {"type": "Feature", "geometry": {"type": "Polygon", "coordinates": [[[86.25, -88.5], [86.25, -87.0], [87.75, -87.0], [87.75, -88.5], [86.25, -88.5]]]}, "properties": {"cell_id": "58_1", "lon": 87.0, "lat": -87.75}}, {"type": "Feature", "geometry": {"type": "Polygon", "coordinates": [[[86.25, -87.0], [86.25, -85.5], [87.75, -85.5], [87.75, -87.0], [86.25, -87.0]]]}, "properties": {"cell_id": "58_2", "lon": 87.0, "lat": -86.25}}, {"type": "Feature", "geometry": {"type": "Polygon", "coordinates": [[[86.25, -85.5], [86.25, -84.0], [87.75, -84.0], [87.75, -85.5], [86.25, -85.5]]]}, "properties": {"cell_id": "58_3", "lon": 87.0, "lat": -84.75}}, {"type": "Feature", "geometry": {"type": "Polygon", "coordinates": [[[86.25, -84.0], [86.25, -82.5], [87.75, -82.5], [87.75, -84.0], [86.25, -84.0]]]}, "properties": {"cell_id": "58_4", "lon": 87.0, "lat": -83.25}}, {"type": "Feature", "geometry": {"type": "Polygon", "coordinates": [[[86.25, -82.5], [86.25, -81.0], [87.75, -81.0], [87.75, -82.5], [86.25, -82.5]]]}, "properties": {"cell_id": "58_5", "lon": 87.0, "lat": -81.75}}, {"type": "Feature", "geometry": {"type": "Polygon", "coordinates": [[[86.25, -81.0], [86.25, -79.5], [87.75, -79.5], [87.75, -81.0], [86.25, -81.0]]]}, "properties": {"cell_id": "58_6", "lon": 87.0, "lat": -80.25}}, {"type": "Feature", "geometry": {"type": "Polygon", "coordinates": [[[87.75, -90.0], [87.75, -88.5], [89.25, -88.5], [89.25, -90.0], [87.75, -90.0]]]}, "properties": {"cell_id": "59_0", "lon": 88.5, "lat": -89.25}}, {"type": "Feature", "geometry": {"type": "Polygon", "coordinates": [[[87.75, -88.5], [87.75, -87.0], [89.25, -87.0], [89.25, -88.5], [87.75, -88.5]]]}, "properties": {"cell_id": "59_1", "lon": 88.5, "lat": -87.75}}, {"type": "Feature", "geometry": {"type": "Polygon", "coordinates": [[[87.75, -87.0], [87.75, -85.5], [89.25, -85.5], [89.25, -87.0], [87.75, -87.0]]]}, "properties": {"cell_id": "59_2", "lon": 88.5, "lat": -86.25}}, {"type": "Feature", "geometry": {"type": "Polygon", "coordinates": [[[87.75, -85.5], [87.75, -84.0], [89.25, -84.0], [89.25, -85.5], [87.75, -85.5]]]}, "properties": {"cell_id": "59_3", "lon": 88.5, "lat": -84.75}}, {"type": "Feature", "geometry": {"type": "Polygon", "coordinates": [[[87.75, -84.0], [87.75, -82.5], [89.25, -82.5], [89.25, -84.0], [87.75, -84.0]]]}, "properties": {"cell_id": "59_4", "lon": 88.5, "lat": -83.25}}, {"type": "Feature", "geometry": {"type": "Polygon", "coordinates": [[[87.75, -82.5], [87.75, -81.0], [89.25, -81.0], [89.25, -82.5], [87.75, -82.5]]]}, "properties": {"cell_id": "59_5", "lon": 88.5, "lat": -81.75}}, {"type": "Feature", "geometry": {"type": "Polygon", "coordinates": [[[87.75, -81.0], [87.75, -79.5], [89.25, -79.5], [89.25, -81.0], [87.75, -81.0]]]}, "properties": {"cell_id": "59_6", "lon": 88.5, "lat": -80.25}}, {"type": "Feature", "geometry": {"type": "Polygon", "coordinates": [[[89.25, -90.0], [89.25, -88.5], [90.75, -88.5], [90.75, -90.0], [89.25, -90.0]]]}, "properties": {"cell_id": "60_0", "lon": 90.0, "lat": -89.25}}, {"type": "Feature", "geometry": {"type": "Polygon", "coordinates": [[[89.25, -88.5], [89.25, -87.0], [90.75, -87.0], [90.75, -88.5], [89.25, -88.5]]]}, "properties": {"cell_id": "60_1", "lon": 90.0, "lat": -87.75}}, {"type": "Feature", "geometry": {"type": "Polygon", "coordinates": [[[89.25, -87.0], [89.25, -85.5], [90.75, -85.5], [90.75, -87.0], [89.25, -87.0]]]}, "properties": {"cell_id": "60_2", "lon": 90.0, "lat": -86.25}}, {"type": "Feature", "geometry": {"type": "Polygon", "coordinates": [[[89.25, -85.5], [89.25, -84.0], [90.75, -84.0], [90.75, -85.5], [89.25, -85.5]]]}, "properties": {"cell_id": "60_3", "lon": 90.0, "lat": -84.75}}, {"type": "Feature", "geometry": {"type": "Polygon", "coordinates": [[[89.25, -84.0], [89.25, -82.5], [90.75, -82.5], [90.75, -84.0], [89.25, -84.0]]]}, "properties": {"cell_id": "60_4", "lon": 90.0, "lat": -83.25}}, {"type": "Feature", "geometry": {"type": "Polygon", "coordinates": [[[89.25, -82.5], [89.25, -81.0], [90.75, -81.0], [90.75, -82.5], [89.25, -82.5]]]}, "properties": {"cell_id": "60_5", "lon": 90.0, "lat": -81.75}}, {"type": "Feature", "geometry": {"type": "Polygon", "coordinates": [[[89.25, -81.0], [89.25, -79.5], [90.75, -79.5], [90.75, -81.0], [89.25, -81.0]]]}, "properties": {"cell_id": "60_6", "lon": 90.0, "lat": -80.25}}]}