{"type": "FeatureCollection", "features": [{"type": "Feature", "geometry": {"type": "Polygon", "coordinates": [[[150.75, -79.5], [150.75, -78.0], [152.25, -78.0], [152.25, -79.5], [150.75, -79.5]]]}, "properties": {"cell_id": "101_7", "lon": 151.5, "lat": -78.75}}, {"type": "Feature", "geometry": {"type": "Polygon", "coordinates": [[[150.75, -78.0], [150.75, -76.5], [152.25, -76.5], [152.25, -78.0], [150.75, -78.0]]]}, "properties": {"cell_id": "101_8", "lon": 151.5, "lat": -77.25}}, {"type": "Feature", "geometry": {"type": "Polygon", "coordinates": [[[150.75, -76.5], [150.75, -75.0], [152.25, -75.0], [152.25, -76.5], [150.75, -76.5]]]}, "properties": {"cell_id": "101_9", "lon": 151.5, "lat": -75.75}}, {"type": "Feature", "geometry": {"type": "Polygon", "coordinates": [[[150.75, -75.0], [150.75, -73.5], [152.25, -73.5], [152.25, -75.0], [150.75, -75.0]]]}, "properties": {"cell_id": "101_10", "lon": 151.5, "lat": -74.25}}, {"type": "Feature", "geometry": {"type": "Polygon", "coordinates": [[[150.75, -73.5], [150.75, -72.0], [152.25, -72.0], [152.25, -73.5], [150.75, -73.5]]]}, "properties": {"cell_id": "101_11", "lon": 151.5, "lat": -72.75}}, {"type": "Feature", "geometry": {"type": "Polygon", "coordinates": [[[150.75, -72.0], [150.75, -70.5], [152.25, -70.5], [152.25, -72.0], [150.75, -72.0]]]}, "properties": {"cell_id": "101_12", "lon": 151.5, "lat": -71.25}}, {"type": "Feature", "geometry": {"type": "Polygon", "coordinates": [[[150.75, -70.5], [150.75, -69.0], [152.25, -69.0], [152.25, -70.5], [150.75, -70.5]]]}, "properties": {"cell_id": "101_13", "lon": 151.5, "lat": -69.75}}, {"type": "Feature", "geometry": {"type": "Polygon", "coordinates": [[[152.25, -79.5], [152.25, -78.0], [153.75, -78.0], [153.75, -79.5], [152.25, -79.5]]]}, "properties": {"cell_id": "102_7", "lon": 153.0, "lat": -78.75}}, {"type": "Feature", "geometry": {"type": "Polygon", "coordinates": [[[152.25, -78.0], [152.25, -76.5], [153.75, -76.5], [153.75, -78.0], [152.25, -78.0]]]}, "properties": {"cell_id": "102_8", "lon": 153.0, "lat": -77.25}}, {"type": "Feature", "geometry": {"type": "Polygon", "coordinates": [[[152.25, -76.5], [152.25, -75.0], [153.75, -75.0], [153.75, -76.5], [152.25, -76.5]]]}, "properties": {"cell_id": "102_9", "lon": 153.0, "lat": -75.75}}, {"type": "Feature", "geometry": {"type": "Polygon", "coordinates": [[[152.25, -75.0], [152.25, -73.5], [153.75, -73.5], [153.75, -75.0], [152.25, -75.0]]]}, "properties": {"cell_id": "102_10", "lon": 153.0, "lat": -74.25}}, {"type": "Feature", "geometry": {"type": "Polygon", "coordinates": [[[152.25, -73.5], [152.25, -72.0], [153.75, -72.0], [153.75, -73.5], [152.25, -73.5]]]}, "properties": {"cell_id": "102_11", "lon": 153.0, "lat": -72.75}}, {"type": "Feature", "geometry": {"type": "Polygon", "coordinates": [[[152.25, -72.0], [152.25, -70.5], [153.75, -70.5], [153.75, -72.0], [152.25, -72.0]]]}, "properties": {"cell_id": "102_12", "lon": 153.0, "lat": -71.25}}, {"type": "Feature", "geometry": {"type": "Polygon", "coordinates": [[[152.25, -70.5], [152.25, -69.0], [153.75, -69.0], [153.75, -70.5], [152.25, -70.5]]]}, "properties": {"cell_id": "102_13", "lon": 153.0, "lat": -69.75}}, {"type": "Feature", "geometry": {"type": "Polygon", "coordinates": [[[153.75, -79.5], [153.75, -78.0], [155.25, -78.0], [155.25, -79.5], [153.75, -79.5]]]}, "properties": {"cell_id": "103_7", "lon": 154.5, "lat": -78.75}}, {"type": "Feature", "geometry": {"type": "Polygon", "coordinates": [[[153.75, -78.0], [153.75, -76.5], [155.25, -76.5], [155.25, -78.0], [153.75, -78.0]]]}, "properties": {"cell_id": "103_8", "lon": 154.5, "lat": -77.25}}, {"type": "Feature", "geometry": {"type": "Polygon", "coordinates": [[[153.75, -76.5], [153.75, -75.0], [155.25, -75.0], [155.25, -76.5], [153.75, -76.5]]]}, "properties": {"cell_id": "103_9", "lon": 154.5, "lat": -75.75}}, {"type": "Feature", "geometry": {"type": "Polygon", "coordinates": [[[153.75, -75.0], [153.75, -73.5], [155.25, -73.5], [155.25, -75.0], [153.75, -75.0]]]}, "properties": {"cell_id": "103_10", "lon": 154.5, "lat": -74.25}}, {"type": "Feature", "geometry": {"type": "Polygon", "coordinates": [[[153.75, -73.5], [153.75, -72.0], [155.25, -72.0], [155.25, -73.5], [153.75, -73.5]]]}, "properties": {"cell_id": "103_11", "lon": 154.5, "lat": -72.75}}, {"type": "Feature", "geometry": {"type": "Polygon", "coordinates": [[[153.75, -72.0], [153.75, -70.5], [155.25, -70.5], [155.25, -72.0], [153.75, -72.0]]]}, "properties": {"cell_id": "103_12", "lon": 154.5, "lat": -71.25}}, {"type": "Feature", "geometry": {"type": "Polygon", "coordinates": [[[153.75, -70.5], [153.75, -69.0], [155.25, -69.0], [155.25, -70.5], [153.75, -70.5]]]}, "properties": {"cell_id": "103_13", "lon": 154.5, "lat": -69.75}}, {"type": "Feature", "geometry": {"type": "Polygon", "coordinates": [[[155.25, -79.5], [155.25, -78.0], [156.75, -78.0], [156.75, -79.5], [155.25, -79.5]]]}, "properties": {"cell_id": "104_7", "lon": 156.0, "lat": -78.75}}, {"type": "Feature", "geometry": {"type": "Polygon", "coordinates": [[[155.25, -78.0], [155.25, -76.5], [156.75, -76.5], [156.75, -78.0], [155.25, -78.0]]]}, "properties": {"cell_id": "104_8", "lon": 156.0, "lat": -77.25}}, {"type": "Feature", "geometry": {"type": "Polygon", "coordinates": [[[155.25, -76.5], [155.25, -75.0], [156.75, -75.0], [156.75, -76.5], [155.25, -76.5]]]}, "properties": {"cell_id": "104_9", "lon": 156.0, "lat": -75.75}}, {"type": "Feature", "geometry": {"type": "Polygon", "coordinates": [[[155.25, -75.0], [155.25, -73.5], [156.75, -73.5], [156.75, -75.0], [155.25, -75.0]]]}, "properties": {"cell_id": "104_10", "lon": 156.0, "lat": -74.25}}, {"type": "Feature", "geometry": {"type": "Polygon", "coordinates": [[[155.25, -73.5], [155.25, -72.0], [156.75, -72.0], [156.75, -73.5], [155.25, -73.5]]]}, "properties": {"cell_id": "104_11", "lon": 156.0, "lat": -72.75}}, {"type": "Feature", "geometry": {"type": "Polygon", "coordinates": [[[155.25, -72.0], [155.25, -70.5], [156.75, -70.5], [156.75, -72.0], [155.25, -72.0]]]}, "properties": {"cell_id": "104_12", "lon": 156.0, "lat": -71.25}}, {"type": "Feature", "geometry": {"type": "Polygon", "coordinates": [[[155.25, -70.5], [155.25, -69.0], [156.75, -69.0], [156.75, -70.5], [155.25, -70.5]]]}, "properties": {"cell_id": "104_13", "lon": 156.0, "lat": -69.75}}, {"type": "Feature", "geometry": {"type": "Polygon", "coordinates": [[[156.75, -79.5], [156.75, -78.0], [158.25, -78.0], [158.25, -79.5], [156.75, -79.5]]]}, "properties": {"cell_id": "105_7", "lon": 157.5, "lat": -78.75}}, {"type": "Feature", "geometry": {"type": "Polygon", "coordinates": [[[156.75, -78.0], [156.75, -76.5], [158.25, -76.5], [158.25, -78.0], [156.75, -78.0]]]}, "properties": {"cell_id": "105_8", "lon": 157.5, "lat": -77.25}}, {"type": "Feature", "geometry": {"type": "Polygon", "coordinates": [[[156.75, -76.5], [156.75, -75.0], [158.25, -75.0], [158.25, -76.5], [156.75, -76.5]]]}, "properties": {"cell_id": "105_9", "lon": 157.5, "lat": -75.75}}, {"type": "Feature", "geometry": {"type": "Polygon", "coordinates": [[[156.75, -75.0], [156.75, -73.5], [158.25, -73.5], [158.25, -75.0], [156.75, -75.0]]]}, "properties": {"cell_id": "105_10", "lon": 157.5, "lat": -74.25}}, {"type": "Feature", "geometry": {"type": "Polygon", "coordinates": [[[156.75, -73.5], [156.75, -72.0], [158.25, -72.0], [158.25, -73.5], [156.75, -73.5]]]}, "properties": {"cell_id": "105_11", "lon": 157.5, "lat": -72.75}}, {"type": "Feature", "geometry": {"type": "Polygon", "coordinates": [[[156.75, -72.0], [156.75, -70.5], [158.25, -70.5], [158.25, -72.0], [156.75, -72.0]]]}, "properties": {"cell_id": "105_12", "lon": 157.5, "lat": -71.25}}, {"type": "Feature", "geometry": {"type": "Polygon", "coordinates": [[[156.75, -70.5], [156.75, -69.0], [158.25, -69.0], [158.25, -70.5], [156.75, -70.5]]]}, "properties": {"cell_id": "105_13", "lon": 157.5, "lat": -69.75}}, {"type": "Feature", "geometry": {"type": "Polygon", "coordinates": [[[158.25, -79.5], [158.25, -78.0], [159.75, -78.0], [159.75, -79.5], [158.25, -79.5]]]}, "properties": {"cell_id": "106_7", "lon": 159.0, "lat": -78.75}}, {"type": "Feature", "geometry": {"type": "Polygon", "coordinates": [[[158.25, -78.0], [158.25, -76.5], [159.75, -76.5], [159.75, -78.0], [158.25, -78.0]]]}, "properties": {"cell_id": "106_8", "lon": 159.0, "lat": -77.25}}, {"type": "Feature", "geometry": {"type": "Polygon", "coordinates": [[[158.25, -76.5], [158.25, -75.0], [159.75, -75.0], [159.75, -76.5], [158.25, -76.5]]]}, "properties": {"cell_id": "106_9", "lon": 159.0, "lat": -75.75}}, {"type": "Feature", "geometry": {"type": "Polygon", "coordinates": [[[158.25, -75.0], [158.25, -73.5], [159.75, -73.5], [159.75, -75.0], [158.25, -75.0]]]}, "properties": {"cell_id": "106_10", "lon": 159.0, "lat": -74.25}}, {"type": "Feature", "geometry": {"type": "Polygon", "coordinates": [[[158.25, -73.5], [158.25, -72.0], [159.75, -72.0], [159.75, -73.5], [158.25, -73.5]]]}, "properties": {"cell_id": "106_11", "lon": 159.0, "lat": -72.75}}, {"type": "Feature", "geometry": {"type": "Polygon", "coordinates": [[[158.25, -72.0], [158.25, -70.5], [159.75, -70.5], [159.75, -72.0], [158.25, -72.0]]]}, "properties": {"cell_id": "106_12", "lon": 159.0, "lat": -71.25}}, {"type": "Feature", "geometry": {"type": "Polygon", "coordinates": [[[158.25, -70.5], [158.25, -69.0], [159.75, -69.0], [159.75, -70.5], [158.25, -70.5]]]}, "properties": {"cell_id": "106_13", "lon": 159.0, "lat": -69.75}}, {"type": "Feature", "geometry": {"type": "Polygon", "coordinates": [[[159.75, -79.5], [159.75, -78.0], [161.25, -78.0], [161.25, -79.5], [159.75, -79.5]]]}, "properties": {"cell_id": "107_7", "lon": 160.5, "lat": -78.75}}, {"type": "Feature", "geometry": {"type": "Polygon", "coordinates": [[[159.75, -78.0], [159.75, -76.5], [161.25, -76.5], [161.25, -78.0], [159.75, -78.0]]]}, "properties": {"cell_id": "107_8", "lon": 160.5, "lat": -77.25}}, {"type": "Feature", "geometry": {"type": "Polygon", "coordinates": [[[159.75, -76.5], [159.75, -75.0], [161.25, -75.0], [161.25, -76.5], [159.75, -76.5]]]}, "properties": {"cell_id": "107_9", "lon": 160.5, "lat": -75.75}}, {"type": "Feature", "geometry": {"type": "Polygon", "coordinates": [[[159.75, -75.0], [159.75, -73.5], [161.25, -73.5], [161.25, -75.0], [159.75, -75.0]]]}, "properties": {"cell_id": "107_10", "lon": 160.5, "lat": -74.25}}, {"type": "Feature", "geometry": {"type": "Polygon", "coordinates": [[[159.75, -73.5], [159.75, -72.0], [161.25, -72.0], [161.25, -73.5], [159.75, -73.5]]]}, "properties": {"cell_id": "107_11", "lon": 160.5, "lat": -72.75}}, {"type": "Feature", "geometry": {"type": "Polygon", "coordinates": [[[159.75, -72.0], [159.75, -70.5], [161.25, -70.5], [161.25, -72.0], [159.75, -72.0]]]}, "properties": {"cell_id": "107_12", "lon": 160.5, "lat": -71.25}}, {"type": "Feature", "geometry": {"type": "Polygon", "coordinates": [[[159.75, -70.5], [159.75, -69.0], [161.25, -69.0], [161.25, -70.5], [159.75, -70.5]]]}, "properties": {"cell_id": "107_13", "lon": 160.5, "lat": -69.75}}]}