{"type": "FeatureCollection", "features": [{"type": "Feature", "geometry": {"type": "Polygon", "coordinates": [[[-138.75, -79.5], [-138.75, -78.0], [-137.25, -78.0], [-137.25, -79.5], [-138.75, -79.5]]]}, "properties": {"cell_id": "148_7", "lon": -138.0, "lat": -78.75}}, {"type": "Feature", "geometry": {"type": "Polygon", "coordinates": [[[-138.75, -78.0], [-138.75, -76.5], [-137.25, -76.5], [-137.25, -78.0], [-138.75, -78.0]]]}, "properties": {"cell_id": "148_8", "lon": -138.0, "lat": -77.25}}, {"type": "Feature", "geometry": {"type": "Polygon", "coordinates": [[[-138.75, -76.5], [-138.75, -75.0], [-137.25, -75.0], [-137.25, -76.5], [-138.75, -76.5]]]}, "properties": {"cell_id": "148_9", "lon": -138.0, "lat": -75.75}}, {"type": "Feature", "geometry": {"type": "Polygon", "coordinates": [[[-137.25, -79.5], [-137.25, -78.0], [-135.75, -78.0], [-135.75, -79.5], [-137.25, -79.5]]]}, "properties": {"cell_id": "149_7", "lon": -136.5, "lat": -78.75}}, {"type": "Feature", "geometry": {"type": "Polygon", "coordinates": [[[-137.25, -78.0], [-137.25, -76.5], [-135.75, -76.5], [-135.75, -78.0], [-137.25, -78.0]]]}, "properties": {"cell_id": "149_8", "lon": -136.5, "lat": -77.25}}, {"type": "Feature", "geometry": {"type": "Polygon", "coordinates": [[[-137.25, -76.5], [-137.25, -75.0], [-135.75, -75.0], [-135.75, -76.5], [-137.25, -76.5]]]}, "properties": {"cell_id": "149_9", "lon": -136.5, "lat": -75.75}}, {"type": "Feature", "geometry": {"type": "Polygon", "coordinates": [[[-135.75, -79.5], [-135.75, -78.0], [-134.25, -78.0], [-134.25, -79.5], [-135.75, -79.5]]]}, "properties": {"cell_id": "150_7", "lon": -135.0, "lat": -78.75}}, {"type": "Feature", "geometry": {"type": "Polygon", "coordinates": [[[-135.75, -78.0], [-135.75, -76.5], [-134.25, -76.5], [-134.25, -78.0], [-135.75, -78.0]]]}, "properties": {"cell_id": "150_8", "lon": -135.0, "lat": -77.25}}, {"type": "Feature", "geometry": {"type": "Polygon", "coordinates": [[[-135.75, -76.5], [-135.75, -75.0], [-134.25, -75.0], [-134.25, -76.5], [-135.75, -76.5]]]}, "properties": {"cell_id": "150_9", "lon": -135.0, "lat": -75.75}}, {"type": "Feature", "geometry": {"type": "Polygon", "coordinates": [[[-134.25, -79.5], [-134.25, -78.0], [-132.75, -78.0], [-132.75, -79.5], [-134.25, -79.5]]]}, "properties": {"cell_id": "151_7", "lon": -133.5, "lat": -78.75}}, {"type": "Feature", "geometry": {"type": "Polygon", "coordinates": [[[-134.25, -78.0], [-134.25, -76.5], [-132.75, -76.5], [-132.75, -78.0], [-134.25, -78.0]]]}, "properties": {"cell_id": "151_8", "lon": -133.5, "lat": -77.25}}, {"type": "Feature", "geometry": {"type": "Polygon", "coordinates": [[[-134.25, -76.5], [-134.25, -75.0], [-132.75, -75.0], [-132.75, -76.5], [-134.25, -76.5]]]}, "properties": {"cell_id": "151_9", "lon": -133.5, "lat": -75.75}}, {"type": "Feature", "geometry": {"type": "Polygon", "coordinates": [[[-132.75, -79.5], [-132.75, -78.0], [-131.25, -78.0], [-131.25, -79.5], [-132.75, -79.5]]]}, "properties": {"cell_id": "152_7", "lon": -132.0, "lat": -78.75}}, {"type": "Feature", "geometry": {"type": "Polygon", "coordinates": [[[-132.75, -78.0], [-132.75, -76.5], [-131.25, -76.5], [-131.25, -78.0], [-132.75, -78.0]]]}, "properties": {"cell_id": "152_8", "lon": -132.0, "lat": -77.25}}, {"type": "Feature", "geometry": {"type": "Polygon", "coordinates": [[[-132.75, -76.5], [-132.75, -75.0], [-131.25, -75.0], [-131.25, -76.5], [-132.75, -76.5]]]}, "properties": {"cell_id": "152_9", "lon": -132.0, "lat": -75.75}}, {"type": "Feature", "geometry": {"type": "Polygon", "coordinates": [[[-131.25, -79.5], [-131.25, -78.0], [-129.75, -78.0], [-129.75, -79.5], [-131.25, -79.5]]]}, "properties": {"cell_id": "153_7", "lon": -130.5, "lat": -78.75}}, {"type": "Feature", "geometry": {"type": "Polygon", "coordinates": [[[-131.25, -78.0], [-131.25, -76.5], [-129.75, -76.5], [-129.75, -78.0], [-131.25, -78.0]]]}, "properties": {"cell_id": "153_8", "lon": -130.5, "lat": -77.25}}, {"type": "Feature", "geometry": {"type": "Polygon", "coordinates": [[[-131.25, -76.5], [-131.25, -75.0], [-129.75, -75.0], [-129.75, -76.5], [-131.25, -76.5]]]}, "properties": {"cell_id": "153_9", "lon": -130.5, "lat": -75.75}}]}