{"type": "FeatureCollection", "features": [{"type": "Feature", "geometry": {"type": "Polygon", "coordinates": [[[50.25, 49.5], [50.25, 51.0], [51.75, 51.0], [51.75, 49.5], [50.25, 49.5]]]}, "properties": {"cell_id": "34_93", "lon": 51.0, "lat": 50.25}}, {"type": "Feature", "geometry": {"type": "Polygon", "coordinates": [[[51.75, 40.5], [51.75, 42.0], [53.25, 42.0], [53.25, 40.5], [51.75, 40.5]]]}, "properties": {"cell_id": "35_87", "lon": 52.5, "lat": 41.25}}, {"type": "Feature", "geometry": {"type": "Polygon", "coordinates": [[[51.75, 42.0], [51.75, 43.5], [53.25, 43.5], [53.25, 42.0], [51.75, 42.0]]]}, "properties": {"cell_id": "35_88", "lon": 52.5, "lat": 42.75}}, {"type": "Feature", "geometry": {"type": "Polygon", "coordinates": [[[51.75, 43.5], [51.75, 45.0], [53.25, 45.0], [53.25, 43.5], [51.75, 43.5]]]}, "properties": {"cell_id": "35_89", "lon": 52.5, "lat": 44.25}}, {"type": "Feature", "geometry": {"type": "Polygon", "coordinates": [[[51.75, 46.5], [51.75, 48.0], [53.25, 48.0], [53.25, 46.5], [51.75, 46.5]]]}, "properties": {"cell_id": "35_91", "lon": 52.5, "lat": 47.25}}, {"type": "Feature", "geometry": {"type": "Polygon", "coordinates": [[[51.75, 48.0], [51.75, 49.5], [53.25, 49.5], [53.25, 48.0], [51.75, 48.0]]]}, "properties": {"cell_id": "35_92", "lon": 52.5, "lat": 48.75}}, {"type": "Feature", "geometry": {"type": "Polygon", "coordinates": [[[51.75, 49.5], [51.75, 51.0], [53.25, 51.0], [53.25, 49.5], [51.75, 49.5]]]}, "properties": {"cell_id": "35_93", "lon": 52.5, "lat": 50.25}}, {"type": "Feature", "geometry": {"type": "Polygon", "coordinates": [[[53.25, 40.5], [53.25, 42.0], [54.75, 42.0], [54.75, 40.5], [53.25, 40.5]]]}, "properties": {"cell_id": "36_87", "lon": 54.0, "lat": 41.25}}, {"type": "Feature", "geometry": {"type": "Polygon", "coordinates": [[[53.25, 42.0], [53.25, 43.5], [54.75, 43.5], [54.75, 42.0], [53.25, 42.0]]]}, "properties": {"cell_id": "36_88", "lon": 54.0, "lat": 42.75}}, {"type": "Feature", "geometry": {"type": "Polygon", "coordinates": [[[53.25, 43.5], [53.25, 45.0], [54.75, 45.0], [54.75, 43.5], [53.25, 43.5]]]}, "properties": {"cell_id": "36_89", "lon": 54.0, "lat": 44.25}}, {"type": "Feature", "geometry": {"type": "Polygon", "coordinates": [[[53.25, 46.5], [53.25, 48.0], [54.75, 48.0], [54.75, 46.5], [53.25, 46.5]]]}, "properties": {"cell_id": "36_91", "lon": 54.0, "lat": 47.25}}, {"type": "Feature", "geometry": {"type": "Polygon", "coordinates": [[[53.25, 48.0], [53.25, 49.5], [54.75, 49.5], [54.75, 48.0], [53.25, 48.0]]]}, "properties": {"cell_id": "36_92", "lon": 54.0, "lat": 48.75}}, {"type": "Feature", "geometry": {"type": "Polygon", "coordinates": [[[53.25, 49.5], [53.25, 51.0], [54.75, 51.0], [54.75, 49.5], [53.25, 49.5]]]}, "properties": {"cell_id": "36_93", "lon": 54.0, "lat": 50.25}}, {"type": "Feature", "geometry": {"type": "Polygon", "coordinates": [[[54.75, 40.5], [54.75, 42.0], [56.25, 42.0], [56.25, 40.5], [54.75, 40.5]]]}, "properties": {"cell_id": "37_87", "lon": 55.5, "lat": 41.25}}, {"type": "Feature", "geometry": {"type": "Polygon", "coordinates": [[[54.75, 42.0], [54.75, 43.5], [56.25, 43.5], [56.25, 42.0], [54.75, 42.0]]]}, "properties": {"cell_id": "37_88", "lon": 55.5, "lat": 42.75}}, {"type": "Feature", "geometry": {"type": "Polygon", "coordinates": [[[54.75, 43.5], [54.75, 45.0], [56.25, 45.0], [56.25, 43.5], [54.75, 43.5]]]}, "properties": {"cell_id": "37_89", "lon": 55.5, "lat": 44.25}}, {"type": "Feature", "geometry": {"type": "Polygon", "coordinates": [[[54.75, 45.0], [54.75, 46.5], [56.25, 46.5], [56.25, 45.0], [54.75, 45.0]]]}, "properties": {"cell_id": "37_90", "lon": 55.5, "lat": 45.75}}, {"type": "Feature", "geometry": {"type": "Polygon", "coordinates": [[[54.75, 46.5], [54.75, 48.0], [56.25, 48.0], [56.25, 46.5], [54.75, 46.5]]]}, "properties": {"cell_id": "37_91", "lon": 55.5, "lat": 47.25}}, {"type": "Feature", "geometry": {"type": "Polygon", "coordinates": [[[54.75, 48.0], [54.75, 49.5], [56.25, 49.5], [56.25, 48.0], [54.75, 48.0]]]}, "properties": {"cell_id": "37_92", "lon": 55.5, "lat": 48.75}}, {"type": "Feature", "geometry": {"type": "Polygon", "coordinates": [[[54.75, 49.5], [54.75, 51.0], [56.25, 51.0], [56.25, 49.5], [54.75, 49.5]]]}, "properties": {"cell_id": "37_93", "lon": 55.5, "lat": 50.25}}, {"type": "Feature", "geometry": {"type": "Polygon", "coordinates": [[[56.25, 40.5], [56.25, 42.0], [57.75, 42.0], [57.75, 40.5], [56.25, 40.5]]]}, "properties": {"cell_id": "38_87", "lon": 57.0, "lat": 41.25}}, {"type": "Feature", "geometry": {"type": "Polygon", "coordinates": [[[56.25, 42.0], [56.25, 43.5], [57.75, 43.5], [57.75, 42.0], [56.25, 42.0]]]}, "properties": {"cell_id": "38_88", "lon": 57.0, "lat": 42.75}}, {"type": "Feature", "geometry": {"type": "Polygon", "coordinates": [[[56.25, 43.5], [56.25, 45.0], [57.75, 45.0], [57.75, 43.5], [56.25, 43.5]]]}, "properties": {"cell_id": "38_89", "lon": 57.0, "lat": 44.25}}, {"type": "Feature", "geometry": {"type": "Polygon", "coordinates": [[[56.25, 45.0], [56.25, 46.5], [57.75, 46.5], [57.75, 45.0], [56.25, 45.0]]]}, "properties": {"cell_id": "38_90", "lon": 57.0, "lat": 45.75}}, {"type": "Feature", "geometry": {"type": "Polygon", "coordinates": [[[56.25, 46.5], [56.25, 48.0], [57.75, 48.0], [57.75, 46.5], [56.25, 46.5]]]}, "properties": {"cell_id": "38_91", "lon": 57.0, "lat": 47.25}}, {"type": "Feature", "geometry": {"type": "Polygon", "coordinates": [[[56.25, 48.0], [56.25, 49.5], [57.75, 49.5], [57.75, 48.0], [56.25, 48.0]]]}, "properties": {"cell_id": "38_92", "lon": 57.0, "lat": 48.75}}, {"type": "Feature", "geometry": {"type": "Polygon", "coordinates": [[[56.25, 49.5], [56.25, 51.0], [57.75, 51.0], [57.75, 49.5], [56.25, 49.5]]]}, "properties": {"cell_id": "38_93", "lon": 57.0, "lat": 50.25}}, {"type": "Feature", "geometry": {"type": "Polygon", "coordinates": [[[57.75, 40.5], [57.75, 42.0], [59.25, 42.0], [59.25, 40.5], [57.75, 40.5]]]}, "properties": {"cell_id": "39_87", "lon": 58.5, "lat": 41.25}}, {"type": "Feature", "geometry": {"type": "Polygon", "coordinates": [[[57.75, 42.0], [57.75, 43.5], [59.25, 43.5], [59.25, 42.0], [57.75, 42.0]]]}, "properties": {"cell_id": "39_88", "lon": 58.5, "lat": 42.75}}, {"type": "Feature", "geometry": {"type": "Polygon", "coordinates": [[[57.75, 43.5], [57.75, 45.0], [59.25, 45.0], [59.25, 43.5], [57.75, 43.5]]]}, "properties": {"cell_id": "39_89", "lon": 58.5, "lat": 44.25}}, {"type": "Feature", "geometry": {"type": "Polygon", "coordinates": [[[57.75, 45.0], [57.75, 46.5], [59.25, 46.5], [59.25, 45.0], [57.75, 45.0]]]}, "properties": {"cell_id": "39_90", "lon": 58.5, "lat": 45.75}}, {"type": "Feature", "geometry": {"type": "Polygon", "coordinates": [[[57.75, 46.5], [57.75, 48.0], [59.25, 48.0], [59.25, 46.5], [57.75, 46.5]]]}, "properties": {"cell_id": "39_91", "lon": 58.5, "lat": 47.25}}, {"type": "Feature", "geometry": {"type": "Polygon", "coordinates": [[[57.75, 48.0], [57.75, 49.5], [59.25, 49.5], [59.25, 48.0], [57.75, 48.0]]]}, "properties": {"cell_id": "39_92", "lon": 58.5, "lat": 48.75}}, {"type": "Feature", "geometry": {"type": "Polygon", "coordinates": [[[57.75, 49.5], [57.75, 51.0], [59.25, 51.0], [59.25, 49.5], [57.75, 49.5]]]}, "properties": {"cell_id": "39_93", "lon": 58.5, "lat": 50.25}}, {"type": "Feature", "geometry": {"type": "Polygon", "coordinates": [[[59.25, 40.5], [59.25, 42.0], [60.75, 42.0], [60.75, 40.5], [59.25, 40.5]]]}, "properties": {"cell_id": "40_87", "lon": 60.0, "lat": 41.25}}, {"type": "Feature", "geometry": {"type": "Polygon", "coordinates": [[[59.25, 42.0], [59.25, 43.5], [60.75, 43.5], [60.75, 42.0], [59.25, 42.0]]]}, "properties": {"cell_id": "40_88", "lon": 60.0, "lat": 42.75}}, {"type": "Feature", "geometry": {"type": "Polygon", "coordinates": [[[59.25, 43.5], [59.25, 45.0], [60.75, 45.0], [60.75, 43.5], [59.25, 43.5]]]}, "properties": {"cell_id": "40_89", "lon": 60.0, "lat": 44.25}}, {"type": "Feature", "geometry": {"type": "Polygon", "coordinates": [[[59.25, 45.0], [59.25, 46.5], [60.75, 46.5], [60.75, 45.0], [59.25, 45.0]]]}, "properties": {"cell_id": "40_90", "lon": 60.0, "lat": 45.75}}, {"type": "Feature", "geometry": {"type": "Polygon", "coordinates": [[[59.25, 46.5], [59.25, 48.0], [60.75, 48.0], [60.75, 46.5], [59.25, 46.5]]]}, "properties": {"cell_id": "40_91", "lon": 60.0, "lat": 47.25}}, {"type": "Feature", "geometry": {"type": "Polygon", "coordinates": [[[59.25, 48.0], [59.25, 49.5], [60.75, 49.5], [60.75, 48.0], [59.25, 48.0]]]}, "properties": {"cell_id": "40_92", "lon": 60.0, "lat": 48.75}}, {"type": "Feature", "geometry": {"type": "Polygon", "coordinates": [[[59.25, 49.5], [59.25, 51.0], [60.75, 51.0], [60.75, 49.5], [59.25, 49.5]]]}, "properties": {"cell_id": "40_93", "lon": 60.0, "lat": 50.25}}]}