{"type": "FeatureCollection", "features": [{"type": "Feature", "geometry": {"type": "Polygon", "coordinates": [[[30.75, -19.5], [30.75, -18.0], [32.25, -18.0], [32.25, -19.5], [30.75, -19.5]]]}, "properties": {"cell_id": "21_47", "lon": 31.5, "lat": -18.75}}, {"type": "Feature", "geometry": {"type": "Polygon", "coordinates": [[[30.75, -18.0], [30.75, -16.5], [32.25, -16.5], [32.25, -18.0], [30.75, -18.0]]]}, "properties": {"cell_id": "21_48", "lon": 31.5, "lat": -17.25}}, {"type": "Feature", "geometry": {"type": "Polygon", "coordinates": [[[30.75, -16.5], [30.75, -15.0], [32.25, -15.0], [32.25, -16.5], [30.75, -16.5]]]}, "properties": {"cell_id": "21_49", "lon": 31.5, "lat": -15.75}}, {"type": "Feature", "geometry": {"type": "Polygon", "coordinates": [[[30.75, -15.0], [30.75, -13.5], [32.25, -13.5], [32.25, -15.0], [30.75, -15.0]]]}, "properties": {"cell_id": "21_50", "lon": 31.5, "lat": -14.25}}, {"type": "Feature", "geometry": {"type": "Polygon", "coordinates": [[[30.75, -13.5], [30.75, -12.0], [32.25, -12.0], [32.25, -13.5], [30.75, -13.5]]]}, "properties": {"cell_id": "21_51", "lon": 31.5, "lat": -12.75}}, {"type": "Feature", "geometry": {"type": "Polygon", "coordinates": [[[30.75, -12.0], [30.75, -10.5], [32.25, -10.5], [32.25, -12.0], [30.75, -12.0]]]}, "properties": {"cell_id": "21_52", "lon": 31.5, "lat": -11.25}}, {"type": "Feature", "geometry": {"type": "Polygon", "coordinates": [[[30.75, -10.5], [30.75, -9.0], [32.25, -9.0], [32.25, -10.5], [30.75, -10.5]]]}, "properties": {"cell_id": "21_53", "lon": 31.5, "lat": -9.75}}, {"type": "Feature", "geometry": {"type": "Polygon", "coordinates": [[[32.25, -19.5], [32.25, -18.0], [33.75, -18.0], [33.75, -19.5], [32.25, -19.5]]]}, "properties": {"cell_id": "22_47", "lon": 33.0, "lat": -18.75}}, {"type": "Feature", "geometry": {"type": "Polygon", "coordinates": [[[32.25, -18.0], [32.25, -16.5], [33.75, -16.5], [33.75, -18.0], [32.25, -18.0]]]}, "properties": {"cell_id": "22_48", "lon": 33.0, "lat": -17.25}}, {"type": "Feature", "geometry": {"type": "Polygon", "coordinates": [[[32.25, -16.5], [32.25, -15.0], [33.75, -15.0], [33.75, -16.5], [32.25, -16.5]]]}, "properties": {"cell_id": "22_49", "lon": 33.0, "lat": -15.75}}, {"type": "Feature", "geometry": {"type": "Polygon", "coordinates": [[[32.25, -15.0], [32.25, -13.5], [33.75, -13.5], [33.75, -15.0], [32.25, -15.0]]]}, "properties": {"cell_id": "22_50", "lon": 33.0, "lat": -14.25}}, {"type": "Feature", "geometry": {"type": "Polygon", "coordinates": [[[32.25, -13.5], [32.25, -12.0], [33.75, -12.0], [33.75, -13.5], [32.25, -13.5]]]}, "properties": {"cell_id": "22_51", "lon": 33.0, "lat": -12.75}}, {"type": "Feature", "geometry": {"type": "Polygon", "coordinates": [[[32.25, -12.0], [32.25, -10.5], [33.75, -10.5], [33.75, -12.0], [32.25, -12.0]]]}, "properties": {"cell_id": "22_52", "lon": 33.0, "lat": -11.25}}, {"type": "Feature", "geometry": {"type": "Polygon", "coordinates": [[[32.25, -10.5], [32.25, -9.0], [33.75, -9.0], [33.75, -10.5], [32.25, -10.5]]]}, "properties": {"cell_id": "22_53", "lon": 33.0, "lat": -9.75}}, {"type": "Feature", "geometry": {"type": "Polygon", "coordinates": [[[33.75, -19.5], [33.75, -18.0], [35.25, -18.0], [35.25, -19.5], [33.75, -19.5]]]}, "properties": {"cell_id": "23_47", "lon": 34.5, "lat": -18.75}}, {"type": "Feature", "geometry": {"type": "Polygon", "coordinates": [[[33.75, -18.0], [33.75, -16.5], [35.25, -16.5], [35.25, -18.0], [33.75, -18.0]]]}, "properties": {"cell_id": "23_48", "lon": 34.5, "lat": -17.25}}, {"type": "Feature", "geometry": {"type": "Polygon", "coordinates": [[[33.75, -16.5], [33.75, -15.0], [35.25, -15.0], [35.25, -16.5], [33.75, -16.5]]]}, "properties": {"cell_id": "23_49", "lon": 34.5, "lat": -15.75}}, {"type": "Feature", "geometry": {"type": "Polygon", "coordinates": [[[33.75, -15.0], [33.75, -13.5], [35.25, -13.5], [35.25, -15.0], [33.75, -15.0]]]}, "properties": {"cell_id": "23_50", "lon": 34.5, "lat": -14.25}}, {"type": "Feature", "geometry": {"type": "Polygon", "coordinates": [[[33.75, -13.5], [33.75, -12.0], [35.25, -12.0], [35.25, -13.5], [33.75, -13.5]]]}, "properties": {"cell_id": "23_51", "lon": 34.5, "lat": -12.75}}, {"type": "Feature", "geometry": {"type": "Polygon", "coordinates": [[[33.75, -12.0], [33.75, -10.5], [35.25, -10.5], [35.25, -12.0], [33.75, -12.0]]]}, "properties": {"cell_id": "23_52", "lon": 34.5, "lat": -11.25}}, {"type": "Feature", "geometry": {"type": "Polygon", "coordinates": [[[33.75, -10.5], [33.75, -9.0], [35.25, -9.0], [35.25, -10.5], [33.75, -10.5]]]}, "properties": {"cell_id": "23_53", "lon": 34.5, "lat": -9.75}}, {"type": "Feature", "geometry": {"type": "Polygon", "coordinates": [[[35.25, -19.5], [35.25, -18.0], [36.75, -18.0], [36.75, -19.5], [35.25, -19.5]]]}, "properties": {"cell_id": "24_47", "lon": 36.0, "lat": -18.75}}, {"type": "Feature", "geometry": {"type": "Polygon", "coordinates": [[[35.25, -18.0], [35.25, -16.5], [36.75, -16.5], [36.75, -18.0], [35.25, -18.0]]]}, "properties": {"cell_id": "24_48", "lon": 36.0, "lat": -17.25}}, {"type": "Feature", "geometry": {"type": "Polygon", "coordinates": [[[35.25, -16.5], [35.25, -15.0], [36.75, -15.0], [36.75, -16.5], [35.25, -16.5]]]}, "properties": {"cell_id": "24_49", "lon": 36.0, "lat": -15.75}}, {"type": "Feature", "geometry": {"type": "Polygon", "coordinates": [[[35.25, -15.0], [35.25, -13.5], [36.75, -13.5], [36.75, -15.0], [35.25, -15.0]]]}, "properties": {"cell_id": "24_50", "lon": 36.0, "lat": -14.25}}, {"type": "Feature", "geometry": {"type": "Polygon", "coordinates": [[[35.25, -13.5], [35.25, -12.0], [36.75, -12.0], [36.75, -13.5], [35.25, -13.5]]]}, "properties": {"cell_id": "24_51", "lon": 36.0, "lat": -12.75}}, {"type": "Feature", "geometry": {"type": "Polygon", "coordinates": [[[35.25, -12.0], [35.25, -10.5], [36.75, -10.5], [36.75, -12.0], [35.25, -12.0]]]}, "properties": {"cell_id": "24_52", "lon": 36.0, "lat": -11.25}}, {"type": "Feature", "geometry": {"type": "Polygon", "coordinates": [[[35.25, -10.5], [35.25, -9.0], [36.75, -9.0], [36.75, -10.5], [35.25, -10.5]]]}, "properties": {"cell_id": "24_53", "lon": 36.0, "lat": -9.75}}, {"type": "Feature", "geometry": {"type": "Polygon", "coordinates": [[[36.75, -19.5], [36.75, -18.0], [38.25, -18.0], [38.25, -19.5], [36.75, -19.5]]]}, "properties": {"cell_id": "25_47", "lon": 37.5, "lat": -18.75}}, {"type": "Feature", "geometry": {"type": "Polygon", "coordinates": [[[36.75, -18.0], [36.75, -16.5], [38.25, -16.5], [38.25, -18.0], [36.75, -18.0]]]}, "properties": {"cell_id": "25_48", "lon": 37.5, "lat": -17.25}}, {"type": "Feature", "geometry": {"type": "Polygon", "coordinates": [[[36.75, -16.5], [36.75, -15.0], [38.25, -15.0], [38.25, -16.5], [36.75, -16.5]]]}, "properties": {"cell_id": "25_49", "lon": 37.5, "lat": -15.75}}, {"type": "Feature", "geometry": {"type": "Polygon", "coordinates": [[[36.75, -15.0], [36.75, -13.5], [38.25, -13.5], [38.25, -15.0], [36.75, -15.0]]]}, "properties": {"cell_id": "25_50", "lon": 37.5, "lat": -14.25}}, {"type": "Feature", "geometry": {"type": "Polygon", "coordinates": [[[36.75, -13.5], [36.75, -12.0], [38.25, -12.0], [38.25, -13.5], [36.75, -13.5]]]}, "properties": {"cell_id": "25_51", "lon": 37.5, "lat": -12.75}}, {"type": "Feature", "geometry": {"type": "Polygon", "coordinates": [[[36.75, -12.0], [36.75, -10.5], [38.25, -10.5], [38.25, -12.0], [36.75, -12.0]]]}, "properties": {"cell_id": "25_52", "lon": 37.5, "lat": -11.25}}, {"type": "Feature", "geometry": {"type": "Polygon", "coordinates": [[[36.75, -10.5], [36.75, -9.0], [38.25, -9.0], [38.25, -10.5], [36.75, -10.5]]]}, "properties": {"cell_id": "25_53", "lon": 37.5, "lat": -9.75}}, {"type": "Feature", "geometry": {"type": "Polygon", "coordinates": [[[38.25, -18.0], [38.25, -16.5], [39.75, -16.5], [39.75, -18.0], [38.25, -18.0]]]}, "properties": {"cell_id": "26_48", "lon": 39.0, "lat": -17.25}}, {"type": "Feature", "geometry": {"type": "Polygon", "coordinates": [[[38.25, -16.5], [38.25, -15.0], [39.75, -15.0], [39.75, -16.5], [38.25, -16.5]]]}, "properties": {"cell_id": "26_49", "lon": 39.0, "lat": -15.75}}, {"type": "Feature", "geometry": {"type": "Polygon", "coordinates": [[[38.25, -15.0], [38.25, -13.5], [39.75, -13.5], [39.75, -15.0], [38.25, -15.0]]]}, "properties": {"cell_id": "26_50", "lon": 39.0, "lat": -14.25}}, {"type": "Feature", "geometry": {"type": "Polygon", "coordinates": [[[38.25, -13.5], [38.25, -12.0], [39.75, -12.0], [39.75, -13.5], [38.25, -13.5]]]}, "properties": {"cell_id": "26_51", "lon": 39.0, "lat": -12.75}}, {"type": "Feature", "geometry": {"type": "Polygon", "coordinates": [[[38.25, -12.0], [38.25, -10.5], [39.75, -10.5], [39.75, -12.0], [38.25, -12.0]]]}, "properties": {"cell_id": "26_52", "lon": 39.0, "lat": -11.25}}, {"type": "Feature", "geometry": {"type": "Polygon", "coordinates": [[[38.25, -10.5], [38.25, -9.0], [39.75, -9.0], [39.75, -10.5], [38.25, -10.5]]]}, "properties": {"cell_id": "26_53", "lon": 39.0, "lat": -9.75}}, {"type": "Feature", "geometry": {"type": "Polygon", "coordinates": [[[39.75, -18.0], [39.75, -16.5], [41.25, -16.5], [41.25, -18.0], [39.75, -18.0]]]}, "properties": {"cell_id": "27_48", "lon": 40.5, "lat": -17.25}}, {"type": "Feature", "geometry": {"type": "Polygon", "coordinates": [[[39.75, -16.5], [39.75, -15.0], [41.25, -15.0], [41.25, -16.5], [39.75, -16.5]]]}, "properties": {"cell_id": "27_49", "lon": 40.5, "lat": -15.75}}, {"type": "Feature", "geometry": {"type": "Polygon", "coordinates": [[[39.75, -15.0], [39.75, -13.5], [41.25, -13.5], [41.25, -15.0], [39.75, -15.0]]]}, "properties": {"cell_id": "27_50", "lon": 40.5, "lat": -14.25}}, {"type": "Feature", "geometry": {"type": "Polygon", "coordinates": [[[39.75, -13.5], [39.75, -12.0], [41.25, -12.0], [41.25, -13.5], [39.75, -13.5]]]}, "properties": {"cell_id": "27_51", "lon": 40.5, "lat": -12.75}}, {"type": "Feature", "geometry": {"type": "Polygon", "coordinates": [[[39.75, -12.0], [39.75, -10.5], [41.25, -10.5], [41.25, -12.0], [39.75, -12.0]]]}, "properties": {"cell_id": "27_52", "lon": 40.5, "lat": -11.25}}, {"type": "Feature", "geometry": {"type": "Polygon", "coordinates": [[[39.75, -10.5], [39.75, -9.0], [41.25, -9.0], [41.25, -10.5], [39.75, -10.5]]]}, "properties": {"cell_id": "27_53", "lon": 40.5, "lat": -9.75}}]}