{"type": "FeatureCollection", "features": [{"type": "Feature", "geometry": {"type": "Polygon", "coordinates": [[[50.25, 7.5], [50.25, 9.0], [51.75, 9.0], [51.75, 7.5], [50.25, 7.5]]]}, "properties": {"cell_id": "34_65", "lon": 51.0, "lat": 8.25}}, {"type": "Feature", "geometry": {"type": "Polygon", "coordinates": [[[50.25, 9.0], [50.25, 10.5], [51.75, 10.5], [51.75, 9.0], [50.25, 9.0]]]}, "properties": {"cell_id": "34_66", "lon": 51.0, "lat": 9.75}}, {"type": "Feature", "geometry": {"type": "Polygon", "coordinates": [[[51.75, 7.5], [51.75, 9.0], [53.25, 9.0], [53.25, 7.5], [51.75, 7.5]]]}, "properties": {"cell_id": "35_65", "lon": 52.5, "lat": 8.25}}, {"type": "Feature", "geometry": {"type": "Polygon", "coordinates": [[[51.75, 9.0], [51.75, 10.5], [53.25, 10.5], [53.25, 9.0], [51.75, 9.0]]]}, "properties": {"cell_id": "35_66", "lon": 52.5, "lat": 9.75}}]}