{"type": "FeatureCollection", "features": [{"type": "Feature", "geometry": {"type": "Polygon", "coordinates": [[[-119.25, 33.0], [-119.25, 34.5], [-117.75, 34.5], [-117.75, 33.0], [-119.25, 33.0]]]}, "properties": {"cell_id": "161_82", "lon": -118.5, "lat": 33.75}}, {"type": "Feature", "geometry": {"type": "Polygon", "coordinates": [[[-119.25, 34.5], [-119.25, 36.0], [-117.75, 36.0], [-117.75, 34.5], [-119.25, 34.5]]]}, "properties": {"cell_id": "161_83", "lon": -118.5, "lat": 35.25}}, {"type": "Feature", "geometry": {"type": "Polygon", "coordinates": [[[-119.25, 36.0], [-119.25, 37.5], [-117.75, 37.5], [-117.75, 36.0], [-119.25, 36.0]]]}, "properties": {"cell_id": "161_84", "lon": -118.5, "lat": 36.75}}, {"type": "Feature", "geometry": {"type": "Polygon", "coordinates": [[[-119.25, 37.5], [-119.25, 39.0], [-117.75, 39.0], [-117.75, 37.5], [-119.25, 37.5]]]}, "properties": {"cell_id": "161_85", "lon": -118.5, "lat": 38.25}}, {"type": "Feature", "geometry": {"type": "Polygon", "coordinates": [[[-119.25, 39.0], [-119.25, 40.5], [-117.75, 40.5], [-117.75, 39.0], [-119.25, 39.0]]]}, "properties": {"cell_id": "161_86", "lon": -118.5, "lat": 39.75}}, {"type": "Feature", "geometry": {"type": "Polygon", "coordinates": [[[-117.75, 30.0], [-117.75, 31.5], [-116.25, 31.5], [-116.25, 30.0], [-117.75, 30.0]]]}, "properties": {"cell_id": "162_80", "lon": -117.0, "lat": 30.75}}, {"type": "Feature", "geometry": {"type": "Polygon", "coordinates": [[[-117.75, 31.5], [-117.75, 33.0], [-116.25, 33.0], [-116.25, 31.5], [-117.75, 31.5]]]}, "properties": {"cell_id": "162_81", "lon": -117.0, "lat": 32.25}}, {"type": "Feature", "geometry": {"type": "Polygon", "coordinates": [[[-117.75, 33.0], [-117.75, 34.5], [-116.25, 34.5], [-116.25, 33.0], [-117.75, 33.0]]]}, "properties": {"cell_id": "162_82", "lon": -117.0, "lat": 33.75}}, {"type": "Feature", "geometry": {"type": "Polygon", "coordinates": [[[-117.75, 34.5], [-117.75, 36.0], [-116.25, 36.0], [-116.25, 34.5], [-117.75, 34.5]]]}, "properties": {"cell_id": "162_83", "lon": -117.0, "lat": 35.25}}, {"type": "Feature", "geometry": {"type": "Polygon", "coordinates": [[[-117.75, 36.0], [-117.75, 37.5], [-116.25, 37.5], [-116.25, 36.0], [-117.75, 36.0]]]}, "properties": {"cell_id": "162_84", "lon": -117.0, "lat": 36.75}}, {"type": "Feature", "geometry": {"type": "Polygon", "coordinates": [[[-117.75, 37.5], [-117.75, 39.0], [-116.25, 39.0], [-116.25, 37.5], [-117.75, 37.5]]]}, "properties": {"cell_id": "162_85", "lon": -117.0, "lat": 38.25}}, {"type": "Feature", "geometry": {"type": "Polygon", "coordinates": [[[-117.75, 39.0], [-117.75, 40.5], [-116.25, 40.5], [-116.25, 39.0], [-117.75, 39.0]]]}, "properties": {"cell_id": "162_86", "lon": -117.0, "lat": 39.75}}, {"type": "Feature", "geometry": {"type": "Polygon", "coordinates": [[[-116.25, 30.0], [-116.25, 31.5], [-114.75, 31.5], [-114.75, 30.0], [-116.25, 30.0]]]}, "properties": {"cell_id": "163_80", "lon": -115.5, "lat": 30.75}}, {"type": "Feature", "geometry": {"type": "Polygon", "coordinates": [[[-116.25, 31.5], [-116.25, 33.0], [-114.75, 33.0], [-114.75, 31.5], [-116.25, 31.5]]]}, "properties": {"cell_id": "163_81", "lon": -115.5, "lat": 32.25}}, {"type": "Feature", "geometry": {"type": "Polygon", "coordinates": [[[-116.25, 33.0], [-116.25, 34.5], [-114.75, 34.5], [-114.75, 33.0], [-116.25, 33.0]]]}, "properties": {"cell_id": "163_82", "lon": -115.5, "lat": 33.75}}, {"type": "Feature", "geometry": {"type": "Polygon", "coordinates": [[[-116.25, 34.5], [-116.25, 36.0], [-114.75, 36.0], [-114.75, 34.5], [-116.25, 34.5]]]}, "properties": {"cell_id": "163_83", "lon": -115.5, "lat": 35.25}}, {"type": "Feature", "geometry": {"type": "Polygon", "coordinates": [[[-116.25, 36.0], [-116.25, 37.5], [-114.75, 37.5], [-114.75, 36.0], [-116.25, 36.0]]]}, "properties": {"cell_id": "163_84", "lon": -115.5, "lat": 36.75}}, {"type": "Feature", "geometry": {"type": "Polygon", "coordinates": [[[-116.25, 37.5], [-116.25, 39.0], [-114.75, 39.0], [-114.75, 37.5], [-116.25, 37.5]]]}, "properties": {"cell_id": "163_85", "lon": -115.5, "lat": 38.25}}, {"type": "Feature", "geometry": {"type": "Polygon", "coordinates": [[[-116.25, 39.0], [-116.25, 40.5], [-114.75, 40.5], [-114.75, 39.0], [-116.25, 39.0]]]}, "properties": {"cell_id": "163_86", "lon": -115.5, "lat": 39.75}}, {"type": "Feature", "geometry": {"type": "Polygon", "coordinates": [[[-114.75, 30.0], [-114.75, 31.5], [-113.25, 31.5], [-113.25, 30.0], [-114.75, 30.0]]]}, "properties": {"cell_id": "164_80", "lon": -114.0, "lat": 30.75}}, {"type": "Feature", "geometry": {"type": "Polygon", "coordinates": [[[-114.75, 31.5], [-114.75, 33.0], [-113.25, 33.0], [-113.25, 31.5], [-114.75, 31.5]]]}, "properties": {"cell_id": "164_81", "lon": -114.0, "lat": 32.25}}, {"type": "Feature", "geometry": {"type": "Polygon", "coordinates": [[[-114.75, 33.0], [-114.75, 34.5], [-113.25, 34.5], [-113.25, 33.0], [-114.75, 33.0]]]}, "properties": {"cell_id": "164_82", "lon": -114.0, "lat": 33.75}}, {"type": "Feature", "geometry": {"type": "Polygon", "coordinates": [[[-114.75, 34.5], [-114.75, 36.0], [-113.25, 36.0], [-113.25, 34.5], [-114.75, 34.5]]]}, "properties": {"cell_id": "164_83", "lon": -114.0, "lat": 35.25}}, {"type": "Feature", "geometry": {"type": "Polygon", "coordinates": [[[-114.75, 36.0], [-114.75, 37.5], [-113.25, 37.5], [-113.25, 36.0], [-114.75, 36.0]]]}, "properties": {"cell_id": "164_84", "lon": -114.0, "lat": 36.75}}, {"type": "Feature", "geometry": {"type": "Polygon", "coordinates": [[[-114.75, 37.5], [-114.75, 39.0], [-113.25, 39.0], [-113.25, 37.5], [-114.75, 37.5]]]}, "properties": {"cell_id": "164_85", "lon": -114.0, "lat": 38.25}}, {"type": "Feature", "geometry": {"type": "Polygon", "coordinates": [[[-114.75, 39.0], [-114.75, 40.5], [-113.25, 40.5], [-113.25, 39.0], [-114.75, 39.0]]]}, "properties": {"cell_id": "164_86", "lon": -114.0, "lat": 39.75}}, {"type": "Feature", "geometry": {"type": "Polygon", "coordinates": [[[-113.25, 30.0], [-113.25, 31.5], [-111.75, 31.5], [-111.75, 30.0], [-113.25, 30.0]]]}, "properties": {"cell_id": "165_80", "lon": -112.5, "lat": 30.75}}, {"type": "Feature", "geometry": {"type": "Polygon", "coordinates": [[[-113.25, 31.5], [-113.25, 33.0], [-111.75, 33.0], [-111.75, 31.5], [-113.25, 31.5]]]}, "properties": {"cell_id": "165_81", "lon": -112.5, "lat": 32.25}}, {"type": "Feature", "geometry": {"type": "Polygon", "coordinates": [[[-113.25, 33.0], [-113.25, 34.5], [-111.75, 34.5], [-111.75, 33.0], [-113.25, 33.0]]]}, "properties": {"cell_id": "165_82", "lon": -112.5, "lat": 33.75}}, {"type": "Feature", "geometry": {"type": "Polygon", "coordinates": [[[-113.25, 34.5], [-113.25, 36.0], [-111.75, 36.0], [-111.75, 34.5], [-113.25, 34.5]]]}, "properties": {"cell_id": "165_83", "lon": -112.5, "lat": 35.25}}, {"type": "Feature", "geometry": {"type": "Polygon", "coordinates": [[[-113.25, 36.0], [-113.25, 37.5], [-111.75, 37.5], [-111.75, 36.0], [-113.25, 36.0]]]}, "properties": {"cell_id": "165_84", "lon": -112.5, "lat": 36.75}}, {"type": "Feature", "geometry": {"type": "Polygon", "coordinates": [[[-113.25, 37.5], [-113.25, 39.0], [-111.75, 39.0], [-111.75, 37.5], [-113.25, 37.5]]]}, "properties": {"cell_id": "165_85", "lon": -112.5, "lat": 38.25}}, {"type": "Feature", "geometry": {"type": "Polygon", "coordinates": [[[-113.25, 39.0], [-113.25, 40.5], [-111.75, 40.5], [-111.75, 39.0], [-113.25, 39.0]]]}, "properties": {"cell_id": "165_86", "lon": -112.5, "lat": 39.75}}, {"type": "Feature", "geometry": {"type": "Polygon", "coordinates": [[[-111.75, 30.0], [-111.75, 31.5], [-110.25, 31.5], [-110.25, 30.0], [-111.75, 30.0]]]}, "properties": {"cell_id": "166_80", "lon": -111.0, "lat": 30.75}}, {"type": "Feature", "geometry": {"type": "Polygon", "coordinates": [[[-111.75, 31.5], [-111.75, 33.0], [-110.25, 33.0], [-110.25, 31.5], [-111.75, 31.5]]]}, "properties": {"cell_id": "166_81", "lon": -111.0, "lat": 32.25}}, {"type": "Feature", "geometry": {"type": "Polygon", "coordinates": [[[-111.75, 33.0], [-111.75, 34.5], [-110.25, 34.5], [-110.25, 33.0], [-111.75, 33.0]]]}, "properties": {"cell_id": "166_82", "lon": -111.0, "lat": 33.75}}, {"type": "Feature", "geometry": {"type": "Polygon", "coordinates": [[[-111.75, 34.5], [-111.75, 36.0], [-110.25, 36.0], [-110.25, 34.5], [-111.75, 34.5]]]}, "properties": {"cell_id": "166_83", "lon": -111.0, "lat": 35.25}}, {"type": "Feature", "geometry": {"type": "Polygon", "coordinates": [[[-111.75, 36.0], [-111.75, 37.5], [-110.25, 37.5], [-110.25, 36.0], [-111.75, 36.0]]]}, "properties": {"cell_id": "166_84", "lon": -111.0, "lat": 36.75}}, {"type": "Feature", "geometry": {"type": "Polygon", "coordinates": [[[-111.75, 37.5], [-111.75, 39.0], [-110.25, 39.0], [-110.25, 37.5], [-111.75, 37.5]]]}, "properties": {"cell_id": "166_85", "lon": -111.0, "lat": 38.25}}, {"type": "Feature", "geometry": {"type": "Polygon", "coordinates": [[[-111.75, 39.0], [-111.75, 40.5], [-110.25, 40.5], [-110.25, 39.0], [-111.75, 39.0]]]}, "properties": {"cell_id": "166_86", "lon": -111.0, "lat": 39.75}}, {"type": "Feature", "geometry": {"type": "Polygon", "coordinates": [[[-110.25, 30.0], [-110.25, 31.5], [-108.75, 31.5], [-108.75, 30.0], [-110.25, 30.0]]]}, "properties": {"cell_id": "167_80", "lon": -109.5, "lat": 30.75}}, {"type": "Feature", "geometry": {"type": "Polygon", "coordinates": [[[-110.25, 31.5], [-110.25, 33.0], [-108.75, 33.0], [-108.75, 31.5], [-110.25, 31.5]]]}, "properties": {"cell_id": "167_81", "lon": -109.5, "lat": 32.25}}, {"type": "Feature", "geometry": {"type": "Polygon", "coordinates": [[[-110.25, 33.0], [-110.25, 34.5], [-108.75, 34.5], [-108.75, 33.0], [-110.25, 33.0]]]}, "properties": {"cell_id": "167_82", "lon": -109.5, "lat": 33.75}}, {"type": "Feature", "geometry": {"type": "Polygon", "coordinates": [[[-110.25, 34.5], [-110.25, 36.0], [-108.75, 36.0], [-108.75, 34.5], [-110.25, 34.5]]]}, "properties": {"cell_id": "167_83", "lon": -109.5, "lat": 35.25}}, {"type": "Feature", "geometry": {"type": "Polygon", "coordinates": [[[-110.25, 36.0], [-110.25, 37.5], [-108.75, 37.5], [-108.75, 36.0], [-110.25, 36.0]]]}, "properties": {"cell_id": "167_84", "lon": -109.5, "lat": 36.75}}, {"type": "Feature", "geometry": {"type": "Polygon", "coordinates": [[[-110.25, 37.5], [-110.25, 39.0], [-108.75, 39.0], [-108.75, 37.5], [-110.25, 37.5]]]}, "properties": {"cell_id": "167_85", "lon": -109.5, "lat": 38.25}}, {"type": "Feature", "geometry": {"type": "Polygon", "coordinates": [[[-110.25, 39.0], [-110.25, 40.5], [-108.75, 40.5], [-108.75, 39.0], [-110.25, 39.0]]]}, "properties": {"cell_id": "167_86", "lon": -109.5, "lat": 39.75}}]}