{"type": "FeatureCollection", "features": [{"type": "Feature", "geometry": {"type": "Polygon", "coordinates": [[[0.75, 40.5], [0.75, 42.0], [2.25, 42.0], [2.25, 40.5], [0.75, 40.5]]]}, "properties": {"cell_id": "1_87", "lon": 1.5, "lat": 41.25}}, {"type": "Feature", "geometry": {"type": "Polygon", "coordinates": [[[0.75, 42.0], [0.75, 43.5], [2.25, 43.5], [2.25, 42.0], [0.75, 42.0]]]}, "properties": {"cell_id": "1_88", "lon": 1.5, "lat": 42.75}}, {"type": "Feature", "geometry": {"type": "Polygon", "coordinates": [[[0.75, 43.5], [0.75, 45.0], [2.25, 45.0], [2.25, 43.5], [0.75, 43.5]]]}, "properties": {"cell_id": "1_89", "lon": 1.5, "lat": 44.25}}, {"type": "Feature", "geometry": {"type": "Polygon", "coordinates": [[[0.75, 45.0], [0.75, 46.5], [2.25, 46.5], [2.25, 45.0], [0.75, 45.0]]]}, "properties": {"cell_id": "1_90", "lon": 1.5, "lat": 45.75}}, {"type": "Feature", "geometry": {"type": "Polygon", "coordinates": [[[0.75, 46.5], [0.75, 48.0], [2.25, 48.0], [2.25, 46.5], [0.75, 46.5]]]}, "properties": {"cell_id": "1_91", "lon": 1.5, "lat": 47.25}}, {"type": "Feature", "geometry": {"type": "Polygon", "coordinates": [[[0.75, 48.0], [0.75, 49.5], [2.25, 49.5], [2.25, 48.0], [0.75, 48.0]]]}, "properties": {"cell_id": "1_92", "lon": 1.5, "lat": 48.75}}, {"type": "Feature", "geometry": {"type": "Polygon", "coordinates": [[[0.75, 49.5], [0.75, 51.0], [2.25, 51.0], [2.25, 49.5], [0.75, 49.5]]]}, "properties": {"cell_id": "1_93", "lon": 1.5, "lat": 50.25}}, {"type": "Feature", "geometry": {"type": "Polygon", "coordinates": [[[2.25, 40.5], [2.25, 42.0], [3.75, 42.0], [3.75, 40.5], [2.25, 40.5]]]}, "properties": {"cell_id": "2_87", "lon": 3.0, "lat": 41.25}}, {"type": "Feature", "geometry": {"type": "Polygon", "coordinates": [[[2.25, 42.0], [2.25, 43.5], [3.75, 43.5], [3.75, 42.0], [2.25, 42.0]]]}, "properties": {"cell_id": "2_88", "lon": 3.0, "lat": 42.75}}, {"type": "Feature", "geometry": {"type": "Polygon", "coordinates": [[[2.25, 43.5], [2.25, 45.0], [3.75, 45.0], [3.75, 43.5], [2.25, 43.5]]]}, "properties": {"cell_id": "2_89", "lon": 3.0, "lat": 44.25}}, {"type": "Feature", "geometry": {"type": "Polygon", "coordinates": [[[2.25, 45.0], [2.25, 46.5], [3.75, 46.5], [3.75, 45.0], [2.25, 45.0]]]}, "properties": {"cell_id": "2_90", "lon": 3.0, "lat": 45.75}}, {"type": "Feature", "geometry": {"type": "Polygon", "coordinates": [[[2.25, 46.5], [2.25, 48.0], [3.75, 48.0], [3.75, 46.5], [2.25, 46.5]]]}, "properties": {"cell_id": "2_91", "lon": 3.0, "lat": 47.25}}, {"type": "Feature", "geometry": {"type": "Polygon", "coordinates": [[[2.25, 48.0], [2.25, 49.5], [3.75, 49.5], [3.75, 48.0], [2.25, 48.0]]]}, "properties": {"cell_id": "2_92", "lon": 3.0, "lat": 48.75}}, {"type": "Feature", "geometry": {"type": "Polygon", "coordinates": [[[2.25, 49.5], [2.25, 51.0], [3.75, 51.0], [3.75, 49.5], [2.25, 49.5]]]}, "properties": {"cell_id": "2_93", "lon": 3.0, "lat": 50.25}}, {"type": "Feature", "geometry": {"type": "Polygon", "coordinates": [[[3.75, 40.5], [3.75, 42.0], [5.25, 42.0], [5.25, 40.5], [3.75, 40.5]]]}, "properties": {"cell_id": "3_87", "lon": 4.5, "lat": 41.25}}, {"type": "Feature", "geometry": {"type": "Polygon", "coordinates": [[[3.75, 42.0], [3.75, 43.5], [5.25, 43.5], [5.25, 42.0], [3.75, 42.0]]]}, "properties": {"cell_id": "3_88", "lon": 4.5, "lat": 42.75}}, {"type": "Feature", "geometry": {"type": "Polygon", "coordinates": [[[3.75, 43.5], [3.75, 45.0], [5.25, 45.0], [5.25, 43.5], [3.75, 43.5]]]}, "properties": {"cell_id": "3_89", "lon": 4.5, "lat": 44.25}}, {"type": "Feature", "geometry": {"type": "Polygon", "coordinates": [[[3.75, 45.0], [3.75, 46.5], [5.25, 46.5], [5.25, 45.0], [3.75, 45.0]]]}, "properties": {"cell_id": "3_90", "lon": 4.5, "lat": 45.75}}, {"type": "Feature", "geometry": {"type": "Polygon", "coordinates": [[[3.75, 46.5], [3.75, 48.0], [5.25, 48.0], [5.25, 46.5], [3.75, 46.5]]]}, "properties": {"cell_id": "3_91", "lon": 4.5, "lat": 47.25}}, {"type": "Feature", "geometry": {"type": "Polygon", "coordinates": [[[3.75, 48.0], [3.75, 49.5], [5.25, 49.5], [5.25, 48.0], [3.75, 48.0]]]}, "properties": {"cell_id": "3_92", "lon": 4.5, "lat": 48.75}}, {"type": "Feature", "geometry": {"type": "Polygon", "coordinates": [[[3.75, 49.5], [3.75, 51.0], [5.25, 51.0], [5.25, 49.5], [3.75, 49.5]]]}, "properties": {"cell_id": "3_93", "lon": 4.5, "lat": 50.25}}, {"type": "Feature", "geometry": {"type": "Polygon", "coordinates": [[[5.25, 43.5], [5.25, 45.0], [6.75, 45.0], [6.75, 43.5], [5.25, 43.5]]]}, "properties": {"cell_id": "4_89", "lon": 6.0, "lat": 44.25}}, {"type": "Feature", "geometry": {"type": "Polygon", "coordinates": [[[5.25, 45.0], [5.25, 46.5], [6.75, 46.5], [6.75, 45.0], [5.25, 45.0]]]}, "properties": {"cell_id": "4_90", "lon": 6.0, "lat": 45.75}}, {"type": "Feature", "geometry": {"type": "Polygon", "coordinates": [[[5.25, 46.5], [5.25, 48.0], [6.75, 48.0], [6.75, 46.5], [5.25, 46.5]]]}, "properties": {"cell_id": "4_91", "lon": 6.0, "lat": 47.25}}, {"type": "Feature", "geometry": {"type": "Polygon", "coordinates": [[[5.25, 48.0], [5.25, 49.5], [6.75, 49.5], [6.75, 48.0], [5.25, 48.0]]]}, "properties": {"cell_id": "4_92", "lon": 6.0, "lat": 48.75}}, {"type": "Feature", "geometry": {"type": "Polygon", "coordinates": [[[5.25, 49.5], [5.25, 51.0], [6.75, 51.0], [6.75, 49.5], [5.25, 49.5]]]}, "properties": {"cell_id": "4_93", "lon": 6.0, "lat": 50.25}}, {"type": "Feature", "geometry": {"type": "Polygon", "coordinates": [[[6.75, 43.5], [6.75, 45.0], [8.25, 45.0], [8.25, 43.5], [6.75, 43.5]]]}, "properties": {"cell_id": "5_89", "lon": 7.5, "lat": 44.25}}, {"type": "Feature", "geometry": {"type": "Polygon", "coordinates": [[[6.75, 45.0], [6.75, 46.5], [8.25, 46.5], [8.25, 45.0], [6.75, 45.0]]]}, "properties": {"cell_id": "5_90", "lon": 7.5, "lat": 45.75}}, {"type": "Feature", "geometry": {"type": "Polygon", "coordinates": [[[6.75, 46.5], [6.75, 48.0], [8.25, 48.0], [8.25, 46.5], [6.75, 46.5]]]}, "properties": {"cell_id": "5_91", "lon": 7.5, "lat": 47.25}}, {"type": "Feature", "geometry": {"type": "Polygon", "coordinates": [[[6.75, 48.0], [6.75, 49.5], [8.25, 49.5], [8.25, 48.0], [6.75, 48.0]]]}, "properties": {"cell_id": "5_92", "lon": 7.5, "lat": 48.75}}, {"type": "Feature", "geometry": {"type": "Polygon", "coordinates": [[[6.75, 49.5], [6.75, 51.0], [8.25, 51.0], [8.25, 49.5], [6.75, 49.5]]]}, "properties": {"cell_id": "5_93", "lon": 7.5, "lat": 50.25}}, {"type": "Feature", "geometry": {"type": "Polygon", "coordinates": [[[8.25, 43.5], [8.25, 45.0], [9.75, 45.0], [9.75, 43.5], [8.25, 43.5]]]}, "properties": {"cell_id": "6_89", "lon": 9.0, "lat": 44.25}}, {"type": "Feature", "geometry": {"type": "Polygon", "coordinates": [[[8.25, 45.0], [8.25, 46.5], [9.75, 46.5], [9.75, 45.0], [8.25, 45.0]]]}, "properties": {"cell_id": "6_90", "lon": 9.0, "lat": 45.75}}, {"type": "Feature", "geometry": {"type": "Polygon", "coordinates": [[[8.25, 46.5], [8.25, 48.0], [9.75, 48.0], [9.75, 46.5], [8.25, 46.5]]]}, "properties": {"cell_id": "6_91", "lon": 9.0, "lat": 47.25}}, {"type": "Feature", "geometry": {"type": "Polygon", "coordinates": [[[8.25, 48.0], [8.25, 49.5], [9.75, 49.5], [9.75, 48.0], [8.25, 48.0]]]}, "properties": {"cell_id": "6_92", "lon": 9.0, "lat": 48.75}}, {"type": "Feature", "geometry": {"type": "Polygon", "coordinates": [[[8.25, 49.5], [8.25, 51.0], [9.75, 51.0], [9.75, 49.5], [8.25, 49.5]]]}, "properties": {"cell_id": "6_93", "lon": 9.0, "lat": 50.25}}, {"type": "Feature", "geometry": {"type": "Polygon", "coordinates": [[[9.75, 40.5], [9.75, 42.0], [11.25, 42.0], [11.25, 40.5], [9.75, 40.5]]]}, "properties": {"cell_id": "7_87", "lon": 10.5, "lat": 41.25}}, {"type": "Feature", "geometry": {"type": "Polygon", "coordinates": [[[9.75, 42.0], [9.75, 43.5], [11.25, 43.5], [11.25, 42.0], [9.75, 42.0]]]}, "properties": {"cell_id": "7_88", "lon": 10.5, "lat": 42.75}}, {"type": "Feature", "geometry": {"type": "Polygon", "coordinates": [[[9.75, 43.5], [9.75, 45.0], [11.25, 45.0], [11.25, 43.5], [9.75, 43.5]]]}, "properties": {"cell_id": "7_89", "lon": 10.5, "lat": 44.25}}, {"type": "Feature", "geometry": {"type": "Polygon", "coordinates": [[[9.75, 45.0], [9.75, 46.5], [11.25, 46.5], [11.25, 45.0], [9.75, 45.0]]]}, "properties": {"cell_id": "7_90", "lon": 10.5, "lat": 45.75}}, {"type": "Feature", "geometry": {"type": "Polygon", "coordinates": [[[9.75, 46.5], [9.75, 48.0], [11.25, 48.0], [11.25, 46.5], [9.75, 46.5]]]}, "properties": {"cell_id": "7_91", "lon": 10.5, "lat": 47.25}}, {"type": "Feature", "geometry": {"type": "Polygon", "coordinates": [[[9.75, 48.0], [9.75, 49.5], [11.25, 49.5], [11.25, 48.0], [9.75, 48.0]]]}, "properties": {"cell_id": "7_92", "lon": 10.5, "lat": 48.75}}, {"type": "Feature", "geometry": {"type": "Polygon", "coordinates": [[[9.75, 49.5], [9.75, 51.0], [11.25, 51.0], [11.25, 49.5], [9.75, 49.5]]]}, "properties": {"cell_id": "7_93", "lon": 10.5, "lat": 50.25}}]}