{"type": "FeatureCollection", "features": [{"type": "Feature", "geometry": {"type": "Polygon", "coordinates": [[[-78.75, -90.0], [-78.75, -88.5], [-77.25, -88.5], [-77.25, -90.0], [-78.75, -90.0]]]}, "properties": {"cell_id": "188_0", "lon": -78.0, "lat": -89.25}}, {"type": "Feature", "geometry": {"type": "Polygon", "coordinates": [[[-78.75, -88.5], [-78.75, -87.0], [-77.25, -87.0], [-77.25, -88.5], [-78.75, -88.5]]]}, "properties": {"cell_id": "188_1", "lon": -78.0, "lat": -87.75}}, {"type": "Feature", "geometry": {"type": "Polygon", "coordinates": [[[-78.75, -87.0], [-78.75, -85.5], [-77.25, -85.5], [-77.25, -87.0], [-78.75, -87.0]]]}, "properties": {"cell_id": "188_2", "lon": -78.0, "lat": -86.25}}, {"type": "Feature", "geometry": {"type": "Polygon", "coordinates": [[[-78.75, -85.5], [-78.75, -84.0], [-77.25, -84.0], [-77.25, -85.5], [-78.75, -85.5]]]}, "properties": {"cell_id": "188_3", "lon": -78.0, "lat": -84.75}}, {"type": "Feature", "geometry": {"type": "Polygon", "coordinates": [[[-78.75, -84.0], [-78.75, -82.5], [-77.25, -82.5], [-77.25, -84.0], [-78.75, -84.0]]]}, "properties": {"cell_id": "188_4", "lon": -78.0, "lat": -83.25}}, {"type": "Feature", "geometry": {"type": "Polygon", "coordinates": [[[-78.75, -82.5], [-78.75, -81.0], [-77.25, -81.0], [-77.25, -82.5], [-78.75, -82.5]]]}, "properties": {"cell_id": "188_5", "lon": -78.0, "lat": -81.75}}, {"type": "Feature", "geometry": {"type": "Polygon", "coordinates": [[[-78.75, -81.0], [-78.75, -79.5], [-77.25, -79.5], [-77.25, -81.0], [-78.75, -81.0]]]}, "properties": {"cell_id": "188_6", "lon": -78.0, "lat": -80.25}}, {"type": "Feature", "geometry": {"type": "Polygon", "coordinates": [[[-77.25, -90.0], [-77.25, -88.5], [-75.75, -88.5], [-75.75, -90.0], [-77.25, -90.0]]]}, "properties": {"cell_id": "189_0", "lon": -76.5, "lat": -89.25}}, {"type": "Feature", "geometry": {"type": "Polygon", "coordinates": [[[-77.25, -88.5], [-77.25, -87.0], [-75.75, -87.0], [-75.75, -88.5], [-77.25, -88.5]]]}, "properties": {"cell_id": "189_1", "lon": -76.5, "lat": -87.75}}, {"type": "Feature", "geometry": {"type": "Polygon", "coordinates": [[[-77.25, -87.0], [-77.25, -85.5], [-75.75, -85.5], [-75.75, -87.0], [-77.25, -87.0]]]}, "properties": {"cell_id": "189_2", "lon": -76.5, "lat": -86.25}}, {"type": "Feature", "geometry": {"type": "Polygon", "coordinates": [[[-77.25, -85.5], [-77.25, -84.0], [-75.75, -84.0], [-75.75, -85.5], [-77.25, -85.5]]]}, "properties": {"cell_id": "189_3", "lon": -76.5, "lat": -84.75}}, {"type": "Feature", "geometry": {"type": "Polygon", "coordinates": [[[-77.25, -84.0], [-77.25, -82.5], [-75.75, -82.5], [-75.75, -84.0], [-77.25, -84.0]]]}, "properties": {"cell_id": "189_4", "lon": -76.5, "lat": -83.25}}, {"type": "Feature", "geometry": {"type": "Polygon", "coordinates": [[[-77.25, -82.5], [-77.25, -81.0], [-75.75, -81.0], [-75.75, -82.5], [-77.25, -82.5]]]}, "properties": {"cell_id": "189_5", "lon": -76.5, "lat": -81.75}}, {"type": "Feature", "geometry": {"type": "Polygon", "coordinates": [[[-77.25, -81.0], [-77.25, -79.5], [-75.75, -79.5], [-75.75, -81.0], [-77.25, -81.0]]]}, "properties": {"cell_id": "189_6", "lon": -76.5, "lat": -80.25}}, {"type": "Feature", "geometry": {"type": "Polygon", "coordinates": [[[-75.75, -90.0], [-75.75, -88.5], [-74.25, -88.5], [-74.25, -90.0], [-75.75, -90.0]]]}, "properties": {"cell_id": "190_0", "lon": -75.0, "lat": -89.25}}, {"type": "Feature", "geometry": {"type": "Polygon", "coordinates": [[[-75.75, -88.5], [-75.75, -87.0], [-74.25, -87.0], [-74.25, -88.5], [-75.75, -88.5]]]}, "properties": {"cell_id": "190_1", "lon": -75.0, "lat": -87.75}}, {"type": "Feature", "geometry": {"type": "Polygon", "coordinates": [[[-75.75, -87.0], [-75.75, -85.5], [-74.25, -85.5], [-74.25, -87.0], [-75.75, -87.0]]]}, "properties": {"cell_id": "190_2", "lon": -75.0, "lat": -86.25}}, {"type": "Feature", "geometry": {"type": "Polygon", "coordinates": [[[-75.75, -85.5], [-75.75, -84.0], [-74.25, -84.0], [-74.25, -85.5], [-75.75, -85.5]]]}, "properties": {"cell_id": "190_3", "lon": -75.0, "lat": -84.75}}, {"type": "Feature", "geometry": {"type": "Polygon", "coordinates": [[[-75.75, -84.0], [-75.75, -82.5], [-74.25, -82.5], [-74.25, -84.0], [-75.75, -84.0]]]}, "properties": {"cell_id": "190_4", "lon": -75.0, "lat": -83.25}}, {"type": "Feature", "geometry": {"type": "Polygon", "coordinates": [[[-75.75, -82.5], [-75.75, -81.0], [-74.25, -81.0], [-74.25, -82.5], [-75.75, -82.5]]]}, "properties": {"cell_id": "190_5", "lon": -75.0, "lat": -81.75}}, {"type": "Feature", "geometry": {"type": "Polygon", "coordinates": [[[-75.75, -81.0], [-75.75, -79.5], [-74.25, -79.5], [-74.25, -81.0], [-75.75, -81.0]]]}, "properties": {"cell_id": "190_6", "lon": -75.0, "lat": -80.25}}, {"type": "Feature", "geometry": {"type": "Polygon", "coordinates": [[[-74.25, -90.0], [-74.25, -88.5], [-72.75, -88.5], [-72.75, -90.0], [-74.25, -90.0]]]}, "properties": {"cell_id": "191_0", "lon": -73.5, "lat": -89.25}}, {"type": "Feature", "geometry": {"type": "Polygon", "coordinates": [[[-74.25, -88.5], [-74.25, -87.0], [-72.75, -87.0], [-72.75, -88.5], [-74.25, -88.5]]]}, "properties": {"cell_id": "191_1", "lon": -73.5, "lat": -87.75}}, {"type": "Feature", "geometry": {"type": "Polygon", "coordinates": [[[-74.25, -87.0], [-74.25, -85.5], [-72.75, -85.5], [-72.75, -87.0], [-74.25, -87.0]]]}, "properties": {"cell_id": "191_2", "lon": -73.5, "lat": -86.25}}, {"type": "Feature", "geometry": {"type": "Polygon", "coordinates": [[[-74.25, -85.5], [-74.25, -84.0], [-72.75, -84.0], [-72.75, -85.5], [-74.25, -85.5]]]}, "properties": {"cell_id": "191_3", "lon": -73.5, "lat": -84.75}}, {"type": "Feature", "geometry": {"type": "Polygon", "coordinates": [[[-74.25, -84.0], [-74.25, -82.5], [-72.75, -82.5], [-72.75, -84.0], [-74.25, -84.0]]]}, "properties": {"cell_id": "191_4", "lon": -73.5, "lat": -83.25}}, {"type": "Feature", "geometry": {"type": "Polygon", "coordinates": [[[-74.25, -82.5], [-74.25, -81.0], [-72.75, -81.0], [-72.75, -82.5], [-74.25, -82.5]]]}, "properties": {"cell_id": "191_5", "lon": -73.5, "lat": -81.75}}, {"type": "Feature", "geometry": {"type": "Polygon", "coordinates": [[[-74.25, -81.0], [-74.25, -79.5], [-72.75, -79.5], [-72.75, -81.0], [-74.25, -81.0]]]}, "properties": {"cell_id": "191_6", "lon": -73.5, "lat": -80.25}}, {"type": "Feature", "geometry": {"type": "Polygon", "coordinates": [[[-72.75, -90.0], [-72.75, -88.5], [-71.25, -88.5], [-71.25, -90.0], [-72.75, -90.0]]]}, "properties": {"cell_id": "192_0", "lon": -72.0, "lat": -89.25}}, {"type": "Feature", "geometry": {"type": "Polygon", "coordinates": [[[-72.75, -88.5], [-72.75, -87.0], [-71.25, -87.0], [-71.25, -88.5], [-72.75, -88.5]]]}, "properties": {"cell_id": "192_1", "lon": -72.0, "lat": -87.75}}, {"type": "Feature", "geometry": {"type": "Polygon", "coordinates": [[[-72.75, -87.0], [-72.75, -85.5], [-71.25, -85.5], [-71.25, -87.0], [-72.75, -87.0]]]}, "properties": {"cell_id": "192_2", "lon": -72.0, "lat": -86.25}}, {"type": "Feature", "geometry": {"type": "Polygon", "coordinates": [[[-72.75, -85.5], [-72.75, -84.0], [-71.25, -84.0], [-71.25, -85.5], [-72.75, -85.5]]]}, "properties": {"cell_id": "192_3", "lon": -72.0, "lat": -84.75}}, {"type": "Feature", "geometry": {"type": "Polygon", "coordinates": [[[-72.75, -84.0], [-72.75, -82.5], [-71.25, -82.5], [-71.25, -84.0], [-72.75, -84.0]]]}, "properties": {"cell_id": "192_4", "lon": -72.0, "lat": -83.25}}, {"type": "Feature", "geometry": {"type": "Polygon", "coordinates": [[[-72.75, -82.5], [-72.75, -81.0], [-71.25, -81.0], [-71.25, -82.5], [-72.75, -82.5]]]}, "properties": {"cell_id": "192_5", "lon": -72.0, "lat": -81.75}}, {"type": "Feature", "geometry": {"type": "Polygon", "coordinates": [[[-72.75, -81.0], [-72.75, -79.5], [-71.25, -79.5], [-71.25, -81.0], [-72.75, -81.0]]]}, "properties": {"cell_id": "192_6", "lon": -72.0, "lat": -80.25}}, {"type": "Feature", "geometry": {"type": "Polygon", "coordinates": [[[-71.25, -90.0], [-71.25, -88.5], [-69.75, -88.5], [-69.75, -90.0], [-71.25, -90.0]]]}, "properties": {"cell_id": "193_0", "lon": -70.5, "lat": -89.25}}, {"type": "Feature", "geometry": {"type": "Polygon", "coordinates": [[[-71.25, -88.5], [-71.25, -87.0], [-69.75, -87.0], [-69.75, -88.5], [-71.25, -88.5]]]}, "properties": {"cell_id": "193_1", "lon": -70.5, "lat": -87.75}}, {"type": "Feature", "geometry": {"type": "Polygon", "coordinates": [[[-71.25, -87.0], [-71.25, -85.5], [-69.75, -85.5], [-69.75, -87.0], [-71.25, -87.0]]]}, "properties": {"cell_id": "193_2", "lon": -70.5, "lat": -86.25}}, {"type": "Feature", "geometry": {"type": "Polygon", "coordinates": [[[-71.25, -85.5], [-71.25, -84.0], [-69.75, -84.0], [-69.75, -85.5], [-71.25, -85.5]]]}, "properties": {"cell_id": "193_3", "lon": -70.5, "lat": -84.75}}, {"type": "Feature", "geometry": {"type": "Polygon", "coordinates": [[[-71.25, -84.0], [-71.25, -82.5], [-69.75, -82.5], [-69.75, -84.0], [-71.25, -84.0]]]}, "properties": {"cell_id": "193_4", "lon": -70.5, "lat": -83.25}}, {"type": "Feature", "geometry": {"type": "Polygon", "coordinates": [[[-71.25, -82.5], [-71.25, -81.0], [-69.75, -81.0], [-69.75, -82.5], [-71.25, -82.5]]]}, "properties": {"cell_id": "193_5", "lon": -70.5, "lat": -81.75}}, {"type": "Feature", "geometry": {"type": "Polygon", "coordinates": [[[-71.25, -81.0], [-71.25, -79.5], [-69.75, -79.5], [-69.75, -81.0], [-71.25, -81.0]]]}, "properties": {"cell_id": "193_6", "lon": -70.5, "lat": -80.25}}]}