{"type": "FeatureCollection", "features": [{"type": "Feature", "geometry": {"type": "Polygon", "coordinates": [[[120.75, -34.5], [120.75, -33.0], [122.25, -33.0], [122.25, -34.5], [120.75, -34.5]]]}, "properties": {"cell_id": "81_37", "lon": 121.5, "lat": -33.75}}, {"type": "Feature", "geometry": {"type": "Polygon", "coordinates": [[[120.75, -33.0], [120.75, -31.5], [122.25, -31.5], [122.25, -33.0], [120.75, -33.0]]]}, "properties": {"cell_id": "81_38", "lon": 121.5, "lat": -32.25}}, {"type": "Feature", "geometry": {"type": "Polygon", "coordinates": [[[120.75, -31.5], [120.75, -30.0], [122.25, -30.0], [122.25, -31.5], [120.75, -31.5]]]}, "properties": {"cell_id": "81_39", "lon": 121.5, "lat": -30.75}}, {"type": "Feature", "geometry": {"type": "Polygon", "coordinates": [[[122.25, -34.5], [122.25, -33.0], [123.75, -33.0], [123.75, -34.5], [122.25, -34.5]]]}, "properties": {"cell_id": "82_37", "lon": 123.0, "lat": -33.75}}, {"type": "Feature", "geometry": {"type": "Polygon", "coordinates": [[[122.25, -33.0], [122.25, -31.5], [123.75, -31.5], [123.75, -33.0], [122.25, -33.0]]]}, "properties": {"cell_id": "82_38", "lon": 123.0, "lat": -32.25}}, {"type": "Feature", "geometry": {"type": "Polygon", "coordinates": [[[122.25, -31.5], [122.25, -30.0], [123.75, -30.0], [123.75, -31.5], [122.25, -31.5]]]}, "properties": {"cell_id": "82_39", "lon": 123.0, "lat": -30.75}}, {"type": "Feature", "geometry": {"type": "Polygon", "coordinates": [[[123.75, -34.5], [123.75, -33.0], [125.25, -33.0], [125.25, -34.5], [123.75, -34.5]]]}, "properties": {"cell_id": "83_37", "lon": 124.5, "lat": -33.75}}, {"type": "Feature", "geometry": {"type": "Polygon", "coordinates": [[[123.75, -33.0], [123.75, -31.5], [125.25, -31.5], [125.25, -33.0], [123.75, -33.0]]]}, "properties": {"cell_id": "83_38", "lon": 124.5, "lat": -32.25}}, {"type": "Feature", "geometry": {"type": "Polygon", "coordinates": [[[123.75, -31.5], [123.75, -30.0], [125.25, -30.0], [125.25, -31.5], [123.75, -31.5]]]}, "properties": {"cell_id": "83_39", "lon": 124.5, "lat": -30.75}}, {"type": "Feature", "geometry": {"type": "Polygon", "coordinates": [[[125.25, -34.5], [125.25, -33.0], [126.75, -33.0], [126.75, -34.5], [125.25, -34.5]]]}, "properties": {"cell_id": "84_37", "lon": 126.0, "lat": -33.75}}, {"type": "Feature", "geometry": {"type": "Polygon", "coordinates": [[[125.25, -33.0], [125.25, -31.5], [126.75, -31.5], [126.75, -33.0], [125.25, -33.0]]]}, "properties": {"cell_id": "84_38", "lon": 126.0, "lat": -32.25}}, {"type": "Feature", "geometry": {"type": "Polygon", "coordinates": [[[125.25, -31.5], [125.25, -30.0], [126.75, -30.0], [126.75, -31.5], [125.25, -31.5]]]}, "properties": {"cell_id": "84_39", "lon": 126.0, "lat": -30.75}}, {"type": "Feature", "geometry": {"type": "Polygon", "coordinates": [[[126.75, -34.5], [126.75, -33.0], [128.25, -33.0], [128.25, -34.5], [126.75, -34.5]]]}, "properties": {"cell_id": "85_37", "lon": 127.5, "lat": -33.75}}, {"type": "Feature", "geometry": {"type": "Polygon", "coordinates": [[[126.75, -33.0], [126.75, -31.5], [128.25, -31.5], [128.25, -33.0], [126.75, -33.0]]]}, "properties": {"cell_id": "85_38", "lon": 127.5, "lat": -32.25}}, {"type": "Feature", "geometry": {"type": "Polygon", "coordinates": [[[126.75, -31.5], [126.75, -30.0], [128.25, -30.0], [128.25, -31.5], [126.75, -31.5]]]}, "properties": {"cell_id": "85_39", "lon": 127.5, "lat": -30.75}}, {"type": "Feature", "geometry": {"type": "Polygon", "coordinates": [[[128.25, -31.5], [128.25, -30.0], [129.75, -30.0], [129.75, -31.5], [128.25, -31.5]]]}, "properties": {"cell_id": "86_39", "lon": 129.0, "lat": -30.75}}, {"type": "Feature", "geometry": {"type": "Polygon", "coordinates": [[[129.75, -31.5], [129.75, -30.0], [131.25, -30.0], [131.25, -31.5], [129.75, -31.5]]]}, "properties": {"cell_id": "87_39", "lon": 130.5, "lat": -30.75}}]}