{"type": "FeatureCollection", "features": [{"type": "Feature", "geometry": {"type": "Polygon", "coordinates": [[[110.25, -69.0], [110.25, -67.5], [111.75, -67.5], [111.75, -69.0], [110.25, -69.0]]]}, "properties": {"cell_id": "74_14", "lon": 111.0, "lat": -68.25}}, {"type": "Feature", "geometry": {"type": "Polygon", "coordinates": [[[110.25, -67.5], [110.25, -66.0], [111.75, -66.0], [111.75, -67.5], [110.25, -67.5]]]}, "properties": {"cell_id": "74_15", "lon": 111.0, "lat": -66.75}}, {"type": "Feature", "geometry": {"type": "Polygon", "coordinates": [[[111.75, -69.0], [111.75, -67.5], [113.25, -67.5], [113.25, -69.0], [111.75, -69.0]]]}, "properties": {"cell_id": "75_14", "lon": 112.5, "lat": -68.25}}, {"type": "Feature", "geometry": {"type": "Polygon", "coordinates": [[[111.75, -67.5], [111.75, -66.0], [113.25, -66.0], [113.25, -67.5], [111.75, -67.5]]]}, "properties": {"cell_id": "75_15", "lon": 112.5, "lat": -66.75}}, {"type": "Feature", "geometry": {"type": "Polygon", "coordinates": [[[113.25, -69.0], [113.25, -67.5], [114.75, -67.5], [114.75, -69.0], [113.25, -69.0]]]}, "properties": {"cell_id": "76_14", "lon": 114.0, "lat": -68.25}}, {"type": "Feature", "geometry": {"type": "Polygon", "coordinates": [[[113.25, -67.5], [113.25, -66.0], [114.75, -66.0], [114.75, -67.5], [113.25, -67.5]]]}, "properties": {"cell_id": "76_15", "lon": 114.0, "lat": -66.75}}, {"type": "Feature", "geometry": {"type": "Polygon", "coordinates": [[[114.75, -69.0], [114.75, -67.5], [116.25, -67.5], [116.25, -69.0], [114.75, -69.0]]]}, "properties": {"cell_id": "77_14", "lon": 115.5, "lat": -68.25}}, {"type": "Feature", "geometry": {"type": "Polygon", "coordinates": [[[114.75, -67.5], [114.75, -66.0], [116.25, -66.0], [116.25, -67.5], [114.75, -67.5]]]}, "properties": {"cell_id": "77_15", "lon": 115.5, "lat": -66.75}}, {"type": "Feature", "geometry": {"type": "Polygon", "coordinates": [[[116.25, -69.0], [116.25, -67.5], [117.75, -67.5], [117.75, -69.0], [116.25, -69.0]]]}, "properties": {"cell_id": "78_14", "lon": 117.0, "lat": -68.25}}, {"type": "Feature", "geometry": {"type": "Polygon", "coordinates": [[[116.25, -67.5], [116.25, -66.0], [117.75, -66.0], [117.75, -67.5], [116.25, -67.5]]]}, "properties": {"cell_id": "78_15", "lon": 117.0, "lat": -66.75}}, {"type": "Feature", "geometry": {"type": "Polygon", "coordinates": [[[117.75, -69.0], [117.75, -67.5], [119.25, -67.5], [119.25, -69.0], [117.75, -69.0]]]}, "properties": {"cell_id": "79_14", "lon": 118.5, "lat": -68.25}}, {"type": "Feature", "geometry": {"type": "Polygon", "coordinates": [[[117.75, -67.5], [117.75, -66.0], [119.25, -66.0], [119.25, -67.5], [117.75, -67.5]]]}, "properties": {"cell_id": "79_15", "lon": 118.5, "lat": -66.75}}, {"type": "Feature", "geometry": {"type": "Polygon", "coordinates": [[[119.25, -69.0], [119.25, -67.5], [120.75, -67.5], [120.75, -69.0], [119.25, -69.0]]]}, "properties": {"cell_id": "80_14", "lon": 120.0, "lat": -68.25}}, {"type": "Feature", "geometry": {"type": "Polygon", "coordinates": [[[119.25, -67.5], [119.25, -66.0], [120.75, -66.0], [120.75, -67.5], [119.25, -67.5]]]}, "properties": {"cell_id": "80_15", "lon": 120.0, "lat": -66.75}}]}