{"type": "FeatureCollection", "features": [{"type": "Feature", "geometry": {"type": "Polygon", "coordinates": [[[-15.75, 21.0], [-15.75, 22.5], [-14.25, 22.5], [-14.25, 21.0], [-15.75, 21.0]]]}, "properties": {"cell_id": "230_74", "lon": -15.0, "lat": 21.75}}, {"type": "Feature", "geometry": {"type": "Polygon", "coordinates": [[[-15.75, 22.5], [-15.75, 24.0], [-14.25, 24.0], [-14.25, 22.5], [-15.75, 22.5]]]}, "properties": {"cell_id": "230_75", "lon": -15.0, "lat": 23.25}}, {"type": "Feature", "geometry": {"type": "Polygon", "coordinates": [[[-15.75, 24.0], [-15.75, 25.5], [-14.25, 25.5], [-14.25, 24.0], [-15.75, 24.0]]]}, "properties": {"cell_id": "230_76", "lon": -15.0, "lat": 24.75}}, {"type": "Feature", "geometry": {"type": "Polygon", "coordinates": [[[-14.25, 21.0], [-14.25, 22.5], [-12.75, 22.5], [-12.75, 21.0], [-14.25, 21.0]]]}, "properties": {"cell_id": "231_74", "lon": -13.5, "lat": 21.75}}, {"type": "Feature", "geometry": {"type": "Polygon", "coordinates": [[[-14.25, 22.5], [-14.25, 24.0], [-12.75, 24.0], [-12.75, 22.5], [-14.25, 22.5]]]}, "properties": {"cell_id": "231_75", "lon": -13.5, "lat": 23.25}}, {"type": "Feature", "geometry": {"type": "Polygon", "coordinates": [[[-14.25, 24.0], [-14.25, 25.5], [-12.75, 25.5], [-12.75, 24.0], [-14.25, 24.0]]]}, "properties": {"cell_id": "231_76", "lon": -13.5, "lat": 24.75}}, {"type": "Feature", "geometry": {"type": "Polygon", "coordinates": [[[-12.75, 21.0], [-12.75, 22.5], [-11.25, 22.5], [-11.25, 21.0], [-12.75, 21.0]]]}, "properties": {"cell_id": "232_74", "lon": -12.0, "lat": 21.75}}, {"type": "Feature", "geometry": {"type": "Polygon", "coordinates": [[[-12.75, 22.5], [-12.75, 24.0], [-11.25, 24.0], [-11.25, 22.5], [-12.75, 22.5]]]}, "properties": {"cell_id": "232_75", "lon": -12.0, "lat": 23.25}}, {"type": "Feature", "geometry": {"type": "Polygon", "coordinates": [[[-12.75, 24.0], [-12.75, 25.5], [-11.25, 25.5], [-11.25, 24.0], [-12.75, 24.0]]]}, "properties": {"cell_id": "232_76", "lon": -12.0, "lat": 24.75}}, {"type": "Feature", "geometry": {"type": "Polygon", "coordinates": [[[-12.75, 25.5], [-12.75, 27.0], [-11.25, 27.0], [-11.25, 25.5], [-12.75, 25.5]]]}, "properties": {"cell_id": "232_77", "lon": -12.0, "lat": 26.25}}, {"type": "Feature", "geometry": {"type": "Polygon", "coordinates": [[[-12.75, 27.0], [-12.75, 28.5], [-11.25, 28.5], [-11.25, 27.0], [-12.75, 27.0]]]}, "properties": {"cell_id": "232_78", "lon": -12.0, "lat": 27.75}}, {"type": "Feature", "geometry": {"type": "Polygon", "coordinates": [[[-11.25, 21.0], [-11.25, 22.5], [-9.75, 22.5], [-9.75, 21.0], [-11.25, 21.0]]]}, "properties": {"cell_id": "233_74", "lon": -10.5, "lat": 21.75}}, {"type": "Feature", "geometry": {"type": "Polygon", "coordinates": [[[-11.25, 22.5], [-11.25, 24.0], [-9.75, 24.0], [-9.75, 22.5], [-11.25, 22.5]]]}, "properties": {"cell_id": "233_75", "lon": -10.5, "lat": 23.25}}, {"type": "Feature", "geometry": {"type": "Polygon", "coordinates": [[[-11.25, 24.0], [-11.25, 25.5], [-9.75, 25.5], [-9.75, 24.0], [-11.25, 24.0]]]}, "properties": {"cell_id": "233_76", "lon": -10.5, "lat": 24.75}}, {"type": "Feature", "geometry": {"type": "Polygon", "coordinates": [[[-11.25, 25.5], [-11.25, 27.0], [-9.75, 27.0], [-9.75, 25.5], [-11.25, 25.5]]]}, "properties": {"cell_id": "233_77", "lon": -10.5, "lat": 26.25}}, {"type": "Feature", "geometry": {"type": "Polygon", "coordinates": [[[-11.25, 27.0], [-11.25, 28.5], [-9.75, 28.5], [-9.75, 27.0], [-11.25, 27.0]]]}, "properties": {"cell_id": "233_78", "lon": -10.5, "lat": 27.75}}, {"type": "Feature", "geometry": {"type": "Polygon", "coordinates": [[[-11.25, 28.5], [-11.25, 30.0], [-9.75, 30.0], [-9.75, 28.5], [-11.25, 28.5]]]}, "properties": {"cell_id": "233_79", "lon": -10.5, "lat": 29.25}}]}