{"type": "FeatureCollection", "features": [{"type": "Feature", "geometry": {"type": "Polygon", "coordinates": [[[50.25, 30.0], [50.25, 31.5], [51.75, 31.5], [51.75, 30.0], [50.25, 30.0]]]}, "properties": {"cell_id": "34_80", "lon": 51.0, "lat": 30.75}}, {"type": "Feature", "geometry": {"type": "Polygon", "coordinates": [[[50.25, 31.5], [50.25, 33.0], [51.75, 33.0], [51.75, 31.5], [50.25, 31.5]]]}, "properties": {"cell_id": "34_81", "lon": 51.0, "lat": 32.25}}, {"type": "Feature", "geometry": {"type": "Polygon", "coordinates": [[[50.25, 33.0], [50.25, 34.5], [51.75, 34.5], [51.75, 33.0], [50.25, 33.0]]]}, "properties": {"cell_id": "34_82", "lon": 51.0, "lat": 33.75}}, {"type": "Feature", "geometry": {"type": "Polygon", "coordinates": [[[50.25, 34.5], [50.25, 36.0], [51.75, 36.0], [51.75, 34.5], [50.25, 34.5]]]}, "properties": {"cell_id": "34_83", "lon": 51.0, "lat": 35.25}}, {"type": "Feature", "geometry": {"type": "Polygon", "coordinates": [[[50.25, 36.0], [50.25, 37.5], [51.75, 37.5], [51.75, 36.0], [50.25, 36.0]]]}, "properties": {"cell_id": "34_84", "lon": 51.0, "lat": 36.75}}, {"type": "Feature", "geometry": {"type": "Polygon", "coordinates": [[[51.75, 30.0], [51.75, 31.5], [53.25, 31.5], [53.25, 30.0], [51.75, 30.0]]]}, "properties": {"cell_id": "35_80", "lon": 52.5, "lat": 30.75}}, {"type": "Feature", "geometry": {"type": "Polygon", "coordinates": [[[51.75, 31.5], [51.75, 33.0], [53.25, 33.0], [53.25, 31.5], [51.75, 31.5]]]}, "properties": {"cell_id": "35_81", "lon": 52.5, "lat": 32.25}}, {"type": "Feature", "geometry": {"type": "Polygon", "coordinates": [[[51.75, 33.0], [51.75, 34.5], [53.25, 34.5], [53.25, 33.0], [51.75, 33.0]]]}, "properties": {"cell_id": "35_82", "lon": 52.5, "lat": 33.75}}, {"type": "Feature", "geometry": {"type": "Polygon", "coordinates": [[[51.75, 34.5], [51.75, 36.0], [53.25, 36.0], [53.25, 34.5], [51.75, 34.5]]]}, "properties": {"cell_id": "35_83", "lon": 52.5, "lat": 35.25}}, {"type": "Feature", "geometry": {"type": "Polygon", "coordinates": [[[51.75, 36.0], [51.75, 37.5], [53.25, 37.5], [53.25, 36.0], [51.75, 36.0]]]}, "properties": {"cell_id": "35_84", "lon": 52.5, "lat": 36.75}}, {"type": "Feature", "geometry": {"type": "Polygon", "coordinates": [[[53.25, 30.0], [53.25, 31.5], [54.75, 31.5], [54.75, 30.0], [53.25, 30.0]]]}, "properties": {"cell_id": "36_80", "lon": 54.0, "lat": 30.75}}, {"type": "Feature", "geometry": {"type": "Polygon", "coordinates": [[[53.25, 31.5], [53.25, 33.0], [54.75, 33.0], [54.75, 31.5], [53.25, 31.5]]]}, "properties": {"cell_id": "36_81", "lon": 54.0, "lat": 32.25}}, {"type": "Feature", "geometry": {"type": "Polygon", "coordinates": [[[53.25, 33.0], [53.25, 34.5], [54.75, 34.5], [54.75, 33.0], [53.25, 33.0]]]}, "properties": {"cell_id": "36_82", "lon": 54.0, "lat": 33.75}}, {"type": "Feature", "geometry": {"type": "Polygon", "coordinates": [[[53.25, 34.5], [53.25, 36.0], [54.75, 36.0], [54.75, 34.5], [53.25, 34.5]]]}, "properties": {"cell_id": "36_83", "lon": 54.0, "lat": 35.25}}, {"type": "Feature", "geometry": {"type": "Polygon", "coordinates": [[[53.25, 36.0], [53.25, 37.5], [54.75, 37.5], [54.75, 36.0], [53.25, 36.0]]]}, "properties": {"cell_id": "36_84", "lon": 54.0, "lat": 36.75}}, {"type": "Feature", "geometry": {"type": "Polygon", "coordinates": [[[54.75, 30.0], [54.75, 31.5], [56.25, 31.5], [56.25, 30.0], [54.75, 30.0]]]}, "properties": {"cell_id": "37_80", "lon": 55.5, "lat": 30.75}}, {"type": "Feature", "geometry": {"type": "Polygon", "coordinates": [[[54.75, 31.5], [54.75, 33.0], [56.25, 33.0], [56.25, 31.5], [54.75, 31.5]]]}, "properties": {"cell_id": "37_81", "lon": 55.5, "lat": 32.25}}, {"type": "Feature", "geometry": {"type": "Polygon", "coordinates": [[[54.75, 33.0], [54.75, 34.5], [56.25, 34.5], [56.25, 33.0], [54.75, 33.0]]]}, "properties": {"cell_id": "37_82", "lon": 55.5, "lat": 33.75}}, {"type": "Feature", "geometry": {"type": "Polygon", "coordinates": [[[54.75, 34.5], [54.75, 36.0], [56.25, 36.0], [56.25, 34.5], [54.75, 34.5]]]}, "properties": {"cell_id": "37_83", "lon": 55.5, "lat": 35.25}}, {"type": "Feature", "geometry": {"type": "Polygon", "coordinates": [[[54.75, 36.0], [54.75, 37.5], [56.25, 37.5], [56.25, 36.0], [54.75, 36.0]]]}, "properties": {"cell_id": "37_84", "lon": 55.5, "lat": 36.75}}, {"type": "Feature", "geometry": {"type": "Polygon", "coordinates": [[[54.75, 37.5], [54.75, 39.0], [56.25, 39.0], [56.25, 37.5], [54.75, 37.5]]]}, "properties": {"cell_id": "37_85", "lon": 55.5, "lat": 38.25}}, {"type": "Feature", "geometry": {"type": "Polygon", "coordinates": [[[54.75, 39.0], [54.75, 40.5], [56.25, 40.5], [56.25, 39.0], [54.75, 39.0]]]}, "properties": {"cell_id": "37_86", "lon": 55.5, "lat": 39.75}}, {"type": "Feature", "geometry": {"type": "Polygon", "coordinates": [[[56.25, 30.0], [56.25, 31.5], [57.75, 31.5], [57.75, 30.0], [56.25, 30.0]]]}, "properties": {"cell_id": "38_80", "lon": 57.0, "lat": 30.75}}, {"type": "Feature", "geometry": {"type": "Polygon", "coordinates": [[[56.25, 31.5], [56.25, 33.0], [57.75, 33.0], [57.75, 31.5], [56.25, 31.5]]]}, "properties": {"cell_id": "38_81", "lon": 57.0, "lat": 32.25}}, {"type": "Feature", "geometry": {"type": "Polygon", "coordinates": [[[56.25, 33.0], [56.25, 34.5], [57.75, 34.5], [57.75, 33.0], [56.25, 33.0]]]}, "properties": {"cell_id": "38_82", "lon": 57.0, "lat": 33.75}}, {"type": "Feature", "geometry": {"type": "Polygon", "coordinates": [[[56.25, 34.5], [56.25, 36.0], [57.75, 36.0], [57.75, 34.5], [56.25, 34.5]]]}, "properties": {"cell_id": "38_83", "lon": 57.0, "lat": 35.25}}, {"type": "Feature", "geometry": {"type": "Polygon", "coordinates": [[[56.25, 36.0], [56.25, 37.5], [57.75, 37.5], [57.75, 36.0], [56.25, 36.0]]]}, "properties": {"cell_id": "38_84", "lon": 57.0, "lat": 36.75}}, {"type": "Feature", "geometry": {"type": "Polygon", "coordinates": [[[56.25, 37.5], [56.25, 39.0], [57.75, 39.0], [57.75, 37.5], [56.25, 37.5]]]}, "properties": {"cell_id": "38_85", "lon": 57.0, "lat": 38.25}}, {"type": "Feature", "geometry": {"type": "Polygon", "coordinates": [[[56.25, 39.0], [56.25, 40.5], [57.75, 40.5], [57.75, 39.0], [56.25, 39.0]]]}, "properties": {"cell_id": "38_86", "lon": 57.0, "lat": 39.75}}, {"type": "Feature", "geometry": {"type": "Polygon", "coordinates": [[[57.75, 30.0], [57.75, 31.5], [59.25, 31.5], [59.25, 30.0], [57.75, 30.0]]]}, "properties": {"cell_id": "39_80", "lon": 58.5, "lat": 30.75}}, {"type": "Feature", "geometry": {"type": "Polygon", "coordinates": [[[57.75, 31.5], [57.75, 33.0], [59.25, 33.0], [59.25, 31.5], [57.75, 31.5]]]}, "properties": {"cell_id": "39_81", "lon": 58.5, "lat": 32.25}}, {"type": "Feature", "geometry": {"type": "Polygon", "coordinates": [[[57.75, 33.0], [57.75, 34.5], [59.25, 34.5], [59.25, 33.0], [57.75, 33.0]]]}, "properties": {"cell_id": "39_82", "lon": 58.5, "lat": 33.75}}, {"type": "Feature", "geometry": {"type": "Polygon", "coordinates": [[[57.75, 34.5], [57.75, 36.0], [59.25, 36.0], [59.25, 34.5], [57.75, 34.5]]]}, "properties": {"cell_id": "39_83", "lon": 58.5, "lat": 35.25}}, {"type": "Feature", "geometry": {"type": "Polygon", "coordinates": [[[57.75, 36.0], [57.75, 37.5], [59.25, 37.5], [59.25, 36.0], [57.75, 36.0]]]}, "properties": {"cell_id": "39_84", "lon": 58.5, "lat": 36.75}}, {"type": "Feature", "geometry": {"type": "Polygon", "coordinates": [[[57.75, 37.5], [57.75, 39.0], [59.25, 39.0], [59.25, 37.5], [57.75, 37.5]]]}, "properties": {"cell_id": "39_85", "lon": 58.5, "lat": 38.25}}, {"type": "Feature", "geometry": {"type": "Polygon", "coordinates": [[[57.75, 39.0], [57.75, 40.5], [59.25, 40.5], [59.25, 39.0], [57.75, 39.0]]]}, "properties": {"cell_id": "39_86", "lon": 58.5, "lat": 39.75}}, {"type": "Feature", "geometry": {"type": "Polygon", "coordinates": [[[59.25, 30.0], [59.25, 31.5], [60.75, 31.5], [60.75, 30.0], [59.25, 30.0]]]}, "properties": {"cell_id": "40_80", "lon": 60.0, "lat": 30.75}}, {"type": "Feature", "geometry": {"type": "Polygon", "coordinates": [[[59.25, 31.5], [59.25, 33.0], [60.75, 33.0], [60.75, 31.5], [59.25, 31.5]]]}, "properties": {"cell_id": "40_81", "lon": 60.0, "lat": 32.25}}, {"type": "Feature", "geometry": {"type": "Polygon", "coordinates": [[[59.25, 33.0], [59.25, 34.5], [60.75, 34.5], [60.75, 33.0], [59.25, 33.0]]]}, "properties": {"cell_id": "40_82", "lon": 60.0, "lat": 33.75}}, {"type": "Feature", "geometry": {"type": "Polygon", "coordinates": [[[59.25, 34.5], [59.25, 36.0], [60.75, 36.0], [60.75, 34.5], [59.25, 34.5]]]}, "properties": {"cell_id": "40_83", "lon": 60.0, "lat": 35.25}}, {"type": "Feature", "geometry": {"type": "Polygon", "coordinates": [[[59.25, 36.0], [59.25, 37.5], [60.75, 37.5], [60.75, 36.0], [59.25, 36.0]]]}, "properties": {"cell_id": "40_84", "lon": 60.0, "lat": 36.75}}, {"type": "Feature", "geometry": {"type": "Polygon", "coordinates": [[[59.25, 37.5], [59.25, 39.0], [60.75, 39.0], [60.75, 37.5], [59.25, 37.5]]]}, "properties": {"cell_id": "40_85", "lon": 60.0, "lat": 38.25}}, {"type": "Feature", "geometry": {"type": "Polygon", "coordinates": [[[59.25, 39.0], [59.25, 40.5], [60.75, 40.5], [60.75, 39.0], [59.25, 39.0]]]}, "properties": {"cell_id": "40_86", "lon": 60.0, "lat": 39.75}}]}