{"type": "FeatureCollection", "features": [{"type": "Feature", "geometry": {"type": "Polygon", "coordinates": [[[113.25, -30.0], [113.25, -28.5], [114.75, -28.5], [114.75, -30.0], [113.25, -30.0]]]}, "properties": {"cell_id": "76_40", "lon": 114.0, "lat": -29.25}}, {"type": "Feature", "geometry": {"type": "Polygon", "coordinates": [[[113.25, -28.5], [113.25, -27.0], [114.75, -27.0], [114.75, -28.5], [113.25, -28.5]]]}, "properties": {"cell_id": "76_41", "lon": 114.0, "lat": -27.75}}, {"type": "Feature", "geometry": {"type": "Polygon", "coordinates": [[[113.25, -27.0], [113.25, -25.5], [114.75, -25.5], [114.75, -27.0], [113.25, -27.0]]]}, "properties": {"cell_id": "76_42", "lon": 114.0, "lat": -26.25}}, {"type": "Feature", "geometry": {"type": "Polygon", "coordinates": [[[113.25, -25.5], [113.25, -24.0], [114.75, -24.0], [114.75, -25.5], [113.25, -25.5]]]}, "properties": {"cell_id": "76_43", "lon": 114.0, "lat": -24.75}}, {"type": "Feature", "geometry": {"type": "Polygon", "coordinates": [[[113.25, -24.0], [113.25, -22.5], [114.75, -22.5], [114.75, -24.0], [113.25, -24.0]]]}, "properties": {"cell_id": "76_44", "lon": 114.0, "lat": -23.25}}, {"type": "Feature", "geometry": {"type": "Polygon", "coordinates": [[[113.25, -22.5], [113.25, -21.0], [114.75, -21.0], [114.75, -22.5], [113.25, -22.5]]]}, "properties": {"cell_id": "76_45", "lon": 114.0, "lat": -21.75}}, {"type": "Feature", "geometry": {"type": "Polygon", "coordinates": [[[114.75, -30.0], [114.75, -28.5], [116.25, -28.5], [116.25, -30.0], [114.75, -30.0]]]}, "properties": {"cell_id": "77_40", "lon": 115.5, "lat": -29.25}}, {"type": "Feature", "geometry": {"type": "Polygon", "coordinates": [[[114.75, -28.5], [114.75, -27.0], [116.25, -27.0], [116.25, -28.5], [114.75, -28.5]]]}, "properties": {"cell_id": "77_41", "lon": 115.5, "lat": -27.75}}, {"type": "Feature", "geometry": {"type": "Polygon", "coordinates": [[[114.75, -27.0], [114.75, -25.5], [116.25, -25.5], [116.25, -27.0], [114.75, -27.0]]]}, "properties": {"cell_id": "77_42", "lon": 115.5, "lat": -26.25}}, {"type": "Feature", "geometry": {"type": "Polygon", "coordinates": [[[114.75, -25.5], [114.75, -24.0], [116.25, -24.0], [116.25, -25.5], [114.75, -25.5]]]}, "properties": {"cell_id": "77_43", "lon": 115.5, "lat": -24.75}}, {"type": "Feature", "geometry": {"type": "Polygon", "coordinates": [[[114.75, -24.0], [114.75, -22.5], [116.25, -22.5], [116.25, -24.0], [114.75, -24.0]]]}, "properties": {"cell_id": "77_44", "lon": 115.5, "lat": -23.25}}, {"type": "Feature", "geometry": {"type": "Polygon", "coordinates": [[[114.75, -22.5], [114.75, -21.0], [116.25, -21.0], [116.25, -22.5], [114.75, -22.5]]]}, "properties": {"cell_id": "77_45", "lon": 115.5, "lat": -21.75}}, {"type": "Feature", "geometry": {"type": "Polygon", "coordinates": [[[116.25, -30.0], [116.25, -28.5], [117.75, -28.5], [117.75, -30.0], [116.25, -30.0]]]}, "properties": {"cell_id": "78_40", "lon": 117.0, "lat": -29.25}}, {"type": "Feature", "geometry": {"type": "Polygon", "coordinates": [[[116.25, -28.5], [116.25, -27.0], [117.75, -27.0], [117.75, -28.5], [116.25, -28.5]]]}, "properties": {"cell_id": "78_41", "lon": 117.0, "lat": -27.75}}, {"type": "Feature", "geometry": {"type": "Polygon", "coordinates": [[[116.25, -27.0], [116.25, -25.5], [117.75, -25.5], [117.75, -27.0], [116.25, -27.0]]]}, "properties": {"cell_id": "78_42", "lon": 117.0, "lat": -26.25}}, {"type": "Feature", "geometry": {"type": "Polygon", "coordinates": [[[116.25, -25.5], [116.25, -24.0], [117.75, -24.0], [117.75, -25.5], [116.25, -25.5]]]}, "properties": {"cell_id": "78_43", "lon": 117.0, "lat": -24.75}}, {"type": "Feature", "geometry": {"type": "Polygon", "coordinates": [[[116.25, -24.0], [116.25, -22.5], [117.75, -22.5], [117.75, -24.0], [116.25, -24.0]]]}, "properties": {"cell_id": "78_44", "lon": 117.0, "lat": -23.25}}, {"type": "Feature", "geometry": {"type": "Polygon", "coordinates": [[[116.25, -22.5], [116.25, -21.0], [117.75, -21.0], [117.75, -22.5], [116.25, -22.5]]]}, "properties": {"cell_id": "78_45", "lon": 117.0, "lat": -21.75}}, {"type": "Feature", "geometry": {"type": "Polygon", "coordinates": [[[116.25, -21.0], [116.25, -19.5], [117.75, -19.5], [117.75, -21.0], [116.25, -21.0]]]}, "properties": {"cell_id": "78_46", "lon": 117.0, "lat": -20.25}}, {"type": "Feature", "geometry": {"type": "Polygon", "coordinates": [[[117.75, -30.0], [117.75, -28.5], [119.25, -28.5], [119.25, -30.0], [117.75, -30.0]]]}, "properties": {"cell_id": "79_40", "lon": 118.5, "lat": -29.25}}, {"type": "Feature", "geometry": {"type": "Polygon", "coordinates": [[[117.75, -28.5], [117.75, -27.0], [119.25, -27.0], [119.25, -28.5], [117.75, -28.5]]]}, "properties": {"cell_id": "79_41", "lon": 118.5, "lat": -27.75}}, {"type": "Feature", "geometry": {"type": "Polygon", "coordinates": [[[117.75, -27.0], [117.75, -25.5], [119.25, -25.5], [119.25, -27.0], [117.75, -27.0]]]}, "properties": {"cell_id": "79_42", "lon": 118.5, "lat": -26.25}}, {"type": "Feature", "geometry": {"type": "Polygon", "coordinates": [[[117.75, -25.5], [117.75, -24.0], [119.25, -24.0], [119.25, -25.5], [117.75, -25.5]]]}, "properties": {"cell_id": "79_43", "lon": 118.5, "lat": -24.75}}, {"type": "Feature", "geometry": {"type": "Polygon", "coordinates": [[[117.75, -24.0], [117.75, -22.5], [119.25, -22.5], [119.25, -24.0], [117.75, -24.0]]]}, "properties": {"cell_id": "79_44", "lon": 118.5, "lat": -23.25}}, {"type": "Feature", "geometry": {"type": "Polygon", "coordinates": [[[117.75, -22.5], [117.75, -21.0], [119.25, -21.0], [119.25, -22.5], [117.75, -22.5]]]}, "properties": {"cell_id": "79_45", "lon": 118.5, "lat": -21.75}}, {"type": "Feature", "geometry": {"type": "Polygon", "coordinates": [[[117.75, -21.0], [117.75, -19.5], [119.25, -19.5], [119.25, -21.0], [117.75, -21.0]]]}, "properties": {"cell_id": "79_46", "lon": 118.5, "lat": -20.25}}, {"type": "Feature", "geometry": {"type": "Polygon", "coordinates": [[[119.25, -30.0], [119.25, -28.5], [120.75, -28.5], [120.75, -30.0], [119.25, -30.0]]]}, "properties": {"cell_id": "80_40", "lon": 120.0, "lat": -29.25}}, {"type": "Feature", "geometry": {"type": "Polygon", "coordinates": [[[119.25, -28.5], [119.25, -27.0], [120.75, -27.0], [120.75, -28.5], [119.25, -28.5]]]}, "properties": {"cell_id": "80_41", "lon": 120.0, "lat": -27.75}}, {"type": "Feature", "geometry": {"type": "Polygon", "coordinates": [[[119.25, -27.0], [119.25, -25.5], [120.75, -25.5], [120.75, -27.0], [119.25, -27.0]]]}, "properties": {"cell_id": "80_42", "lon": 120.0, "lat": -26.25}}, {"type": "Feature", "geometry": {"type": "Polygon", "coordinates": [[[119.25, -25.5], [119.25, -24.0], [120.75, -24.0], [120.75, -25.5], [119.25, -25.5]]]}, "properties": {"cell_id": "80_43", "lon": 120.0, "lat": -24.75}}, {"type": "Feature", "geometry": {"type": "Polygon", "coordinates": [[[119.25, -24.0], [119.25, -22.5], [120.75, -22.5], [120.75, -24.0], [119.25, -24.0]]]}, "properties": {"cell_id": "80_44", "lon": 120.0, "lat": -23.25}}, {"type": "Feature", "geometry": {"type": "Polygon", "coordinates": [[[119.25, -22.5], [119.25, -21.0], [120.75, -21.0], [120.75, -22.5], [119.25, -22.5]]]}, "properties": {"cell_id": "80_45", "lon": 120.0, "lat": -21.75}}, {"type": "Feature", "geometry": {"type": "Polygon", "coordinates": [[[119.25, -21.0], [119.25, -19.5], [120.75, -19.5], [120.75, -21.0], [119.25, -21.0]]]}, "properties": {"cell_id": "80_46", "lon": 120.0, "lat": -20.25}}]}